{
  "type": "FeatureCollection",
  "features": [
    {
      "type": "Feature",
      "geometry": { "type": "Point", "coordinates": [36.1613, 36.2023] },
      "properties": {
        "id": "event_hadrian_acclamation_antioch",
        "name": "Hadrian acclaimed emperor at Antioch",
        "image_url": "https://commons.wikimedia.org/wiki/Special:FilePath/Tyche%20Antioch%20Vatican%20Inv2672.jpg?width=800",
        "image_credit": "Roman marble copy of Eutychides' Tyche of Antioch, Vatican Museums · Wikimedia Commons",
        "image_alt": "Marble statue personifying the city of Antioch, crowned with a mural crown",
        "date_iso": "117-08-11",
        "one_line": "The legions at Antioch proclaimed Hadrian emperor on 11 August, the exact day this map is set — news of Trajan's death two days earlier having just reached the city.",
        "sources": ["HA Hadr. 4.7", "https://en.wikipedia.org/wiki/Hadrian"]
      }
    },
    {
      "type": "Feature",
      "geometry": {
        "type": "Polygon",
        "coordinates": [[[20.0, 30.8], [24.5, 30.8], [24.5, 33.2], [20.0, 33.2], [20.0, 30.8]]]
      },
      "properties": {
        "id": "event_kitos_war_cyrenaica",
        "name": "Kitos War — Cyrenaica revolt",
        "image_url": "https://commons.wikimedia.org/wiki/Special:FilePath/Temple_of_Zeus_in_Cyrene.jpg?width=800",
        "image_credit": "Temple of Zeus, Cyrene, Libya · Wikimedia Commons",
        "date_iso": "115/117",
        "one_line": "Jewish rebels under Lukuas devastated Cyrenaica so thoroughly that Hadrian later had to send fresh colonists to resettle the depopulated province.",
        "sources": ["Cass. Dio 68.32", "https://en.wikipedia.org/wiki/Kitos_War"]
      }
    },
    {
      "type": "Feature",
      "geometry": { "type": "Point", "coordinates": [29.9187, 31.2001] },
      "properties": {
        "id": "event_kitos_war_egypt",
        "name": "Kitos War — Egypt suppression",
        "image_url": "https://commons.wikimedia.org/wiki/Special:FilePath/The_Great_Library_of_Alexandria,_O._Von_Corven,_19th_century.jpg?width=800",
        "image_credit": "O. Von Corven, 19th-century engraving imagining ancient Alexandria's public buildings · Wikimedia Commons",
        "image_alt": "19th-century engraving imagining the grand public buildings of ancient Alexandria",
        "date_iso": "116/117",
        "one_line": "Marcius Turbo's combined land and naval force retook Alexandria from Lukuas's rebels and pacified the Egyptian countryside by autumn 117.",
        "sources": ["Cass. Dio 68.32", "Eusebius, Hist. Eccl. 4.2", "https://en.wikipedia.org/wiki/Kitos_War"]
      }
    },
    {
      "type": "Feature",
      "geometry": { "type": "Point", "coordinates": [33.9036, 35.1856] },
      "properties": {
        "id": "event_kitos_war_cyprus",
        "name": "Kitos War — Cyprus revolt at Salamis",
        "image_url": "https://commons.wikimedia.org/wiki/Special:FilePath/Salamis%20Ruins%2C%20Cyprus.jpg?width=800",
        "image_credit": "Ruins of ancient Salamis, Cyprus · Wikimedia Commons",
        "image_alt": "Archaeological ruins at ancient Salamis, Cyprus",
        "date_iso": "116",
        "one_line": "Jewish rebels under Artemion razed Salamis, the provincial capital of Cyprus, prompting Rome to ban Jews from the island afterward, even shipwreck survivors.",
        "sources": ["Cass. Dio 68.32", "https://en.wikipedia.org/wiki/Kitos_War"]
      }
    },
    {
      "type": "Feature",
      "geometry": {
        "type": "Polygon",
        "coordinates": [[[41.5, 32.5], [45.5, 32.5], [45.5, 37.5], [41.5, 37.5], [41.5, 32.5]]]
      },
      "properties": {
        "id": "event_kitos_war_mesopotamia",
        "name": "Kitos War — Mesopotamia and Babylonia revolt",
        "image_url": "https://commons.wikimedia.org/wiki/Special:FilePath/Ctesiphon-ruin 1864.jpg?width=800",
        "image_credit": "1864 photograph of the ancient ruins near Ctesiphon · Wikimedia Commons, public domain",
        "date_iso": "116/117",
        "one_line": "Jewish communities across newly-conquered Mesopotamia rose against Rome in the rear of Trajan's Parthian campaign, and were suppressed by Lusius Quietus before he moved on to Judaea.",
        "sources": ["Eusebius, Hist. Eccl. 4.2", "https://en.wikipedia.org/wiki/Lusius_Quietus"]
      }
    },
    {
      "type": "Feature",
      "geometry": { "type": "Point", "coordinates": [34.8854, 31.9515] },
      "properties": {
        "id": "event_kitos_war_lydda_siege",
        "name": "Siege of Lydda",
        "image_url": "https://commons.wikimedia.org/wiki/Special:FilePath/Lod_Mosaic,_12_-_Carole_Raddato.jpg?width=800",
        "image_credit": "The Lod Mosaic, a Roman-period floor mosaic found at Lod (ancient Lydda) — a later find from the same town, photo by Carole Raddato · Wikimedia Commons",
        "date_iso": "117",
        "one_line": "Lusius Quietus besieged the Judaean town of Lydda, where rebels had gathered under Julianus and Pappus and Rabban Gamaliel II was trapped inside.",
        "sources": ["https://www.jewishencyclopedia.com/articles/11897-pappus"]
      }
    },
    {
      "type": "Feature",
      "geometry": { "type": "Point", "coordinates": [34.8854, 31.9515] },
      "properties": {
        "id": "event_martyrs_of_lydda",
        "name": "Execution of the Martyrs of Lydda",
        "image_url": "https://commons.wikimedia.org/wiki/Special:FilePath/Lod_Mosaic,_12_-_Carole_Raddato.jpg?width=800",
        "image_credit": "The Lod Mosaic, a Roman-period floor mosaic found at Lod (ancient Lydda) — a later find from the same town, photo by Carole Raddato · Wikimedia Commons",
        "date_iso": "117",
        "one_line": "Rebel leaders Julianus and Pappus were captured and executed at Lydda, remembered afterward in rabbinic sources as the \"slain of Lydda.\"",
        "sources": ["https://www.jewishencyclopedia.com/articles/11897-pappus", "b. Ta'anit 18b"]
      }
    },
    {
      "type": "Feature",
      "geometry": { "type": "Point", "coordinates": [44.5800, 33.0936] },
      "properties": {
        "id": "event_parthian_ctesiphon_capture",
        "name": "Trajan captures Ctesiphon",
        "image_url": "https://commons.wikimedia.org/wiki/Special:FilePath/Ctesiphon-ruin 1864.jpg?width=800",
        "image_credit": "1864 photograph of the ancient ruins near Ctesiphon · Wikimedia Commons, public domain",
        "date_iso": "116",
        "one_line": "Trajan took the Parthian capital Ctesiphon in 116, briefly installing a puppet king and forming the short-lived province of Mesopotamia.",
        "sources": ["Cass. Dio 68.28", "https://en.wikipedia.org/wiki/Trajan%27s_Parthian_campaign"]
      }
    },
    {
      "type": "Feature",
      "geometry": {
        "type": "Polygon",
        "coordinates": [[[40.5, 32.0], [45.5, 32.0], [45.5, 36.5], [40.5, 36.5], [40.5, 32.0]]]
      },
      "properties": {
        "id": "event_parthian_collapse_117",
        "name": "Parthian War — Roman position collapses",
        "date_iso": "117",
        "one_line": "By 117 the failed siege of Hatra and renewed Parthian resistance had unraveled Trajan's conquests, and Rome's brief hold on Mesopotamia was already being abandoned as the emperor withdrew toward Syria.",
        "sources": ["Cass. Dio 68.31", "https://en.wikipedia.org/wiki/Trajan%27s_Parthian_campaign"]
      }
    },
    {
      "type": "Feature",
      "geometry": { "type": "Point", "coordinates": [22.7873, 45.5130] },
      "properties": {
        "id": "event_dacia_sarmizegetusa_colonia",
        "name": "Colonia Ulpia Traiana Augusta Dacica Sarmizegetusa founded",
        "image_url": "https://commons.wikimedia.org/wiki/Special:FilePath/Amfiteatrul de la Ulpia Traiana Sarmizegetusa.jpg?width=800",
        "image_credit": "Amphitheatre of Ulpia Traiana Sarmizegetusa · Wikimedia Commons",
        "date_iso": "108/117",
        "one_line": "The new provincial capital of Dacia, built from scratch after the 106 conquest and named for Trajan, was by 117 a going colonia with forum, amphitheater, and governor's palace.",
        "sources": ["https://en.wikipedia.org/wiki/Ulpia_Traiana_Sarmizegetusa"]
      }
    },
    {
      "type": "Feature",
      "geometry": { "type": "Point", "coordinates": [23.1303, 46.3061] },
      "properties": {
        "id": "event_dacia_alburnus_maior_gold",
        "name": "Gold rush at Alburnus Maior",
        "image_url": "https://commons.wikimedia.org/wiki/Special:FilePath/Rosia_Montana_Roman_Gold_Mines_2011_-_Galleries.jpg?width=800",
        "image_credit": "Roman gallery at the Rosia Montana gold mines · Wikimedia Commons (CC BY-SA)",
        "date_iso": "106/117",
        "one_line": "Illyrian colonists worked Rome's new Dacian gold mines at Alburnus Maior, the wealth that had driven Trajan's two Dacian wars in the first place.",
        "sources": ["https://www.perseus.tufts.edu/hopper/text?doc=Perseus%3Atext%3A1999.04.0006%3Aentry%3Dalburnus-maior"]
      }
    },
    {
      "type": "Feature",
      "geometry": { "type": "Point", "coordinates": [35.4444, 30.3285] },
      "properties": {
        "id": "event_nabataea_petra",
        "name": "Petra under Roman rule",
        "image_url": "https://commons.wikimedia.org/wiki/Special:FilePath/Al_Khazneh_(The_Treasury)_in_Petra.jpg?width=800",
        "image_credit": "Al-Khazneh (the Treasury), Petra · Wikimedia Commons",
        "image_alt": "Rock-cut facade of Al-Khazneh at Petra, carved into pink sandstone cliffs",
        "date_iso": "106",
        "one_line": "The former Nabataean royal capital lost its political status when Trajan annexed the kingdom in 106, though it remained the province's religious center.",
        "sources": ["https://en.wikipedia.org/wiki/Arabia_Petraea"]
      }
    },
    {
      "type": "Feature",
      "geometry": { "type": "Point", "coordinates": [36.4811, 32.5175] },
      "properties": {
        "id": "event_nabataea_bostra_capital",
        "name": "Bostra made capital of Arabia Petraea",
        "date_iso": "106",
        "one_line": "Trajan made Bostra the new capital and legionary base of the province of Arabia Petraea after annexing the Nabataean kingdom in 106.",
        "sources": ["https://en.wikipedia.org/wiki/Arabia_Petraea", "https://grokipedia.com/page/Bosra"]
      }
    },
    {
      "type": "Feature",
      "geometry": { "type": "Point", "coordinates": [12.4853, 41.8957] },
      "properties": {
        "id": "event_trajans_column_dedicated",
        "name": "Trajan's Column dedicated",
        "image_url": "https://commons.wikimedia.org/wiki/Special:FilePath/Trajan%27s%20Column%20from%20north-east%20%28cropped%29.jpg?width=800",
        "image_credit": "Trajan's Column, Rome, dedicated 113 CE · Wikimedia Commons",
        "date_iso": "113-05-12",
        "one_line": "The 30-meter marble column narrating the Dacian Wars in a spiraling relief was dedicated in Trajan's new forum on 12 May 113.",
        "sources": ["https://en.wikipedia.org/wiki/Trajan%27s_Column"]
      }
    },
    {
      "type": "Feature",
      "geometry": { "type": "Point", "coordinates": [12.4867, 41.8958] },
      "properties": {
        "id": "event_trajans_forum_markets_dedicated",
        "name": "Forum and Markets of Trajan dedicated",
        "image_url": "https://commons.wikimedia.org/wiki/Special:FilePath/Mercati%20di%20Traiano%20-%20panoramio.jpg?width=800",
        "image_credit": "Trajan's Market, Rome · Wikimedia Commons",
        "date_iso": "112-01",
        "one_line": "Apollodorus of Damascus's vast new forum complex, funded by the spoils of the Dacian Wars, was dedicated in January 112 alongside its adjoining market halls.",
        "sources": ["https://en.wikipedia.org/wiki/Trajan%27s_Forum", "https://en.wikipedia.org/wiki/Trajan%27s_Market"]
      }
    },
    {
      "type": "Feature",
      "geometry": { "type": "Point", "coordinates": [12.4661, 41.8908] },
      "properties": {
        "id": "event_aqua_traiana_opened",
        "name": "Aqua Traiana opened",
        "date_iso": "109",
        "one_line": "Trajan's new aqueduct began delivering spring water from Lake Bracciano, 57 kilometers away, into the Trastevere district and the Janiculum in 109.",
        "sources": ["https://en.wikipedia.org/wiki/Aqua_Traiana"]
      }
    },
    {
      "type": "Feature",
      "geometry": { "type": "Point", "coordinates": [36.1613, 36.2023] },
      "properties": {
        "id": "event_antioch_earthquake_115",
        "name": "Antioch earthquake",
        "image_url": "https://commons.wikimedia.org/wiki/Special:FilePath/So-called Antioch Mosaic.jpg?width=800",
        "image_credit": "Roman-era mosaic excavated at Antioch · Wikimedia Commons",
        "image_alt": "Roman mosaic floor from Antioch",
        "date_iso": "115-12-13",
        "one_line": "A massive earthquake leveled much of Antioch while Trajan was wintering there for the Parthian campaign, killing the consul Marcus Pedo Vergilianus and nearly the emperor himself.",
        "sources": ["Cass. Dio 68.24-25", "https://en.wikipedia.org/wiki/115_Antioch_earthquake"]
      }
    },
    {
      "type": "Feature",
      "geometry": {
        "type": "Point",
        "coordinates": [
          32.2847,
          36.2611
        ]
      },
      "properties": {
        "id": "event_trajan_death_selinus",
        "name": "Trajan dies at Selinus",
        "date_iso": "117-08-08",
        "one_line": "The 63-year-old emperor died at Selinus in western Cilicia on 8 August 117, worn out and gravely ill weeks after abandoning his failed siege of Hatra; the town was afterward renamed Trajanopolis in his memory.",
        "sources": [
          "https://followinghadrian.com/2017/08/08/8th-august-117-ad-trajan-dies-at-selinus-hadrian1900/",
          "https://en.wikipedia.org/wiki/Selinus_(Cilicia)"
        ]
      }
    },
    {
      "type": "Feature",
      "geometry": {
        "type": "Point",
        "coordinates": [
          36.1763,
          36.2021
        ]
      },
      "properties": {
        "id": "event_trajan_adoption_letter",
        "name": "Trajan's adoption letter reaches Hadrian",
        "date_iso": "117-08-09",
        "one_line": "A letter announcing that the dying Trajan had formally adopted Hadrian as son and heir reached Antioch on 9 August 117, two days before the army acclaimed him emperor — a document ancient historians already suspected Trajan's widow Plotina, not Trajan himself, had signed.",
        "sources": [
          "https://followinghadrian.com/2017/08/09/9th-august-117-ad-trajans-letter-of-adoption-reaches-hadrian-hadrian1900/",
          "https://penelope.uchicago.edu/Thayer/L/Roman/Texts/Historia_Augusta/Hadrian/1*.html"
        ]
      }
    },
    {
      "type": "Feature",
      "geometry": {
        "type": "Point",
        "coordinates": [
          42.7183,
          35.5808
        ]
      },
      "properties": {
        "id": "event_siege_of_hatra_abandoned",
        "name": "Trajan abandons the siege of Hatra",
        "image_url": "https://commons.wikimedia.org/wiki/Special:FilePath/Hatra ruins.jpg?width=800",
        "image_credit": "Ruins of Hatra, Iraq · Wikimedia Commons",
        "date_iso": "117-04-01",
        "one_line": "Roman legions besieged the desert fortress of Hatra in spring 117 but withdrew after failing to breach its walls, worn down by heat, thirst and disease in a campaign that left the emperor fatally ill for the journey home.",
        "sources": [
          "https://en.wikipedia.org/wiki/Trajan",
          "https://www.iranicaonline.org/articles/hatra/"
        ]
      }
    },
    {
      "type": "Feature",
      "geometry": {
        "type": "Point",
        "coordinates": [
          29.9187,
          31.2001
        ]
      },
      "properties": {
        "id": "event_hadrian_accession_alexandria",
        "name": "Hadrian's accession announced in Alexandria",
        "image_url": "https://commons.wikimedia.org/wiki/Special:FilePath/Philip%20Galle%20-%20Lighthouse%20of%20Alexandria%20(Pharos%20of%20Alexandria)%20-%201572.jpg?width=800",
        "image_credit": "Engraving by Philip Galle, 1572, imagining the Lighthouse of Alexandria · Wikimedia Commons",
        "image_alt": "16th-century imagined engraving of the Lighthouse of Alexandria",
        "date_iso": "117-08-25",
        "one_line": "Prefect Rammius Martialis's circular letter reached Alexandria's officials on 25 August 117, ordering ten days of garlanded festivals across every Egyptian nome to mark Hadrian's accession — a document that survives as the papyrus P.Oxy. 3781.",
        "sources": [
          "https://aquila.zaw.uni-heidelberg.de/hgv/22505",
          "https://followinghadrian.com/2017/08/25/25th-august-117-ad-the-announcement-of-hadrians-accession-in-alexandria-hadrian1900/"
        ]
      }
    },
    {
      "type": "Feature",
      "geometry": {
        "type": "Point",
        "coordinates": [
          12.4839,
          41.8925
        ]
      },
      "properties": {
        "id": "event_senate_deifies_trajan",
        "name": "Senate votes to deify Trajan",
        "image_url": "https://commons.wikimedia.org/wiki/Special:FilePath/Curia%20iulia.jpg?width=800",
        "image_credit": "Curia Julia, Roman Forum, meeting place of the Senate · Wikimedia Commons",
        "date_iso": "117-09-01",
        "one_line": "Rome's Senate answered Hadrian's accession letter with a unanimous vote deifying Trajan and granting honors beyond what Hadrian had even requested, a reply that reached him in Antioch by late September 117.",
        "sources": [
          "https://followinghadrian.com/2017/09/24/late-september-117-ad-hadrian-receives-the-senates-response-to-his-letter-hadrian1900/"
        ]
      }
    },
    {
      "type": "Feature",
      "geometry": {
        "type": "Point",
        "coordinates": [
          -1.0815,
          53.9591
        ]
      },
      "properties": {
        "id": "event_british_unrest_117",
        "name": "Unrest breaks out on the British frontier",
        "image_url": "https://commons.wikimedia.org/wiki/Special:FilePath/Vindolanda%20Roman%20Fort%20-%20geograph.org.uk%20-%202933753.jpg?width=800",
        "image_credit": "The excavated fort and vicus at Vindolanda, on the northern British frontier · Wikimedia Commons",
        "date_iso": "117-01-01",
        "one_line": "The Historia Augusta recorded that 'the Britons could not be kept under Roman control' at the very start of Hadrian's reign in 117 (exact month unrecorded) — the earliest sign of the frontier crisis that led, five years later, to the building of Hadrian's Wall.",
        "sources": [
          "https://penelope.uchicago.edu/Thayer/L/Roman/Texts/Historia_Augusta/Hadrian/1*.html",
          "https://the-past.com/feature/backs-against-the-wall-117-113/"
        ]
      }
    },
    {
      "type": "Feature",
      "geometry": {
        "type": "Point",
        "coordinates": [
          27.265,
          44.1178
        ]
      },
      "properties": {
        "id": "event_roxolani_iazyges_invade_danube_frontier",
        "name": "Roxolani and Iazyges strike the Danube frontier",
        "image_url": "https://commons.wikimedia.org/wiki/Special:FilePath/Petronell_-_Heidentor.JPG?width=800",
        "image_credit": "Heidentor triumphal arch at Carnuntum, a fortress on the Danube frontier · Wikimedia Commons",
        "date_iso": "117-10-01",
        "one_line": "In autumn 117 the Sarmatian Roxolani and Iazyges struck the Danube frontier provinces of Moesia Inferior and Pannonia, and the fighting cost the governor of Dacia, Quadratus Bassus, his life.",
        "sources": [
          "https://followinghadrian.com/2018/04/18/early-spring-118-ad-hadrian-conducts-negotiations-with-the-king-of-the-roxolani-in-moesia-inferior-hadrian1900/",
          "https://en.wikipedia.org/wiki/Gaius_Julius_Quadratus_Bassus"
        ]
      }
    },
    {
      "type": "Feature",
      "geometry": {
        "type": "Point",
        "coordinates": [
          36.1603,
          36.2021
        ]
      },
      "properties": {
        "id": "event_hadrian_departs_antioch_for_danube",
        "name": "Hadrian leaves Antioch for the Danube frontier",
        "image_url": "https://commons.wikimedia.org/wiki/Special:FilePath/So-called Antioch Mosaic.jpg?width=800",
        "image_credit": "Roman-era mosaic excavated at Antioch · Wikimedia Commons",
        "image_alt": "Roman mosaic floor from Antioch",
        "date_iso": "117-10-01",
        "one_line": "Hadrian left Antioch by the overland route rather than sailing for Rome, driven north by news of the Danube crisis, and had reached Mopsucrene in Cilicia by 13 October 117.",
        "sources": [
          "https://followinghadrian.com/2017/10/13/13th-october-117-ad-hadrian-travels-back-to-rome-and-reaches-mopsucrene-hadrian1900/"
        ]
      }
    }
  ]
}
