{"type": "FeatureCollection", "features": [{"type": "Feature", "geometry": {"type": "LineString", "coordinates": [[12.2833163, 41.7561414], [12.284681, 41.7562695], [12.28505, 41.7563911], [12.2853934, 41.7566152], [12.2855393, 41.7569098], [12.2855479, 41.7573772], [12.285359, 41.7576781], [12.2836939, 41.7588946], [12.2831199, 41.759172], [12.282705, 41.7594882], [12.2824148, 41.7595531]]}, "properties": {"name": "", "highway": "track", "source": "OSM"}}, {"type": "Feature", "geometry": {"type": "LineString", "coordinates": [[12.3006811, 41.759168], [12.3005059, 41.7591299], [12.2987906, 41.7585324], [12.2977679, 41.7581895]]}, "properties": {"name": "Via degli Scavi", "highway": "service", "source": "OSM"}}, {"type": "Feature", "geometry": {"type": "LineString", "coordinates": [[12.2879779, 41.757266], [12.2879392, 41.7571947], [12.2878633, 41.7569741], [12.2877754, 41.7567594], [12.2875983, 41.7566873], [12.2875134, 41.7566242], [12.2873664, 41.7565187], [12.2872616, 41.7564461], [12.2871671, 41.7563717], [12.2871084, 41.7562838], [12.2870728, 41.7562276], [12.2869548, 41.7561414], [12.2868477, 41.7560436], [12.2866637, 41.7558397]]}, "properties": {"name": "", "highway": "track", "source": "OSM"}}, {"type": "Feature", "geometry": {"type": "LineString", "coordinates": [[12.3020905, 41.756454], [12.3020502, 41.7564877], [12.301892, 41.7566168], [12.301775, 41.7567255]]}, "properties": {"name": "", "highway": "footway", "source": "OSM"}}, {"type": "Feature", "geometry": {"type": "LineString", "coordinates": [[12.3014087, 41.7570348], [12.3013558, 41.7570675], [12.3013438, 41.7570749], [12.3012954, 41.757101], [12.3012639, 41.7571188]]}, "properties": {"name": "", "highway": "steps", "source": "OSM"}}, {"type": "Feature", "geometry": {"type": "LineString", "coordinates": [[12.3017019, 41.7568098], [12.3015602, 41.7569143], [12.3014087, 41.7570348]]}, "properties": {"name": "", "highway": "footway", "source": "OSM"}}, {"type": "Feature", "geometry": {"type": "LineString", "coordinates": [[12.2898255, 41.7542836], [12.2900323, 41.7543951]]}, "properties": {"name": "", "highway": "footway", "source": "OSM"}}, {"type": "Feature", "geometry": {"type": "LineString", "coordinates": [[12.2902012, 41.754919], [12.2903332, 41.7547807], [12.2903761, 41.754798], [12.2904047, 41.7547648], [12.2904888, 41.7548063]]}, "properties": {"name": "", "highway": "footway", "source": "OSM"}}, {"type": "Feature", "geometry": {"type": "LineString", "coordinates": [[12.291502, 41.7538095], [12.2913168, 41.7536934], [12.290729, 41.753367]]}, "properties": {"name": "", "highway": "footway", "source": "OSM"}}, {"type": "Feature", "geometry": {"type": "LineString", "coordinates": [[12.2913491, 41.7546488], [12.2911946, 41.7545557], [12.2909083, 41.7543832], [12.2907169, 41.7542806], [12.2905527, 41.7541856], [12.2901363, 41.7539737]]}, "properties": {"name": "Via della Fortuna Annonaria", "highway": "pedestrian", "source": "OSM"}}, {"type": "Feature", "geometry": {"type": "LineString", "coordinates": [[12.2913168, 41.7536934], [12.2907169, 41.7542806]]}, "properties": {"name": "Via della Casa del Pozzo", "highway": "pedestrian", "source": "OSM"}}, {"type": "Feature", "geometry": {"type": "LineString", "coordinates": [[12.286657, 41.7551106], [12.2863106, 41.7549671], [12.2862439, 41.7548645], [12.286234, 41.7547997]]}, "properties": {"name": "", "highway": "footway", "source": "OSM"}}, {"type": "Feature", "geometry": {"type": "LineString", "coordinates": [[12.2872252, 41.7540864], [12.287504, 41.7537207]]}, "properties": {"name": "Via del Larario", "highway": "pedestrian", "source": "OSM"}}, {"type": "Feature", "geometry": {"type": "LineString", "coordinates": [[12.2881099, 41.7555033], [12.2886809, 41.7547622]]}, "properties": {"name": "Via dei Balconi", "highway": "pedestrian", "source": "OSM"}}, {"type": "Feature", "geometry": {"type": "LineString", "coordinates": [[12.2877274, 41.7559807], [12.2883375, 41.7561343]]}, "properties": {"name": "", "highway": "footway", "source": "OSM"}}, {"type": "Feature", "geometry": {"type": "LineString", "coordinates": [[12.2882545, 41.7545604], [12.2885705, 41.7547099], [12.2886809, 41.7547622], [12.2887786, 41.7548042], [12.2889018, 41.7548581], [12.2892287, 41.7549992]]}, "properties": {"name": "Via di Diana", "highway": "pedestrian", "source": "OSM"}}, {"type": "Feature", "geometry": {"type": "LineString", "coordinates": [[12.2911477, 41.7528091], [12.2913265, 41.7531261], [12.2914296, 41.7535122], [12.291676, 41.753832], [12.2921748, 41.7541268], [12.2923378, 41.7543451], [12.2925933, 41.7545634], [12.2928772, 41.7546799], [12.2936471, 41.7551649], [12.2938705, 41.7552618], [12.2941865, 41.7555785], [12.2945046, 41.7558225], [12.2947586, 41.7559941], [12.2955461, 41.7562195], [12.2956985, 41.7563111], [12.2958172, 41.7564278], [12.2959794, 41.7567501], [12.2959247, 41.756831], [12.295914, 41.756879]]}, "properties": {"name": "", "highway": "track", "source": "OSM"}}, {"type": "Feature", "geometry": {"type": "LineString", "coordinates": [[12.2895229, 41.7546172], [12.2898255, 41.7542836], [12.2899561, 41.7541552], [12.2901363, 41.7539737], [12.2904059, 41.7536977], [12.2904934, 41.7536081], [12.290729, 41.753367], [12.2909146, 41.7531197], [12.2911477, 41.7528091]]}, "properties": {"name": "Semita dei Cippi", "highway": "pedestrian", "source": "OSM"}}, {"type": "Feature", "geometry": {"type": "LineString", "coordinates": [[12.2886707, 41.7557228], [12.2881099, 41.7555033]]}, "properties": {"name": "", "highway": "footway", "source": "OSM"}}, {"type": "Feature", "geometry": {"type": "LineString", "coordinates": [[12.2877823, 41.7543421], [12.2876679, 41.7544801], [12.2877499, 41.7545165], [12.2878, 41.754536], [12.2878994, 41.7545805], [12.2880067, 41.7546285], [12.2881514, 41.7546932]]}, "properties": {"name": "Via del Capitolio", "highway": "pedestrian", "source": "OSM"}}, {"type": "Feature", "geometry": {"type": "LineString", "coordinates": [[12.2876679, 41.7544801], [12.2875896, 41.7545827], [12.2874254, 41.7545096]]}, "properties": {"name": "Piccolo Mercato", "highway": "footway", "source": "OSM"}}, {"type": "Feature", "geometry": {"type": "LineString", "coordinates": [[12.2833871, 41.7514548], [12.2834381, 41.7514684], [12.2835829, 41.7515133], [12.2836714, 41.7514909], [12.2838101, 41.7514486], [12.2849293, 41.7513196], [12.2851297, 41.7512965], [12.2853335, 41.7513445], [12.2855374, 41.7515606], [12.2855638, 41.7517355]]}, "properties": {"name": "", "highway": "footway", "source": "OSM"}}, {"type": "Feature", "geometry": {"type": "LineString", "coordinates": [[12.2840246, 41.7525051], [12.2843409, 41.7525324], [12.2846048, 41.7525476], [12.284845, 41.7525614], [12.2849879, 41.752529], [12.285297, 41.7524709], [12.2857891, 41.7523859], [12.2860417, 41.7523422], [12.286315, 41.752295]]}, "properties": {"name": "Cardo degli Aurighi", "highway": "pedestrian", "source": "OSM"}}, {"type": "Feature", "geometry": {"type": "LineString", "coordinates": [[12.2849075, 41.7536289], [12.2848352, 41.7538265], [12.2848024, 41.7540044], [12.2847716, 41.754263], [12.2847807, 41.7544189], [12.2848264, 41.754483], [12.2848937, 41.7545141], [12.2850546, 41.7545621], [12.285251, 41.7545819], [12.2854272, 41.7545991], [12.2858848, 41.7547124], [12.286234, 41.7547997]]}, "properties": {"name": "", "highway": "track", "source": "OSM"}}, {"type": "Feature", "geometry": {"type": "LineString", "coordinates": [[12.2880304, 41.7526677], [12.2876498, 41.7529968], [12.2874438, 41.7532838], [12.2872142, 41.75359]]}, "properties": {"name": "Via del Pomerio", "highway": "pedestrian", "source": "OSM"}}, {"type": "Feature", "geometry": {"type": "LineString", "coordinates": [[12.2836491, 41.7537137], [12.2833657, 41.7536411], [12.2830626, 41.7534995], [12.2827353, 41.7533706], [12.2824107, 41.7532921], [12.2821752, 41.7532115], [12.2818692, 41.7531578], [12.2815193, 41.7530964], [12.2812778, 41.7530773], [12.2811732, 41.7530544], [12.2805805, 41.7529252], [12.2803619, 41.7528916], [12.2800413, 41.7527523], [12.2797218, 41.7525458], [12.2796357, 41.7525079]]}, "properties": {"name": "", "highway": "track", "source": "OSM"}}, {"type": "Feature", "geometry": {"type": "LineString", "coordinates": [[12.2888374, 41.7489384], [12.2883609, 41.7490839], [12.2870287, 41.7492604], [12.2869114, 41.7505101]]}, "properties": {"name": "", "highway": "track", "source": "OSM"}}, {"type": "Feature", "geometry": {"type": "LineString", "coordinates": [[12.2869114, 41.7505101], [12.2867093, 41.7504063], [12.2865611, 41.7502506], [12.2864035, 41.7501336], [12.2862929, 41.7500879], [12.2862414, 41.7500689], [12.2861194, 41.7500626]]}, "properties": {"name": "", "highway": "footway", "source": "OSM"}}, {"type": "Feature", "geometry": {"type": "LineString", "coordinates": [[12.2869114, 41.7505101], [12.2870429, 41.750859], [12.2877257, 41.7523957], [12.2880304, 41.7526677]]}, "properties": {"name": "", "highway": "track", "source": "OSM"}}, {"type": "Feature", "geometry": {"type": "LineString", "coordinates": [[12.2872142, 41.75359], [12.2870363, 41.7534381], [12.2868287, 41.7531091], [12.286315, 41.752295], [12.2857784, 41.7515046], [12.2855009, 41.7510842], [12.2854045, 41.750901], [12.2853684, 41.7508324], [12.2853547, 41.7508064], [12.2853386, 41.7507849], [12.2852589, 41.7506788], [12.2851903, 41.7504739], [12.2850551, 41.7502363]]}, "properties": {"name": "Decumano Massimo", "highway": "pedestrian", "source": "OSM"}}, {"type": "Feature", "geometry": {"type": "LineString", "coordinates": [[12.2876498, 41.7529968], [12.2886346, 41.7534226], [12.288755, 41.7534746], [12.2889346, 41.7535468]]}, "properties": {"name": "Via del Tempio Rotondo", "highway": "pedestrian", "source": "OSM"}}, {"type": "Feature", "geometry": {"type": "LineString", "coordinates": [[12.2892067, 41.752265], [12.2895929, 41.7531774]]}, "properties": {"name": "Via della Caupona", "highway": "footway", "source": "OSM"}}, {"type": "Feature", "geometry": {"type": "LineString", "coordinates": [[12.291012, 41.7572255], [12.29124, 41.7569128], [12.2917691, 41.7562226], [12.2921393, 41.7558013]]}, "properties": {"name": "Via delle Corporazioni", "highway": "pedestrian", "source": "OSM"}}, {"type": "Feature", "geometry": {"type": "LineString", "coordinates": [[12.29124, 41.7569128], [12.2913518, 41.7569599], [12.2913825, 41.7569714], [12.2914286, 41.75698], [12.2914862, 41.7569826]]}, "properties": {"name": "", "highway": "footway", "source": "OSM"}}, {"type": "Feature", "geometry": {"type": "LineString", "coordinates": [[12.2917782, 41.7566289], [12.2925819, 41.7569836]]}, "properties": {"name": "Via della Palestra", "highway": "pedestrian", "source": "OSM"}}, {"type": "Feature", "geometry": {"type": "LineString", "coordinates": [[12.2970719, 41.7579616], [12.2969556, 41.7579107], [12.2968579, 41.757869], [12.296616, 41.7577616], [12.2961981, 41.7575792], [12.2959705, 41.7574799], [12.2957532, 41.7573892]]}, "properties": {"name": "Decumano Massimo", "highway": "footway", "source": "OSM"}}, {"type": "Feature", "geometry": {"type": "LineString", "coordinates": [[12.2872142, 41.75359], [12.2869533, 41.7535558], [12.2867482, 41.7535657], [12.2864847, 41.75359], [12.2859954, 41.7535924], [12.285724, 41.7535931], [12.2853345, 41.7536098], [12.2851789, 41.7536168], [12.2849075, 41.7536289], [12.2846558, 41.7536421], [12.2843046, 41.7536606], [12.2841324, 41.7536697], [12.2839234, 41.7536888], [12.283793, 41.7537143], [12.2836491, 41.7537137]]}, "properties": {"name": "Via della Foce", "highway": "pedestrian", "source": "OSM"}}, {"type": "Feature", "geometry": {"type": "LineString", "coordinates": [[12.2883375, 41.7561343], [12.2886707, 41.7557228], [12.289014, 41.7552734], [12.2890303, 41.7552516], [12.2890831, 41.7551837], [12.2892287, 41.7549992], [12.2895229, 41.7546172]]}, "properties": {"name": "Via dei Molini", "highway": "pedestrian", "source": "OSM"}}, {"type": "Feature", "geometry": {"type": "LineString", "coordinates": [[12.288755, 41.7534746], [12.2891613, 41.7532842], [12.2895929, 41.7531774], [12.2911477, 41.7528091], [12.2916228, 41.7526715], [12.2917233, 41.7526419]]}, "properties": {"name": "Cardo Massimo", "highway": "pedestrian", "source": "OSM"}}, {"type": "Feature", "geometry": {"type": "LineString", "coordinates": [[12.2901079, 41.7520569], [12.2892067, 41.752265], [12.2880304, 41.7526677]]}, "properties": {"name": "", "highway": "track", "source": "OSM"}}, {"type": "Feature", "geometry": {"type": "LineString", "coordinates": [[12.285724, 41.7535931], [12.2853385, 41.7542487], [12.2851657, 41.754489]]}, "properties": {"name": "Via delle Terme del Mithra", "highway": "pedestrian", "source": "OSM"}}, {"type": "Feature", "geometry": {"type": "LineString", "coordinates": [[12.2853385, 41.7542487], [12.2850582, 41.7541655]]}, "properties": {"name": "", "highway": "footway", "source": "OSM"}}, {"type": "Feature", "geometry": {"type": "LineString", "coordinates": [[12.2839234, 41.7536888], [12.2839815, 41.7533776], [12.2840741, 41.7529026]]}, "properties": {"name": "Via del Serapide", "highway": "pedestrian", "source": "OSM"}}, {"type": "Feature", "geometry": {"type": "LineString", "coordinates": [[12.2867023, 41.7542308], [12.285875, 41.7538646]]}, "properties": {"name": "", "highway": "footway", "source": "OSM"}}, {"type": "Feature", "geometry": {"type": "LineString", "coordinates": [[12.2925819, 41.7569836], [12.2931644, 41.7562553]]}, "properties": {"name": "Via dei Vigili", "highway": "footway", "source": "OSM"}}, {"type": "Feature", "geometry": {"type": "LineString", "coordinates": [[12.2855374, 41.7515606], [12.2857784, 41.7515046]]}, "properties": {"name": "", "highway": "footway", "source": "OSM"}}, {"type": "Feature", "geometry": {"type": "LineString", "coordinates": [[12.2846565, 41.7521277], [12.2846695, 41.7522238], [12.2846789, 41.7523097], [12.2845711, 41.7523059], [12.2844828, 41.752308], [12.2844119, 41.7523231], [12.2843807, 41.7523561], [12.2843685, 41.7524462], [12.2843409, 41.7525324]]}, "properties": {"name": "", "highway": "footway", "source": "OSM"}}, {"type": "Feature", "geometry": {"type": "LineString", "coordinates": [[12.2848124, 41.7530254], [12.2848935, 41.7533885], [12.2849303, 41.7535535], [12.2849075, 41.7536289]]}, "properties": {"name": "Via Est delle Casette Tipo", "highway": "pedestrian", "source": "OSM"}}, {"type": "Feature", "geometry": {"type": "LineString", "coordinates": [[12.2908686, 41.7557138], [12.2907645, 41.7556609], [12.2907364, 41.7555832], [12.2907015, 41.7555244], [12.290714, 41.7554823], [12.2907357, 41.7554352], [12.2907788, 41.75541], [12.2908233, 41.7553639], [12.2909465, 41.7552586]]}, "properties": {"name": "", "highway": "footway", "source": "OSM"}}, {"type": "Feature", "geometry": {"type": "LineString", "coordinates": [[12.2853345, 41.7536098], [12.2853108, 41.7536552], [12.2851915, 41.753883], [12.2851625, 41.7539444], [12.2851255, 41.7539531], [12.2851097, 41.7539931], [12.2851204, 41.7540336], [12.2850582, 41.7541655], [12.2849955, 41.7542136]]}, "properties": {"name": "", "highway": "footway", "source": "OSM"}}, {"type": "Feature", "geometry": {"type": "LineString", "coordinates": [[12.2842335, 41.7521757], [12.2841844, 41.7519111], [12.2841369, 41.7516555]]}, "properties": {"name": "", "highway": "footway", "source": "OSM"}}, {"type": "Feature", "geometry": {"type": "LineString", "coordinates": [[12.2855638, 41.7517355], [12.2854745, 41.7517485], [12.285124, 41.7517995], [12.2841844, 41.7519111]]}, "properties": {"name": "", "highway": "footway", "source": "OSM"}}, {"type": "Feature", "geometry": {"type": "LineString", "coordinates": [[12.2842335, 41.7521757], [12.2846565, 41.7521277], [12.2851776, 41.7520797]]}, "properties": {"name": "", "highway": "footway", "source": "OSM"}}, {"type": "Feature", "geometry": {"type": "LineString", "coordinates": [[12.2851776, 41.7520797], [12.285124, 41.7517995], [12.2850596, 41.7515274], [12.2849293, 41.7513196]]}, "properties": {"name": "", "highway": "footway", "source": "OSM"}}, {"type": "Feature", "geometry": {"type": "LineString", "coordinates": [[12.2841369, 41.7516555], [12.2850596, 41.7515274]]}, "properties": {"name": "", "highway": "footway", "source": "OSM"}}, {"type": "Feature", "geometry": {"type": "LineString", "coordinates": [[12.2954406, 41.7572343], [12.2952543, 41.7574867], [12.2948177, 41.7572954]]}, "properties": {"name": "", "highway": "footway", "source": "OSM"}}, {"type": "Feature", "geometry": {"type": "LineString", "coordinates": [[12.2945827, 41.7575755], [12.2946643, 41.7574802], [12.2946715, 41.7574717], [12.2948177, 41.7572954], [12.2950046, 41.7570446]]}, "properties": {"name": "", "highway": "footway", "source": "OSM"}}, {"type": "Feature", "geometry": {"type": "LineString", "coordinates": [[12.2913491, 41.7546488], [12.2907569, 41.7551662]]}, "properties": {"name": "Via degli Augustali", "highway": "pedestrian", "source": "OSM"}}, {"type": "Feature", "geometry": {"type": "LineString", "coordinates": [[12.2916042, 41.754865], [12.2912376, 41.7551166]]}, "properties": {"name": "", "highway": "footway", "source": "OSM"}}, {"type": "Feature", "geometry": {"type": "LineString", "coordinates": [[12.2861165, 41.7503323], [12.2861194, 41.7500626], [12.2861284, 41.7499212], [12.2860358, 41.7495294]]}, "properties": {"name": "Via della Marciana", "highway": "pedestrian", "source": "OSM"}}, {"type": "Feature", "geometry": {"type": "LineString", "coordinates": [[12.2917691, 41.7562226], [12.2916045, 41.7561561]]}, "properties": {"name": "", "highway": "footway", "source": "OSM"}}, {"type": "Feature", "geometry": {"type": "LineString", "coordinates": [[12.2916045, 41.7561561], [12.291001, 41.7568997], [12.290694, 41.7567664], [12.2904234, 41.756649], [12.2909753, 41.7558801], [12.2916045, 41.7561561]]}, "properties": {"name": "Piazzale delle Corporazioni", "highway": "footway", "source": "OSM"}}, {"type": "Feature", "geometry": {"type": "LineString", "coordinates": [[12.2909603, 41.7558532], [12.2909623, 41.7557642], [12.2908686, 41.7557138], [12.2911733, 41.7553668]]}, "properties": {"name": "", "highway": "footway", "source": "OSM"}}, {"type": "Feature", "geometry": {"type": "LineString", "coordinates": [[12.2959705, 41.7574799], [12.2961411, 41.7572292]]}, "properties": {"name": "", "highway": "footway", "source": "OSM"}}, {"type": "Feature", "geometry": {"type": "LineString", "coordinates": [[12.301232, 41.7601515], [12.301301, 41.7601384], [12.3013939, 41.7601207], [12.3015205, 41.7600991]]}, "properties": {"name": "Piazza Umberto I", "highway": "service", "source": "OSM"}}, {"type": "Feature", "geometry": {"type": "LineString", "coordinates": [[12.3049629, 41.7567747], [12.3050792, 41.756702]]}, "properties": {"name": "", "highway": "service", "source": "OSM"}}, {"type": "Feature", "geometry": {"type": "LineString", "coordinates": [[12.2977679, 41.7581895], [12.297557, 41.7581837], [12.297346, 41.7581931], [12.2972704, 41.7581792], [12.2959238, 41.7577186], [12.2925442, 41.7576473], [12.2922898, 41.7576109], [12.291012, 41.7572255], [12.2904955, 41.7570568], [12.2896295, 41.7566756], [12.2896111, 41.7566675], [12.2895939, 41.75666], [12.2892322, 41.7565029], [12.2885534, 41.7562148], [12.2883375, 41.7561343]]}, "properties": {"name": "Via degli Scavi", "highway": "service", "source": "OSM"}}, {"type": "Feature", "geometry": {"type": "LineString", "coordinates": [[12.290694, 41.7567664], [12.2904955, 41.7570568]]}, "properties": {"name": "", "highway": "footway", "source": "OSM"}}, {"type": "Feature", "geometry": {"type": "LineString", "coordinates": [[12.2969054, 41.7575716], [12.2971533, 41.7576861]]}, "properties": {"name": "Via delle Tombe", "highway": "footway", "source": "OSM"}}, {"type": "Feature", "geometry": {"type": "LineString", "coordinates": [[12.2961411, 41.7572292], [12.2959397, 41.757121]]}, "properties": {"name": "Via delle Tombe", "highway": "footway", "source": "OSM"}}, {"type": "Feature", "geometry": {"type": "LineString", "coordinates": [[12.2959397, 41.757121], [12.2958204, 41.7570467], [12.2954773, 41.7568329], [12.2953252, 41.756736]]}, "properties": {"name": "Via della Vittoria", "highway": "pedestrian", "source": "OSM"}}, {"type": "Feature", "geometry": {"type": "LineString", "coordinates": [[12.2961411, 41.7572292], [12.2963118, 41.7573057], [12.2969054, 41.7575716]]}, "properties": {"name": "Via delle Tombe", "highway": "footway", "source": "OSM"}}, {"type": "Feature", "geometry": {"type": "LineString", "coordinates": [[12.2927022, 41.7563314], [12.2927086, 41.7562963]]}, "properties": {"name": "", "highway": "footway", "source": "OSM"}}, {"type": "Feature", "geometry": {"type": "LineString", "coordinates": [[12.2927086, 41.7562963], [12.292752, 41.756233]]}, "properties": {"name": "", "highway": "steps", "source": "OSM"}}, {"type": "Feature", "geometry": {"type": "LineString", "coordinates": [[12.292752, 41.756233], [12.2928555, 41.7561202]]}, "properties": {"name": "", "highway": "footway", "source": "OSM"}}, {"type": "Feature", "geometry": {"type": "LineString", "coordinates": [[12.2881099, 41.7555033], [12.287835, 41.7553784], [12.2879388, 41.75522], [12.2878061, 41.7551564]]}, "properties": {"name": "", "highway": "footway", "source": "OSM"}}, {"type": "Feature", "geometry": {"type": "LineString", "coordinates": [[12.2874254, 41.7545096], [12.2873282, 41.754472], [12.286877, 41.7550094], [12.2869807, 41.7550474], [12.2869203, 41.755132], [12.2867057, 41.7550587], [12.286657, 41.7551106]]}, "properties": {"name": "", "highway": "footway", "source": "OSM"}}, {"type": "Feature", "geometry": {"type": "LineString", "coordinates": [[12.286234, 41.7547997], [12.2867023, 41.7542308], [12.2869646, 41.7539426]]}, "properties": {"name": "Via degli Horrea Epagathiana", "highway": "pedestrian", "source": "OSM"}}, {"type": "Feature", "geometry": {"type": "LineString", "coordinates": [[12.2869646, 41.7539426], [12.2872142, 41.75359]]}, "properties": {"name": "Via degli Horrea Epagathiana", "highway": "pedestrian", "source": "OSM"}}, {"type": "Feature", "geometry": {"type": "LineString", "coordinates": [[12.288171, 41.7542299], [12.2881051, 41.7543086]]}, "properties": {"name": "", "highway": "steps", "source": "OSM"}}, {"type": "Feature", "geometry": {"type": "LineString", "coordinates": [[12.3023679, 41.7577489], [12.3023438, 41.7576934], [12.3022153, 41.757398], [12.3022479, 41.7573741], [12.302346, 41.7573022], [12.30251, 41.757182], [12.3026122, 41.7571074], [12.301892, 41.7566168]]}, "properties": {"name": "", "highway": "service", "source": "OSM"}}, {"type": "Feature", "geometry": {"type": "LineString", "coordinates": [[12.301775, 41.7567255], [12.3017019, 41.7568098]]}, "properties": {"name": "", "highway": "steps", "source": "OSM"}}, {"type": "Feature", "geometry": {"type": "LineString", "coordinates": [[12.2971533, 41.7576861], [12.2970786, 41.7577883], [12.2970234, 41.7578074], [12.2969556, 41.7579107]]}, "properties": {"name": "", "highway": "footway", "source": "OSM"}}, {"type": "Feature", "geometry": {"type": "LineString", "coordinates": [[12.2957532, 41.7573892], [12.2955793, 41.757303], [12.2954406, 41.7572343], [12.2951842, 41.7571199], [12.2950046, 41.7570446], [12.2931644, 41.7562553], [12.2928555, 41.7561202], [12.2923662, 41.7559019], [12.2921393, 41.7558013], [12.2916347, 41.7555693], [12.2914951, 41.7555119], [12.2911733, 41.7553668], [12.2910042, 41.7552867], [12.2909465, 41.7552586], [12.2907569, 41.7551662], [12.2905469, 41.7550692], [12.2902012, 41.754919], [12.2899962, 41.7548278], [12.2895229, 41.7546172], [12.289481, 41.7545985]]}, "properties": {"name": "Decumano Massimo", "highway": "pedestrian", "source": "OSM"}}, {"type": "Feature", "geometry": {"type": "LineString", "coordinates": [[12.2914862, 41.7569826], [12.2917782, 41.7566289], [12.2923662, 41.7559019]]}, "properties": {"name": "Via della Fontana", "highway": "pedestrian", "source": "OSM"}}, {"type": "Feature", "geometry": {"type": "LineString", "coordinates": [[12.2916177, 41.7555888], [12.291476, 41.7557749]]}, "properties": {"name": "", "highway": "steps", "source": "OSM"}}, {"type": "Feature", "geometry": {"type": "LineString", "coordinates": [[12.291476, 41.7557749], [12.2913988, 41.7558701]]}, "properties": {"name": "", "highway": "footway", "source": "OSM"}}, {"type": "Feature", "geometry": {"type": "LineString", "coordinates": [[12.2914951, 41.7555119], [12.2914783, 41.7555485]]}, "properties": {"name": "", "highway": "footway", "source": "OSM"}}, {"type": "Feature", "geometry": {"type": "LineString", "coordinates": [[12.291468, 41.7555747], [12.2914533, 41.7556111]]}, "properties": {"name": "", "highway": "steps", "source": "OSM"}}, {"type": "Feature", "geometry": {"type": "LineString", "coordinates": [[12.2914533, 41.7556111], [12.2914461, 41.7556352], [12.2914407, 41.7556493]]}, "properties": {"name": "", "highway": "footway", "source": "OSM"}}, {"type": "Feature", "geometry": {"type": "LineString", "coordinates": [[12.2914407, 41.7556493], [12.291411, 41.755738]]}, "properties": {"name": "", "highway": "steps", "source": "OSM"}}, {"type": "Feature", "geometry": {"type": "LineString", "coordinates": [[12.2911433, 41.7558031], [12.2911879, 41.7557706], [12.2912165, 41.7557534], [12.2912543, 41.7557439], [12.2913118, 41.7557336], [12.2913485, 41.7557321], [12.2913852, 41.7557336], [12.291411, 41.755738], [12.2914486, 41.7557469], [12.2915091, 41.7557713], [12.2915359, 41.7557891], [12.2915476, 41.7557974], [12.2915745, 41.7558223], [12.2916053, 41.7558763], [12.2916132, 41.7558992], [12.2916179, 41.7559378], [12.2916132, 41.7559717], [12.2916023, 41.756008]]}, "properties": {"name": "", "highway": "footway", "source": "OSM"}}, {"type": "Feature", "geometry": {"type": "LineString", "coordinates": [[12.2913118, 41.7557336], [12.2913267, 41.7558275]]}, "properties": {"name": "", "highway": "steps", "source": "OSM"}}, {"type": "Feature", "geometry": {"type": "LineString", "coordinates": [[12.2911661, 41.7556838], [12.2912165, 41.7557534]]}, "properties": {"name": "", "highway": "steps", "source": "OSM"}}, {"type": "Feature", "geometry": {"type": "LineString", "coordinates": [[12.2914962, 41.7559118], [12.2916053, 41.7558763]]}, "properties": {"name": "", "highway": "steps", "source": "OSM"}}, {"type": "Feature", "geometry": {"type": "LineString", "coordinates": [[12.2915476, 41.7557974], [12.2916239, 41.7557482], [12.2916982, 41.7556984]]}, "properties": {"name": "", "highway": "steps", "source": "OSM"}}, {"type": "Feature", "geometry": {"type": "LineString", "coordinates": [[12.2916179, 41.7559378], [12.291735, 41.755936], [12.2918206, 41.7559363]]}, "properties": {"name": "", "highway": "steps", "source": "OSM"}}, {"type": "Feature", "geometry": {"type": "LineString", "coordinates": [[12.2909753, 41.7558801], [12.2909603, 41.7558532]]}, "properties": {"name": "", "highway": "footway", "source": "OSM"}}, {"type": "Feature", "geometry": {"type": "LineString", "coordinates": [[12.3020638, 41.7597559], [12.3014663, 41.7598343], [12.3013133, 41.7598538]]}, "properties": {"name": "Via del Forno", "highway": "pedestrian", "source": "OSM"}}, {"type": "Feature", "geometry": {"type": "LineString", "coordinates": [[12.2872414, 41.7554288], [12.2874054, 41.7552215], [12.2877591, 41.7547741], [12.2878994, 41.7545805]]}, "properties": {"name": "Cardo Massimo", "highway": "pedestrian", "source": "OSM"}}, {"type": "Feature", "geometry": {"type": "LineString", "coordinates": [[12.2883904, 41.7566953], [12.2882992, 41.7568034], [12.2882097, 41.7568698], [12.2881671, 41.7568793], [12.28812, 41.7568714], [12.2879473, 41.7568008]]}, "properties": {"name": "", "highway": "service", "source": "OSM"}}, {"type": "Feature", "geometry": {"type": "LineString", "coordinates": [[12.2905469, 41.7550692], [12.2904118, 41.7551669], [12.2902898, 41.7552791], [12.290153, 41.7554336], [12.2900444, 41.7555432], [12.2898888, 41.7557193], [12.289811, 41.7558266], [12.289697, 41.7559842], [12.2896112, 41.7561123], [12.2895616, 41.7561731], [12.2893953, 41.7563652], [12.2892322, 41.7565029]]}, "properties": {"name": "Via dei Grandi Horrea", "highway": "footway", "source": "OSM"}}, {"type": "Feature", "geometry": {"type": "LineString", "coordinates": [[12.2830626, 41.7542482], [12.2831645, 41.7542026], [12.2832128, 41.7541202], [12.2832718, 41.7540665], [12.2833308, 41.7540057], [12.2833871, 41.7539577], [12.2834542, 41.7539121], [12.2835776, 41.7538184], [12.2836527, 41.753768], [12.2837278, 41.753732], [12.283793, 41.7537143]]}, "properties": {"name": "", "highway": "track", "source": "OSM"}}, {"type": "Feature", "geometry": {"type": "LineString", "coordinates": [[12.2853451, 41.7539961], [12.2853567, 41.7539751], [12.2853645, 41.7539611], [12.2853728, 41.7539481], [12.28538, 41.7539369], [12.2851915, 41.753883]]}, "properties": {"name": "", "highway": "footway", "source": "OSM"}}, {"type": "Feature", "geometry": {"type": "LineString", "coordinates": [[12.2848937, 41.7545141], [12.2848114, 41.7546124], [12.2847792, 41.7546964], [12.2847889, 41.7547639], [12.2848401, 41.7548032], [12.2850957, 41.7548285], [12.2854122, 41.7549445], [12.2857233, 41.7550446], [12.2861364, 41.7551927], [12.2864153, 41.7553487], [12.2864904, 41.7553647], [12.2865765, 41.7553676]]}, "properties": {"name": "", "highway": "track", "source": "OSM"}}, {"type": "Feature", "geometry": {"type": "LineString", "coordinates": [[12.2824107, 41.7532921], [12.2829204, 41.7533118], [12.2830679, 41.7533014], [12.2831135, 41.7533198], [12.2832342, 41.7534022], [12.2833388, 41.7534262], [12.2834032, 41.7533558], [12.2834756, 41.7532133], [12.283548, 41.7530837], [12.2836258, 41.7529188], [12.2836124, 41.7528147], [12.2835722, 41.7527251], [12.2835615, 41.752645], [12.2836124, 41.752509], [12.2837036, 41.7521608], [12.2837009, 41.7520752], [12.2836553, 41.751835], [12.2835507, 41.7517438], [12.2834783, 41.7516653], [12.283312, 41.7515837], [12.2831645, 41.7515037], [12.2830974, 41.7514028], [12.2830733, 41.7513356], [12.2830304, 41.7511515], [12.2830733, 41.751085], [12.2831243, 41.7510506], [12.284511, 41.750913], [12.2845592, 41.7508785], [12.2845807, 41.7507961], [12.2845217, 41.7505127], [12.2843795, 41.7504023], [12.2842266, 41.7502702], [12.284181, 41.7502382]]}, "properties": {"name": "", "highway": "track", "source": "OSM"}}, {"type": "Feature", "geometry": {"type": "LineString", "coordinates": [[12.3020638, 41.7597559], [12.3020899, 41.7598368], [12.3020987, 41.7599349], [12.302101, 41.7599607], [12.3020316, 41.7603354]]}, "properties": {"name": "Piazza Ravenna", "highway": "service", "source": "OSM"}}, {"type": "Feature", "geometry": {"type": "LineString", "coordinates": [[12.301301, 41.7601384], [12.3012745, 41.7600269], [12.3012739, 41.7600085], [12.301273, 41.7599816], [12.3012768, 41.7599517], [12.3012849, 41.7599233], [12.3013133, 41.7598538], [12.3013526, 41.7597577], [12.301396, 41.7597045], [12.301523, 41.7595488], [12.3015939, 41.7595087], [12.3016744, 41.759484], [12.3019126, 41.7594349], [12.3019854, 41.7594341], [12.3020217, 41.7594543], [12.3020368, 41.7594768]]}, "properties": {"name": "Piazza della Rocca", "highway": "service", "source": "OSM"}}, {"type": "Feature", "geometry": {"type": "LineString", "coordinates": [[12.3029135, 41.7601527], [12.3028074, 41.7602863], [12.3026865, 41.7604778]]}, "properties": {"name": "Piazza Gregoriopoli", "highway": "pedestrian", "source": "OSM"}}, {"type": "Feature", "geometry": {"type": "LineString", "coordinates": [[12.302101, 41.7599607], [12.3024055, 41.7599755]]}, "properties": {"name": "Via Claudia Quinta", "highway": "service", "source": "OSM"}}, {"type": "Feature", "geometry": {"type": "LineString", "coordinates": [[12.2955908, 41.7579994], [12.2954517, 41.7582198], [12.2954939, 41.7583235], [12.295623, 41.758418], [12.2969184, 41.7591939], [12.2971263, 41.759303], [12.297952, 41.7597986], [12.2982559, 41.7599735]]}, "properties": {"name": "Via del Ponte delle Memorie", "highway": "track", "source": "OSM"}}, {"type": "Feature", "geometry": {"type": "LineString", "coordinates": [[12.3020368, 41.7594768], [12.3020578, 41.7596197], [12.3020638, 41.7597559]]}, "properties": {"name": "Via del Vescovado", "highway": "service", "source": "OSM"}}, {"type": "Feature", "geometry": {"type": "LineString", "coordinates": [[12.301396, 41.7597045], [12.3020578, 41.7596197]]}, "properties": {"name": "Via della Colonia", "highway": "service", "source": "OSM"}}, {"type": "Feature", "geometry": {"type": "LineString", "coordinates": [[12.2879779, 41.757266], [12.2880061, 41.7572585], [12.2880471, 41.7572475]]}, "properties": {"name": "Via Gherardo", "highway": "track", "source": "OSM"}}, {"type": "Feature", "geometry": {"type": "LineString", "coordinates": [[12.2872916, 41.7558043], [12.2872003, 41.755919], [12.2872961, 41.7559615], [12.2873419, 41.7559039], [12.2874692, 41.7559602], [12.2875016, 41.7559196], [12.2875147, 41.7559031], [12.2872916, 41.7558043]]}, "properties": {"name": "", "highway": "pedestrian", "source": "OSM"}}, {"type": "Feature", "geometry": {"type": "LineString", "coordinates": [[12.2973714, 41.7580812], [12.2970719, 41.7579616]]}, "properties": {"name": "Decumano Massimo", "highway": "footway", "source": "OSM"}}, {"type": "Feature", "geometry": {"type": "LineString", "coordinates": [[12.2977679, 41.7581895], [12.2975239, 41.7581546], [12.2973714, 41.7580812]]}, "properties": {"name": "Via degli Scavi", "highway": "service", "source": "OSM"}}, {"type": "Feature", "geometry": {"type": "LineString", "coordinates": [[12.2900392, 41.754399], [12.2901975, 41.7544781]]}, "properties": {"name": "", "highway": "footway", "source": "OSM"}}, {"type": "Feature", "geometry": {"type": "LineString", "coordinates": [[12.2900323, 41.7543951], [12.2900392, 41.754399]]}, "properties": {"name": "", "highway": "footway", "source": "OSM"}}, {"type": "Feature", "geometry": {"type": "LineString", "coordinates": [[12.3006895, 41.7592434], [12.3007649, 41.7592421], [12.3008421, 41.7594676], [12.3009627, 41.7597213], [12.3010567, 41.7599372], [12.3010724, 41.760078]]}, "properties": {"name": "", "highway": "footway", "source": "OSM"}}, {"type": "Feature", "geometry": {"type": "LineString", "coordinates": [[12.3007649, 41.7592421], [12.3007481, 41.7591512], [12.3007464, 41.7591345], [12.3007455, 41.7591162], [12.3007455, 41.7590957], [12.3007463, 41.7590738], [12.3007493, 41.7590554], [12.3007552, 41.7590313], [12.3007607, 41.7590133], [12.3007676, 41.7589982], [12.3007775, 41.7589834], [12.3007894, 41.7589676], [12.3008057, 41.7589526], [12.3009234, 41.7588502], [12.3010566, 41.7587192], [12.3012295, 41.7585776], [12.3014901, 41.7585078], [12.301663, 41.7584508], [12.3018103, 41.7583704], [12.3020115, 41.7582817], [12.3022325, 41.7582288], [12.302411, 41.758214]]}, "properties": {"name": "", "highway": "footway", "source": "OSM"}}, {"type": "Feature", "geometry": {"type": "LineString", "coordinates": [[12.2986439, 41.7586192], [12.2987906, 41.7585324]]}, "properties": {"name": "", "highway": "service", "source": "OSM"}}, {"type": "Feature", "geometry": {"type": "LineString", "coordinates": [[12.293687, 41.7605674], [12.2937945, 41.7607953], [12.2938272, 41.7609845], [12.2938722, 41.7611005], [12.2939909, 41.7612379], [12.2941218, 41.7613264], [12.2951442, 41.7618149], [12.2952474, 41.7618816], [12.2954047, 41.7619833], [12.2967843, 41.7628297], [12.296813, 41.7628724], [12.2968253, 41.7629182], [12.2968089, 41.7629731], [12.296547, 41.763437], [12.2959233, 41.7645865], [12.2958878, 41.7647452], [12.2958464, 41.7648995], [12.2957106, 41.7651968], [12.2940145, 41.7683658], [12.2940266, 41.7684468], [12.2940809, 41.7685368], [12.2965714, 41.7702491]]}, "properties": {"name": "", "highway": "track", "source": "OSM"}}, {"type": "Feature", "geometry": {"type": "LineString", "coordinates": [[12.2980813, 41.758448], [12.2986439, 41.7586192], [12.3003356, 41.7592154]]}, "properties": {"name": "", "highway": "service", "source": "OSM"}}, {"type": "Feature", "geometry": {"type": "LineString", "coordinates": [[12.296813, 41.7628724], [12.2968545, 41.7628443], [12.2980374, 41.7614997]]}, "properties": {"name": "", "highway": "track", "source": "OSM"}}, {"type": "Feature", "geometry": {"type": "LineString", "coordinates": [[12.2952474, 41.7618816], [12.2953002, 41.7618128], [12.2953348, 41.7617236], [12.2955047, 41.7609938], [12.2955424, 41.7605151], [12.295511, 41.7603836], [12.2954349, 41.7602445]]}, "properties": {"name": "", "highway": "track", "source": "OSM"}}, {"type": "Feature", "geometry": {"type": "LineString", "coordinates": [[12.2880471, 41.7572475], [12.2879473, 41.7568008], [12.2879115, 41.756722], [12.2878517, 41.7566457], [12.2877554, 41.7565661], [12.2875294, 41.7563332], [12.2874157, 41.7561772], [12.2872227, 41.7559922], [12.2867855, 41.7555744], [12.2865765, 41.7553676], [12.2865384, 41.755306], [12.2863106, 41.7549671]]}, "properties": {"name": "Via Gherardo", "highway": "service", "source": "OSM"}}, {"type": "Feature", "geometry": {"type": "LineString", "coordinates": [[12.2881671, 41.7568793], [12.2882572, 41.7570519], [12.2885786, 41.757173], [12.288652, 41.7571664], [12.2887212, 41.7570464], [12.2888649, 41.7568562]]}, "properties": {"name": "", "highway": "service", "source": "OSM"}}, {"type": "Feature", "geometry": {"type": "LineString", "coordinates": [[12.2718134, 41.7493151], [12.2718911, 41.7492796], [12.2719408, 41.7492636], [12.2719766, 41.7492587], [12.2720108, 41.7492587], [12.2720388, 41.7492614], [12.2720742, 41.7492707], [12.2721034, 41.7492827], [12.2721425, 41.7493027], [12.2721715, 41.7493219], [12.273158, 41.7500973], [12.2732746, 41.7501871], [12.2733948, 41.750275], [12.2734843, 41.7503381], [12.2735773, 41.7503993], [12.2736758, 41.750462], [12.2748674, 41.7511888], [12.2755192, 41.7515819], [12.2755574, 41.7516069], [12.275596, 41.7516346], [12.2756336, 41.7516651], [12.2756641, 41.7516947], [12.2756936, 41.7517269], [12.2757238, 41.7517626], [12.2757695, 41.7518203], [12.2758044, 41.7518584], [12.2758421, 41.7518952], [12.2758839, 41.7519322], [12.2759286, 41.7519678], [12.2762296, 41.7521843], [12.276309, 41.7522388], [12.2763928, 41.7522953], [12.2764719, 41.7523453], [12.2765554, 41.7523973], [12.2767744, 41.7525315], [12.2771466, 41.75277], [12.277209, 41.7528086], [12.2772744, 41.7528469], [12.2773477, 41.752888], [12.277424, 41.7529287], [12.2786278, 41.753554], [12.2786719, 41.7535747], [12.2787186, 41.7535923], [12.2787643, 41.7536072], [12.2788185, 41.7536214], [12.2788718, 41.753633], [12.2789061, 41.7536377], [12.2790054, 41.7536475], [12.279081, 41.7536573], [12.2791529, 41.7536717], [12.2792272, 41.7536947], [12.2792979, 41.7537223], [12.2797255, 41.7539166], [12.2797672, 41.7539391], [12.2798017, 41.7539615], [12.2798289, 41.7539886], [12.2798488, 41.7540156], [12.279874, 41.7540526], [12.2799073, 41.7540876], [12.2799413, 41.7541114], [12.2799835, 41.7541332], [12.2804815, 41.7543519], [12.2805949, 41.7543992], [12.2807066, 41.7544424], [12.2808339, 41.7544879], [12.2809595, 41.7545294], [12.2810616, 41.7545615], [12.2811868, 41.7545981], [12.2812529, 41.7546157], [12.2813119, 41.7546307], [12.2813828, 41.7546477], [12.2814464, 41.7546621], [12.2816065, 41.7546947], [12.2821569, 41.7547968], [12.2822749, 41.7548171], [12.2823982, 41.7548374], [12.2825236, 41.7548573], [12.2826544, 41.7548772], [12.2827335, 41.7548882], [12.2827909, 41.7548945], [12.2828349, 41.7548973], [12.2828767, 41.7548991], [12.2829204, 41.7549002], [12.2829675, 41.7548998], [12.2830164, 41.7548988], [12.2831125, 41.7548947]]}, "properties": {"name": "", "highway": "service", "source": "OSM"}}, {"type": "Feature", "geometry": {"type": "LineString", "coordinates": [[12.3033066, 41.7577011], [12.3044933, 41.7573681]]}, "properties": {"name": "Antica via di Castelfusano", "highway": "footway", "source": "OSM"}}, {"type": "Feature", "geometry": {"type": "LineString", "coordinates": [[12.301892, 41.7566168], [12.3018515, 41.7565868]]}, "properties": {"name": "", "highway": "service", "source": "OSM"}}, {"type": "Feature", "geometry": {"type": "LineString", "coordinates": [[12.3018515, 41.7565868], [12.3017294, 41.7565082]]}, "properties": {"name": "", "highway": "service", "source": "OSM"}}, {"type": "Feature", "geometry": {"type": "LineString", "coordinates": [[12.3002071, 41.7578658], [12.3002931, 41.7581732], [12.3003011, 41.7582092], [12.3003159, 41.7582422], [12.3003313, 41.7582697], [12.3003481, 41.7582932], [12.3003676, 41.7583173], [12.3003843, 41.7583473], [12.3003916, 41.7583689], [12.3003975, 41.7583895], [12.3004724, 41.7587351]]}, "properties": {"name": "", "highway": "footway", "source": "OSM"}}, {"type": "Feature", "geometry": {"type": "LineString", "coordinates": [[12.3019149, 41.7540387], [12.3030159, 41.7531903], [12.3033433, 41.752938]]}, "properties": {"name": "", "highway": "service", "source": "OSM"}}, {"type": "Feature", "geometry": {"type": "LineString", "coordinates": [[12.3002637, 41.7572453], [12.3006461, 41.7574522], [12.3007077, 41.7574855]]}, "properties": {"name": "", "highway": "service", "source": "OSM"}}, {"type": "Feature", "geometry": {"type": "LineString", "coordinates": [[12.2880471, 41.7572475], [12.2882688, 41.7572565], [12.28843, 41.7572832], [12.2885293, 41.7573221], [12.2885962, 41.7573759], [12.2887349, 41.7574989], [12.2892267, 41.7579883], [12.2896085, 41.7582616], [12.2899148, 41.7584152], [12.2902748, 41.7585674], [12.2905279, 41.7586403], [12.2921103, 41.7588702], [12.2924512, 41.7588998]]}, "properties": {"name": "Via Gherardo", "highway": "track", "source": "OSM"}}, {"type": "Feature", "geometry": {"type": "LineString", "coordinates": [[12.2924512, 41.7588998], [12.2928291, 41.7590808], [12.2932644, 41.759139], [12.2952258, 41.7593105], [12.2956318, 41.7593394], [12.2960009, 41.7592741], [12.2962766, 41.7592386], [12.2965429, 41.7591977], [12.2969184, 41.7591939]]}, "properties": {"name": "Via Gherardo", "highway": "track", "source": "OSM"}}, {"type": "Feature", "geometry": {"type": "LineString", "coordinates": [[12.2912041, 41.755152], [12.2910042, 41.7552867]]}, "properties": {"name": "", "highway": "footway", "source": "OSM"}}, {"type": "Feature", "geometry": {"type": "LineString", "coordinates": [[12.2880061, 41.7572585], [12.2879336, 41.757019], [12.2878348, 41.756819], [12.2877517, 41.7567201], [12.2876019, 41.7565765], [12.2872899, 41.7562013], [12.2870324, 41.7559466], [12.2867123, 41.7556891], [12.2864101, 41.755465], [12.2859542, 41.7552436], [12.2852803, 41.7549854], [12.2850657, 41.7549335], [12.2843515, 41.7548314]]}, "properties": {"name": "Sentiero Pasolini", "highway": "path", "source": "OSM"}}, {"type": "Feature", "geometry": {"type": "LineString", "coordinates": [[12.3029093, 41.7577166], [12.302346, 41.7573022], [12.3020922, 41.7571155], [12.3022535, 41.7569934], [12.30251, 41.757182], [12.3031544, 41.7576559]]}, "properties": {"name": "", "highway": "service", "source": "OSM"}}, {"type": "Feature", "geometry": {"type": "LineString", "coordinates": [[12.3026122, 41.7571074], [12.3033383, 41.7576104], [12.3031544, 41.7576559], [12.3029093, 41.7577166], [12.3027, 41.7577684], [12.3022479, 41.7573741]]}, "properties": {"name": "", "highway": "service", "source": "OSM"}}, {"type": "Feature", "geometry": {"type": "LineString", "coordinates": [[12.3023438, 41.7576934], [12.3024268, 41.7577733], [12.3025595, 41.7579187], [12.3026981, 41.7580671], [12.3029655, 41.758385], [12.3032859, 41.7587095], [12.303499, 41.7588729], [12.3037181, 41.7589854], [12.3039348, 41.7590929], [12.3040739, 41.7591539], [12.3041202, 41.7591462], [12.3041683, 41.7591383], [12.3042114, 41.7590845], [12.3043142, 41.7590636]]}, "properties": {"name": "", "highway": "path", "source": "OSM"}}, {"type": "Feature", "geometry": {"type": "LineString", "coordinates": [[12.3002996, 41.7525706], [12.3006812, 41.7522854], [12.3018936, 41.7513393], [12.3020674, 41.7512561], [12.3022305, 41.7511841], [12.3024815, 41.751128], [12.3027025, 41.7511232], [12.3029, 41.7512033], [12.3029622, 41.7512753], [12.3029858, 41.7513762], [12.303003, 41.7515074]]}, "properties": {"name": "", "highway": "track", "source": "OSM"}}, {"type": "Feature", "geometry": {"type": "LineString", "coordinates": [[12.3020674, 41.7512561], [12.3020687, 41.7512128]]}, "properties": {"name": "", "highway": "track", "source": "OSM"}}, {"type": "Feature", "geometry": {"type": "LineString", "coordinates": [[12.3030159, 41.7531903], [12.303002, 41.7531222], [12.3029534, 41.7530599], [12.3028775, 41.7530237], [12.302788, 41.7529988], [12.3025012, 41.7529501], [12.3022251, 41.7529388], [12.3018336, 41.753241], [12.3017472, 41.753292], [12.3016501, 41.7533259], [12.301559, 41.7533372], [12.3014376, 41.7533078], [12.3013496, 41.7532569], [12.3012768, 41.7532048], [12.3012237, 41.7531686], [12.3011991, 41.7531523], [12.3011691, 41.7531324], [12.301078, 41.7531154], [12.3010098, 41.7531188], [12.3009181, 41.7531328]]}, "properties": {"name": "", "highway": "track", "source": "OSM"}}, {"type": "Feature", "geometry": {"type": "LineString", "coordinates": [[12.302788, 41.7529988], [12.3026757, 41.7528607], [12.302615, 41.7528041], [12.3025726, 41.7527724], [12.3025225, 41.7527679], [12.3024269, 41.7527826], [12.3023404, 41.7528347], [12.3022251, 41.7529388]]}, "properties": {"name": "", "highway": "track", "source": "OSM"}}, {"type": "Feature", "geometry": {"type": "LineString", "coordinates": [[12.3026757, 41.7528607], [12.3027288, 41.7527622], [12.3028108, 41.7526626], [12.3030824, 41.7524193], [12.3032235, 41.7522959], [12.3033024, 41.7522619], [12.3033889, 41.7522681], [12.3034753, 41.7523128], [12.3036165, 41.7524011], [12.3037363, 41.7524894], [12.3038334, 41.7525924], [12.303848, 41.7526136], [12.3038903, 41.7526751], [12.3038714, 41.75276], [12.3038471, 41.7527973], [12.3035588, 41.7529739]]}, "properties": {"name": "", "highway": "track", "source": "OSM"}}, {"type": "Feature", "geometry": {"type": "LineString", "coordinates": [[12.3033024, 41.7522619], [12.3034956, 41.7520964], [12.303632, 41.7519796], [12.3037054, 41.7519167], [12.3040284, 41.7517013], [12.3041367, 41.7515694], [12.3042684, 41.7512827], [12.3044452, 41.7510484], [12.3045102, 41.7508802], [12.3045427, 41.7507792]]}, "properties": {"name": "", "highway": "track", "source": "OSM"}}, {"type": "Feature", "geometry": {"type": "LineString", "coordinates": [[12.303632, 41.7519796], [12.3036347, 41.7520891], [12.3036984, 41.7521774], [12.3040626, 41.7524355], [12.3040444, 41.7524831], [12.3039837, 41.7525215], [12.3039169, 41.752568], [12.303848, 41.7526136]]}, "properties": {"name": "", "highway": "track", "source": "OSM"}}, {"type": "Feature", "geometry": {"type": "LineString", "coordinates": [[12.3040626, 41.7524355], [12.3042492, 41.7525397], [12.3047105, 41.7529007], [12.3047256, 41.752946], [12.3046832, 41.753006], [12.3046225, 41.7530785], [12.3045557, 41.7531068]]}, "properties": {"name": "", "highway": "track", "source": "OSM"}}, {"type": "Feature", "geometry": {"type": "LineString", "coordinates": [[12.3046225, 41.7530785], [12.3045709, 41.7531905], [12.304404, 41.7533241], [12.3042796, 41.7534282], [12.3040929, 41.7534961]]}, "properties": {"name": "", "highway": "track", "source": "OSM"}}, {"type": "Feature", "geometry": {"type": "LineString", "coordinates": [[12.3034956, 41.7520964], [12.3035589, 41.752101], [12.3036158, 41.7521106], [12.3036984, 41.7521774]]}, "properties": {"name": "", "highway": "track", "source": "OSM"}}, {"type": "Feature", "geometry": {"type": "LineString", "coordinates": [[12.3001809, 41.7546248], [12.3002738, 41.7546141], [12.3003415, 41.7545818], [12.3009094, 41.754012], [12.3010411, 41.7538801], [12.3011385, 41.7538182], [12.3012287, 41.7537805], [12.3013586, 41.7537078], [12.3015031, 41.7536644]]}, "properties": {"name": "", "highway": "track", "source": "OSM"}}, {"type": "Feature", "geometry": {"type": "LineString", "coordinates": [[12.2988463, 41.7512499], [12.2978926, 41.751985], [12.2976363, 41.7522004], [12.2974904, 41.75232], [12.2974415, 41.7524777], [12.2974833, 41.75262], [12.2975966, 41.7527281], [12.2979163, 41.7529859], [12.2997638, 41.7543358], [12.3001809, 41.7546248]]}, "properties": {"name": "", "highway": "track", "source": "OSM"}}, {"type": "Feature", "geometry": {"type": "LineString", "coordinates": [[12.3038795, 41.7598724], [12.3039186, 41.7598463]]}, "properties": {"name": "", "highway": "footway", "source": "OSM"}}, {"type": "Feature", "geometry": {"type": "LineString", "coordinates": [[12.3039186, 41.7598463], [12.3039953, 41.7597714], [12.3040661, 41.7597247]]}, "properties": {"name": "", "highway": "footway", "source": "OSM"}}, {"type": "Feature", "geometry": {"type": "LineString", "coordinates": [[12.3041073, 41.7597062], [12.30414, 41.7596984], [12.3041594, 41.7596956]]}, "properties": {"name": "", "highway": "footway", "source": "OSM"}}, {"type": "Feature", "geometry": {"type": "LineString", "coordinates": [[12.3042233, 41.7593187], [12.3042467, 41.7592739], [12.304269, 41.7592191]]}, "properties": {"name": "", "highway": "footway", "source": "OSM"}}, {"type": "Feature", "geometry": {"type": "LineString", "coordinates": [[12.3041202, 41.7591462], [12.3042076, 41.7591917], [12.304269, 41.7592191]]}, "properties": {"name": "", "highway": "footway", "source": "OSM"}}, {"type": "Feature", "geometry": {"type": "LineString", "coordinates": [[12.2843409, 41.7525324], [12.2843065, 41.7525627], [12.284315, 41.752629], [12.2843346, 41.7527575], [12.2843625, 41.7529963], [12.2843846, 41.7530755]]}, "properties": {"name": "Via di Annio", "highway": "pedestrian", "source": "OSM"}}, {"type": "Feature", "geometry": {"type": "LineString", "coordinates": [[12.2877274, 41.7559807], [12.2881099, 41.7555033]]}, "properties": {"name": "", "highway": "footway", "source": "OSM"}}, {"type": "Feature", "geometry": {"type": "LineString", "coordinates": [[12.2882545, 41.7545604], [12.2881514, 41.7546932], [12.2878465, 41.7551061], [12.2878061, 41.7551564]]}, "properties": {"name": "Via dei Dipinti", "highway": "pedestrian", "source": "OSM"}}, {"type": "Feature", "geometry": {"type": "LineString", "coordinates": [[12.2871598, 41.7552698], [12.287318, 41.7550679], [12.2877266, 41.7545463], [12.2877499, 41.7545165]]}, "properties": {"name": "", "highway": "footway", "source": "OSM"}}, {"type": "Feature", "geometry": {"type": "LineString", "coordinates": [[12.286657, 41.7551106], [12.2866943, 41.7551258], [12.2870606, 41.7552392], [12.2871598, 41.7552698]]}, "properties": {"name": "Via dei Misuratori del Grano", "highway": "footway", "source": "OSM"}}, {"type": "Feature", "geometry": {"type": "LineString", "coordinates": [[12.2870606, 41.7552392], [12.2868821, 41.755477]]}, "properties": {"name": "Via della Fortuna", "highway": "footway", "source": "OSM"}}, {"type": "Feature", "geometry": {"type": "LineString", "coordinates": [[12.2872252, 41.7540864], [12.2872392, 41.7541128], [12.2877823, 41.7543421]]}, "properties": {"name": "Via delle Casette Repubblicane", "highway": "pedestrian", "source": "OSM"}}, {"type": "Feature", "geometry": {"type": "LineString", "coordinates": [[12.2869646, 41.7539426], [12.2870147, 41.7539656], [12.287003, 41.7539827], [12.2872252, 41.7540864]]}, "properties": {"name": "", "highway": "footway", "source": "OSM"}}, {"type": "Feature", "geometry": {"type": "LineString", "coordinates": [[12.2856492, 41.7542118], [12.2857752, 41.7540458], [12.285875, 41.7538646], [12.2859954, 41.7535924]]}, "properties": {"name": "Via del Tempio d'Ercole", "highway": "pedestrian", "source": "OSM"}}, {"type": "Feature", "geometry": {"type": "LineString", "coordinates": [[12.2887522, 41.7537701], [12.2892172, 41.7539732]]}, "properties": {"name": "Via della Forica", "highway": "pedestrian", "source": "OSM"}}, {"type": "Feature", "geometry": {"type": "LineString", "coordinates": [[12.2892169, 41.754481], [12.289038, 41.754685]]}, "properties": {"name": "Via dei Lari", "highway": "pedestrian", "source": "OSM"}}, {"type": "Feature", "geometry": {"type": "LineString", "coordinates": [[12.2899962, 41.7548278], [12.2902317, 41.754567], [12.29039, 41.7543659], [12.2905527, 41.7541856]]}, "properties": {"name": "Via del Sole", "highway": "pedestrian", "source": "OSM"}}, {"type": "Feature", "geometry": {"type": "LineString", "coordinates": [[12.2899561, 41.7541552], [12.29039, 41.7543659]]}, "properties": {"name": "Via dell'Invidioso", "highway": "pedestrian", "source": "OSM"}}, {"type": "Feature", "geometry": {"type": "LineString", "coordinates": [[12.2909083, 41.7543832], [12.291502, 41.7538095]]}, "properties": {"name": "Via delle Ermette", "highway": "pedestrian", "source": "OSM"}}, {"type": "Feature", "geometry": {"type": "LineString", "coordinates": [[12.2904888, 41.7548063], [12.2907105, 41.754573], [12.2909083, 41.7543832]]}, "properties": {"name": "Via del Mitreo dei Serpenti", "highway": "pedestrian", "source": "OSM"}}, {"type": "Feature", "geometry": {"type": "LineString", "coordinates": [[12.2868287, 41.7531091], [12.286991, 41.7530641], [12.2870327, 41.7530461], [12.2872284, 41.752923]]}, "properties": {"name": "Vico Cieco", "highway": "footway", "source": "OSM"}}, {"type": "Feature", "geometry": {"type": "LineString", "coordinates": [[12.2851903, 41.7504739], [12.2861165, 41.7503323]]}, "properties": {"name": "Via di Cartilio Poplicola", "highway": "pedestrian", "source": "OSM"}}, {"type": "Feature", "geometry": {"type": "LineString", "coordinates": [[12.2857891, 41.7523859], [12.285731, 41.7522226], [12.2857121, 41.7521927], [12.2855804, 41.7519839], [12.2854745, 41.7517485]]}, "properties": {"name": "Via delle Volte Dipinte", "highway": "pedestrian", "source": "OSM"}}, {"type": "Feature", "geometry": {"type": "LineString", "coordinates": [[12.2860417, 41.7523422], [12.2858979, 41.7521212], [12.2857669, 41.7519199], [12.2857439, 41.7518968]]}, "properties": {"name": "Via delle Trifore", "highway": "pedestrian", "source": "OSM"}}, {"type": "Feature", "geometry": {"type": "LineString", "coordinates": [[12.2846048, 41.7525476], [12.2846944, 41.7529771]]}, "properties": {"name": "Via tecta degli Aurighi", "highway": "footway", "source": "OSM"}}, {"type": "Feature", "geometry": {"type": "LineString", "coordinates": [[12.2839815, 41.7533776], [12.2842012, 41.7533951]]}, "properties": {"name": "", "highway": "footway", "source": "OSM"}}, {"type": "Feature", "geometry": {"type": "LineString", "coordinates": [[12.2846558, 41.7536421], [12.284607, 41.7534178], [12.2845507, 41.7531594], [12.2845402, 41.7531201], [12.2845299, 41.7530603]]}, "properties": {"name": "Via delle Casette Tipo", "highway": "pedestrian", "source": "OSM"}}, {"type": "Feature", "geometry": {"type": "LineString", "coordinates": [[12.2848935, 41.7533885], [12.2847417, 41.753404], [12.284607, 41.7534178], [12.2844719, 41.7534346]]}, "properties": {"name": "Via Nord delle Casette Tipo", "highway": "pedestrian", "source": "OSM"}}, {"type": "Feature", "geometry": {"type": "LineString", "coordinates": [[12.2848124, 41.7530254], [12.2846586, 41.7530444], [12.2845299, 41.7530603], [12.2843846, 41.7530755], [12.2843079, 41.7530853]]}, "properties": {"name": "Via sud delle Casette Tipo", "highway": "pedestrian", "source": "OSM"}}, {"type": "Feature", "geometry": {"type": "LineString", "coordinates": [[12.284845, 41.7525614], [12.2849354, 41.7528884], [12.2849384, 41.7529757], [12.2848054, 41.7529941], [12.2848124, 41.7530254]]}, "properties": {"name": "", "highway": "footway", "source": "OSM"}}, {"type": "Feature", "geometry": {"type": "LineString", "coordinates": [[12.2867482, 41.7535657], [12.2869533, 41.7535558], [12.2872142, 41.75359], [12.2870363, 41.7534381], [12.2867484, 41.7535441], [12.2867482, 41.7535657]]}, "properties": {"name": "Bivio del Castrum", "highway": "pedestrian", "source": "OSM"}}, {"type": "Feature", "geometry": {"type": "LineString", "coordinates": [[12.3049629, 41.7567747], [12.3048568, 41.7568206], [12.304673, 41.7569296], [12.3044477, 41.7571087], [12.3042895, 41.7572538], [12.3042567, 41.7572925], [12.3042071, 41.7573117], [12.3041391, 41.7572931]]}, "properties": {"name": "", "highway": "service", "source": "OSM"}}, {"type": "Feature", "geometry": {"type": "LineString", "coordinates": [[12.3036998, 41.7569952], [12.3041213, 41.7566444], [12.3042364, 41.7565539], [12.3044768, 41.7563806], [12.304541, 41.7563727], [12.3046041, 41.7563784], [12.30466, 41.7564184], [12.3048047, 41.7565281], [12.3049339, 41.756626], [12.3049768, 41.7566585]]}, "properties": {"name": "", "highway": "footway", "source": "OSM"}}, {"type": "Feature", "geometry": {"type": "LineString", "coordinates": [[12.30466, 41.7564184], [12.3044225, 41.7566082], [12.3040226, 41.7569032]]}, "properties": {"name": "", "highway": "footway", "source": "OSM"}}, {"type": "Feature", "geometry": {"type": "LineString", "coordinates": [[12.3036998, 41.7569952], [12.3037024, 41.7570104], [12.3037227, 41.7570267], [12.3037979, 41.7570789], [12.303951, 41.7571852], [12.3041066, 41.7572774], [12.3041391, 41.7572931]]}, "properties": {"name": "", "highway": "footway", "source": "OSM"}}, {"type": "Feature", "geometry": {"type": "LineString", "coordinates": [[12.3041066, 41.7572774], [12.3042619, 41.7571802], [12.3043112, 41.7571385], [12.3043142, 41.757123], [12.3041734, 41.7570168], [12.3040226, 41.7569032], [12.3037979, 41.7570789]]}, "properties": {"name": "", "highway": "footway", "source": "OSM"}}, {"type": "Feature", "geometry": {"type": "LineString", "coordinates": [[12.3048047, 41.7565281], [12.3041734, 41.7570168]]}, "properties": {"name": "", "highway": "footway", "source": "OSM"}}, {"type": "Feature", "geometry": {"type": "LineString", "coordinates": [[12.303951, 41.7571852], [12.3041734, 41.7570168]]}, "properties": {"name": "", "highway": "footway", "source": "OSM"}}, {"type": "Feature", "geometry": {"type": "LineString", "coordinates": [[12.3049339, 41.756626], [12.3044771, 41.7569747], [12.3043142, 41.757123]]}, "properties": {"name": "", "highway": "footway", "source": "OSM"}}, {"type": "Feature", "geometry": {"type": "LineString", "coordinates": [[12.3047352, 41.7543036], [12.3043979, 41.7545439], [12.3038321, 41.7550472], [12.3038314, 41.7551301], [12.3038063, 41.7552281], [12.3035074, 41.7554695]]}, "properties": {"name": "", "highway": "track", "source": "OSM"}}, {"type": "Feature", "geometry": {"type": "LineString", "coordinates": [[12.3051327, 41.7538916], [12.3047352, 41.7543036]]}, "properties": {"name": "", "highway": "track", "source": "OSM"}}, {"type": "Feature", "geometry": {"type": "LineString", "coordinates": [[12.3051327, 41.7538916], [12.3054814, 41.7535594], [12.3054814, 41.7534634], [12.3053956, 41.7533673], [12.3047594, 41.7528314], [12.3045421, 41.7526908]]}, "properties": {"name": "", "highway": "track", "source": "OSM"}}, {"type": "Feature", "geometry": {"type": "LineString", "coordinates": [[12.3047594, 41.7528314], [12.3052307, 41.7525086]]}, "properties": {"name": "", "highway": "track", "source": "OSM"}}, {"type": "Feature", "geometry": {"type": "LineString", "coordinates": [[12.3051327, 41.7538916], [12.3044675, 41.7534049]]}, "properties": {"name": "", "highway": "track", "source": "OSM"}}, {"type": "Feature", "geometry": {"type": "LineString", "coordinates": [[12.3016267, 41.7562229], [12.3012061, 41.7559314], [12.3010631, 41.7560462], [12.3014884, 41.7563411], [12.3017294, 41.7565082]]}, "properties": {"name": "", "highway": "service", "source": "OSM"}}, {"type": "Feature", "geometry": {"type": "LineString", "coordinates": [[12.3016267, 41.7562229], [12.3014884, 41.7563411]]}, "properties": {"name": "", "highway": "service", "source": "OSM"}}, {"type": "Feature", "geometry": {"type": "LineString", "coordinates": [[12.2916177, 41.7555888], [12.2916347, 41.7555693]]}, "properties": {"name": "", "highway": "footway", "source": "OSM"}}, {"type": "Feature", "geometry": {"type": "LineString", "coordinates": [[12.3011991, 41.7531523], [12.3014338, 41.7532065], [12.3015203, 41.7531918], [12.3016067, 41.7531477], [12.3022364, 41.7526428], [12.3023659, 41.7525494], [12.3024655, 41.7524776], [12.302854, 41.7521787], [12.3029785, 41.7520941], [12.3029905, 41.7520859], [12.3034897, 41.751701], [12.303778, 41.7514984], [12.3038584, 41.7514328], [12.3038311, 41.7513931], [12.3036369, 41.7512698], [12.3035367, 41.7511769], [12.303473, 41.7511792], [12.303432, 41.7511996], [12.303003, 41.7515074]]}, "properties": {"name": "", "highway": "track", "source": "OSM"}}, {"type": "Feature", "geometry": {"type": "LineString", "coordinates": [[12.303003, 41.7515074], [12.3027314, 41.7517018], [12.3026233, 41.7517791], [12.3026218, 41.7518176], [12.3026567, 41.7518674], [12.3029785, 41.7520941]]}, "properties": {"name": "", "highway": "track", "source": "OSM"}}, {"type": "Feature", "geometry": {"type": "LineString", "coordinates": [[12.3014338, 41.7532065], [12.3011321, 41.7529736], [12.3011231, 41.7529171], [12.3011664, 41.7528646], [12.3015507, 41.7526237], [12.3017059, 41.7524877], [12.3019351, 41.7522925], [12.3019784, 41.7522643], [12.3020163, 41.7522589], [12.3020596, 41.7522952], [12.3023659, 41.7525494]]}, "properties": {"name": "", "highway": "track", "source": "OSM"}}, {"type": "Feature", "geometry": {"type": "LineString", "coordinates": [[12.2925546, 41.7611501], [12.2924928, 41.7611823], [12.2923956, 41.7612018], [12.2923205, 41.7611883], [12.2916674, 41.7610722], [12.291485, 41.7610587], [12.2913281, 41.7610207], [12.2909593, 41.7609672], [12.2896497, 41.7607731], [12.288035, 41.7605385], [12.2871874, 41.7604185], [12.2870935, 41.7604305], [12.2870399, 41.7604745], [12.2869903, 41.7605515], [12.2869112, 41.7609207], [12.2866885, 41.761759], [12.2864297, 41.7627883], [12.2863814, 41.7628514], [12.2862594, 41.7629294], [12.2859952, 41.7630384], [12.2856277, 41.7631835], [12.2855231, 41.7632735], [12.285566, 41.7633415], [12.2856411, 41.7634055], [12.2858235, 41.7634776], [12.2859201, 41.7635916], [12.2859496, 41.7637096], [12.2858396, 41.7638917], [12.285786, 41.7639697], [12.285755, 41.7640288]]}, "properties": {"name": "", "highway": "track", "source": "OSM"}}, {"type": "Feature", "geometry": {"type": "LineString", "coordinates": [[12.2800279, 41.7622053], [12.2801171, 41.7621741], [12.2802901, 41.7620391], [12.2810546, 41.7612168], [12.2811913, 41.7610847], [12.2812933, 41.7610787], [12.2814381, 41.7609707], [12.2817307, 41.7606161], [12.2819853, 41.7603705], [12.2821864, 41.7604065], [12.2827095, 41.7598423], [12.2830635, 41.7595782]]}, "properties": {"name": "", "highway": "service", "source": "OSM"}}, {"type": "Feature", "geometry": {"type": "LineString", "coordinates": [[12.302411, 41.758214], [12.3028436, 41.7588604], [12.3029026, 41.7590274], [12.3030058, 41.7594457], [12.303335, 41.7603127]]}, "properties": {"name": "", "highway": "path", "source": "OSM"}}, {"type": "Feature", "geometry": {"type": "LineString", "coordinates": [[12.3030058, 41.7594457], [12.3024892, 41.7594276]]}, "properties": {"name": "", "highway": "path", "source": "OSM"}}, {"type": "Feature", "geometry": {"type": "LineString", "coordinates": [[12.302411, 41.758214], [12.3021762, 41.757834], [12.301519, 41.7570997], [12.3013641, 41.7570851], [12.301274, 41.7571286], [12.3012639, 41.7571188], [12.3011975, 41.7571134]]}, "properties": {"name": "", "highway": "footway", "source": "OSM"}}, {"type": "Feature", "geometry": {"type": "LineString", "coordinates": [[12.2902012, 41.7544802], [12.2902101, 41.7544849]]}, "properties": {"name": "", "highway": "footway", "source": "OSM"}}, {"type": "Feature", "geometry": {"type": "LineString", "coordinates": [[12.2901975, 41.7544781], [12.2902012, 41.7544802]]}, "properties": {"name": "", "highway": "footway", "source": "OSM"}}, {"type": "Feature", "geometry": {"type": "LineString", "coordinates": [[12.2914783, 41.7555485], [12.2914726, 41.7555632], [12.291468, 41.7555747]]}, "properties": {"name": "", "highway": "footway", "source": "OSM"}}, {"type": "Feature", "geometry": {"type": "LineString", "coordinates": [[12.2879243, 41.7534894], [12.2879587, 41.7534446]]}, "properties": {"name": "", "highway": "steps", "source": "OSM"}}, {"type": "Feature", "geometry": {"type": "LineString", "coordinates": [[12.2967303, 41.7576155], [12.296616, 41.7577616]]}, "properties": {"name": "", "highway": "footway", "source": "OSM"}}, {"type": "Feature", "geometry": {"type": "LineString", "coordinates": [[12.2911946, 41.7545557], [12.2910241, 41.7547152]]}, "properties": {"name": "", "highway": "footway", "source": "OSM"}}, {"type": "Feature", "geometry": {"type": "LineString", "coordinates": [[12.2894174, 41.7545702], [12.2892169, 41.754481], [12.288907, 41.7543432]]}, "properties": {"name": "Decumano Massimo", "highway": "pedestrian", "source": "OSM"}}, {"type": "Feature", "geometry": {"type": "LineString", "coordinates": [[12.289481, 41.7545985], [12.2894174, 41.7545702]]}, "properties": {"name": "Decumano Massimo", "highway": "steps", "source": "OSM"}}, {"type": "Feature", "geometry": {"type": "LineString", "coordinates": [[12.2961981, 41.7575792], [12.2963163, 41.7574467], [12.2962809, 41.7574374], [12.2962445, 41.757432], [12.2962297, 41.7574134], [12.2962255, 41.7573937], [12.2962521, 41.7573531], [12.2963118, 41.7573057]]}, "properties": {"name": "", "highway": "footway", "source": "OSM"}}, {"type": "Feature", "geometry": {"type": "LineString", "coordinates": [[12.288861, 41.7543227], [12.2884704, 41.7541489], [12.2884127, 41.7541235], [12.288206, 41.754031], [12.2881764, 41.7540178], [12.287504, 41.7537207], [12.2872142, 41.75359]]}, "properties": {"name": "Decumano Massimo", "highway": "pedestrian", "source": "OSM"}}, {"type": "Feature", "geometry": {"type": "LineString", "coordinates": [[12.288907, 41.7543432], [12.288861, 41.7543227]]}, "properties": {"name": "Decumano Massimo", "highway": "steps", "source": "OSM"}}, {"type": "Feature", "geometry": {"type": "LineString", "coordinates": [[12.2880805, 41.7541871], [12.288171, 41.7542299], [12.2882838, 41.7542838]]}, "properties": {"name": "", "highway": "footway", "source": "OSM"}}, {"type": "Feature", "geometry": {"type": "LineString", "coordinates": [[12.2892322, 41.7565029], [12.2889779, 41.7567942], [12.2888649, 41.7568562]]}, "properties": {"name": "", "highway": "footway", "source": "OSM"}}, {"type": "Feature", "geometry": {"type": "LineString", "coordinates": [[12.2895939, 41.75666], [12.2895771, 41.7566817], [12.2896098, 41.7566968], [12.2896295, 41.7566756]]}, "properties": {"name": "", "highway": "footway", "source": "OSM"}}, {"type": "Feature", "geometry": {"type": "LineString", "coordinates": [[12.2904934, 41.7536081], [12.2906932, 41.7537073], [12.2907186, 41.7536828], [12.2907638, 41.753702], [12.2907701, 41.7536947]]}, "properties": {"name": "", "highway": "footway", "source": "OSM"}}, {"type": "Feature", "geometry": {"type": "LineString", "coordinates": [[12.2908622, 41.7537502], [12.2907701, 41.7536947]]}, "properties": {"name": "", "highway": "footway", "source": "OSM"}}, {"type": "Feature", "geometry": {"type": "LineString", "coordinates": [[12.2847417, 41.753404], [12.2846586, 41.7530444]]}, "properties": {"name": "Via delle Casette Tipo", "highway": "footway", "source": "OSM"}}, {"type": "Feature", "geometry": {"type": "LineString", "coordinates": [[12.2849955, 41.7542136], [12.2849733, 41.7542635]]}, "properties": {"name": "", "highway": "steps", "source": "OSM"}}, {"type": "Feature", "geometry": {"type": "LineString", "coordinates": [[12.2873021, 41.7551773], [12.2873464, 41.7551952]]}, "properties": {"name": "", "highway": "steps", "source": "OSM"}}, {"type": "Feature", "geometry": {"type": "LineString", "coordinates": [[12.2873464, 41.7551952], [12.2874054, 41.7552215]]}, "properties": {"name": "", "highway": "footway", "source": "OSM"}}, {"type": "Feature", "geometry": {"type": "LineString", "coordinates": [[12.2907902, 41.7536712], [12.2908429, 41.7536928]]}, "properties": {"name": "", "highway": "steps", "source": "OSM"}}, {"type": "Feature", "geometry": {"type": "LineString", "coordinates": [[12.2908429, 41.7536928], [12.2908735, 41.7537091]]}, "properties": {"name": "", "highway": "footway", "source": "OSM"}}, {"type": "Feature", "geometry": {"type": "LineString", "coordinates": [[12.2906932, 41.7537073], [12.2906588, 41.7537423], [12.2907976, 41.7538197], [12.2908622, 41.7537502], [12.2908786, 41.7537325]]}, "properties": {"name": "", "highway": "footway", "source": "OSM"}}, {"type": "Feature", "geometry": {"type": "LineString", "coordinates": [[12.2907701, 41.7536947], [12.2907737, 41.7536904]]}, "properties": {"name": "", "highway": "steps", "source": "OSM"}}, {"type": "Feature", "geometry": {"type": "LineString", "coordinates": [[12.2907873, 41.7536745], [12.2907902, 41.7536712]]}, "properties": {"name": "", "highway": "steps", "source": "OSM"}}, {"type": "Feature", "geometry": {"type": "LineString", "coordinates": [[12.2857121, 41.7521927], [12.2858979, 41.7521212]]}, "properties": {"name": "", "highway": "footway", "source": "OSM"}}, {"type": "Feature", "geometry": {"type": "LineString", "coordinates": [[12.2849733, 41.7542635], [12.2848937, 41.7545141]]}, "properties": {"name": "", "highway": "footway", "source": "OSM"}}, {"type": "Feature", "geometry": {"type": "LineString", "coordinates": [[12.2904059, 41.7536977], [12.2906644, 41.7538149], [12.2906369, 41.7538373], [12.2907612, 41.7538996]]}, "properties": {"name": "", "highway": "footway", "source": "OSM"}}, {"type": "Feature", "geometry": {"type": "LineString", "coordinates": [[12.2907737, 41.7536904], [12.2907873, 41.7536745]]}, "properties": {"name": "", "highway": "footway", "source": "OSM"}}, {"type": "Feature", "geometry": {"type": "LineString", "coordinates": [[12.2851789, 41.7536168], [12.285067, 41.7532162]]}, "properties": {"name": "", "highway": "footway", "source": "OSM"}}, {"type": "Feature", "geometry": {"type": "LineString", "coordinates": [[12.3016274, 41.7616624], [12.3017647, 41.7617038]]}, "properties": {"name": "", "highway": "service", "source": "OSM"}}, {"type": "Feature", "geometry": {"type": "LineString", "coordinates": [[12.2988339, 41.7569819], [12.298689, 41.7569688], [12.2980919, 41.7568449]]}, "properties": {"name": "", "highway": "service", "source": "OSM"}}, {"type": "Feature", "geometry": {"type": "LineString", "coordinates": [[12.2847837, 41.7498505], [12.2847298, 41.7499578], [12.2844109, 41.7500746], [12.2842435, 41.7500237]]}, "properties": {"name": "", "highway": "service", "source": "OSM"}}, {"type": "Feature", "geometry": {"type": "LineString", "coordinates": [[12.3017647, 41.7617038], [12.3017843, 41.761669], [12.3024, 41.7618299], [12.3023757, 41.7619032], [12.3017491, 41.7617395], [12.3017647, 41.7617038]]}, "properties": {"name": "", "highway": "service", "source": "OSM"}}, {"type": "Feature", "geometry": {"type": "LineString", "coordinates": [[12.2869697, 41.7563347], [12.2871084, 41.7562838]]}, "properties": {"name": "", "highway": "footway", "source": "OSM"}}, {"type": "Feature", "geometry": {"type": "LineString", "coordinates": [[12.2870935, 41.7604305], [12.2870493, 41.7603985], [12.2863975, 41.7602924], [12.2862688, 41.7602884], [12.286081, 41.7603465], [12.2850376, 41.7610407], [12.2848874, 41.7611287], [12.2839326, 41.761783], [12.2833693, 41.7622291], [12.2827524, 41.7628334], [12.281996, 41.7637176], [12.2812128, 41.76477], [12.2810465, 41.7650401], [12.2805852, 41.7663164], [12.2804484, 41.7667406], [12.2803625, 41.7670326], [12.2803035, 41.7671827]]}, "properties": {"name": "", "highway": "track", "source": "OSM"}}, {"type": "Feature", "geometry": {"type": "LineString", "coordinates": [[12.2799672, 41.7774244], [12.2799558, 41.7773759], [12.279871, 41.7767802], [12.2797983, 41.7764739], [12.2797638, 41.7761573], [12.2797426, 41.7759412], [12.2797836, 41.7755755], [12.2798234, 41.7753104], [12.2797778, 41.7749623], [12.2797082, 41.7745571], [12.2794759, 41.7737291], [12.2792751, 41.773233], [12.2791476, 41.7727069], [12.2791132, 41.7722724], [12.2791689, 41.7708612], [12.2791681, 41.7708121], [12.2792751, 41.7699526], [12.2793969, 41.7693632], [12.2795686, 41.7686731], [12.2797805, 41.7681009], [12.2801775, 41.7669766], [12.2806334, 41.7656903], [12.2808775, 41.7651061], [12.2810841, 41.76473], [12.2814649, 41.7641658], [12.2824037, 41.7630534], [12.2829053, 41.7625072], [12.2832781, 41.7621611], [12.2837008, 41.7618171], [12.2842759, 41.7613868], [12.2850468, 41.7608741], [12.2852227, 41.7607796], [12.2855956, 41.7605187], [12.2860397, 41.7602234], [12.286318, 41.7600286]]}, "properties": {"name": "Sentiero Pasolini", "highway": "path", "source": "OSM"}}, {"type": "Feature", "geometry": {"type": "LineString", "coordinates": [[12.2859751, 41.7601024], [12.286318, 41.7600286], [12.2865489, 41.7598937], [12.2866185, 41.7598527], [12.28679, 41.7597047], [12.2875234, 41.7588598], [12.2878766, 41.7584524], [12.2879294, 41.7583711], [12.2880642, 41.7581058], [12.2881081, 41.7577893], [12.2880717, 41.7575012], [12.2879779, 41.757266]]}, "properties": {"name": "Sentiero Pasolini", "highway": "track", "source": "OSM"}}, {"type": "Feature", "geometry": {"type": "LineString", "coordinates": [[12.3017019, 41.7568098], [12.3016347, 41.7567618]]}, "properties": {"name": "", "highway": "footway", "source": "OSM"}}, {"type": "Feature", "geometry": {"type": "LineString", "coordinates": [[12.2883375, 41.7561343], [12.2881099, 41.7555033]]}, "properties": {"name": "", "highway": "footway", "source": "OSM"}}, {"type": "Feature", "geometry": {"type": "LineString", "coordinates": [[12.2875924, 41.7559556], [12.2875016, 41.7559196]]}, "properties": {"name": "", "highway": "footway", "source": "OSM"}}, {"type": "Feature", "geometry": {"type": "LineString", "coordinates": [[12.2877274, 41.7559807], [12.2875924, 41.7559556]]}, "properties": {"name": "", "highway": "footway", "source": "OSM"}}]}