{
  "type": "FeatureCollection",
  "features": [
    {
      "type": "Feature",
      "geometry": {
        "type": "Point",
        "coordinates": [
          32.2815,
          36.2619
        ]
      },
      "properties": {
        "id": "person_trajan",
        "name": "Trajan",
        "role": "Emperor",
        "role_group": "imperial",
        "location_117": "Selinus, Cilicia (modern Gazipaşa, Turkey)",
        "one_line": "The 63-year-old emperor died here around 8-9 August, worn out and dropsical after abandoning the failed siege of Hatra; the news broke at Antioch on 11 August, the day this map is set.",
        "sources": [
          "Cass. Dio 68.33",
          "HA Hadr. 4.7",
          "https://en.wikipedia.org/wiki/Trajan"
        ]
      }
    },
    {
      "type": "Feature",
      "geometry": {
        "type": "Point",
        "coordinates": [
          36.1613,
          36.2023
        ]
      },
      "properties": {
        "id": "person_hadrian",
        "name": "Hadrian",
        "role": "Legate of Syria",
        "role_group": "imperial",
        "location_117": "Antioch, Syria",
        "one_line": "The 41-year-old legate of Syria was acclaimed emperor by the legions at Antioch on 11 August, the exact day this map is frozen on.",
        "sources": [
          "HA Hadr. 4.6-4.7",
          "Cass. Dio 69.1",
          "https://en.wikipedia.org/wiki/Hadrian"
        ]
      }
    },
    {
      "type": "Feature",
      "geometry": {
        "type": "Point",
        "coordinates": [
          32.285208,
          36.273313
        ]
      },
      "properties": {
        "id": "person_plotina",
        "name": "Plotina",
        "role": "Empress, Trajan's wife",
        "role_group": "imperial",
        "location_117": "Selinus, Cilicia",
        "one_line": "Trajan's widow stood at his deathbed at Selinus and, according to hostile later gossip, helped secure Hadrian's succession in the confused hours afterward.",
        "sources": [
          "HA Hadr. 4.1-4.10",
          "Cass. Dio 69.1.2-4",
          "https://en.wikipedia.org/wiki/Pompeia_Plotina"
        ]
      }
    },
    {
      "type": "Feature",
      "geometry": {
        "type": "Point",
        "coordinates": [
          32.271792,
          36.268953
        ]
      },
      "properties": {
        "id": "person_matidia",
        "name": "Matidia",
        "role": "Trajan's niece, Sabina's mother",
        "role_group": "imperial",
        "location_117": "Selinus, Cilicia",
        "one_line": "Trajan's niece traveled with the imperial party and was present when he died at Selinus, then accompanied his ashes back toward Rome.",
        "sources": [
          "HA Hadr. 4.1",
          "https://en.wikipedia.org/wiki/Salonia_Matidia"
        ]
      }
    },
    {
      "type": "Feature",
      "geometry": {
        "type": "Point",
        "coordinates": [
          36.1493,
          36.2023
        ]
      },
      "properties": {
        "id": "person_sabina",
        "name": "Vibia Sabina",
        "role": "Hadrian's wife",
        "role_group": "imperial",
        "location_117": "Antioch, Syria (probable location, traveling with Hadrian's household)",
        "one_line": "Hadrian's wife, married to him since 100, became empress this year as part of a household that had been based with him in the eastern provinces.",
        "sources": [
          "https://en.wikipedia.org/wiki/Sabina_(empress)",
          "HA Hadr. 2.10"
        ]
      }
    },
    {
      "type": "Feature",
      "geometry": {
        "type": "Point",
        "coordinates": [
          32.271792,
          36.254847
        ]
      },
      "properties": {
        "id": "person_attianus",
        "name": "Publius Acilius Attianus",
        "role": "Praetorian Prefect",
        "role_group": "imperial",
        "location_117": "Selinus, Cilicia",
        "one_line": "Hadrian's former guardian and joint praetorian prefect stood at Trajan's deathbed and announced Hadrian's adoption and succession on 9 August.",
        "sources": [
          "HA Hadr. 4.10",
          "https://en.wikipedia.org/wiki/Publius_Acilius_Attianus"
        ]
      }
    },
    {
      "type": "Feature",
      "geometry": {
        "type": "Point",
        "coordinates": [
          12.2833,
          41.7167
        ]
      },
      "properties": {
        "id": "person_pliny_younger",
        "name": "Pliny the Younger",
        "role": "Senator, lawyer, letter-writer",
        "role_group": "writer",
        "location_117": "Laurentine villa, near Ostia (probable site near modern Castel Fusano)",
        "one_line": "Pliny was already dead by this year, his last securely dated letters written from Bithynia-Pontus around 113; his seaside villa near Ostia stood empty of him in 117.",
        "sources": [
          "Pliny, Ep. 2.17",
          "https://en.wikipedia.org/wiki/Pliny_the_Younger"
        ]
      }
    },
    {
      "type": "Feature",
      "geometry": {
        "type": "Point",
        "coordinates": [
          12.2358,
          43.4595
        ]
      },
      "properties": {
        "id": "person_pliny_younger_tuscan",
        "name": "Pliny the Younger",
        "role": "Senator, lawyer, letter-writer",
        "role_group": "writer",
        "location_117": "Tuscan villa near Tifernum Tiberinum (modern Città di Castello)",
        "one_line": "Pliny's inland estate above the Tiber, described lovingly in his letters, sat unattended in 117, its owner already several years dead.",
        "sources": [
          "Pliny, Ep. 5.6",
          "https://en.wikipedia.org/wiki/Pliny_the_Younger"
        ]
      }
    },
    {
      "type": "Feature",
      "geometry": {
        "type": "Point",
        "coordinates": [
          12.4853,
          41.8925
        ]
      },
      "properties": {
        "id": "person_tacitus",
        "name": "Tacitus",
        "role": "Senator, historian",
        "role_group": "writer",
        "location_117": "Rome",
        "one_line": "The 61-year-old former consul and proconsul of Asia was in Rome working on the Annals, having recently finished circulating the Histories.",
        "sources": [
          "https://en.wikipedia.org/wiki/Tacitus",
          "https://en.wikipedia.org/wiki/Annals_(Tacitus)"
        ]
      }
    },
    {
      "type": "Feature",
      "geometry": {
        "type": "Point",
        "coordinates": [
          12.4733,
          41.8925
        ]
      },
      "properties": {
        "id": "person_suetonius",
        "name": "Suetonius",
        "role": "Imperial archivist, biographer",
        "role_group": "writer",
        "location_117": "Rome",
        "one_line": "Suetonius held the posts of director of the imperial libraries and keeper of the archives under Trajan and continued in the post as Hadrian's reign opened, based in Rome rather than at the front.",
        "sources": [
          "https://en.wikipedia.org/wiki/Suetonius",
          "https://www.academia.edu/34388553/Suetonius_as_ab_epistulis_to_Hadrian_and_the_Early_History_of_the_Imperial_Correspondence"
        ]
      }
    },
    {
      "type": "Feature",
      "geometry": {
        "type": "Point",
        "coordinates": [
          22.838,
          38.4939
        ]
      },
      "properties": {
        "id": "person_plutarch",
        "name": "Plutarch",
        "role": "Philosopher, biographer, priest of Apollo",
        "role_group": "writer",
        "location_117": "Chaeronea, Boeotia (holding a lifelong priesthood at nearby Delphi since c. 95)",
        "one_line": "The 71-year-old author of the Parallel Lives lived out his final years in his native Chaeronea while still holding his Delphic priesthood.",
        "sources": [
          "https://en.wikipedia.org/wiki/Plutarch",
          "https://plato.stanford.edu/entries/plutarch/"
        ]
      }
    },
    {
      "type": "Feature",
      "geometry": {
        "type": "Point",
        "coordinates": [
          20.7367,
          39.0203
        ]
      },
      "properties": {
        "id": "person_epictetus",
        "name": "Epictetus",
        "role": "Stoic philosopher",
        "role_group": "writer",
        "location_117": "Nicopolis, Epirus",
        "one_line": "The formerly enslaved Stoic, about 62 this year, ran his well-known philosophical school at Nicopolis, drawing students from across the Greek and Roman elite.",
        "sources": [
          "https://en.wikipedia.org/wiki/Epictetus",
          "https://plato.stanford.edu/entries/epictetus/"
        ]
      }
    },
    {
      "type": "Feature",
      "geometry": {
        "type": "Point",
        "coordinates": [
          12.4964,
          41.9028
        ]
      },
      "properties": {
        "id": "person_juvenal",
        "name": "Juvenal",
        "role": "Satirist",
        "role_group": "writer",
        "location_117": "Rome",
        "one_line": "Juvenal was in Rome finishing Book Two of his Satires, including Satire 6, published around this year.",
        "sources": [
          "https://en.wikipedia.org/wiki/Juvenal"
        ]
      }
    },
    {
      "type": "Feature",
      "geometry": {
        "type": "Point",
        "coordinates": [
          27.3417,
          37.9395
        ]
      },
      "properties": {
        "id": "person_rufus_ephesus",
        "name": "Rufus of Ephesus",
        "role": "Physician, medical writer",
        "role_group": "writer",
        "location_117": "Ephesus",
        "one_line": "Rufus practiced and wrote medical treatises at Ephesus; ancient sources place his active years under Trajan, though his exact dates remain debated among historians of medicine.",
        "sources": [
          "https://en.wikipedia.org/wiki/Rufus_of_Ephesus"
        ]
      }
    },
    {
      "type": "Feature",
      "geometry": {
        "type": "Point",
        "coordinates": [
          12.4964,
          41.9148
        ]
      },
      "properties": {
        "id": "person_soranus_ephesus",
        "name": "Soranus of Ephesus",
        "role": "Physician, gynecological writer",
        "role_group": "writer",
        "location_117": "Rome",
        "one_line": "The Ephesus-born physician practiced medicine in Rome across the reigns of Trajan and Hadrian, later writing the influential Gynaecology.",
        "sources": [
          "https://en.wikipedia.org/wiki/Soranus_of_Ephesus"
        ]
      }
    },
    {
      "type": "Feature",
      "geometry": {
        "type": "Point",
        "coordinates": [
          20.7247,
          39.0203
        ]
      },
      "properties": {
        "id": "person_arrian",
        "name": "Arrian",
        "role": "Student, future historian and general",
        "role_group": "writer",
        "location_117": "Nicopolis, Epirus",
        "one_line": "The roughly 31-year-old Bithynian was studying under Epictetus at Nicopolis around this time, taking the notes that would become the Discourses, decades before his own career as historian and general.",
        "sources": [
          "https://en.wikipedia.org/wiki/Arrian",
          "https://www.livius.org/sources/content/arrian/"
        ]
      }
    },
    {
      "type": "Feature",
      "geometry": {
        "type": "Point",
        "coordinates": [
          12.4844,
          41.9028
        ]
      },
      "properties": {
        "id": "person_favorinus",
        "name": "Favorinus of Arles",
        "role": "Sophist, philosopher",
        "role_group": "writer",
        "location_117": "Rome",
        "one_line": "The Gaulish-born sophist had already built a reputation in Rome and Athens by this year and was moving in the circle that would soon include the new emperor Hadrian.",
        "sources": [
          "https://en.wikipedia.org/wiki/Favorinus"
        ]
      }
    },
    {
      "type": "Feature",
      "geometry": {
        "type": "Point",
        "coordinates": [
          32.285208,
          36.250487
        ]
      },
      "properties": {
        "id": "person_statilius_crito",
        "name": "Titus Statilius Crito",
        "role": "Trajan's personal physician",
        "role_group": "writer",
        "location_117": "Selinus, Cilicia (probable, attending the dying emperor)",
        "one_line": "Trajan's own physician since the Dacian campaigns, known to the Suda as Criton of Heraclea and author of a lost history of those wars called the Getica, was probably still attending the emperor when he died at Selinus.",
        "sources": [
          "https://en.wikipedia.org/wiki/Criton_of_Heraclea",
          "Suda s.v. Kriton"
        ]
      }
    },
    {
      "type": "Feature",
      "geometry": {
        "type": "Point",
        "coordinates": [
          34.8338,
          32.0807
        ]
      },
      "properties": {
        "id": "person_rabbi_akiva",
        "name": "Rabbi Akiva",
        "role": "Rabbinic sage",
        "role_group": "religious",
        "location_117": "Bnei Brak, Judaea",
        "one_line": "In his sixties, Akiva ran his academy at Bnei Brak while the Kitos War burned through nearby Lydda and the wider Jewish diaspora.",
        "sources": [
          "https://en.wikipedia.org/wiki/Akiva_ben_Yosef"
        ]
      }
    },
    {
      "type": "Feature",
      "geometry": {
        "type": "Point",
        "coordinates": [
          34.8854,
          31.9515
        ]
      },
      "properties": {
        "id": "person_gamaliel_ii",
        "name": "Rabban Gamaliel II",
        "role": "Nasi of the Sanhedrin",
        "role_group": "religious",
        "location_117": "Lydda, Judaea",
        "one_line": "The patriarch of the Sanhedrin was caught up in the distress at Lydda during Lusius Quietus's siege of the town, and would die within the year.",
        "sources": [
          "https://www.jewishencyclopedia.com/articles/11897-pappus",
          "https://en.wikipedia.org/wiki/Gamaliel_II"
        ]
      }
    },
    {
      "type": "Feature",
      "geometry": {
        "type": "Point",
        "coordinates": [
          12.4964,
          41.8908
        ]
      },
      "properties": {
        "id": "person_ignatius_antioch",
        "name": "Ignatius of Antioch",
        "role": "Bishop of Antioch",
        "role_group": "religious",
        "location_117": "Rome (site of martyrdom; died c. 108, roughly a decade before this snapshot)",
        "one_line": "Ignatius was already dead by this year, condemned to the beasts in Rome's arena around 108 after writing his seven letters on the journey from Antioch.",
        "sources": [
          "Eusebius, Hist. Eccl. 3.36",
          "https://en.wikipedia.org/wiki/Ignatius_of_Antioch"
        ]
      }
    },
    {
      "type": "Feature",
      "geometry": {
        "type": "Point",
        "coordinates": [
          27.1287,
          38.4192
        ]
      },
      "properties": {
        "id": "person_polycarp_smyrna",
        "name": "Polycarp of Smyrna",
        "role": "Bishop of Smyrna",
        "role_group": "religious",
        "location_117": "Smyrna",
        "one_line": "About 48 years old, Polycarp was already established as bishop of Smyrna, a position he is attested to have held by this year at the latest.",
        "sources": [
          "https://en.wikipedia.org/wiki/Polycarp",
          "Irenaeus, Adv. Haer. 3.3.4"
        ]
      }
    },
    {
      "type": "Feature",
      "geometry": {
        "type": "Point",
        "coordinates": [
          34.8933,
          32.5
        ]
      },
      "properties": {
        "id": "person_lusius_quietus",
        "name": "Lusius Quietus",
        "role": "General, legate of Judaea",
        "role_group": "military",
        "location_117": "Caesarea Maritima / Judaea",
        "one_line": "Trajan's Berber cavalry commander, fresh off crushing the Jewish revolt in Mesopotamia, was appointed governor of Judaea in 117 and moved to besiege the rebels holding Lydda.",
        "sources": [
          "https://en.wikipedia.org/wiki/Lusius_Quietus",
          "Eusebius, Hist. Eccl. 4.2"
        ]
      }
    },
    {
      "type": "Feature",
      "geometry": {
        "type": "Point",
        "coordinates": [
          29.9187,
          31.2001
        ]
      },
      "properties": {
        "id": "person_marcius_turbo",
        "name": "Quintus Marcius Turbo",
        "role": "General",
        "role_group": "military",
        "location_117": "Alexandria, Egypt",
        "one_line": "Marcius Turbo led a combined land and naval force that crushed the Jewish revolt in Egypt and Cyrenaica through 117, driving the rebel Lukuas out of Alexandria.",
        "sources": [
          "Cass. Dio 68.32",
          "https://en.wikipedia.org/wiki/Quintus_Marcius_Turbo"
        ]
      }
    },
    {
      "type": "Feature",
      "geometry": {
        "type": "Point",
        "coordinates": [
          34.8734,
          31.9515
        ]
      },
      "properties": {
        "id": "person_lukuas",
        "name": "Lukuas",
        "role": "Rebel leader, self-proclaimed king",
        "role_group": "military",
        "location_117": "Fleeing toward Judaea after the fall of the Cyrenaica-Egypt revolt",
        "one_line": "The Jewish rebel leader Cassius Dio calls Andreas, and Eusebius calls a self-styled king, burned Alexandria before being driven out by Marcius Turbo and fleeing east toward Judaea in 117.",
        "sources": [
          "Cass. Dio 68.32",
          "Eusebius, Hist. Eccl. 4.2",
          "https://en.wikipedia.org/wiki/Lukuas"
        ]
      }
    },
    {
      "type": "Feature",
      "geometry": {
        "type": "Point",
        "coordinates": [
          -2.3612,
          54.991
        ]
      },
      "properties": {
        "id": "person_chrauttius",
        "name": "Chrauttius",
        "role": "Cavalry trooper, Ninth Cohort of Batavians",
        "role_group": "military",
        "location_117": "Vindolanda, Britannia (modern Northumberland, England)",
        "attested": "Vindolanda tablet, c. 97-105 CE",
        "one_line": "A Batavian trooper on the northern British frontier who wrote to his old messmate Veldeius, then serving in London, to complain that he never wrote back, pass on greetings to their comrades, and ask him to buy a pair of shears.",
        "sources": [
          "Tab. Vindol. II.310",
          "https://romaninscriptionsofbritain.org/inscriptions/TabVindol310"
        ]
      }
    },
    {
      "type": "Feature",
      "geometry": {
        "type": "Point",
        "coordinates": [
          -0.118,
          51.509
        ]
      },
      "properties": {
        "id": "person_veldeius",
        "name": "Veldeius",
        "role": "Cavalry trooper, later groom to the provincial governor",
        "role_group": "military",
        "location_117": "Londinium, Britannia (modern London, England)",
        "attested": "Vindolanda tablet, c. 97-105 CE",
        "one_line": "A Batavian trooper who left the frontier for a posting on the governor's staff in London as his personal groom. A scrap of leather cut with his name was found back at Vindolanda, where his friend Chrauttius was still stationed.",
        "sources": [
          "Tab. Vindol. II.310",
          "https://romaninscriptionsofbritain.org/inscriptions/TabVindol310"
        ]
      }
    },
    {
      "type": "Feature",
      "geometry": {
        "type": "Point",
        "coordinates": [
          -2.3382,
          54.9836
        ]
      },
      "properties": {
        "id": "person_octavius_trader",
        "name": "Octavius",
        "role": "Trader in hides, grain and sinew",
        "role_group": "ordinary",
        "location_117": "Vindolanda district, Britannia (modern Northumberland, England)",
        "attested": "Vindolanda tablet, c. 97-105 CE",
        "one_line": "A civilian contractor supplying the frontier garrisons who wrote to his associate Candidus about 5,000 measures of grain and 170 hides waiting on a deal, and asked urgently for cash to cover the deposit he had already promised.",
        "sources": [
          "Tab. Vindol. II.343",
          "https://romaninscriptionsofbritain.org/inscriptions/TabVindol343"
        ]
      }
    },
    {
      "type": "Feature",
      "geometry": {
        "type": "Point",
        "coordinates": [
          -2.3712,
          54.9954
        ]
      },
      "properties": {
        "id": "person_masclus",
        "name": "Masclus",
        "role": "Decurion, Ninth Cohort of Batavians",
        "role_group": "military",
        "location_117": "Vindolanda, Britannia (modern Northumberland, England)",
        "attested": "Vindolanda tablet, c. 97-105 CE",
        "one_line": "A cavalry officer who wrote to his prefect asking for the next day's orders and whether all the men should bring the standards back to the crossroads, then added a postscript: his comrades had run out of beer, and would he please send more.",
        "sources": [
          "Tab. Vindol. III.628",
          "https://romaninscriptionsofbritain.org/inscriptions/TabVindol628"
        ]
      }
    },
    {
      "type": "Feature",
      "geometry": {
        "type": "Point",
        "coordinates": [
          -2.3555,
          54.9878
        ]
      },
      "properties": {
        "id": "person_cassius_saecularis",
        "name": "Cassius Saecularis",
        "role": "Officer in charge of garrison supply",
        "role_group": "military",
        "location_117": "Vindolanda, Britannia (modern Northumberland, England)",
        "attested": "Vindolanda tablets, c. 97-105 CE",
        "one_line": "The man at Vindolanda who received the letters about barley and building timber. Several correspondents wrote to him about getting supplies up to the fort, including an eagle-bearer of the Second Legion writing from South Wales.",
        "sources": [
          "Tab. Vindol. II.213-215",
          "https://romaninscriptionsofbritain.org/inscriptions/TabVindol214"
        ]
      }
    },
    {
      "type": "Feature",
      "geometry": {
        "type": "Point",
        "coordinates": [
          -2.3668,
          54.9932
        ]
      },
      "properties": {
        "id": "person_severus_cornicularius",
        "name": "Severus",
        "role": "Cornicularius (clerk to a centurion)",
        "role_group": "military",
        "location_117": "Vindolanda, Britannia (modern Northumberland, England)",
        "attested": "Vindolanda tablet, c. 97-105 CE",
        "one_line": "A military clerk who wrote to Candidus, another household's slave, to settle up the cost of goods bought for the Saturnalia and to ask for radishes for the feast. He addressed the enslaved man as brother.",
        "sources": [
          "Tab. Vindol. II.301",
          "A. Birley et al., 'Slavery on the Northern Frontier: A Stylus Tablet from Vindolanda', Britannia (2024)"
        ]
      }
    },
    {
      "type": "Feature",
      "geometry": {
        "type": "Point",
        "coordinates": [
          -2.3486,
          54.9894
        ]
      },
      "properties": {
        "id": "person_candidus_slave",
        "name": "Candidus",
        "role": "Slave of the prefect Flavius Genialis",
        "role_group": "ordinary",
        "location_117": "Vindolanda, Britannia (modern Northumberland, England)",
        "attested": "Vindolanda tablet, c. 97-105 CE",
        "one_line": "An enslaved man who ran the household purchasing for a fort commander on the edge of the empire, buying in supplies for the Saturnalia and haggling over the bill with a legionary clerk who called him brother.",
        "sources": [
          "Tab. Vindol. II.301",
          "A. Birley et al., 'Slavery on the Northern Frontier: A Stylus Tablet from Vindolanda', Britannia (2024)"
        ]
      }
    },
    {
      "type": "Feature",
      "geometry": {
        "type": "Point",
        "coordinates": [
          -2.3452,
          54.9968
        ]
      },
      "properties": {
        "id": "person_cessaucius_nigrinus",
        "name": "Cessaucius Nigrinus",
        "role": "Duplicarius (cavalry NCO on double pay)",
        "role_group": "military",
        "location_117": "Vindolanda district, Britannia (modern Northumberland, England)",
        "attested": "Vindolanda tablet, c. 97-105 CE",
        "one_line": "A cavalryman drawing double pay, named as the recipient of a letter from a man called Tullio. His name turns up again on the back of another tablet from the same fort, which puts him at or near Vindolanda.",
        "sources": [
          "Tab. Vindol. II.312",
          "https://romaninscriptionsofbritain.org/inscriptions/TabVindol312"
        ]
      }
    },
    {
      "type": "Feature",
      "geometry": {
        "type": "Point",
        "coordinates": [
          -2.956,
          51.614
        ]
      },
      "properties": {
        "id": "person_vittius_adiutor",
        "name": "Vittius Adiutor",
        "role": "Aquilifer (eagle-bearer), Second Legion Augusta",
        "role_group": "military",
        "location_117": "Isca Silurum, Britannia (modern Caerleon, Wales)",
        "attested": "Vindolanda tablet, c. 97-105 CE",
        "one_line": "The soldier who carried the eagle standard of the Second Legion Augusta, based at the great fortress in South Wales. He wrote north to Vindolanda about supplies, in the tone of one officer to an equal.",
        "sources": [
          "Tab. Vindol. II.214",
          "https://romaninscriptionsofbritain.org/inscriptions/TabVindol214"
        ]
      }
    },
    {
      "type": "Feature",
      "geometry": {
        "type": "Point",
        "coordinates": [
          24.286,
          41.013
        ]
      },
      "properties": {
        "id": "person_tiberius_claudius_maximus",
        "name": "Tiberius Claudius Maximus",
        "role": "Cavalry decurion, veteran of the Dacian Wars",
        "role_group": "military",
        "location_117": "Philippi, Macedonia (modern Filippoi, Greece)",
        "attested": "Funerary monument he set up himself, CIL III 14214",
        "one_line": "The trooper who ran down the Dacian king Decebalus in 106 CE and carried his severed head to Trajan, and was promoted decurion for it. He retired to Philippi and carved the whole scene onto his own tombstone, where he was still living in 117 CE.",
        "sources": [
          "CIL III 14214",
          "M. Speidel, 'The Captor of Decebalus', Journal of Roman Studies 60 (1970)",
          "https://en.wikipedia.org/wiki/Tiberius_Claudius_Maximus"
        ]
      }
    },
    {
      "type": "Feature",
      "geometry": {
        "type": "Point",
        "coordinates": [
          32.2951,
          36.2703
        ]
      },
      "properties": {
        "id": "person_ulpius_phaedimus",
        "name": "Marcus Ulpius Phaedimus",
        "role": "Imperial freedman, Trajan's personal attendant",
        "role_group": "ordinary",
        "location_117": "Selinus, Cilicia (modern Gazipasa, Turkey)",
        "attested": "Epitaph, CIL VI 1884",
        "one_line": "Trajan's 28-year-old cupbearer, chief lictor and keeper of the register of imperial favours. He died at Selinus on 12 August 117, the day after the news of Trajan's own death reached Hadrian. His body waited twelve years for permission to come home to Rome.",
        "sources": [
          "CIL VI 1884",
          "Vatican Museums, Galleria Lapidaria, 'Epitaph of a lictor'",
          "https://followinghadrian.com/2017/08/12/12th-august-117-a-mysterious-death-occurs-in-selinus-hadrian1900/"
        ]
      }
    },
    {
      "type": "Feature",
      "geometry": {
        "type": "Point",
        "coordinates": [
          29.96,
          31.21
        ]
      },
      "properties": {
        "id": "person_claudius_terentianus",
        "name": "Claudius Terentianus",
        "role": "Sailor of the Alexandrian fleet, later legionary",
        "role_group": "military",
        "location_117": "Nikopolis, near Alexandria, Aegyptus (modern Egypt)",
        "attested": "Letters in the Karanis archive, P.Mich. VIII",
        "one_line": "He enlisted in the Alexandrian fleet around 110 CE and transferred into the Twenty-Second Legion during the Jewish revolt of 115-117. His letters home to his father survive because the family kept them in a niche under the stairs.",
        "sources": [
          "P.Mich. VIII (archive of Claudius Terentianus)",
          "https://en.wikipedia.org/wiki/Claudius_Terentianus"
        ]
      }
    },
    {
      "type": "Feature",
      "geometry": {
        "type": "Point",
        "coordinates": [
          30.899,
          29.522
        ]
      },
      "properties": {
        "id": "person_claudius_tiberianus",
        "name": "Claudius Tiberianus",
        "role": "Army veteran, former speculator (legionary courier)",
        "role_group": "military",
        "location_117": "Karanis, Aegyptus (modern Kom Aushim, Egypt)",
        "attested": "Letters in the Karanis archive, P.Mich. VIII",
        "one_line": "A discharged army courier settled in a Fayum village, receiving letters from his son Terentianus in the fleet. Excavators found the whole family correspondence stuffed into a niche beneath his staircase, exactly where he left it.",
        "sources": [
          "P.Mich. VIII (archive of Claudius Tiberianus)",
          "https://en.wikipedia.org/wiki/Claudius_Tiberianus"
        ]
      }
    },
    {
      "type": "Feature",
      "geometry": {
        "type": "Point",
        "coordinates": [
          36.481,
          32.517
        ]
      },
      "properties": {
        "id": "person_julius_apollinarius",
        "name": "Gaius Julius Apollinarius",
        "role": "Legionary, Third Legion Cyrenaica",
        "role_group": "military",
        "location_117": "Bostra, Arabia Petraea (modern Bosra, Syria)",
        "attested": "Letters, P.Mich. VIII.465-466, dated 107-108 CE",
        "one_line": "A soldier posted to the new province of Arabia who wrote home asking his father to pull strings and get him a desk job as a company clerk, rather than the stone-cutting and quarry work the rest of the legion was doing.",
        "sources": [
          "P.Mich. VIII.465-466",
          "https://aquila.zaw.uni-heidelberg.de/ddb/P.Mich.;8;;466;;"
        ]
      }
    },
    {
      "type": "Feature",
      "geometry": {
        "type": "Point",
        "coordinates": [
          14.086,
          40.783
        ]
      },
      "properties": {
        "id": "person_apion_antonius_maximus",
        "name": "Apion (Antonius Maximus)",
        "role": "Naval recruit, fleet at Misenum",
        "role_group": "military",
        "location_117": "Misenum, Italia (modern Miseno, Italy)",
        "attested": "Letter, BGU II.423, dated 102-103 CE",
        "one_line": "An Egyptian villager who crossed the sea to join the fleet and wrote home to his father the moment he landed: the voyage was safe, the emperor's travel money had come through, and he had a Roman name now.",
        "sources": [
          "BGU II.423",
          "https://berlpap.smb.museum/privatbrief-eines-soldaten/?lang=en"
        ]
      }
    },
    {
      "type": "Feature",
      "geometry": {
        "type": "Point",
        "coordinates": [
          35.55,
          31.03
        ]
      },
      "properties": {
        "id": "person_babatha",
        "name": "Babatha",
        "role": "Landowner, date-palm farmer",
        "role_group": "ordinary",
        "location_117": "Maoza, Arabia Petraea (near modern Ghor es-Safi, Jordan)",
        "attested": "Personal archive, P.Yadin 1-35, 94-132 CE",
        "one_line": "A Jewish woman farming date palms on the south shore of the Dead Sea, who kept every deed, lawsuit and marriage contract of her life in a leather purse. She hid it in a cave during the revolt of 132 and never came back for it.",
        "sources": [
          "P.Yadin archive (Cave of Letters)",
          "https://en.wikipedia.org/wiki/Babatha",
          "https://jwa.org/encyclopedia/article/babatha"
        ]
      }
    },
    {
      "type": "Feature",
      "geometry": {
        "type": "Point",
        "coordinates": [
          35.5624,
          31.0418
        ]
      },
      "properties": {
        "id": "person_shimon_ben_menahem",
        "name": "Shimon son of Menahem",
        "role": "Landowner, date-palm farmer",
        "role_group": "ordinary",
        "location_117": "Maoza, Arabia Petraea (near modern Ghor es-Safi, Jordan)",
        "attested": "Deed of 99 CE and later documents in the Babatha archive",
        "one_line": "Babatha's father, who bought a date-palm orchard from the Nabataean governor Archelaus in 99 CE and later signed it over to his daughter. He was still alive in 117 CE and dead by 124.",
        "sources": [
          "P.Yadin archive (deed of gift)",
          "https://jwa.org/encyclopedia/article/babatha"
        ]
      }
    },
    {
      "type": "Feature",
      "geometry": {
        "type": "Point",
        "coordinates": [
          35.5388,
          31.0186
        ]
      },
      "properties": {
        "id": "person_jesus_son_of_jesus",
        "name": "Jesus son of Jesus",
        "role": "Villager of Maoza, Babatha's first husband",
        "role_group": "ordinary",
        "location_117": "Maoza, Arabia Petraea (near modern Ghor es-Safi, Jordan)",
        "attested": "Babatha archive, P.Yadin 1-35",
        "one_line": "Babatha's first husband and the father of her only son. He was alive at the 117 CE snapshot and dead before 124, leaving her to fight the Petra town council for years over the boy's guardianship money.",
        "sources": [
          "P.Yadin archive",
          "https://en.wikipedia.org/wiki/Babatha"
        ]
      }
    },
    {
      "type": "Feature",
      "geometry": {
        "type": "Point",
        "coordinates": [
          35.5732,
          31.0242
        ]
      },
      "properties": {
        "id": "person_salome_komaise",
        "name": "Salome Komaise",
        "role": "Landowner of Maoza",
        "role_group": "ordinary",
        "location_117": "Maoza, Arabia Petraea (near modern Ghor es-Safi, Jordan)",
        "attested": "Personal archive, XHev/Se papyri, c. 125-131 CE",
        "one_line": "A second woman of the same Dead Sea village who hid a second bundle of legal papers in the same cave. Her documents cover a tax registration, a property settlement and her own marriage certificate.",
        "sources": [
          "XHev/Se 60-65",
          "H. Cotton, 'The Archive of Salome Komaise Daughter of Levi'",
          "Trismegistos archive 207"
        ]
      }
    },
    {
      "type": "Feature",
      "geometry": {
        "type": "Point",
        "coordinates": [
          35.3894,
          31.4587
        ]
      },
      "properties": {
        "id": "person_judah_khthousion",
        "name": "Judah Khthousion",
        "role": "Landowner of En-Gedi",
        "role_group": "ordinary",
        "location_117": "En-Gedi, Judaea (modern Israel)",
        "attested": "Babatha archive, P.Yadin 14-17",
        "one_line": "An En-Gedi man with three date orchards who became Babatha's second husband and legal guardian. He was already married to Miriam when he married her, and his death left the two women suing each other over his estate.",
        "sources": [
          "P.Yadin 14, 15, 17",
          "https://jwa.org/encyclopedia/article/babatha"
        ]
      }
    },
    {
      "type": "Feature",
      "geometry": {
        "type": "Point",
        "coordinates": [
          35.4016,
          31.4692
        ]
      },
      "properties": {
        "id": "person_miriam_bat_beianus",
        "name": "Miriam daughter of Beianus",
        "role": "Householder of En-Gedi",
        "role_group": "ordinary",
        "location_117": "En-Gedi, Judaea (modern Israel)",
        "attested": "Babatha archive, P.Yadin",
        "one_line": "Judah Khthousion's first wife, who went on sharing a husband with Babatha and then went to court against her over what he left behind. Her brother Jonathan appears in the same papers.",
        "sources": [
          "P.Yadin archive",
          "https://jwa.org/encyclopedia/article/babatha"
        ]
      }
    },
    {
      "type": "Feature",
      "geometry": {
        "type": "Point",
        "coordinates": [
          35.5466,
          31.0374
        ]
      },
      "properties": {
        "id": "person_shelamzion",
        "name": "Shelamzion daughter of Judah",
        "role": "Bride of Maoza, Babatha's stepdaughter",
        "role_group": "ordinary",
        "location_117": "Maoza, Arabia Petraea (near modern Ghor es-Safi, Jordan)",
        "attested": "Marriage contract, P.Yadin 18, dated 128 CE",
        "one_line": "Judah Khthousion's daughter, whose Greek marriage contract of 128 CE survives in full, dowry and all. She was a child in the household at the 117 CE snapshot.",
        "sources": [
          "P.Yadin 18",
          "https://cojs.org"
        ]
      }
    },
    {
      "type": "Feature",
      "geometry": {
        "type": "Point",
        "coordinates": [
          35.3768,
          31.4478
        ]
      },
      "properties": {
        "id": "person_judah_cimber",
        "name": "Judah Cimber",
        "role": "Householder of En-Gedi",
        "role_group": "ordinary",
        "location_117": "En-Gedi, Judaea (modern Israel)",
        "attested": "Marriage contract, P.Yadin 18, dated 128 CE",
        "one_line": "Son of Ananias son of Somalas, of En-Gedi but living at Maoza. He married Shelamzion in 128 CE under a contract that spells out her dowry and his obligations in Greek legal formula.",
        "sources": [
          "P.Yadin 18",
          "https://cojs.org"
        ]
      }
    },
    {
      "type": "Feature",
      "geometry": {
        "type": "Point",
        "coordinates": [
          35.4444,
          30.3285
        ]
      },
      "properties": {
        "id": "person_abdoobdas",
        "name": "Abdoobdas son of Illouthas",
        "role": "Guardian appointed by the council of Petra",
        "role_group": "ordinary",
        "location_117": "Petra, Arabia Petraea (modern Jordan)",
        "attested": "Babatha archive, P.Yadin 12-13, dated 124 CE",
        "one_line": "A Nabataean named by the Petra town council as guardian of Babatha's orphaned son, on an allowance she thought insulting. She took the council to court over the amount and the file survives.",
        "sources": [
          "P.Yadin 12-13",
          "H. Cotton, 'The Guardianship of Jesus Son of Babatha', JRS"
        ]
      }
    },
    {
      "type": "Feature",
      "geometry": {
        "type": "Point",
        "coordinates": [
          35.4568,
          30.3392
        ]
      },
      "properties": {
        "id": "person_john_son_of_eglas",
        "name": "John son of Eglas",
        "role": "Guardian appointed by the council of Petra",
        "role_group": "ordinary",
        "location_117": "Petra, Arabia Petraea (modern Jordan)",
        "attested": "Babatha archive, P.Yadin 12-13, dated 124 CE",
        "one_line": "The Jewish half of the pair of guardians the Petra council put over Babatha's son. He and his Nabataean colleague between them paid the boy a monthly allowance his mother took them to court to increase.",
        "sources": [
          "P.Yadin 12-13",
          "H. Cotton, 'The Guardianship of Jesus Son of Babatha', JRS"
        ]
      }
    }
  ]
}
