{"type":"FeatureCollection","features":[{"type":"Feature","geometry":{"type":"LineString","coordinates":[[13.3712924,45.7690168],[13.3717637,45.7691021],[13.3718084,45.769154],[13.3717935,45.7692117],[13.3717422,45.7692359],[13.3716761,45.7692463],[13.3714125,45.7692005],[13.3713305,45.7691863],[13.3712691,45.7691499],[13.371258,45.7691057],[13.3712924,45.7690168],[13.3713227,45.7689399]]},"properties":{"site":"aquileia","name":"","highway":"service"}},{"type":"Feature","geometry":{"type":"LineString","coordinates":[[13.3700308,45.769465],[13.3699128,45.769671],[13.3698609,45.7696567],[13.3697621,45.7696294],[13.3697347,45.7696218],[13.3697177,45.7696485],[13.3696968,45.7696823],[13.3697159,45.7696882],[13.3698973,45.7697382],[13.3698163,45.7698779],[13.3696203,45.7698335],[13.3696025,45.7698288],[13.3695197,45.7699472],[13.3695025,45.769973],[13.3698207,45.7700659],[13.3701101,45.7701444],[13.3701872,45.7701573],[13.3702729,45.7700018],[13.3704391,45.7696831],[13.3704505,45.7696635],[13.3704428,45.7696614],[13.370486,45.7695849],[13.3704607,45.7695788],[13.3703708,45.7695571],[13.3701666,45.7694995],[13.3700886,45.7694783],[13.3700308,45.769465]]},"properties":{"site":"aquileia","name":"Piazza Capitolo","highway":"pedestrian"}},{"type":"Feature","geometry":{"type":"LineString","coordinates":[[13.3648163,45.7628996],[13.3646866,45.7630938],[13.3646016,45.7632625]]},"properties":{"site":"aquileia","name":"","highway":"path"}},{"type":"Feature","geometry":{"type":"LineString","coordinates":[[13.3659827,45.763197],[13.365898,45.7633687],[13.3657844,45.7635949]]},"properties":{"site":"aquileia","name":"","highway":"path"}},{"type":"Feature","geometry":{"type":"LineString","coordinates":[[13.3619485,45.7682253],[13.3619217,45.7682975],[13.3618705,45.7684365],[13.3618415,45.7685433],[13.3617771,45.7686972],[13.3616666,45.7690416],[13.3615607,45.7693991],[13.3614665,45.7697226],[13.3612522,45.7703217],[13.3612339,45.7703926],[13.3612185,45.7705275],[13.3612411,45.770574],[13.3613379,45.7706453],[13.3614887,45.7707114],[13.361666,45.7708197],[13.3617634,45.7709174],[13.3618669,45.7710188],[13.3619224,45.7710812],[13.3619692,45.7711535],[13.3619786,45.7712193],[13.3619854,45.7712975],[13.3619883,45.7713808],[13.3619751,45.7714901],[13.3619495,45.7716348],[13.3619156,45.7717696],[13.3619086,45.7718514],[13.3619056,45.7719005],[13.3619206,45.7719858],[13.3619508,45.7720778],[13.3619907,45.7721439],[13.3620372,45.7721821],[13.3621195,45.7722203],[13.3622139,45.7722666],[13.3622841,45.7723201],[13.3623315,45.7723552],[13.3623729,45.7723983],[13.3624372,45.7724738],[13.3624884,45.772588],[13.3624979,45.7726643],[13.3624821,45.7727458],[13.3624686,45.7727945],[13.3623978,45.7728519],[13.3623215,45.7729755],[13.3621281,45.7733337],[13.3618093,45.773902],[13.3616458,45.7741861],[13.3615409,45.7743648],[13.3612793,45.7748323],[13.3610872,45.7751782],[13.3610286,45.7752618],[13.3609686,45.7753094],[13.3609032,45.7753455],[13.3608392,45.7753816],[13.360737,45.7754471],[13.360628,45.7755612],[13.3605763,45.7756363],[13.3604904,45.7757721],[13.3603923,45.7759451],[13.3600858,45.7764687],[13.3600637,45.776507],[13.3597792,45.7770008],[13.359673,45.777188]]},"properties":{"site":"aquileia","name":"","highway":"track"}},{"type":"Feature","geometry":{"type":"LineString","coordinates":[[13.3686618,45.7658903],[13.3679718,45.7656554]]},"properties":{"site":"aquileia","name":"","highway":"service"}},{"type":"Feature","geometry":{"type":"LineString","coordinates":[[13.3627682,45.7656537],[13.3627703,45.7654216],[13.3627703,45.7652128],[13.362776,45.7651265],[13.3627797,45.7650697],[13.3627844,45.7650064],[13.3628055,45.7649056],[13.3628477,45.7647484],[13.3628993,45.7645748],[13.3629392,45.7644247],[13.3629861,45.7642441],[13.3630588,45.7640212],[13.3631057,45.76385],[13.3631518,45.7637275],[13.3632123,45.7635688],[13.3632113,45.76347]]},"properties":{"site":"aquileia","name":"Via Eugenio Curiel","highway":"track"}},{"type":"Feature","geometry":{"type":"LineString","coordinates":[[13.3624686,45.7727945],[13.3626533,45.7728108],[13.3629826,45.7728148],[13.3632206,45.7728216],[13.363541,45.7728256],[13.3638192,45.7728279],[13.3639698,45.772829],[13.3640939,45.7728278],[13.3642065,45.7728354],[13.3643661,45.7728518],[13.3645039,45.7728767],[13.3647126,45.772913],[13.3648616,45.7729389],[13.3650827,45.7729698],[13.3653394,45.7730049],[13.3656132,45.7730458],[13.3658035,45.7730858],[13.3660179,45.7731561],[13.3660622,45.77317],[13.3661169,45.7731871]]},"properties":{"site":"aquileia","name":"","highway":"track"}},{"type":"Feature","geometry":{"type":"LineString","coordinates":[[13.3632113,45.76347],[13.3632739,45.7633243],[13.3633257,45.7631712],[13.3633611,45.7630344],[13.3634428,45.7628053],[13.36353,45.7625392],[13.3636077,45.7622892],[13.3636826,45.7620839],[13.3637358,45.7619128],[13.3637807,45.7617474]]},"properties":{"site":"aquileia","name":"","highway":"track"}},{"type":"Feature","geometry":{"type":"LineString","coordinates":[[13.3636181,45.7625953],[13.363553,45.7628016],[13.3639361,45.7629106],[13.3641235,45.7629489],[13.3646866,45.7630938]]},"properties":{"site":"aquileia","name":"","highway":"path"}},{"type":"Feature","geometry":{"type":"LineString","coordinates":[[13.3698519,45.7634273],[13.3700661,45.7634836]]},"properties":{"site":"aquileia","name":"Borgo Libertà","highway":"footway"}},{"type":"Feature","geometry":{"type":"LineString","coordinates":[[13.3695926,45.7641491],[13.3694488,45.7641056],[13.3694024,45.7640614],[13.3694239,45.7639978],[13.36953,45.7638633]]},"properties":{"site":"aquileia","name":"","highway":"service"}},{"type":"Feature","geometry":{"type":"LineString","coordinates":[[13.3693157,45.7755474],[13.3692457,45.7755639],[13.369131,45.7755544],[13.3690537,45.7755908]]},"properties":{"site":"aquileia","name":"Via Sacra","highway":"footway"}},{"type":"Feature","geometry":{"type":"LineString","coordinates":[[13.3710861,45.7709742],[13.3709981,45.7710457],[13.3708138,45.7711844],[13.3706745,45.771332],[13.370579,45.771449],[13.3704698,45.7716367],[13.3703882,45.7718035],[13.3702596,45.7721662],[13.3701391,45.7724107],[13.3700399,45.7726217],[13.3699069,45.7730097],[13.3698565,45.7731782]]},"properties":{"site":"aquileia","name":"Via Sacra","highway":"footway"}},{"type":"Feature","geometry":{"type":"LineString","coordinates":[[13.3698565,45.7731782],[13.36983,45.7732728]]},"properties":{"site":"aquileia","name":"Via Sacra","highway":"footway"}},{"type":"Feature","geometry":{"type":"LineString","coordinates":[[13.3697162,45.7736076],[13.3695029,45.7742454],[13.3695076,45.7743036],[13.3694948,45.7743775],[13.3694528,45.7745578],[13.3693651,45.7750618],[13.3693145,45.7754399],[13.3693157,45.7755474]]},"properties":{"site":"aquileia","name":"Via Sacra","highway":"footway"}},{"type":"Feature","geometry":{"type":"LineString","coordinates":[[13.3710012,45.7755103],[13.3711802,45.775461],[13.3713343,45.7754682],[13.371379,45.7754759],[13.3714997,45.7754964],[13.3717253,45.7755349],[13.3719497,45.7755731],[13.3721747,45.7756115],[13.3722814,45.7756297],[13.3723977,45.7756495],[13.3726369,45.7756903]]},"properties":{"site":"aquileia","name":"","highway":"track"}},{"type":"Feature","geometry":{"type":"LineString","coordinates":[[13.3727041,45.7687615],[13.3728774,45.768806]]},"properties":{"site":"aquileia","name":"","highway":"track"}},{"type":"Feature","geometry":{"type":"LineString","coordinates":[[13.3742171,45.7694447],[13.3753751,45.7697189],[13.3763368,45.7698952],[13.3767171,45.7699827],[13.3770273,45.7700789],[13.3771799,45.7701289]]},"properties":{"site":"aquileia","name":"","highway":"track"}},{"type":"Feature","geometry":{"type":"LineString","coordinates":[[13.3609661,45.7774833],[13.36107,45.7772583],[13.3611806,45.7770526],[13.3612915,45.7768477],[13.3613808,45.7766828],[13.3615583,45.7767296],[13.3637931,45.777333]]},"properties":{"site":"aquileia","name":"","highway":"service"}},{"type":"Feature","geometry":{"type":"LineString","coordinates":[[13.3675868,45.7769034],[13.367533,45.7769717],[13.3673483,45.7772017],[13.3672804,45.777271],[13.3672091,45.7773354],[13.3671132,45.7774268]]},"properties":{"site":"aquileia","name":"","highway":"track"}},{"type":"Feature","geometry":{"type":"LineString","coordinates":[[13.3706492,45.7698336],[13.3706424,45.7698443]]},"properties":{"site":"aquileia","name":"","highway":"footway"}},{"type":"Feature","geometry":{"type":"LineString","coordinates":[[13.3706081,45.7697888],[13.3705932,45.769815],[13.370491,45.7699793],[13.3707089,45.7700462],[13.3708104,45.7698824],[13.3706492,45.7698336],[13.3705932,45.769815]]},"properties":{"site":"aquileia","name":"","highway":"footway"}},{"type":"Feature","geometry":{"type":"LineString","coordinates":[[13.3706424,45.7698443],[13.3707119,45.7698656]]},"properties":{"site":"aquileia","name":"","highway":"steps"}},{"type":"Feature","geometry":{"type":"LineString","coordinates":[[13.3771799,45.7701289],[13.3772385,45.7701417]]},"properties":{"site":"aquileia","name":"","highway":"track"}},{"type":"Feature","geometry":{"type":"LineString","coordinates":[[13.3728774,45.768806],[13.3729464,45.7688289]]},"properties":{"site":"aquileia","name":"","highway":"track"}},{"type":"Feature","geometry":{"type":"LineString","coordinates":[[13.3729464,45.7688289],[13.3738201,45.7691543],[13.3739818,45.7692143],[13.3740865,45.7692801],[13.3741464,45.7693365],[13.3741911,45.7694011],[13.3742171,45.7694447],[13.3742326,45.7696297],[13.3742568,45.769925],[13.374234,45.7707333],[13.3741935,45.7710176],[13.3741708,45.7713456],[13.3740838,45.771549],[13.3739847,45.771766],[13.3740197,45.771954],[13.3740389,45.7721525],[13.3740047,45.7723183],[13.3739292,45.772492],[13.3737834,45.7728736],[13.3737297,45.7731205],[13.3735688,45.7733974],[13.3731594,45.7747895],[13.3730683,45.7750995],[13.3729868,45.7753498]]},"properties":{"site":"aquileia","name":"","highway":"track"}},{"type":"Feature","geometry":{"type":"LineString","coordinates":[[13.3772385,45.7701417],[13.3773359,45.7701629],[13.3779535,45.7702197]]},"properties":{"site":"aquileia","name":"","highway":"track"}},{"type":"Feature","geometry":{"type":"LineString","coordinates":[[13.3779535,45.7702197],[13.3804269,45.7704361],[13.3833075,45.7706752]]},"properties":{"site":"aquileia","name":"","highway":"track"}},{"type":"Feature","geometry":{"type":"LineString","coordinates":[[13.3776515,45.7777153],[13.37785,45.777734],[13.3779251,45.7777976],[13.3779353,45.7779947],[13.3778823,45.7781853]]},"properties":{"site":"aquileia","name":"","highway":"service"}},{"type":"Feature","geometry":{"type":"LineString","coordinates":[[13.363444,45.7631746],[13.3634731,45.7632985],[13.363562,45.7634309],[13.3637715,45.7634799],[13.3639161,45.7636442],[13.3640164,45.763739]]},"properties":{"site":"aquileia","name":"","highway":"service"}},{"type":"Feature","geometry":{"type":"LineString","coordinates":[[13.363857,45.7640438],[13.3636009,45.7641263],[13.3633488,45.764598]]},"properties":{"site":"aquileia","name":"","highway":"service"}},{"type":"Feature","geometry":{"type":"LineString","coordinates":[[13.3643854,45.7646079],[13.3639964,45.7645052]]},"properties":{"site":"aquileia","name":"","highway":"service"}},{"type":"Feature","geometry":{"type":"LineString","coordinates":[[13.3649326,45.7635488],[13.3645128,45.7634415]]},"properties":{"site":"aquileia","name":"","highway":"service"}},{"type":"Feature","geometry":{"type":"LineString","coordinates":[[13.3656783,45.7629257],[13.3660679,45.7630216]]},"properties":{"site":"aquileia","name":"","highway":"service"}},{"type":"Feature","geometry":{"type":"LineString","coordinates":[[13.3633299,45.7670424],[13.3630453,45.7669427],[13.3629221,45.7668917],[13.3629261,45.7668174],[13.3630088,45.7666865],[13.3629873,45.766642],[13.3629387,45.766632],[13.3624055,45.7667059]]},"properties":{"site":"aquileia","name":"","highway":"service"}},{"type":"Feature","geometry":{"type":"LineString","coordinates":[[13.365335,45.7636685],[13.3657006,45.7637612]]},"properties":{"site":"aquileia","name":"","highway":"service"}},{"type":"Feature","geometry":{"type":"LineString","coordinates":[[13.3648307,45.7644207],[13.3653194,45.7645322]]},"properties":{"site":"aquileia","name":"","highway":"service"}},{"type":"Feature","geometry":{"type":"LineString","coordinates":[[13.3639457,45.765191],[13.3639504,45.7656876]]},"properties":{"site":"aquileia","name":"","highway":"service"}},{"type":"Feature","geometry":{"type":"LineString","coordinates":[[13.3679285,45.7716303],[13.3683078,45.7711731]]},"properties":{"site":"aquileia","name":"","highway":"service"}},{"type":"Feature","geometry":{"type":"LineString","coordinates":[[13.3705984,45.7693393],[13.3707345,45.7693599],[13.3708905,45.7694007],[13.3709537,45.7693485],[13.371081,45.7692897],[13.3711381,45.7692985],[13.3711798,45.7693163],[13.3712424,45.7692847],[13.371306,45.7692832],[13.3713782,45.7692904],[13.3714683,45.7693102],[13.3716308,45.7693587],[13.3717653,45.769423],[13.3718464,45.7694862],[13.3718862,45.7695731],[13.3717647,45.7698606],[13.3716696,45.770056],[13.3714683,45.7704121],[13.3713233,45.770609],[13.3711872,45.7707983],[13.3711455,45.7708597]]},"properties":{"site":"aquileia","name":"Via Sacra","highway":"footway"}},{"type":"Feature","geometry":{"type":"LineString","coordinates":[[13.3672874,45.7680357],[13.3672284,45.7682341],[13.3670835,45.7685005],[13.3667729,45.7689628],[13.3665387,45.769227],[13.3661428,45.7695754]]},"properties":{"site":"aquileia","name":"","highway":"track"}},{"type":"Feature","geometry":{"type":"LineString","coordinates":[[13.3655386,45.7704268],[13.3653991,45.7705279],[13.365339,45.7705408],[13.3652549,45.7705293]]},"properties":{"site":"aquileia","name":"","highway":"track"}},{"type":"Feature","geometry":{"type":"LineString","coordinates":[[13.3628482,45.7701659],[13.3628938,45.7701288],[13.3629902,45.7701328],[13.3649713,45.7706319]]},"properties":{"site":"aquileia","name":"","highway":"track"}},{"type":"Feature","geometry":{"type":"LineString","coordinates":[[13.3827426,45.7665345],[13.3827616,45.7655042]]},"properties":{"site":"aquileia","name":"","highway":"service"}},{"type":"Feature","geometry":{"type":"LineString","coordinates":[[13.3722909,45.7746757],[13.3722663,45.7747556],[13.3719497,45.7755731]]},"properties":{"site":"aquileia","name":"","highway":"track"}},{"type":"Feature","geometry":{"type":"LineString","coordinates":[[13.3727957,45.7746468],[13.3727273,45.7748413],[13.3723977,45.7756495]]},"properties":{"site":"aquileia","name":"","highway":"track"}},{"type":"Feature","geometry":{"type":"LineString","coordinates":[[13.3719079,45.7744826],[13.3718269,45.7746739],[13.3714997,45.7754964]]},"properties":{"site":"aquileia","name":"","highway":"track"}},{"type":"Feature","geometry":{"type":"LineString","coordinates":[[13.3721011,45.7745866],[13.3720492,45.7747161],[13.3717253,45.7755349]]},"properties":{"site":"aquileia","name":"","highway":"track"}},{"type":"Feature","geometry":{"type":"LineString","coordinates":[[13.3716817,45.7744275],[13.3716007,45.7746318],[13.3714175,45.7751585],[13.3714145,45.7752426],[13.371379,45.7754759]]},"properties":{"site":"aquileia","name":"","highway":"track"}},{"type":"Feature","geometry":{"type":"LineString","coordinates":[[13.373003,45.7746902],[13.3729337,45.7748797],[13.3726369,45.7756903]]},"properties":{"site":"aquileia","name":"","highway":"track"}},{"type":"Feature","geometry":{"type":"LineString","coordinates":[[13.374449,45.7749355],[13.3732554,45.7748364],[13.3732098,45.7748177],[13.3731594,45.7747895]]},"properties":{"site":"aquileia","name":"","highway":"track"}},{"type":"Feature","geometry":{"type":"LineString","coordinates":[[13.3716007,45.7746318],[13.3718269,45.7746739],[13.3720492,45.7747161],[13.3722663,45.7747556],[13.3724952,45.7747981],[13.3727273,45.7748413],[13.3729337,45.7748797]]},"properties":{"site":"aquileia","name":"","highway":"track"}},{"type":"Feature","geometry":{"type":"LineString","coordinates":[[13.3725677,45.7746153],[13.3724952,45.7747981],[13.3721747,45.7756115]]},"properties":{"site":"aquileia","name":"","highway":"track"}},{"type":"Feature","geometry":{"type":"LineString","coordinates":[[13.3708322,45.7758917],[13.3709878,45.7758853],[13.3718971,45.7760616],[13.37197,45.7760689],[13.3720285,45.7760448],[13.3721036,45.7759662],[13.3722814,45.7756297]]},"properties":{"site":"aquileia","name":"","highway":"track"}},{"type":"Feature","geometry":{"type":"LineString","coordinates":[[13.3687271,45.7720975],[13.3686441,45.7719945],[13.3685095,45.7718509]]},"properties":{"site":"aquileia","name":"","highway":"track"}},{"type":"Feature","geometry":{"type":"LineString","coordinates":[[13.3716338,45.7646959],[13.3717172,45.7647194]]},"properties":{"site":"aquileia","name":"","highway":"track"}},{"type":"Feature","geometry":{"type":"LineString","coordinates":[[13.3717172,45.7647194],[13.3719175,45.7647762],[13.3724508,45.7649909]]},"properties":{"site":"aquileia","name":"","highway":"track"}},{"type":"Feature","geometry":{"type":"LineString","coordinates":[[13.3710141,45.7645414],[13.3715083,45.7646658]]},"properties":{"site":"aquileia","name":"","highway":"track"}},{"type":"Feature","geometry":{"type":"LineString","coordinates":[[13.3656328,45.7751271],[13.3653008,45.7750285]]},"properties":{"site":"aquileia","name":"","highway":"service"}},{"type":"Feature","geometry":{"type":"LineString","coordinates":[[13.3725748,45.7687428],[13.3725463,45.7687701]]},"properties":{"site":"aquileia","name":"","highway":"track"}},{"type":"Feature","geometry":{"type":"LineString","coordinates":[[13.3725979,45.7687195],[13.3725748,45.7687428]]},"properties":{"site":"aquileia","name":"","highway":"track"}},{"type":"Feature","geometry":{"type":"LineString","coordinates":[[13.3657743,45.7749741],[13.3653718,45.7748818],[13.3653008,45.7750285],[13.3652211,45.7751772],[13.3655133,45.7752562]]},"properties":{"site":"aquileia","name":"","highway":"service"}},{"type":"Feature","geometry":{"type":"LineString","coordinates":[[13.3661212,45.774469],[13.3657743,45.7749741],[13.3656328,45.7751271],[13.3655133,45.7752562],[13.3654424,45.7753328],[13.3654002,45.7753847]]},"properties":{"site":"aquileia","name":"","highway":"service"}},{"type":"Feature","geometry":{"type":"LineString","coordinates":[[13.3666569,45.7637745],[13.3667306,45.7636305],[13.3669389,45.7632238],[13.3669682,45.7631665]]},"properties":{"site":"aquileia","name":"","highway":"service"}},{"type":"Feature","geometry":{"type":"LineString","coordinates":[[13.3657404,45.7755029],[13.3657091,45.7755467],[13.3655964,45.7757126],[13.3651967,45.7763325],[13.3651458,45.776356],[13.3650907,45.7763509],[13.3650446,45.7763241],[13.3650346,45.7762823],[13.3650567,45.7762503],[13.3652968,45.776007],[13.3655964,45.7757126]]},"properties":{"site":"aquileia","name":"","highway":"service"}},{"type":"Feature","geometry":{"type":"LineString","coordinates":[[13.363553,45.7628016],[13.3635121,45.7628693],[13.3634665,45.7629104],[13.3633611,45.7630344]]},"properties":{"site":"aquileia","name":"","highway":"path"}},{"type":"Feature","geometry":{"type":"LineString","coordinates":[[13.3632546,45.763745],[13.3631518,45.7637275]]},"properties":{"site":"aquileia","name":"","highway":"path"}},{"type":"Feature","geometry":{"type":"LineString","coordinates":[[13.3632852,45.7646021],[13.3627844,45.7650064]]},"properties":{"site":"aquileia","name":"","highway":"path"}},{"type":"Feature","geometry":{"type":"LineString","coordinates":[[13.3632113,45.76347],[13.3631459,45.7634686],[13.3628763,45.7634363],[13.3624325,45.7633949],[13.3622261,45.7633855],[13.3618696,45.7633574],[13.3615224,45.7633222],[13.360997,45.7632753],[13.3604903,45.7632307],[13.3599039,45.7631768],[13.3594793,45.7631369],[13.3591298,45.7631041],[13.3587779,45.7630806],[13.3584847,45.7630431],[13.3583276,45.7630243],[13.3582201,45.7629946],[13.3581798,45.7629217],[13.3581933,45.7628319],[13.3582455,45.7626795],[13.3582783,45.7625364],[13.3583675,45.7622479],[13.3584378,45.7620649],[13.3584613,45.7619547],[13.3585105,45.7617342],[13.3585786,45.7615207],[13.3586349,45.7613354],[13.3587052,45.7611431],[13.3587779,45.7609249],[13.3588507,45.7607208],[13.3588999,45.7605731],[13.3589398,45.760505]]},"properties":{"site":"aquileia","name":"","highway":"track"}},{"type":"Feature","geometry":{"type":"LineString","coordinates":[[13.3678684,45.7711375],[13.3676787,45.7713852],[13.3674773,45.7713132],[13.3673548,45.7712691],[13.3673033,45.7712517]]},"properties":{"site":"aquileia","name":"","highway":"service"}},{"type":"Feature","geometry":{"type":"LineString","coordinates":[[13.3675861,45.7708326],[13.3676439,45.7708546],[13.3677764,45.7709052],[13.3679853,45.770985],[13.3678684,45.7711375]]},"properties":{"site":"aquileia","name":"","highway":"service"}},{"type":"Feature","geometry":{"type":"LineString","coordinates":[[13.3674773,45.7713132],[13.3677764,45.7709052]]},"properties":{"site":"aquileia","name":"","highway":"service"}},{"type":"Feature","geometry":{"type":"LineString","coordinates":[[13.3649713,45.7706319],[13.3650766,45.7706487],[13.3651205,45.7706422],[13.3651799,45.7706301],[13.3652258,45.7705818],[13.3652549,45.7705293],[13.3654874,45.7701825],[13.3656037,45.7700606],[13.3657033,45.7700128]]},"properties":{"site":"aquileia","name":"","highway":"track"}},{"type":"Feature","geometry":{"type":"LineString","coordinates":[[13.3642843,45.766521],[13.3643257,45.766387]]},"properties":{"site":"aquileia","name":"","highway":"service"}},{"type":"Feature","geometry":{"type":"LineString","coordinates":[[13.3645629,45.7665852],[13.3642843,45.766521],[13.3641712,45.7668395]]},"properties":{"site":"aquileia","name":"","highway":"service"}},{"type":"Feature","geometry":{"type":"LineString","coordinates":[[13.3643513,45.7669866],[13.3639411,45.7668929],[13.3641308,45.7662425]]},"properties":{"site":"aquileia","name":"","highway":"service"}},{"type":"Feature","geometry":{"type":"LineString","coordinates":[[13.3666209,45.7716027],[13.3668592,45.7713157]]},"properties":{"site":"aquileia","name":"","highway":"service"}},{"type":"Feature","geometry":{"type":"LineString","coordinates":[[13.3670181,45.771378],[13.3668592,45.7713157],[13.3666985,45.7712529]]},"properties":{"site":"aquileia","name":"","highway":"service"}},{"type":"Feature","geometry":{"type":"LineString","coordinates":[[13.3665124,45.7715006],[13.3666985,45.7712529],[13.3668047,45.7711115]]},"properties":{"site":"aquileia","name":"","highway":"service"}},{"type":"Feature","geometry":{"type":"LineString","coordinates":[[13.3711455,45.7708597],[13.371134,45.7708872],[13.3711267,45.7709094],[13.3710861,45.7709742]]},"properties":{"site":"aquileia","name":"Via Sacra","highway":"footway"}},{"type":"Feature","geometry":{"type":"LineString","coordinates":[[13.3700155,45.7691701],[13.370124,45.7691997],[13.3704837,45.7693054],[13.3705984,45.7693393]]},"properties":{"site":"aquileia","name":"Via Sacra","highway":"footway"}},{"type":"Feature","geometry":{"type":"LineString","coordinates":[[13.3698641,45.7634031],[13.3695815,45.7632965]]},"properties":{"site":"aquileia","name":"","highway":"footway"}},{"type":"Feature","geometry":{"type":"LineString","coordinates":[[13.36953,45.7638633],[13.3698519,45.7634273],[13.3698641,45.7634031],[13.3701665,45.7629393]]},"properties":{"site":"aquileia","name":"","highway":"footway"}},{"type":"Feature","geometry":{"type":"LineString","coordinates":[[13.3715083,45.7646658],[13.3716338,45.7646959]]},"properties":{"site":"aquileia","name":"","highway":"track"}},{"type":"Feature","geometry":{"type":"LineString","coordinates":[[13.36983,45.7732728],[13.3698142,45.7733188]]},"properties":{"site":"aquileia","name":"Via Sacra","highway":"footway"}},{"type":"Feature","geometry":{"type":"LineString","coordinates":[[13.3697555,45.7735355],[13.3697162,45.7736076]]},"properties":{"site":"aquileia","name":"Via Sacra","highway":"footway"}},{"type":"Feature","geometry":{"type":"LineString","coordinates":[[13.3698142,45.7733188],[13.3697751,45.7734289],[13.3697555,45.7735355]]},"properties":{"site":"aquileia","name":"Via Sacra","highway":"footway"}},{"type":"Feature","geometry":{"type":"LineString","coordinates":[[13.3686441,45.7719945],[13.3688538,45.7719159],[13.3692138,45.771731],[13.369681,45.7714841],[13.3701338,45.7712775],[13.3704704,45.7711218]]},"properties":{"site":"aquileia","name":"","highway":"footway"}},{"type":"Feature","geometry":{"type":"LineString","coordinates":[[13.3704704,45.7711218],[13.3711872,45.7707983]]},"properties":{"site":"aquileia","name":"","highway":"footway"}},{"type":"Feature","geometry":{"type":"LineString","coordinates":[[13.3702484,45.7760301],[13.3702463,45.7759736],[13.3702396,45.7757981],[13.3702859,45.7756383],[13.3703979,45.775421],[13.370422,45.7754141],[13.3705015,45.7753943],[13.3707712,45.775471],[13.3708513,45.7755161],[13.370842,45.7756171],[13.3707773,45.7756816]]},"properties":{"site":"aquileia","name":"","highway":"service"}},{"type":"Feature","geometry":{"type":"LineString","coordinates":[[13.3707058,45.7761935],[13.3707322,45.7761551],[13.3707496,45.7761299],[13.3708322,45.7758917],[13.3710012,45.7755103]]},"properties":{"site":"aquileia","name":"","highway":"service"}},{"type":"Feature","geometry":{"type":"LineString","coordinates":[[13.3709607,45.7687208],[13.3706901,45.7691815],[13.3705984,45.7693393]]},"properties":{"site":"aquileia","name":"","highway":"footway"}},{"type":"Feature","geometry":{"type":"LineString","coordinates":[[13.3709149,45.7692414],[13.3706901,45.7691815],[13.3701154,45.7690206]]},"properties":{"site":"aquileia","name":"","highway":"footway"}},{"type":"Feature","geometry":{"type":"LineString","coordinates":[[13.3713782,45.7692904],[13.3714125,45.7692005]]},"properties":{"site":"aquileia","name":"","highway":"footway"}},{"type":"Feature","geometry":{"type":"LineString","coordinates":[[13.3714697,45.7673512],[13.3712654,45.7677139]]},"properties":{"site":"aquileia","name":"","highway":"path"}},{"type":"Feature","geometry":{"type":"LineString","coordinates":[[13.3725463,45.7687701],[13.3724807,45.7688356]]},"properties":{"site":"aquileia","name":"","highway":"track"}},{"type":"Feature","geometry":{"type":"LineString","coordinates":[[13.3672222,45.7728693],[13.3691563,45.7734295]]},"properties":{"site":"aquileia","name":"","highway":"track"}},{"type":"Feature","geometry":{"type":"LineString","coordinates":[[13.3663259,45.7728132],[13.3663886,45.7728306],[13.3669088,45.772975],[13.367064,45.773026]]},"properties":{"site":"aquileia","name":"","highway":"track"}},{"type":"Feature","geometry":{"type":"LineString","coordinates":[[13.3648574,45.7758035],[13.3651598,45.7759086]]},"properties":{"site":"aquileia","name":"","highway":"footway"}},{"type":"Feature","geometry":{"type":"LineString","coordinates":[[13.3647441,45.7756434],[13.3648602,45.7756653],[13.3648574,45.7758035]]},"properties":{"site":"aquileia","name":"","highway":"footway"}},{"type":"Feature","geometry":{"type":"LineString","coordinates":[[13.3651598,45.7759086],[13.3652236,45.7759552],[13.3652968,45.776007]]},"properties":{"site":"aquileia","name":"","highway":"footway"}},{"type":"Feature","geometry":{"type":"LineString","coordinates":[[13.3678684,45.7711375],[13.3680923,45.7712243],[13.3678003,45.7715805]]},"properties":{"site":"aquileia","name":"","highway":"service"}},{"type":"Feature","geometry":{"type":"LineString","coordinates":[[13.3704728,45.769694],[13.3704391,45.7696831]]},"properties":{"site":"aquileia","name":"","highway":"steps"}},{"type":"Feature","geometry":{"type":"LineString","coordinates":[[13.369796,45.7684387],[13.3697835,45.7684663],[13.3697404,45.7685611],[13.3694397,45.7684767],[13.36949,45.7683887],[13.3695065,45.7683598]]},"properties":{"site":"aquileia","name":"","highway":"service"}},{"type":"Feature","geometry":{"type":"LineString","coordinates":[[13.3701101,45.7701444],[13.3699966,45.7703582]]},"properties":{"site":"aquileia","name":"","highway":"footway"}},{"type":"Feature","geometry":{"type":"LineString","coordinates":[[13.3704728,45.769694],[13.3704897,45.7696992],[13.3704585,45.7697466],[13.3706081,45.7697888],[13.3708725,45.7698703]]},"properties":{"site":"aquileia","name":"","highway":"footway"}},{"type":"Feature","geometry":{"type":"LineString","coordinates":[[13.3698441,45.7696848],[13.3698609,45.7696567],[13.369903,45.7695803],[13.3699321,45.7695276],[13.3700684,45.7692804],[13.3700929,45.7692509],[13.3701062,45.7692311],[13.37011,45.7692176],[13.370124,45.7691997]]},"properties":{"site":"aquileia","name":"","highway":"footway"}},{"type":"Feature","geometry":{"type":"LineString","coordinates":[[13.3687362,45.7687341],[13.3687894,45.7687518],[13.3693106,45.7689218]]},"properties":{"site":"aquileia","name":"","highway":"service"}},{"type":"Feature","geometry":{"type":"LineString","coordinates":[[13.3699532,45.7704526],[13.369908,45.7705285],[13.3698325,45.7706741],[13.3697829,45.7707601],[13.3697659,45.7707962],[13.3697686,45.7708208]]},"properties":{"site":"aquileia","name":"","highway":"footway"}},{"type":"Feature","geometry":{"type":"LineString","coordinates":[[13.3699966,45.7703582],[13.3699583,45.770443],[13.3699532,45.7704526]]},"properties":{"site":"aquileia","name":"","highway":"footway"}},{"type":"Feature","geometry":{"type":"LineString","coordinates":[[13.3690165,45.767102],[13.3691703,45.7671437],[13.3692761,45.7671724],[13.3693315,45.767176],[13.3693656,45.7671617],[13.3694246,45.7671074],[13.3694481,45.7670546],[13.3696002,45.7667471],[13.3696156,45.7667117],[13.3695934,45.766672],[13.36955,45.7666509],[13.3694898,45.7666524],[13.3694308,45.7666767],[13.369407,45.7667215],[13.3693788,45.7667607],[13.3691703,45.7671437]]},"properties":{"site":"aquileia","name":"","highway":"service"}},{"type":"Feature","geometry":{"type":"LineString","coordinates":[[13.3693788,45.7667607],[13.3691684,45.7667017]]},"properties":{"site":"aquileia","name":"","highway":"service"}},{"type":"Feature","geometry":{"type":"LineString","coordinates":[[13.3694687,45.7672488],[13.3695001,45.7671932],[13.3695963,45.7672149],[13.3696735,45.7672283],[13.3696269,45.7673126],[13.3696582,45.7673213]]},"properties":{"site":"aquileia","name":"","highway":"footway"}},{"type":"Feature","geometry":{"type":"LineString","coordinates":[[13.3689021,45.7671589],[13.3689448,45.7670826],[13.3689611,45.7670548]]},"properties":{"site":"aquileia","name":"","highway":"service"}},{"type":"Feature","geometry":{"type":"LineString","coordinates":[[13.3689611,45.7670548],[13.3691684,45.7667017],[13.3690732,45.7666726],[13.3690375,45.766664],[13.3689859,45.7666714],[13.3689403,45.7666874],[13.3688904,45.7667258],[13.3687671,45.7669699],[13.36876,45.767011],[13.3687823,45.7670405],[13.3688924,45.767069]]},"properties":{"site":"aquileia","name":"","highway":"service"}},{"type":"Feature","geometry":{"type":"LineString","coordinates":[[13.3688924,45.767069],[13.3689448,45.7670826],[13.3690165,45.767102]]},"properties":{"site":"aquileia","name":"","highway":"service"}},{"type":"Feature","geometry":{"type":"LineString","coordinates":[[13.3659766,45.766444],[13.3656853,45.7665305],[13.3656638,45.766545]]},"properties":{"site":"aquileia","name":"","highway":"footway"}},{"type":"Feature","geometry":{"type":"LineString","coordinates":[[13.3668548,45.7648412],[13.3664337,45.765486],[13.3667521,45.7656012]]},"properties":{"site":"aquileia","name":"","highway":"footway"}},{"type":"Feature","geometry":{"type":"LineString","coordinates":[[13.3679175,45.7693309],[13.3678092,45.7693007],[13.3677433,45.7692809]]},"properties":{"site":"aquileia","name":"","highway":"footway"}},{"type":"Feature","geometry":{"type":"LineString","coordinates":[[13.3683148,45.7691676],[13.368065,45.7690919],[13.3680475,45.7691195],[13.3679175,45.7693309],[13.368016,45.769358]]},"properties":{"site":"aquileia","name":"","highway":"footway"}},{"type":"Feature","geometry":{"type":"LineString","coordinates":[[13.3682921,45.769207],[13.3680797,45.7696269],[13.3680282,45.7696378],[13.3676691,45.769543]]},"properties":{"site":"aquileia","name":"","highway":"footway"}},{"type":"Feature","geometry":{"type":"LineString","coordinates":[[13.3678092,45.7693007],[13.3676691,45.769543]]},"properties":{"site":"aquileia","name":"","highway":"footway"}},{"type":"Feature","geometry":{"type":"LineString","coordinates":[[13.3687244,45.7687562],[13.3686643,45.7687355],[13.368581,45.768708],[13.3683684,45.7686375]]},"properties":{"site":"aquileia","name":"","highway":"service"}},{"type":"Feature","geometry":{"type":"LineString","coordinates":[[13.3646692,45.7685867],[13.3648924,45.7687301],[13.3649499,45.7687637],[13.3650081,45.7688262],[13.3651305,45.7689509],[13.3652337,45.7690573],[13.3653799,45.7691685],[13.365562,45.7693076],[13.365653,45.7693842],[13.3657437,45.7694696],[13.3658165,45.7696021],[13.3658521,45.7696915]]},"properties":{"site":"aquileia","name":"","highway":"footway"}},{"type":"Feature","geometry":{"type":"LineString","coordinates":[[13.3648924,45.7687301],[13.3648462,45.7687664]]},"properties":{"site":"aquileia","name":"","highway":"footway"}},{"type":"Feature","geometry":{"type":"LineString","coordinates":[[13.3650081,45.7688262],[13.3649571,45.768853]]},"properties":{"site":"aquileia","name":"","highway":"footway"}},{"type":"Feature","geometry":{"type":"LineString","coordinates":[[13.3664813,45.7680357],[13.3653516,45.7689881],[13.3652883,45.7690273]]},"properties":{"site":"aquileia","name":"","highway":"track"}},{"type":"Feature","geometry":{"type":"LineString","coordinates":[[13.3651881,45.7689248],[13.3651305,45.7689509]]},"properties":{"site":"aquileia","name":"","highway":"steps"}},{"type":"Feature","geometry":{"type":"LineString","coordinates":[[13.3653799,45.7691685],[13.365347,45.7691866]]},"properties":{"site":"aquileia","name":"","highway":"footway"}},{"type":"Feature","geometry":{"type":"LineString","coordinates":[[13.3651305,45.7689509],[13.3650791,45.7689761]]},"properties":{"site":"aquileia","name":"","highway":"footway"}},{"type":"Feature","geometry":{"type":"LineString","coordinates":[[13.3654163,45.7693828],[13.3654931,45.7693559],[13.3655139,45.7693409]]},"properties":{"site":"aquileia","name":"","highway":"footway"}},{"type":"Feature","geometry":{"type":"LineString","coordinates":[[13.3648924,45.7687301],[13.3649541,45.7686804]]},"properties":{"site":"aquileia","name":"","highway":"steps"}},{"type":"Feature","geometry":{"type":"LineString","coordinates":[[13.3650081,45.7688262],[13.365061,45.7687966]]},"properties":{"site":"aquileia","name":"","highway":"steps"}},{"type":"Feature","geometry":{"type":"LineString","coordinates":[[13.3637502,45.7682542],[13.3636659,45.7683531],[13.3633388,45.7686139]]},"properties":{"site":"aquileia","name":"","highway":"footway"}},{"type":"Feature","geometry":{"type":"LineString","coordinates":[[13.3628888,45.7686202],[13.3632247,45.7687123]]},"properties":{"site":"aquileia","name":"","highway":"path"}},{"type":"Feature","geometry":{"type":"LineString","coordinates":[[13.3632328,45.7687013],[13.3632247,45.7687123]]},"properties":{"site":"aquileia","name":"","highway":"steps"}},{"type":"Feature","geometry":{"type":"LineString","coordinates":[[13.3633388,45.7686139],[13.3633024,45.7686002]]},"properties":{"site":"aquileia","name":"","highway":"steps"}},{"type":"Feature","geometry":{"type":"LineString","coordinates":[[13.3632918,45.7686154],[13.3632328,45.7687013]]},"properties":{"site":"aquileia","name":"","highway":"footway"}},{"type":"Feature","geometry":{"type":"LineString","coordinates":[[13.3628072,45.7684761],[13.3627587,45.7684653]]},"properties":{"site":"aquileia","name":"","highway":"steps"}},{"type":"Feature","geometry":{"type":"LineString","coordinates":[[13.3645717,45.7686517],[13.364534,45.7686755],[13.3641548,45.7683859],[13.3640553,45.7683267]]},"properties":{"site":"aquileia","name":"","highway":"footway"}},{"type":"Feature","geometry":{"type":"LineString","coordinates":[[13.3627587,45.7684653],[13.3628737,45.7686464]]},"properties":{"site":"aquileia","name":"","highway":"footway"}},{"type":"Feature","geometry":{"type":"LineString","coordinates":[[13.3628737,45.7686464],[13.3628888,45.7686202]]},"properties":{"site":"aquileia","name":"","highway":"steps"}},{"type":"Feature","geometry":{"type":"LineString","coordinates":[[13.3632918,45.7686154],[13.3628072,45.7684761]]},"properties":{"site":"aquileia","name":"","highway":"footway"}},{"type":"Feature","geometry":{"type":"LineString","coordinates":[[13.3632247,45.7687123],[13.3631046,45.7687497]]},"properties":{"site":"aquileia","name":"","highway":"path"}},{"type":"Feature","geometry":{"type":"LineString","coordinates":[[13.3633024,45.7686002],[13.3632918,45.7686154]]},"properties":{"site":"aquileia","name":"","highway":"steps"}},{"type":"Feature","geometry":{"type":"LineString","coordinates":[[13.3695496,45.7757214],[13.3697593,45.7757892]]},"properties":{"site":"aquileia","name":"","highway":"footway"}},{"type":"Feature","geometry":{"type":"LineString","coordinates":[[13.3695496,45.7757214],[13.3693345,45.775631],[13.3693157,45.7755474]]},"properties":{"site":"aquileia","name":"","highway":"footway"}},{"type":"Feature","geometry":{"type":"LineString","coordinates":[[13.3690537,45.7755908],[13.3689932,45.7756666],[13.368658,45.7761097],[13.3686058,45.7761843],[13.3685845,45.7761971]]},"properties":{"site":"aquileia","name":"","highway":"footway"}},{"type":"Feature","geometry":{"type":"LineString","coordinates":[[13.3685845,45.7761971],[13.368685,45.7762186],[13.3687618,45.7762499],[13.3687639,45.7762919],[13.3687856,45.7763706]]},"properties":{"site":"aquileia","name":"","highway":"footway"}},{"type":"Feature","geometry":{"type":"LineString","coordinates":[[13.3702746,45.7754107],[13.3700462,45.7759124],[13.370028,45.7759525]]},"properties":{"site":"aquileia","name":"","highway":"service"}},{"type":"Feature","geometry":{"type":"LineString","coordinates":[[13.3709438,45.7753879],[13.3703304,45.7752177],[13.3704978,45.7748129],[13.3698442,45.7746971]]},"properties":{"site":"aquileia","name":"","highway":"track"}},{"type":"Feature","geometry":{"type":"LineString","coordinates":[[13.3703304,45.7752177],[13.3702909,45.7753053],[13.3702746,45.7754107]]},"properties":{"site":"aquileia","name":"","highway":"track"}},{"type":"Feature","geometry":{"type":"LineString","coordinates":[[13.3676264,45.7762182],[13.3677923,45.77601]]},"properties":{"site":"aquileia","name":"","highway":"service"}},{"type":"Feature","geometry":{"type":"LineString","coordinates":[[13.3689932,45.7756666],[13.3687167,45.7755556],[13.3687256,45.7755439],[13.3672737,45.775006],[13.3672953,45.7749799],[13.3669634,45.7748498]]},"properties":{"site":"aquileia","name":"","highway":"footway"}},{"type":"Feature","geometry":{"type":"LineString","coordinates":[[13.3668789,45.7747555],[13.3667784,45.7748739],[13.3665247,45.7747706]]},"properties":{"site":"aquileia","name":"","highway":"service"}},{"type":"Feature","geometry":{"type":"LineString","coordinates":[[13.3662012,45.7726181],[13.3662103,45.7726041]]},"properties":{"site":"aquileia","name":"","highway":"steps"}},{"type":"Feature","geometry":{"type":"LineString","coordinates":[[13.366282,45.772745],[13.3661482,45.7727046],[13.3662012,45.7726181]]},"properties":{"site":"aquileia","name":"","highway":"footway"}},{"type":"Feature","geometry":{"type":"LineString","coordinates":[[13.3697686,45.7708208],[13.3698204,45.7708581],[13.3698981,45.7708847],[13.3700022,45.7709131],[13.3700342,45.770919],[13.3700781,45.7709281],[13.3701474,45.7709425],[13.3703232,45.7710125],[13.3704304,45.7710698],[13.3704704,45.7711218]]},"properties":{"site":"aquileia","name":"","highway":"path"}},{"type":"Feature","geometry":{"type":"LineString","coordinates":[[13.3698865,45.7711214],[13.3699756,45.7709652]]},"properties":{"site":"aquileia","name":"","highway":"footway"}},{"type":"Feature","geometry":{"type":"LineString","coordinates":[[13.3690296,45.771084],[13.3690731,45.7710023],[13.3690966,45.7709613],[13.369103,45.7709501],[13.3692568,45.770988],[13.3692677,45.7709627]]},"properties":{"site":"aquileia","name":"","highway":"footway"}},{"type":"Feature","geometry":{"type":"LineString","coordinates":[[13.369838,45.7712043],[13.3698098,45.7711945]]},"properties":{"site":"aquileia","name":"","highway":"steps"}},{"type":"Feature","geometry":{"type":"LineString","coordinates":[[13.3690966,45.7709613],[13.369206,45.7709879]]},"properties":{"site":"aquileia","name":"","highway":"footway"}},{"type":"Feature","geometry":{"type":"LineString","coordinates":[[13.3690731,45.7710023],[13.3690933,45.7710078]]},"properties":{"site":"aquileia","name":"","highway":"steps"}},{"type":"Feature","geometry":{"type":"LineString","coordinates":[[13.3699756,45.7709652],[13.3700022,45.7709131]]},"properties":{"site":"aquileia","name":"","highway":"path"}},{"type":"Feature","geometry":{"type":"LineString","coordinates":[[13.3692677,45.7709627],[13.3692713,45.7709563],[13.3698865,45.7711214],[13.369838,45.7712043],[13.3697557,45.7713382],[13.3695766,45.7712937]]},"properties":{"site":"aquileia","name":"","highway":"footway"}},{"type":"Feature","geometry":{"type":"LineString","coordinates":[[13.3699591,45.7703234],[13.3699527,45.7703374]]},"properties":{"site":"aquileia","name":"","highway":"steps"}},{"type":"Feature","geometry":{"type":"LineString","coordinates":[[13.3704391,45.7696831],[13.370404,45.7696748],[13.3700818,45.7697341],[13.3699808,45.7697189],[13.3698441,45.7696848],[13.3697177,45.7696485]]},"properties":{"site":"aquileia","name":"","highway":"footway"}},{"type":"Feature","geometry":{"type":"LineString","coordinates":[[13.3676841,45.7715386],[13.3676531,45.7715779],[13.3676044,45.7716447],[13.3677486,45.7717015]]},"properties":{"site":"aquileia","name":"","highway":"service"}},{"type":"Feature","geometry":{"type":"LineString","coordinates":[[13.3685845,45.7761971],[13.3685436,45.7762216],[13.3684498,45.7762715],[13.3684247,45.7763259]]},"properties":{"site":"aquileia","name":"","highway":"footway"}},{"type":"Feature","geometry":{"type":"LineString","coordinates":[[13.3712809,45.7693432],[13.3711798,45.7693163]]},"properties":{"site":"aquileia","name":"","highway":"footway"}},{"type":"Feature","geometry":{"type":"LineString","coordinates":[[13.3708725,45.7698703],[13.3709499,45.7698967]]},"properties":{"site":"aquileia","name":"","highway":"steps"}},{"type":"Feature","geometry":{"type":"LineString","coordinates":[[13.3709499,45.7698967],[13.3711337,45.7699586],[13.3712171,45.7699417],[13.3712584,45.769922],[13.3713,45.7698871],[13.3713932,45.7697299],[13.3715449,45.7694197],[13.3714467,45.7693841],[13.3712809,45.7693432]]},"properties":{"site":"aquileia","name":"","highway":"footway"}},{"type":"Feature","geometry":{"type":"LineString","coordinates":[[13.3712171,45.7699417],[13.3711583,45.7700497],[13.3713509,45.770096]]},"properties":{"site":"aquileia","name":"","highway":"footway"}},{"type":"Feature","geometry":{"type":"LineString","coordinates":[[13.3713932,45.7697299],[13.3715109,45.7697649]]},"properties":{"site":"aquileia","name":"","highway":"footway"}},{"type":"Feature","geometry":{"type":"LineString","coordinates":[[13.3704607,45.7695788],[13.3704371,45.7696188],[13.370404,45.7696748]]},"properties":{"site":"aquileia","name":"","highway":"footway"}},{"type":"Feature","geometry":{"type":"LineString","coordinates":[[13.3705071,45.7694976],[13.3704607,45.7695788]]},"properties":{"site":"aquileia","name":"","highway":"footway"}},{"type":"Feature","geometry":{"type":"LineString","coordinates":[[13.3750097,45.7776127],[13.3749443,45.7777519],[13.3749238,45.7777755],[13.3748858,45.7777846],[13.3748436,45.7777858],[13.3745076,45.7777176],[13.3743267,45.778147],[13.3742351,45.778359],[13.374234,45.7783872],[13.3742423,45.7784137],[13.374266,45.7784454],[13.3742983,45.7784654],[13.3743395,45.7784842],[13.3743566,45.7785083],[13.3743508,45.7785246],[13.3743432,45.7785483],[13.3743225,45.7785617],[13.3742156,45.7786178]]},"properties":{"site":"aquileia","name":"","highway":"footway"}},{"type":"Feature","geometry":{"type":"LineString","coordinates":[[13.3750744,45.7776296],[13.3750097,45.7776127]]},"properties":{"site":"aquileia","name":"","highway":"footway"}},{"type":"Feature","geometry":{"type":"LineString","coordinates":[[13.3711798,45.7693163],[13.3711037,45.7694603],[13.3708905,45.7694007]]},"properties":{"site":"aquileia","name":"","highway":"footway"}},{"type":"Feature","geometry":{"type":"LineString","coordinates":[[13.3670181,45.771378],[13.3669137,45.7715177],[13.3667898,45.7716655],[13.3666209,45.7716027],[13.3665016,45.7715586],[13.3665124,45.7715006],[13.3663911,45.7715172],[13.3663485,45.7715231]]},"properties":{"site":"aquileia","name":"","highway":"service"}},{"type":"Feature","geometry":{"type":"LineString","coordinates":[[13.3669137,45.7715177],[13.3670203,45.7715581],[13.367076,45.7715805]]},"properties":{"site":"aquileia","name":"","highway":"service"}},{"type":"Feature","geometry":{"type":"LineString","coordinates":[[13.3707119,45.7698656],[13.3707052,45.7698738]]},"properties":{"site":"aquileia","name":"","highway":"steps"}},{"type":"Feature","geometry":{"type":"LineString","coordinates":[[13.3705071,45.7694976],[13.3705984,45.7693393]]},"properties":{"site":"aquileia","name":"Via Sacra","highway":"footway"}},{"type":"Feature","geometry":{"type":"LineString","coordinates":[[13.3682455,45.7709859],[13.3681058,45.7709356],[13.3676794,45.7707819]]},"properties":{"site":"aquileia","name":"","highway":"footway"}},{"type":"Feature","geometry":{"type":"LineString","coordinates":[[13.3775979,45.7644558],[13.3776115,45.7643635]]},"properties":{"site":"aquileia","name":"","highway":"service"}},{"type":"Feature","geometry":{"type":"LineString","coordinates":[[13.3638538,45.7777866],[13.3638627,45.777841],[13.3638708,45.7778842],[13.3638657,45.7779112],[13.3638474,45.7779218],[13.3638149,45.7779346],[13.3637427,45.777919],[13.3637086,45.7778905],[13.3636721,45.7778124]]},"properties":{"site":"aquileia","name":"","highway":"track"}},{"type":"Feature","geometry":{"type":"LineString","coordinates":[[13.3699545,45.7657434],[13.3698575,45.7659108]]},"properties":{"site":"aquileia","name":"","highway":"footway"}},{"type":"Feature","geometry":{"type":"LineString","coordinates":[[13.3701101,45.7701444],[13.3701364,45.7701237],[13.3702844,45.7698755],[13.370404,45.7696748]]},"properties":{"site":"aquileia","name":"","highway":"footway"}},{"type":"Feature","geometry":{"type":"LineString","coordinates":[[13.3701364,45.7701237],[13.3697935,45.7700298],[13.3695197,45.7699472]]},"properties":{"site":"aquileia","name":"","highway":"footway"}},{"type":"Feature","geometry":{"type":"LineString","coordinates":[[13.3700818,45.7697341],[13.3702219,45.769842],[13.3702844,45.7698755]]},"properties":{"site":"aquileia","name":"","highway":"footway"}},{"type":"Feature","geometry":{"type":"LineString","coordinates":[[13.3697935,45.7700298],[13.3698888,45.7698716],[13.3699231,45.7698147],[13.3699808,45.7697189]]},"properties":{"site":"aquileia","name":"","highway":"footway"}},{"type":"Feature","geometry":{"type":"LineString","coordinates":[[13.3676691,45.769543],[13.3674354,45.7694751],[13.3677546,45.7689073],[13.3679912,45.7689777],[13.3679231,45.7690831],[13.3680475,45.7691195]]},"properties":{"site":"aquileia","name":"","highway":"footway"}},{"type":"Feature","geometry":{"type":"LineString","coordinates":[[13.369806,45.7775414],[13.3700384,45.7775824],[13.370152,45.7775676]]},"properties":{"site":"aquileia","name":"","highway":"service"}},{"type":"Feature","geometry":{"type":"LineString","coordinates":[[13.3678762,45.77161],[13.3682149,45.7712041],[13.3681093,45.771168],[13.3679647,45.7711143],[13.3681058,45.7709356]]},"properties":{"site":"aquileia","name":"","highway":"footway"}},{"type":"Feature","geometry":{"type":"LineString","coordinates":[[13.3682455,45.7709859],[13.3681093,45.771168]]},"properties":{"site":"aquileia","name":"","highway":"footway"}},{"type":"Feature","geometry":{"type":"LineString","coordinates":[[13.3665972,45.7729455],[13.3668765,45.7730287]]},"properties":{"site":"aquileia","name":"","highway":"footway"}},{"type":"Feature","geometry":{"type":"LineString","coordinates":[[13.3669088,45.772975],[13.3668935,45.7729992],[13.3668765,45.7730287],[13.366606,45.773497]]},"properties":{"site":"aquileia","name":"","highway":"footway"}},{"type":"Feature","geometry":{"type":"LineString","coordinates":[[13.3655139,45.7693409],[13.365562,45.7693076],[13.365615,45.7692685]]},"properties":{"site":"aquileia","name":"","highway":"footway"}},{"type":"Feature","geometry":{"type":"LineString","coordinates":[[13.3662287,45.7745565],[13.3661636,45.7745327],[13.3658879,45.7749588],[13.3655033,45.7754186]]},"properties":{"site":"aquileia","name":"","highway":"footway"}},{"type":"Feature","geometry":{"type":"LineString","coordinates":[[13.3655448,45.7698059],[13.3656234,45.769785]]},"properties":{"site":"aquileia","name":"","highway":"footway"}},{"type":"Feature","geometry":{"type":"LineString","coordinates":[[13.3654163,45.7693828],[13.3653467,45.7694049],[13.3655448,45.7698059],[13.3656345,45.7699875]]},"properties":{"site":"aquileia","name":"","highway":"footway"}},{"type":"Feature","geometry":{"type":"LineString","coordinates":[[13.3656234,45.769785],[13.3657607,45.769748]]},"properties":{"site":"aquileia","name":"","highway":"footway"}},{"type":"Feature","geometry":{"type":"LineString","coordinates":[[13.366477,45.7726561],[13.3672222,45.7728693]]},"properties":{"site":"aquileia","name":"","highway":"path"}},{"type":"Feature","geometry":{"type":"LineString","coordinates":[[13.366477,45.7726561],[13.3663886,45.7728306]]},"properties":{"site":"aquileia","name":"","highway":"footway"}},{"type":"Feature","geometry":{"type":"LineString","coordinates":[[13.3663017,45.7727513],[13.3660622,45.77317],[13.3655621,45.7740742]]},"properties":{"site":"aquileia","name":"","highway":"footway"}},{"type":"Feature","geometry":{"type":"LineString","coordinates":[[13.3655621,45.7740742],[13.3656141,45.7740881],[13.3656788,45.7741056]]},"properties":{"site":"aquileia","name":"","highway":"footway"}},{"type":"Feature","geometry":{"type":"LineString","coordinates":[[13.3663017,45.7727513],[13.3663647,45.7726295]]},"properties":{"site":"aquileia","name":"","highway":"footway"}},{"type":"Feature","geometry":{"type":"LineString","coordinates":[[13.3663886,45.7728306],[13.3656788,45.7741056]]},"properties":{"site":"aquileia","name":"","highway":"footway"}},{"type":"Feature","geometry":{"type":"LineString","coordinates":[[13.366282,45.772745],[13.3663017,45.7727513]]},"properties":{"site":"aquileia","name":"","highway":"footway"}},{"type":"Feature","geometry":{"type":"LineString","coordinates":[[13.3656788,45.7741056],[13.3656639,45.7741423],[13.3656597,45.7741783],[13.3656678,45.7742125],[13.3656944,45.7742463],[13.365751,45.774284],[13.3658731,45.7743323],[13.3662776,45.7744819]]},"properties":{"site":"aquileia","name":"","highway":"footway"}},{"type":"Feature","geometry":{"type":"LineString","coordinates":[[13.3680369,45.7704485],[13.3678876,45.7704166],[13.3678292,45.7704041]]},"properties":{"site":"aquileia","name":"","highway":"service"}},{"type":"Feature","geometry":{"type":"LineString","coordinates":[[13.3651444,45.769109],[13.3652337,45.7690573],[13.3652883,45.7690273]]},"properties":{"site":"aquileia","name":"","highway":"track"}},{"type":"Feature","geometry":{"type":"LineString","coordinates":[[13.366477,45.7726561],[13.366422,45.7726438],[13.3663647,45.7726295]]},"properties":{"site":"aquileia","name":"","highway":"footway"}},{"type":"Feature","geometry":{"type":"LineString","coordinates":[[13.3639787,45.7682724],[13.3640553,45.7683267]]},"properties":{"site":"aquileia","name":"","highway":"footway"}},{"type":"Feature","geometry":{"type":"LineString","coordinates":[[13.3637382,45.7682487],[13.3637502,45.7682542],[13.3637627,45.76826],[13.3638348,45.7682824],[13.3640497,45.7683551],[13.3640553,45.7683267],[13.3640734,45.7682462],[13.3638494,45.7682279],[13.3637986,45.7682255],[13.3637612,45.7682229],[13.3637382,45.7682487]]},"properties":{"site":"aquileia","name":"","highway":"pedestrian"}},{"type":"Feature","geometry":{"type":"LineString","coordinates":[[13.3637502,45.7682542],[13.3637769,45.7682432],[13.3639787,45.7682724],[13.364136,45.7682942]]},"properties":{"site":"aquileia","name":"","highway":"footway"}},{"type":"Feature","geometry":{"type":"LineString","coordinates":[[13.3667095,45.7636035],[13.3667306,45.7636305],[13.3667804,45.7637049]]},"properties":{"site":"aquileia","name":"","highway":"footway"}},{"type":"Feature","geometry":{"type":"LineString","coordinates":[[13.368471,45.7642202],[13.3683863,45.7644037]]},"properties":{"site":"aquileia","name":"","highway":"service"}},{"type":"Feature","geometry":{"type":"LineString","coordinates":[[13.370786,45.7630527],[13.3707361,45.7629718],[13.3707109,45.7629019],[13.3707594,45.7628087],[13.3708221,45.7626978],[13.371061,45.7627665]]},"properties":{"site":"aquileia","name":"","highway":"service"}},{"type":"Feature","geometry":{"type":"LineString","coordinates":[[13.3670609,45.7638683],[13.3671067,45.7637765]]},"properties":{"site":"aquileia","name":"","highway":"footway"}},{"type":"Feature","geometry":{"type":"LineString","coordinates":[[13.3670493,45.7633746],[13.3669095,45.7636575],[13.3673137,45.7637536]]},"properties":{"site":"aquileia","name":"","highway":"footway"}},{"type":"Feature","geometry":{"type":"LineString","coordinates":[[13.3664544,45.763544],[13.3665258,45.7635606],[13.3666119,45.7635821]]},"properties":{"site":"aquileia","name":"","highway":"footway"}},{"type":"Feature","geometry":{"type":"LineString","coordinates":[[13.3669799,45.7632751],[13.3670013,45.7632379],[13.3676805,45.7634036],[13.3674619,45.7638597],[13.3673699,45.7638342]]},"properties":{"site":"aquileia","name":"","highway":"footway"}},{"type":"Feature","geometry":{"type":"LineString","coordinates":[[13.3668728,45.7631405],[13.3666494,45.76359],[13.3665681,45.7637561]]},"properties":{"site":"aquileia","name":"","highway":"footway"}},{"type":"Feature","geometry":{"type":"LineString","coordinates":[[13.3666119,45.7635821],[13.3666494,45.76359],[13.3667095,45.7636035]]},"properties":{"site":"aquileia","name":"","highway":"footway"}},{"type":"Feature","geometry":{"type":"LineString","coordinates":[[13.3670493,45.7633746],[13.3674595,45.7634851],[13.3673137,45.7637536]]},"properties":{"site":"aquileia","name":"","highway":"footway"}},{"type":"Feature","geometry":{"type":"LineString","coordinates":[[13.3669389,45.7632238],[13.3669799,45.7632751],[13.3670493,45.7633746],[13.3673137,45.7637536],[13.3673699,45.7638342],[13.3674603,45.7639623]]},"properties":{"site":"aquileia","name":"","highway":"footway"}},{"type":"Feature","geometry":{"type":"LineString","coordinates":[[13.3667804,45.7637049],[13.3671067,45.7637765],[13.3673699,45.7638342]]},"properties":{"site":"aquileia","name":"","highway":"footway"}},{"type":"Feature","geometry":{"type":"LineString","coordinates":[[13.368372,45.7692337],[13.3682921,45.769207],[13.3683148,45.7691676]]},"properties":{"site":"aquileia","name":"","highway":"footway"}},{"type":"Feature","geometry":{"type":"LineString","coordinates":[[13.366477,45.7726561],[13.3667776,45.7721166],[13.366946,45.7718418],[13.3672701,45.7713849]]},"properties":{"site":"aquileia","name":"","highway":"footway"}},{"type":"Feature","geometry":{"type":"LineString","coordinates":[[13.369157,45.7682985],[13.36949,45.7683887],[13.3697835,45.7684663],[13.3703822,45.7686212]]},"properties":{"site":"aquileia","name":"","highway":"footway"}},{"type":"Feature","geometry":{"type":"LineString","coordinates":[[13.3673838,45.7712275],[13.3673324,45.7712097],[13.3672864,45.7711902]]},"properties":{"site":"aquileia","name":"","highway":"footway"}},{"type":"Feature","geometry":{"type":"LineString","coordinates":[[13.3658587,45.7697238],[13.3658781,45.7697318],[13.3659074,45.7697427]]},"properties":{"site":"aquileia","name":"","highway":"footway"}},{"type":"Feature","geometry":{"type":"LineString","coordinates":[[13.3662335,45.7709679],[13.3662816,45.7709855],[13.3663238,45.7710017]]},"properties":{"site":"aquileia","name":"","highway":"footway"}},{"type":"Feature","geometry":{"type":"LineString","coordinates":[[13.3697595,45.7698358],[13.3698888,45.7698716]]},"properties":{"site":"aquileia","name":"","highway":"footway"}},{"type":"Feature","geometry":{"type":"LineString","coordinates":[[13.3699808,45.7697189],[13.3700262,45.769613],[13.3700503,45.7695563]]},"properties":{"site":"aquileia","name":"","highway":"footway"}},{"type":"Feature","geometry":{"type":"LineString","coordinates":[[13.3696582,45.7673213],[13.3696364,45.7673599],[13.3696162,45.7673945]]},"properties":{"site":"aquileia","name":"","highway":"footway"}},{"type":"Feature","geometry":{"type":"LineString","coordinates":[[13.3676794,45.7707819],[13.3678876,45.7704166],[13.3680391,45.7701386],[13.3681386,45.7701633]]},"properties":{"site":"aquileia","name":"","highway":"footway"}},{"type":"Feature","geometry":{"type":"LineString","coordinates":[[13.3659655,45.7705151],[13.3659509,45.770494],[13.3659205,45.7704182],[13.3658777,45.77034],[13.3658021,45.7701865],[13.365764,45.7700741],[13.3657612,45.7700122],[13.3657654,45.769976],[13.3657667,45.7699642],[13.3657884,45.7699113],[13.3659074,45.7697427]]},"properties":{"site":"aquileia","name":"","highway":"footway"}},{"type":"Feature","geometry":{"type":"LineString","coordinates":[[13.3685496,45.7693701],[13.3685914,45.769303],[13.3686267,45.769252]]},"properties":{"site":"aquileia","name":"","highway":"footway"}},{"type":"Feature","geometry":{"type":"LineString","coordinates":[[13.3690555,45.7683119],[13.3690782,45.7682765],[13.369157,45.7682985]]},"properties":{"site":"aquileia","name":"","highway":"footway"}},{"type":"Feature","geometry":{"type":"LineString","coordinates":[[13.3663911,45.7715172],[13.3662227,45.7711266],[13.3663238,45.7710017]]},"properties":{"site":"aquileia","name":"","highway":"footway"}},{"type":"Feature","geometry":{"type":"LineString","coordinates":[[13.3700503,45.7695563],[13.3700844,45.7695305],[13.3704371,45.7696188]]},"properties":{"site":"aquileia","name":"","highway":"footway"}},{"type":"Feature","geometry":{"type":"LineString","coordinates":[[13.3658521,45.7696915],[13.3658587,45.7697238]]},"properties":{"site":"aquileia","name":"","highway":"footway"}},{"type":"Feature","geometry":{"type":"LineString","coordinates":[[13.3696744,45.769717],[13.3685496,45.7693701],[13.3684618,45.769343],[13.3684295,45.769405],[13.3681194,45.7699995],[13.3680801,45.7700741],[13.3681689,45.7701]]},"properties":{"site":"aquileia","name":"","highway":"footway"}},{"type":"Feature","geometry":{"type":"LineString","coordinates":[[13.3690555,45.7683119],[13.3687894,45.7687518]]},"properties":{"site":"aquileia","name":"","highway":"footway"}},{"type":"Feature","geometry":{"type":"LineString","coordinates":[[13.3698441,45.7696848],[13.3697919,45.769778],[13.3697595,45.7698358],[13.3696198,45.7698019]]},"properties":{"site":"aquileia","name":"","highway":"footway"}},{"type":"Feature","geometry":{"type":"LineString","coordinates":[[13.3656345,45.7699875],[13.3656966,45.7699819],[13.3657654,45.769976]]},"properties":{"site":"aquileia","name":"","highway":"footway"}},{"type":"Feature","geometry":{"type":"LineString","coordinates":[[13.3695042,45.7675127],[13.3690968,45.7682302],[13.3691843,45.7682515],[13.3712943,45.7687667]]},"properties":{"site":"aquileia","name":"","highway":"footway"}},{"type":"Feature","geometry":{"type":"LineString","coordinates":[[13.369903,45.7695803],[13.3700262,45.769613]]},"properties":{"site":"aquileia","name":"","highway":"footway"}},{"type":"Feature","geometry":{"type":"LineString","coordinates":[[13.3696162,45.7673945],[13.3695736,45.767386],[13.3695684,45.7673946]]},"properties":{"site":"aquileia","name":"","highway":"footway"}},{"type":"Feature","geometry":{"type":"LineString","coordinates":[[13.3676794,45.7707819],[13.3676319,45.7707648],[13.3675797,45.7707471]]},"properties":{"site":"aquileia","name":"","highway":"footway"}},{"type":"Feature","geometry":{"type":"LineString","coordinates":[[13.3689322,45.7682733],[13.368989,45.7682906],[13.3690555,45.7683119]]},"properties":{"site":"aquileia","name":"","highway":"footway"}},{"type":"Feature","geometry":{"type":"LineString","coordinates":[[13.3697919,45.769778],[13.3699231,45.7698147]]},"properties":{"site":"aquileia","name":"","highway":"footway"}},{"type":"Feature","geometry":{"type":"LineString","coordinates":[[13.3686267,45.769252],[13.3685106,45.7692182],[13.3687894,45.7687518]]},"properties":{"site":"aquileia","name":"","highway":"footway"}},{"type":"Feature","geometry":{"type":"LineString","coordinates":[[13.3691843,45.7682515],[13.3691707,45.7682756],[13.369157,45.7682985]]},"properties":{"site":"aquileia","name":"","highway":"footway"}},{"type":"Feature","geometry":{"type":"LineString","coordinates":[[13.3686267,45.769252],[13.3697559,45.7695877]]},"properties":{"site":"aquileia","name":"","highway":"footway"}},{"type":"Feature","geometry":{"type":"LineString","coordinates":[[13.3662335,45.7709679],[13.3662142,45.7709964],[13.3662054,45.7710033],[13.3661957,45.771003],[13.3661788,45.7709959],[13.366161,45.7709738],[13.3659655,45.7705151]]},"properties":{"site":"aquileia","name":"","highway":"footway"}},{"type":"Feature","geometry":{"type":"LineString","coordinates":[[13.3672701,45.7713849],[13.3673548,45.7712691],[13.3673838,45.7712275],[13.3676439,45.7708546],[13.3676794,45.7707819]]},"properties":{"site":"aquileia","name":"","highway":"footway"}},{"type":"Feature","geometry":{"type":"LineString","coordinates":[[13.3663061,45.7715639],[13.3663594,45.7715504],[13.3664011,45.7715407]]},"properties":{"site":"aquileia","name":"","highway":"footway"}},{"type":"Feature","geometry":{"type":"LineString","coordinates":[[13.3712943,45.7687667],[13.3712899,45.7688021]]},"properties":{"site":"aquileia","name":"","highway":"footway"}},{"type":"Feature","geometry":{"type":"LineString","coordinates":[[13.3699321,45.7695276],[13.3700503,45.7695563]]},"properties":{"site":"aquileia","name":"","highway":"footway"}},{"type":"Feature","geometry":{"type":"LineString","coordinates":[[13.3682896,45.7693696],[13.368372,45.7693901],[13.3684295,45.769405]]},"properties":{"site":"aquileia","name":"","highway":"footway"}},{"type":"Feature","geometry":{"type":"LineString","coordinates":[[13.3695684,45.7673946],[13.3695042,45.7675127]]},"properties":{"site":"aquileia","name":"","highway":"footway"}},{"type":"Feature","geometry":{"type":"LineString","coordinates":[[13.3694687,45.7672488],[13.3694269,45.7673064]]},"properties":{"site":"aquileia","name":"","highway":"footway"}},{"type":"Feature","geometry":{"type":"LineString","coordinates":[[13.3657607,45.769748],[13.3658587,45.7697238]]},"properties":{"site":"aquileia","name":"","highway":"footway"}},{"type":"Feature","geometry":{"type":"LineString","coordinates":[[13.3679885,45.7699633],[13.3680469,45.7699786],[13.3681194,45.7699995]]},"properties":{"site":"aquileia","name":"","highway":"footway"}},{"type":"Feature","geometry":{"type":"LineString","coordinates":[[13.3663647,45.7726295],[13.3665101,45.7723357],[13.366541,45.7722663],[13.3665546,45.7722165],[13.3665687,45.7721622],[13.3665588,45.7721119],[13.3665396,45.7720649],[13.3664581,45.7719165],[13.3663061,45.7715639]]},"properties":{"site":"aquileia","name":"","highway":"footway"}},{"type":"Feature","geometry":{"type":"LineString","coordinates":[[13.368372,45.7692337],[13.3686643,45.7687355],[13.3689322,45.7682733]]},"properties":{"site":"aquileia","name":"","highway":"footway"}},{"type":"Feature","geometry":{"type":"LineString","coordinates":[[13.3681386,45.7701633],[13.3681559,45.7701312],[13.3681689,45.7701]]},"properties":{"site":"aquileia","name":"","highway":"footway"}},{"type":"Feature","geometry":{"type":"LineString","coordinates":[[13.3679885,45.7699633],[13.3682896,45.7693696],[13.368372,45.7692337]]},"properties":{"site":"aquileia","name":"","highway":"footway"}},{"type":"Feature","geometry":{"type":"LineString","coordinates":[[13.3663911,45.7715172],[13.3664011,45.7715407],[13.3665069,45.7718088],[13.3665837,45.771949],[13.3666218,45.771971],[13.3666513,45.7719785],[13.3666988,45.7719787],[13.366719,45.7719665],[13.3670203,45.7715581],[13.3672864,45.7711902],[13.3674831,45.7709109],[13.3675797,45.7707471],[13.3676746,45.7705799],[13.3679474,45.7700564],[13.3679885,45.7699633]]},"properties":{"site":"aquileia","name":"","highway":"footway"}},{"type":"Feature","geometry":{"type":"LineString","coordinates":[[13.365313,45.7632258],[13.3648513,45.7641316]]},"properties":{"site":"aquileia","name":"","highway":"path"}},{"type":"Feature","geometry":{"type":"LineString","coordinates":[[13.3646866,45.7630938],[13.3647578,45.7631082],[13.3652552,45.7632133],[13.365313,45.7632258],[13.365898,45.7633687]]},"properties":{"site":"aquileia","name":"","highway":"path"}},{"type":"Feature","geometry":{"type":"LineString","coordinates":[[13.365898,45.7633687],[13.3660542,45.7634182],[13.3664544,45.763544]]},"properties":{"site":"aquileia","name":"","highway":"path"}},{"type":"Feature","geometry":{"type":"LineString","coordinates":[[13.3657447,45.7623475],[13.365313,45.7632258]]},"properties":{"site":"aquileia","name":"","highway":"path"}},{"type":"Feature","geometry":{"type":"LineString","coordinates":[[13.3629712,45.763264],[13.3632113,45.76347]]},"properties":{"site":"aquileia","name":"","highway":"track"}},{"type":"Feature","geometry":{"type":"LineString","coordinates":[[13.3765886,45.7642454],[13.3765496,45.7643653],[13.3765671,45.7644412],[13.3766423,45.7645021],[13.3768752,45.7645596],[13.3769091,45.7645836],[13.3769357,45.7646386],[13.3768942,45.764775],[13.3768198,45.7649195],[13.3767679,45.7649403],[13.3766835,45.7649413],[13.3763561,45.7648566]]},"properties":{"site":"aquileia","name":"","highway":"service"}}]}