{"type":"FeatureCollection","features":[{"type":"Feature","geometry":{"type":"LineString","coordinates":[[23.7277995,37.9733542],[23.7273261,37.973547],[23.7272481,37.9735665],[23.7271508,37.9735732]]},"properties":{"site":"athens","name":"Θρασυβούλου","highway":"pedestrian"}},{"type":"Feature","geometry":{"type":"LineString","coordinates":[[23.7295149,37.9746574],[23.729621,37.9749547]]},"properties":{"site":"athens","name":"Παλαιολόγου Μπενιζέλου","highway":"pedestrian"}},{"type":"Feature","geometry":{"type":"LineString","coordinates":[[23.7298821,37.9725389],[23.7303664,37.9725795]]},"properties":{"site":"athens","name":"Χιλλ","highway":"pedestrian"}},{"type":"Feature","geometry":{"type":"LineString","coordinates":[[23.7299733,37.9787082],[23.7299529,37.9785482],[23.7299109,37.9782183],[23.7298501,37.9777398],[23.7298465,37.9777117],[23.7298443,37.9776944]]},"properties":{"site":"athens","name":"Λεωχάρους","highway":"pedestrian"}},{"type":"Feature","geometry":{"type":"LineString","coordinates":[[23.7275657,37.9765204],[23.7275687,37.9765416],[23.7275723,37.9765571],[23.7276716,37.9769664],[23.7276744,37.9769784],[23.7276773,37.9769909],[23.7276798,37.977002]]},"properties":{"site":"athens","name":"Αιόλου","highway":"pedestrian"}},{"type":"Feature","geometry":{"type":"LineString","coordinates":[[23.7244943,37.9741266],[23.7244916,37.9741195],[23.7244911,37.974112],[23.7244921,37.9741052],[23.7244959,37.9740973],[23.72451,37.974072],[23.7245398,37.9740023],[23.7245334,37.9739613],[23.7245204,37.9739207],[23.7244732,37.9738716],[23.7243952,37.9738426],[23.7243208,37.9738229],[23.7242565,37.9738106],[23.7241882,37.9738013],[23.7241375,37.9737983],[23.7240859,37.9738049],[23.7240185,37.9738259],[23.7239025,37.9738528],[23.7237525,37.9738837],[23.723638,37.9739094],[23.7235641,37.9739224],[23.7234716,37.973935],[23.723356,37.9739395],[23.7232053,37.9739438],[23.7230764,37.9739452],[23.7229597,37.9739443],[23.7228935,37.9739404],[23.722838,37.9739327],[23.7227814,37.9739154],[23.7227066,37.97389],[23.7226153,37.9738566],[23.7225172,37.9738165],[23.7223973,37.9737647],[23.7223307,37.9737429],[23.7221793,37.9737172],[23.7220978,37.9737091],[23.72201,37.9737005],[23.7219166,37.9736889],[23.7218389,37.9736724],[23.7217448,37.9736512],[23.7216272,37.9736242],[23.7214843,37.9735868],[23.7213826,37.9735543],[23.7213259,37.9735263],[23.7212871,37.9734991],[23.7212332,37.9734538],[23.7211944,37.9734108],[23.721147,37.9733564],[23.7210717,37.9732727],[23.7210007,37.9731854],[23.7209297,37.9730855],[23.7208902,37.9730294],[23.7208509,37.9729687],[23.7208196,37.972921],[23.7207965,37.9728915],[23.7207594,37.9728443],[23.7207496,37.9728343],[23.7207324,37.9728168],[23.7207114,37.9727985],[23.7206784,37.9727759],[23.7206395,37.9727595],[23.7205818,37.9727381]]},"properties":{"site":"athens","name":"Περιφερειακή Οδός Αρχαίας Αγοράς","highway":"footway"}},{"type":"Feature","geometry":{"type":"LineString","coordinates":[[23.7240555,37.974931],[23.7239796,37.9749819],[23.7239659,37.9750639],[23.7239786,37.9752281],[23.7239593,37.9754024],[23.7238909,37.9755613],[23.7237233,37.9755731],[23.7235661,37.975547],[23.7235299,37.9755291],[23.7234758,37.9754888],[23.7234051,37.9754315],[23.7233348,37.9754071],[23.7232677,37.9753635],[23.7230504,37.9753597],[23.7229039,37.9753485],[23.7228964,37.9753525],[23.7227661,37.9753457],[23.7226711,37.9753455],[23.7225916,37.9753469],[23.7225274,37.9753468],[23.7224833,37.9753533],[23.7223857,37.9753757],[23.7223095,37.9753955],[23.7221951,37.9754266],[23.7220669,37.9754671],[23.7220141,37.9754838]]},"properties":{"site":"athens","name":"","highway":"footway"}},{"type":"Feature","geometry":{"type":"LineString","coordinates":[[23.7256885,37.9762583],[23.7256342,37.9762536],[23.7247428,37.976177],[23.724588,37.9761782],[23.7242999,37.9762101],[23.7240599,37.9762346],[23.7238718,37.9762829],[23.7237644,37.9763105],[23.7235359,37.9763662],[23.7231892,37.9763944]]},"properties":{"site":"athens","name":"Ηφαίστου","highway":"pedestrian"}},{"type":"Feature","geometry":{"type":"LineString","coordinates":[[23.7247864,37.972199],[23.7251581,37.9725168],[23.7252724,37.9725815],[23.725413,37.9726264],[23.725583,37.9726531],[23.7257447,37.9726755],[23.7257929,37.9727039],[23.725824,37.972765],[23.7258377,37.97281]]},"properties":{"site":"athens","name":"Παναθηναίων","highway":"footway"}},{"type":"Feature","geometry":{"type":"LineString","coordinates":[[23.7235469,37.9719853],[23.723451,37.972091],[23.7234521,37.9721277]]},"properties":{"site":"athens","name":"","highway":"path"}},{"type":"Feature","geometry":{"type":"LineString","coordinates":[[23.7244879,37.9725991],[23.7244387,37.9726026],[23.7243847,37.9726048],[23.7243153,37.9726083],[23.7242475,37.9726156],[23.7241841,37.9726237],[23.7241045,37.9726404],[23.7240122,37.9726642],[23.7239433,37.9726858],[23.7238716,37.9727183],[23.7237767,37.9727705],[23.7236868,37.9728146],[23.7236251,37.9728318],[23.7235708,37.9728374],[23.7235191,37.97285],[23.7234743,37.9728723],[23.7233364,37.9729594],[23.7232571,37.973021],[23.723239,37.9730504],[23.7232148,37.9730808],[23.7231857,37.9731044],[23.7231451,37.9731204],[23.7231031,37.9731353],[23.7230558,37.9731552],[23.723007,37.9731801],[23.7229711,37.9732065],[23.722939,37.9732407],[23.7228977,37.973275],[23.7228622,37.9732963],[23.722812,37.9733124],[23.7227671,37.9733193],[23.7227195,37.9733163],[23.722672,37.973308],[23.7226148,37.9733012],[23.7225564,37.9733028],[23.7225081,37.9733084],[23.7224591,37.973308],[23.7224175,37.973306],[23.7223742,37.9733131],[23.7223368,37.973329],[23.7223037,37.973356],[23.7222764,37.973387],[23.7222574,37.973429],[23.7222479,37.9734673],[23.7222493,37.9735052],[23.722257,37.973541],[23.7222735,37.9735742],[23.7222866,37.973606],[23.7222912,37.9736418],[23.7222847,37.9736767]]},"properties":{"site":"athens","name":"","highway":"footway"}},{"type":"Feature","geometry":{"type":"LineString","coordinates":[[23.7242372,37.9741462],[23.7241869,37.9740475],[23.7241344,37.9740096],[23.7239722,37.9739945],[23.7238303,37.974025],[23.7237933,37.9740681],[23.7237994,37.9741584],[23.7238046,37.9743916],[23.723993,37.9744868],[23.7240677,37.974612],[23.7240616,37.9747731],[23.7240555,37.974931],[23.7240335,37.9756442]]},"properties":{"site":"athens","name":"","highway":"footway"}},{"type":"Feature","geometry":{"type":"LineString","coordinates":[[23.7249443,37.9768594],[23.7248083,37.977091],[23.7247229,37.977224],[23.7244138,37.9777048]]},"properties":{"site":"athens","name":"Πιττάκη","highway":"pedestrian"}},{"type":"Feature","geometry":{"type":"LineString","coordinates":[[23.7244665,37.9769216],[23.724456,37.9768816],[23.7244192,37.9767344],[23.7243983,37.9766474],[23.7243563,37.9764634],[23.7243308,37.9763611],[23.7242999,37.9762101]]},"properties":{"site":"athens","name":"Νορμανού","highway":"pedestrian"}},{"type":"Feature","geometry":{"type":"LineString","coordinates":[[23.7217975,37.9764854],[23.7220429,37.9767355],[23.7223899,37.977077]]},"properties":{"site":"athens","name":"Θησείου","highway":"pedestrian"}},{"type":"Feature","geometry":{"type":"LineString","coordinates":[[23.7229166,37.9760679],[23.723108,37.9762795],[23.7231892,37.9763944],[23.7232528,37.9764917],[23.7234406,37.9767681],[23.723508,37.9768534],[23.7236781,37.9770243]]},"properties":{"site":"athens","name":"Αγίου Φιλίππου","highway":"pedestrian"}},{"type":"Feature","geometry":{"type":"LineString","coordinates":[[23.7242617,37.9776036],[23.7241366,37.9777092],[23.7239911,37.9778321],[23.7238022,37.9780118],[23.7235674,37.9782588]]},"properties":{"site":"athens","name":"Αισώπου","highway":"pedestrian"}},{"type":"Feature","geometry":{"type":"LineString","coordinates":[[23.7232501,37.9780851],[23.7234787,37.9778341],[23.7235477,37.9777583],[23.7236511,37.9776448],[23.7237852,37.9774976],[23.7239331,37.9773352]]},"properties":{"site":"athens","name":"Χριστοκοπίδου","highway":"pedestrian"}},{"type":"Feature","geometry":{"type":"LineString","coordinates":[[23.7279573,37.9778404],[23.7279436,37.9778744],[23.7279371,37.9778906],[23.728015,37.9782281],[23.728149,37.9788086],[23.7283489,37.9796752],[23.7284182,37.9799989],[23.7284289,37.9800434],[23.7285366,37.9804892],[23.7286204,37.9808372],[23.7287296,37.9813047]]},"properties":{"site":"athens","name":"Αιόλου","highway":"pedestrian"}},{"type":"Feature","geometry":{"type":"LineString","coordinates":[[23.7271508,37.9735732],[23.7272124,37.9738238]]},"properties":{"site":"athens","name":"Μάρκου Αυρήλιου","highway":"pedestrian"}},{"type":"Feature","geometry":{"type":"LineString","coordinates":[[23.7266363,37.9738946],[23.7266068,37.9735756]]},"properties":{"site":"athens","name":"Κλεψύδρας","highway":"pedestrian"}},{"type":"Feature","geometry":{"type":"LineString","coordinates":[[23.7260283,37.9739657],[23.7262949,37.9739349],[23.7266363,37.9738946]]},"properties":{"site":"athens","name":"Λυσίου","highway":"pedestrian"}},{"type":"Feature","geometry":{"type":"LineString","coordinates":[[23.7262929,37.9737588],[23.7263102,37.973548]]},"properties":{"site":"athens","name":"Μουσαίου","highway":"pedestrian"}},{"type":"Feature","geometry":{"type":"LineString","coordinates":[[23.7252352,37.9730191],[23.725829,37.9730432],[23.7262143,37.9730676],[23.726664,37.9730991]]},"properties":{"site":"athens","name":"Αρετούσας","highway":"pedestrian"}},{"type":"Feature","geometry":{"type":"LineString","coordinates":[[23.7251252,37.9734911],[23.7251775,37.9734885],[23.725695,37.9734678]]},"properties":{"site":"athens","name":"Μητρώου","highway":"pedestrian"}},{"type":"Feature","geometry":{"type":"LineString","coordinates":[[23.7258955,37.9735002],[23.7263102,37.973548],[23.7266068,37.9735756],[23.7267539,37.9736044],[23.7270164,37.973576],[23.7271508,37.9735732]]},"properties":{"site":"athens","name":"Θρασυβούλου","highway":"pedestrian"}},{"type":"Feature","geometry":{"type":"LineString","coordinates":[[23.7258553,37.9732575],[23.7261925,37.9732519],[23.7266016,37.9733483],[23.7269897,37.9733315],[23.7271107,37.9732682]]},"properties":{"site":"athens","name":"Θόλου","highway":"pedestrian"}},{"type":"Feature","geometry":{"type":"LineString","coordinates":[[23.7253731,37.9741964],[23.7251371,37.974211],[23.7248125,37.974222],[23.7245829,37.9741702],[23.7245248,37.9741389],[23.7245108,37.9741346],[23.7245006,37.9741308],[23.7244943,37.9741266]]},"properties":{"site":"athens","name":"Πολυγνώτου","highway":"pedestrian"}},{"type":"Feature","geometry":{"type":"LineString","coordinates":[[23.7223095,37.9753955],[23.7222235,37.9749516],[23.722122,37.9748609],[23.7221102,37.9747877]]},"properties":{"site":"athens","name":"","highway":"footway"}},{"type":"Feature","geometry":{"type":"LineString","coordinates":[[23.7229225,37.9749314],[23.7229039,37.9753485]]},"properties":{"site":"athens","name":"","highway":"footway"}},{"type":"Feature","geometry":{"type":"LineString","coordinates":[[23.7221225,37.9744348],[23.7221063,37.9743675],[23.7220476,37.9742821],[23.7220195,37.974097],[23.7220803,37.9741061],[23.7222223,37.9741164],[23.7225017,37.9741456],[23.7227885,37.9741427],[23.7233524,37.9740495],[23.7235693,37.974017],[23.7236717,37.9740004],[23.723683,37.9740236],[23.7237152,37.9740502],[23.7237447,37.9740502],[23.7237933,37.9740681]]},"properties":{"site":"athens","name":"","highway":"footway"}},{"type":"Feature","geometry":{"type":"LineString","coordinates":[[23.7230382,37.975727],[23.7229826,37.9754863],[23.7230504,37.9753597]]},"properties":{"site":"athens","name":"","highway":"footway"}},{"type":"Feature","geometry":{"type":"LineString","coordinates":[[23.7236279,37.9751074],[23.7235433,37.9750628],[23.7234464,37.9749856],[23.7233427,37.9749388],[23.7229225,37.9749314],[23.7229276,37.9747958],[23.722932,37.9747056]]},"properties":{"site":"athens","name":"","highway":"footway"}},{"type":"Feature","geometry":{"type":"LineString","coordinates":[[23.7223626,37.9752128],[23.7224894,37.9752179],[23.7224567,37.9749428],[23.7227649,37.9749263],[23.7229225,37.9749314]]},"properties":{"site":"athens","name":"","highway":"footway"}},{"type":"Feature","geometry":{"type":"LineString","coordinates":[[23.7234051,37.9754315],[23.7233038,37.9755412],[23.7231982,37.9756234],[23.7231173,37.9757056],[23.7230382,37.975727],[23.7228389,37.9757922],[23.7226659,37.9758085],[23.7225811,37.975831],[23.7224837,37.9758569],[23.7224622,37.9757622],[23.7223857,37.9753757],[23.7223626,37.9752128],[23.7223202,37.9749504],[23.7224567,37.9749428]]},"properties":{"site":"athens","name":"","highway":"footway"}},{"type":"Feature","geometry":{"type":"LineString","coordinates":[[23.7224437,37.9702215],[23.7224586,37.9703042],[23.722436,37.9703715],[23.7223605,37.970548],[23.7223442,37.9706213],[23.72234,37.970682],[23.72234,37.9707358],[23.7223472,37.9707909],[23.7223586,37.9708422],[23.7223868,37.9709149],[23.7224206,37.9709812],[23.7224524,37.9710294],[23.7225008,37.9710908],[23.7226501,37.9712411],[23.7228093,37.9713863],[23.7230352,37.9716005],[23.7233018,37.9717363],[23.7233412,37.9717674],[23.7233466,37.9717732],[23.7234322,37.9718653],[23.7234973,37.9719356],[23.7235469,37.9719853],[23.7236165,37.9720572],[23.7237145,37.972147],[23.7239344,37.9722728],[23.7241851,37.9723896],[23.7245248,37.9725342],[23.7246284,37.9725724],[23.7249031,37.9726735],[23.7252636,37.9727827]]},"properties":{"site":"athens","name":"Θεωρίας","highway":"pedestrian"}},{"type":"Feature","geometry":{"type":"LineString","coordinates":[[23.7284778,37.9796537],[23.728846,37.9790045],[23.7289214,37.9788592],[23.7290213,37.9786656],[23.7291704,37.9783955],[23.729226,37.9782948],[23.7292419,37.978236],[23.7292487,37.978211],[23.7292713,37.9779974],[23.7292954,37.9777666],[23.729295,37.9777589],[23.7292943,37.9777423]]},"properties":{"site":"athens","name":"Αγίου Μάρκου","highway":"pedestrian"}},{"type":"Feature","geometry":{"type":"LineString","coordinates":[[23.7288043,37.9736269],[23.7289456,37.9739689],[23.7289277,37.9740087],[23.7288348,37.9740517]]},"properties":{"site":"athens","name":"Ερεχθέως","highway":"pedestrian"}},{"type":"Feature","geometry":{"type":"LineString","coordinates":[[23.7282633,37.9775414],[23.7282921,37.9775212],[23.7282972,37.9773875],[23.7282981,37.9773602]]},"properties":{"site":"athens","name":"Βασιλικής","highway":"pedestrian"}},{"type":"Feature","geometry":{"type":"LineString","coordinates":[[23.7269016,37.9766131],[23.7268338,37.9764365],[23.7268046,37.976271]]},"properties":{"site":"athens","name":"Κηρυκείου","highway":"pedestrian"}},{"type":"Feature","geometry":{"type":"LineString","coordinates":[[23.7277046,37.9730201],[23.7277436,37.9731778],[23.727758,37.9732827],[23.7277995,37.9733542]]},"properties":{"site":"athens","name":"Μνησικλέους","highway":"steps"}},{"type":"Feature","geometry":{"type":"LineString","coordinates":[[23.7234787,37.9778341],[23.7229013,37.9774124]]},"properties":{"site":"athens","name":"Αυλητών","highway":"pedestrian"}},{"type":"Feature","geometry":{"type":"LineString","coordinates":[[23.7239206,37.9765308],[23.7237644,37.9763105]]},"properties":{"site":"athens","name":"Αβησσυνίας","highway":"pedestrian"}},{"type":"Feature","geometry":{"type":"LineString","coordinates":[[23.7243763,37.9769334],[23.7243925,37.977008],[23.7244151,37.9770447],[23.7244873,37.9771077],[23.7245556,37.9771467],[23.7247229,37.977224]]},"properties":{"site":"athens","name":"Αρτέμιδος","highway":"pedestrian"}},{"type":"Feature","geometry":{"type":"LineString","coordinates":[[23.7236683,37.9765989],[23.7238371,37.9767723],[23.723981,37.9767173],[23.7239927,37.976754],[23.7241049,37.9766913],[23.7240726,37.9765716],[23.7238718,37.9762829],[23.7237644,37.9763105],[23.7239206,37.9765308],[23.7236683,37.9765989]]},"properties":{"site":"athens","name":"Πλατεία Αβησσυνίας","highway":"pedestrian"}},{"type":"Feature","geometry":{"type":"LineString","coordinates":[[23.729744,37.9727499],[23.7294118,37.972575]]},"properties":{"site":"athens","name":"Επιχάρμου","highway":"pedestrian"}},{"type":"Feature","geometry":{"type":"LineString","coordinates":[[23.728835,37.9723554],[23.7288027,37.9723495],[23.7287633,37.9724337],[23.7287359,37.9725101],[23.7286897,37.9725745],[23.728667,37.9726259]]},"properties":{"site":"athens","name":"Επιχάρμου","highway":"footway"}},{"type":"Feature","geometry":{"type":"LineString","coordinates":[[23.7281647,37.9735368],[23.7280893,37.9733585]]},"properties":{"site":"athens","name":"Ερωτόκριτου","highway":"pedestrian"}},{"type":"Feature","geometry":{"type":"LineString","coordinates":[[23.7282416,37.9733116],[23.7283605,37.9732444],[23.7284863,37.9731636],[23.7286366,37.973061],[23.7289231,37.9728779],[23.7291027,37.9729951]]},"properties":{"site":"athens","name":"Ερωτόκριτου","highway":"pedestrian"}},{"type":"Feature","geometry":{"type":"LineString","coordinates":[[23.7294697,37.9740494],[23.7296543,37.9741618],[23.730126,37.9742297]]},"properties":{"site":"athens","name":"Αγίου Ανδρέου","highway":"pedestrian"}},{"type":"Feature","geometry":{"type":"LineString","coordinates":[[23.7266068,37.9735756],[23.7266016,37.9733483],[23.726664,37.9730991],[23.7266685,37.972996]]},"properties":{"site":"athens","name":"Κλεψύδρας","highway":"steps"}},{"type":"Feature","geometry":{"type":"LineString","coordinates":[[23.7251252,37.9734911],[23.7251184,37.9733561]]},"properties":{"site":"athens","name":"Διοσκούρων","highway":"steps"}},{"type":"Feature","geometry":{"type":"LineString","coordinates":[[23.7267539,37.9736044],[23.7269225,37.9738532]]},"properties":{"site":"athens","name":"Ανδοκίδου","highway":"pedestrian"}},{"type":"Feature","geometry":{"type":"LineString","coordinates":[[23.7271107,37.9732682],[23.7274638,37.973232],[23.7277436,37.9731778]]},"properties":{"site":"athens","name":"Θόλου","highway":"footway"}},{"type":"Feature","geometry":{"type":"LineString","coordinates":[[23.728306,37.9728307],[23.7283419,37.9728153],[23.7285263,37.9727631],[23.7287307,37.9726934],[23.7289534,37.9726301],[23.7290271,37.9726173],[23.7290846,37.9726068],[23.7292382,37.9725071]]},"properties":{"site":"athens","name":"Πρυτανείου","highway":"pedestrian"}},{"type":"Feature","geometry":{"type":"LineString","coordinates":[[23.7235359,37.9763662],[23.7234903,37.976211],[23.7234143,37.9759565]]},"properties":{"site":"athens","name":"Κυνέτου","highway":"pedestrian"}},{"type":"Feature","geometry":{"type":"LineString","coordinates":[[23.7247156,37.9758139],[23.7247209,37.9758343],[23.7247381,37.9759074],[23.72474,37.9759189],[23.7247428,37.976177]]},"properties":{"site":"athens","name":"Νήσου","highway":"pedestrian"}},{"type":"Feature","geometry":{"type":"LineString","coordinates":[[23.723108,37.9762795],[23.7234903,37.976211]]},"properties":{"site":"athens","name":"","highway":"pedestrian"}},{"type":"Feature","geometry":{"type":"LineString","coordinates":[[23.7301024,37.9767176],[23.7301038,37.9766926],[23.7301017,37.9766741],[23.7300663,37.9765384],[23.730064,37.9765304],[23.7300364,37.9764347],[23.7299235,37.9764361],[23.7297628,37.9764348],[23.7297542,37.9764349],[23.7296522,37.9764366],[23.7295994,37.9764373]]},"properties":{"site":"athens","name":"Κτενά","highway":"pedestrian"}},{"type":"Feature","geometry":{"type":"LineString","coordinates":[[23.7299537,37.9755224],[23.7299448,37.975534],[23.7299249,37.97556],[23.7298596,37.9756452],[23.7297075,37.9762125],[23.7296668,37.9762433],[23.7296226,37.9762768],[23.7295994,37.9764373],[23.7295589,37.976718],[23.7295554,37.9767455],[23.7295541,37.9767559],[23.7295531,37.9767683],[23.7295522,37.97678],[23.7295262,37.9771708],[23.7295205,37.9772565],[23.7294935,37.9773563],[23.7294722,37.9773865],[23.7294012,37.9774913],[23.7292748,37.9775697]]},"properties":{"site":"athens","name":"Ευαγγελιστρίας","highway":"pedestrian"}},{"type":"Feature","geometry":{"type":"LineString","coordinates":[[23.7282633,37.9775414],[23.7283068,37.9775598],[23.7285576,37.9776656],[23.728642,37.97769],[23.7286797,37.977706],[23.7286851,37.9777221],[23.7286822,37.9777712],[23.7286813,37.9777866]]},"properties":{"site":"athens","name":"Λιμπονά","highway":"pedestrian"}},{"type":"Feature","geometry":{"type":"LineString","coordinates":[[23.7283887,37.9773494],[23.7284219,37.9773443],[23.7286066,37.9773162],[23.7289507,37.9771913],[23.72899,37.977177]]},"properties":{"site":"athens","name":"Σκουζέ","highway":"pedestrian"}},{"type":"Feature","geometry":{"type":"LineString","coordinates":[[23.7292943,37.9777423],[23.7292951,37.9777251],[23.729289,37.977714],[23.7292738,37.9776862],[23.7292745,37.9776056],[23.7292748,37.9775697]]},"properties":{"site":"athens","name":"Ευαγγελιστρίας","highway":"pedestrian"}},{"type":"Feature","geometry":{"type":"LineString","coordinates":[[23.7274878,37.9777005],[23.7277264,37.9780876],[23.728015,37.9782281]]},"properties":{"site":"athens","name":"Καρόρη","highway":"pedestrian"}},{"type":"Feature","geometry":{"type":"LineString","coordinates":[[23.7248083,37.977091],[23.7248383,37.9771054],[23.7250007,37.9771832],[23.7250298,37.9771971]]},"properties":{"site":"athens","name":"Κέβητος","highway":"pedestrian"}},{"type":"Feature","geometry":{"type":"LineString","coordinates":[[23.7240544,37.9774538],[23.7241993,37.9773157]]},"properties":{"site":"athens","name":"Καραϊσκάκη","highway":"footway"}},{"type":"Feature","geometry":{"type":"LineString","coordinates":[[23.7274802,37.9761151],[23.7274509,37.9761219],[23.7268046,37.976271],[23.7265652,37.9763029],[23.7262426,37.976346],[23.7262232,37.9763487]]},"properties":{"site":"athens","name":"Μητροπόλεως","highway":"pedestrian"}},{"type":"Feature","geometry":{"type":"LineString","coordinates":[[23.7265652,37.9763029],[23.7266252,37.9764391],[23.7267255,37.9766352]]},"properties":{"site":"athens","name":"Καλίππου","highway":"footway"}},{"type":"Feature","geometry":{"type":"LineString","coordinates":[[23.7256911,37.9767621],[23.7256825,37.9767153]]},"properties":{"site":"athens","name":"Μιαούλη","highway":"pedestrian"}},{"type":"Feature","geometry":{"type":"LineString","coordinates":[[23.7212781,37.9742154],[23.7213325,37.9742047],[23.7213548,37.9741934],[23.7214589,37.974152],[23.7215194,37.9741383],[23.7216252,37.9741312],[23.7217274,37.9741421],[23.7218331,37.9741701],[23.72196,37.974204],[23.7220476,37.9742821]]},"properties":{"site":"athens","name":"","highway":"footway"}},{"type":"Feature","geometry":{"type":"LineString","coordinates":[[23.7229276,37.9747958],[23.7228952,37.9748702],[23.7228712,37.974889],[23.7228305,37.9749075],[23.7227649,37.9749263]]},"properties":{"site":"athens","name":"","highway":"footway"}},{"type":"Feature","geometry":{"type":"LineString","coordinates":[[23.7213778,37.9725684],[23.7214261,37.9725723],[23.7214913,37.972602],[23.7216221,37.9726647],[23.7217176,37.9727015],[23.7218728,37.9727508],[23.7220038,37.9728027],[23.7221028,37.9728324],[23.7221283,37.972837],[23.7221819,37.9728466],[23.7222456,37.9728434],[23.7223344,37.9728313],[23.7224329,37.9728059],[23.7225107,37.9727818],[23.7225808,37.9727436],[23.7225982,37.9727341],[23.7226175,37.9727161],[23.7226657,37.9726711]]},"properties":{"site":"athens","name":"","highway":"footway"}},{"type":"Feature","geometry":{"type":"LineString","coordinates":[[23.7222847,37.9736767],[23.7223699,37.9736546],[23.7224416,37.9736299],[23.7225,37.9736084],[23.7225676,37.9735843],[23.7226439,37.9735599],[23.7227235,37.9735338],[23.7227947,37.9735129],[23.7228811,37.9734916],[23.7230369,37.9734606],[23.7231221,37.9734428],[23.7231955,37.9734223],[23.7232608,37.9733954],[23.7233174,37.9733689],[23.7233608,37.9733417],[23.7233963,37.9733131],[23.7234248,37.973285],[23.7234703,37.9732393],[23.7234912,37.9732143],[23.723509,37.9731742],[23.7235239,37.9731389],[23.7235417,37.9731085],[23.7235692,37.9730845],[23.7236077,37.9730601],[23.7236576,37.9730369],[23.7237093,37.9730182],[23.723777,37.9730004],[23.7238431,37.9729881],[23.7240091,37.9729491],[23.7241955,37.9728928],[23.7242615,37.9728754],[23.724315,37.972867],[23.7243718,37.9728711],[23.7244249,37.9728874],[23.7245753,37.9729467]]},"properties":{"site":"athens","name":"","highway":"footway"}},{"type":"Feature","geometry":{"type":"LineString","coordinates":[[23.7234521,37.9721277],[23.7234193,37.972266]]},"properties":{"site":"athens","name":"","highway":"steps"}},{"type":"Feature","geometry":{"type":"LineString","coordinates":[[23.7231244,37.9744405],[23.7231494,37.974454],[23.7231518,37.9744996],[23.7231518,37.9746194],[23.7231487,37.9746699],[23.7231431,37.9747093]]},"properties":{"site":"athens","name":"","highway":"footway"}},{"type":"Feature","geometry":{"type":"LineString","coordinates":[[23.7234193,37.972266],[23.723379,37.9722711],[23.7232776,37.9722611],[23.7232286,37.9722749],[23.7231464,37.9722979],[23.7231373,37.9723111]]},"properties":{"site":"athens","name":"","highway":"footway"}},{"type":"Feature","geometry":{"type":"LineString","coordinates":[[23.7207965,37.9728915],[23.720822,37.972882],[23.7208569,37.9728814],[23.7208947,37.9728925],[23.7209314,37.9729215],[23.7209566,37.9729425],[23.7209911,37.9729597],[23.721028,37.9729705],[23.7210732,37.9729749],[23.7211189,37.9729708],[23.7211624,37.9729718],[23.7212166,37.9729973],[23.7212773,37.9730116],[23.7213436,37.9730413],[23.721398,37.9730731],[23.7214424,37.9731047],[23.7214922,37.9731512],[23.7215378,37.973187],[23.7215849,37.9732299],[23.7216442,37.9732871],[23.7216937,37.9733476],[23.7217409,37.9733917],[23.7217823,37.9734129],[23.7218147,37.9734049],[23.7218448,37.9733941],[23.7218806,37.9733701],[23.7219235,37.9733616],[23.7219642,37.9733752],[23.7220104,37.9733779],[23.7220492,37.9733623],[23.7220819,37.9733414],[23.7221356,37.9733071],[23.7222142,37.9732814],[23.7222245,37.9732734],[23.7222804,37.9732304],[23.7223345,37.9731982],[23.7223945,37.9731754],[23.7224602,37.9731625],[23.7225331,37.9731527],[23.7225747,37.9731407],[23.722615,37.973115],[23.7226787,37.9730765],[23.7227123,37.973054],[23.722737,37.9730386],[23.7227549,37.9730274],[23.7228084,37.9730028],[23.7228232,37.9729033],[23.7227936,37.9728487],[23.7227469,37.9728208],[23.7227243,37.9727829],[23.7226723,37.9727707],[23.7226036,37.9727615],[23.7225808,37.9727436]]},"properties":{"site":"athens","name":"","highway":"footway"}},{"type":"Feature","geometry":{"type":"LineString","coordinates":[[23.7226657,37.9726711],[23.7227469,37.9726944],[23.7227871,37.9726958],[23.7228482,37.9726912],[23.722914,37.9726809],[23.722992,37.9726568],[23.7230615,37.9726342],[23.7231112,37.9726087],[23.7231504,37.9725904],[23.7231954,37.9725485],[23.7232289,37.9724788]]},"properties":{"site":"athens","name":"","highway":"footway"}},{"type":"Feature","geometry":{"type":"LineString","coordinates":[[23.7221225,37.9744348],[23.7222567,37.9744336],[23.722485,37.9744573],[23.7227382,37.974444],[23.7228404,37.9744264],[23.7230225,37.9744481],[23.7230767,37.9744453],[23.7231244,37.9744405],[23.7231293,37.9743998],[23.7232059,37.9743544],[23.7233236,37.9743456],[23.7234661,37.9743363],[23.7235451,37.9743121],[23.7236307,37.974291],[23.7236608,37.9742805],[23.7237369,37.9742194],[23.7237994,37.9741584]]},"properties":{"site":"athens","name":"","highway":"footway"}},{"type":"Feature","geometry":{"type":"LineString","coordinates":[[23.722452,37.9748393],[23.7223246,37.9747949],[23.7221753,37.9748263],[23.7221102,37.9747877]]},"properties":{"site":"athens","name":"","highway":"footway"}},{"type":"Feature","geometry":{"type":"LineString","coordinates":[[23.7224567,37.9749428],[23.722452,37.9748393],[23.7224843,37.9748285],[23.722493,37.9746871],[23.722932,37.9747056],[23.7231431,37.9747093],[23.7238845,37.9747245],[23.7240616,37.9747731]]},"properties":{"site":"athens","name":"","highway":"footway"}},{"type":"Feature","geometry":{"type":"LineString","coordinates":[[23.7273763,37.97437],[23.7271644,37.9744353],[23.7270656,37.9745059]]},"properties":{"site":"athens","name":"Διογένους","highway":"pedestrian"}},{"type":"Feature","geometry":{"type":"LineString","coordinates":[[23.725323,37.973946],[23.72526,37.9736139],[23.7252257,37.9735441],[23.7251775,37.9734885]]},"properties":{"site":"athens","name":"Διοσκούρων","highway":"pedestrian"}},{"type":"Feature","geometry":{"type":"LineString","coordinates":[[23.7279635,37.973609],[23.7281092,37.9738462],[23.728231,37.9740693],[23.7283415,37.9743207]]},"properties":{"site":"athens","name":"Μνησικλέους","highway":"pedestrian"}},{"type":"Feature","geometry":{"type":"LineString","coordinates":[[23.7301167,37.9733071],[23.7298895,37.9732187]]},"properties":{"site":"athens","name":"","highway":"pedestrian"}},{"type":"Feature","geometry":{"type":"LineString","coordinates":[[23.7220429,37.9767355],[23.7218055,37.9768875],[23.7217135,37.9769482]]},"properties":{"site":"athens","name":"","highway":"pedestrian"}},{"type":"Feature","geometry":{"type":"LineString","coordinates":[[23.7284662,37.9745333],[23.7284878,37.9745479],[23.7285849,37.9748276],[23.7286134,37.9749265],[23.7286593,37.9750854],[23.7287201,37.9752961],[23.7287349,37.9753307],[23.7288459,37.9757376],[23.7288505,37.9757543]]},"properties":{"site":"athens","name":"Μνησικλέους","highway":"pedestrian"}},{"type":"Feature","geometry":{"type":"LineString","coordinates":[[23.7232419,37.9759726],[23.7232287,37.9759276],[23.7232212,37.9759024],[23.7232178,37.9758743],[23.7232196,37.9758563],[23.7232196,37.9758449],[23.7232217,37.975821],[23.7232223,37.9758043],[23.723226,37.9757921],[23.7232442,37.9757647],[23.7232702,37.9757371],[23.723316,37.9756698],[23.7233372,37.9756051],[23.7233465,37.9755599],[23.7234051,37.9754315],[23.7236279,37.9751074],[23.7238845,37.9747245],[23.7239511,37.9746105],[23.723993,37.9744868],[23.7240549,37.974394],[23.7241617,37.9742384],[23.7242372,37.9741462]]},"properties":{"site":"athens","name":"Οδός Παναθηναίων","highway":"footway"}},{"type":"Feature","geometry":{"type":"LineString","coordinates":[[23.7241045,37.9726404],[23.7241337,37.9726576],[23.7241591,37.972665],[23.7241828,37.972665],[23.7242177,37.9726585],[23.724267,37.9726544],[23.7243071,37.972652],[23.7243451,37.9726528],[23.7243739,37.9726593],[23.7243991,37.972671],[23.7244289,37.9726877],[23.7244566,37.9727104],[23.7244792,37.9727359],[23.7244955,37.9727669],[23.7245043,37.9727916],[23.7245149,37.9728205],[23.7245308,37.9728655],[23.7245469,37.9729022],[23.7245753,37.9729467],[23.7246152,37.972997],[23.724643,37.9730235],[23.7246658,37.9730439],[23.7246995,37.9730601],[23.7247268,37.9730752],[23.7247442,37.9730923],[23.7247474,37.9731154]]},"properties":{"site":"athens","name":"","highway":"footway"}},{"type":"Feature","geometry":{"type":"LineString","coordinates":[[23.7213696,37.972792],[23.7214013,37.9728066],[23.721442,37.9728261],[23.7214725,37.9728387],[23.7215074,37.9728604],[23.7215321,37.9728765],[23.721551,37.9728959],[23.7215627,37.9729131],[23.7215699,37.9729292],[23.721583,37.9729498],[23.7216004,37.9729704],[23.7216222,37.9729876],[23.7216469,37.9730094],[23.7216746,37.97303],[23.7217051,37.9730495],[23.7217385,37.9730689],[23.7217734,37.9730861],[23.7218068,37.973101],[23.7218519,37.9731182],[23.7218969,37.9731331],[23.7219652,37.9731594],[23.7220422,37.9731835],[23.7221222,37.9732156],[23.7221541,37.9732316],[23.722189,37.9732499],[23.7222245,37.9732734]]},"properties":{"site":"athens","name":"","highway":"footway"}},{"type":"Feature","geometry":{"type":"LineString","coordinates":[[23.7232289,37.9724788],[23.7231511,37.9724826],[23.7231126,37.9724827],[23.7230734,37.9724804],[23.7230018,37.9724759]]},"properties":{"site":"athens","name":"","highway":"footway"}},{"type":"Feature","geometry":{"type":"LineString","coordinates":[[23.723379,37.9722711],[23.7233481,37.9723487],[23.723319,37.9723933],[23.723274,37.9724415],[23.7232289,37.9724788]]},"properties":{"site":"athens","name":"","highway":"footway"}},{"type":"Feature","geometry":{"type":"LineString","coordinates":[[23.7226657,37.9726711],[23.7226927,37.9726316],[23.7227317,37.9725776],[23.7227711,37.97254],[23.722829,37.9725075],[23.7229005,37.9724873],[23.7229586,37.9724793],[23.7230018,37.9724759]]},"properties":{"site":"athens","name":"","highway":"footway"}},{"type":"Feature","geometry":{"type":"LineString","coordinates":[[23.7244732,37.9738716],[23.7245007,37.973812],[23.7245872,37.9736378],[23.7246321,37.973533],[23.7246811,37.9733984],[23.7246978,37.9733443],[23.7247161,37.9732794],[23.7247357,37.9732126],[23.7247435,37.9731797],[23.7247474,37.9731469],[23.7247474,37.9731154]]},"properties":{"site":"athens","name":"Παναθηναίων","highway":"footway"}},{"type":"Feature","geometry":{"type":"LineString","coordinates":[[23.7288525,37.9746687],[23.728882,37.9746681]]},"properties":{"site":"athens","name":"","highway":"service"}},{"type":"Feature","geometry":{"type":"LineString","coordinates":[[23.7283248,37.976414],[23.7283035,37.9763433],[23.7282044,37.9760142],[23.7281974,37.9759911],[23.7283325,37.9759444]]},"properties":{"site":"athens","name":"Χριστοπούλου","highway":"pedestrian"}},{"type":"Feature","geometry":{"type":"LineString","coordinates":[[23.7222749,37.9779336],[23.7220544,37.9778007],[23.7221206,37.9777324]]},"properties":{"site":"athens","name":"","highway":"service"}},{"type":"Feature","geometry":{"type":"LineString","coordinates":[[23.7280133,37.9732898],[23.7277995,37.9733542]]},"properties":{"site":"athens","name":"Θρασυβούλου","highway":"pedestrian"}},{"type":"Feature","geometry":{"type":"LineString","coordinates":[[23.7295955,37.9739422],[23.7294658,37.9738455],[23.729358,37.9737735]]},"properties":{"site":"athens","name":"","highway":"pedestrian"}},{"type":"Feature","geometry":{"type":"LineString","coordinates":[[23.7287644,37.973347],[23.728709,37.9732216]]},"properties":{"site":"athens","name":"Ερεχθέως","highway":"pedestrian"}},{"type":"Feature","geometry":{"type":"LineString","coordinates":[[23.7288043,37.9736269],[23.728786,37.9735563],[23.7288185,37.9735078],[23.7287644,37.973347]]},"properties":{"site":"athens","name":"Ερεχθέως","highway":"pedestrian"}},{"type":"Feature","geometry":{"type":"LineString","coordinates":[[23.7272948,37.9741106],[23.7273922,37.9743372],[23.7273763,37.97437]]},"properties":{"site":"athens","name":"Μάρκου Αυρήλιου","highway":"pedestrian"}},{"type":"Feature","geometry":{"type":"LineString","coordinates":[[23.7239911,37.9778321],[23.7236511,37.9776448]]},"properties":{"site":"athens","name":"","highway":"footway"}},{"type":"Feature","geometry":{"type":"LineString","coordinates":[[23.7270463,37.972933],[23.7271787,37.9729012],[23.7272957,37.9728888],[23.7273633,37.9729012],[23.7274376,37.9729307],[23.7274866,37.9729991],[23.7275093,37.9730665]]},"properties":{"site":"athens","name":"Θεωρίας","highway":"pedestrian"}},{"type":"Feature","geometry":{"type":"LineString","coordinates":[[23.7259866,37.9738815],[23.7259151,37.973693],[23.7259045,37.9736376],[23.7258955,37.9735002],[23.7258901,37.9734525],[23.7258553,37.9732575]]},"properties":{"site":"athens","name":"Πανός","highway":"pedestrian"}},{"type":"Feature","geometry":{"type":"LineString","coordinates":[[23.7218493,37.9747645],[23.7219369,37.9747426],[23.7221102,37.9747877],[23.7220875,37.9746725],[23.7220876,37.9745524],[23.7221225,37.9744348]]},"properties":{"site":"athens","name":"","highway":"footway"}},{"type":"Feature","geometry":{"type":"LineString","coordinates":[[23.7282416,37.9733116],[23.7282187,37.9732681],[23.7281707,37.9731773]]},"properties":{"site":"athens","name":"","highway":"steps"}},{"type":"Feature","geometry":{"type":"LineString","coordinates":[[23.7294715,37.9720606],[23.7292699,37.9720026]]},"properties":{"site":"athens","name":"","highway":"steps"}},{"type":"Feature","geometry":{"type":"LineString","coordinates":[[23.7269897,37.9733315],[23.7270042,37.9734639],[23.7270164,37.973576]]},"properties":{"site":"athens","name":"Αλιμπέρτη","highway":"steps"}},{"type":"Feature","geometry":{"type":"LineString","coordinates":[[23.7286366,37.973061],[23.7285263,37.9727631]]},"properties":{"site":"athens","name":"Ερεχθέως","highway":"steps"}},{"type":"Feature","geometry":{"type":"LineString","coordinates":[[23.7286503,37.9730913],[23.7286366,37.973061]]},"properties":{"site":"athens","name":"Ερεχθέως","highway":"steps"}},{"type":"Feature","geometry":{"type":"LineString","coordinates":[[23.728709,37.9732216],[23.7286503,37.9730913]]},"properties":{"site":"athens","name":"Ερεχθέως","highway":"steps"}},{"type":"Feature","geometry":{"type":"LineString","coordinates":[[23.7294055,37.9724174],[23.7293875,37.972397],[23.7293283,37.9723365],[23.7293096,37.9723161]]},"properties":{"site":"athens","name":"Ραγκαβά","highway":"steps"}},{"type":"Feature","geometry":{"type":"LineString","coordinates":[[23.7293096,37.9723161],[23.7291976,37.9722605],[23.7290558,37.9721931],[23.7289408,37.9721405]]},"properties":{"site":"athens","name":"","highway":"steps"}},{"type":"Feature","geometry":{"type":"LineString","coordinates":[[23.7292549,37.9720472],[23.7291059,37.9720005]]},"properties":{"site":"athens","name":"","highway":"steps"}},{"type":"Feature","geometry":{"type":"LineString","coordinates":[[23.7291976,37.9722605],[23.7292549,37.9720472],[23.7292699,37.9720026],[23.7293006,37.9719109]]},"properties":{"site":"athens","name":"","highway":"footway"}},{"type":"Feature","geometry":{"type":"LineString","coordinates":[[23.7291253,37.9719259],[23.7291059,37.9720005],[23.7291044,37.9720061]]},"properties":{"site":"athens","name":"","highway":"footway"}},{"type":"Feature","geometry":{"type":"LineString","coordinates":[[23.7252352,37.9730191],[23.7252258,37.9727882],[23.7252633,37.9727947],[23.7252636,37.9727827]]},"properties":{"site":"athens","name":"Διοσκούρων","highway":"steps"}},{"type":"Feature","geometry":{"type":"LineString","coordinates":[[23.725829,37.9730432],[23.7258377,37.97281]]},"properties":{"site":"athens","name":"Πανός","highway":"steps"}},{"type":"Feature","geometry":{"type":"LineString","coordinates":[[23.7286104,37.9779771],[23.7286348,37.9779839],[23.728852,37.978045]]},"properties":{"site":"athens","name":"","highway":"footway"}},{"type":"Feature","geometry":{"type":"LineString","coordinates":[[23.7292713,37.9779974],[23.7293102,37.9779997],[23.7294749,37.9780081]]},"properties":{"site":"athens","name":"","highway":"footway"}},{"type":"Feature","geometry":{"type":"LineString","coordinates":[[23.7260125,37.9760588],[23.7260366,37.9760525],[23.7266765,37.9758992],[23.7271185,37.9757834],[23.7273859,37.9757284],[23.7280262,37.9754791],[23.7283103,37.9754058],[23.7284036,37.9753808],[23.7287201,37.9752961],[23.7288416,37.9752639],[23.728977,37.9752322],[23.7290358,37.9752182]]},"properties":{"site":"athens","name":"Πανδρόσου","highway":"pedestrian"}},{"type":"Feature","geometry":{"type":"LineString","coordinates":[[23.729621,37.9749547],[23.7296356,37.9749512],[23.7301781,37.9748233]]},"properties":{"site":"athens","name":"Πλατεία Μητροπόλεως","highway":"pedestrian"}},{"type":"Feature","geometry":{"type":"LineString","coordinates":[[23.7288012,37.9763567],[23.7288391,37.9763517],[23.7295364,37.9762605],[23.7296668,37.9762433],[23.7298877,37.9762135],[23.7304554,37.9761398],[23.7304826,37.9761487],[23.7304968,37.9761534],[23.7310217,37.9760861],[23.7317578,37.9759916],[23.7318869,37.9759751],[23.7321194,37.9759452],[23.7325595,37.9758887],[23.7328803,37.9758476],[23.7331006,37.9758194],[23.7333457,37.9757879],[23.7335315,37.9757641],[23.7337425,37.975737]]},"properties":{"site":"athens","name":"Ερμού","highway":"pedestrian"}},{"type":"Feature","geometry":{"type":"LineString","coordinates":[[23.7275657,37.9765204],[23.7275933,37.9765165],[23.7276171,37.9765132],[23.7281246,37.976442],[23.7283248,37.976414],[23.7284221,37.9764003],[23.7284473,37.9763967]]},"properties":{"site":"athens","name":"Ερμού","highway":"pedestrian"}},{"type":"Feature","geometry":{"type":"LineString","coordinates":[[23.7278489,37.9776873],[23.7278412,37.9776563],[23.7278328,37.9776224],[23.7277854,37.9774305]]},"properties":{"site":"athens","name":"Αιόλου","highway":"pedestrian"}},{"type":"Feature","geometry":{"type":"LineString","coordinates":[[23.7282919,37.9758772],[23.7282989,37.9758888],[23.7283325,37.9759444],[23.728498,37.9762007],[23.7285277,37.9762467]]},"properties":{"site":"athens","name":"Καπνικαρέας","highway":"pedestrian"}},{"type":"Feature","geometry":{"type":"LineString","coordinates":[[23.7258442,37.9731954],[23.725829,37.9730432]]},"properties":{"site":"athens","name":"Πανός","highway":"steps"}},{"type":"Feature","geometry":{"type":"LineString","coordinates":[[23.7258553,37.9732575],[23.7258442,37.9731954]]},"properties":{"site":"athens","name":"Πανός","highway":"steps"}},{"type":"Feature","geometry":{"type":"LineString","coordinates":[[23.7275893,37.9746905],[23.7276551,37.9748081],[23.7276708,37.9748369]]},"properties":{"site":"athens","name":"Στοά Χατζηστεφάνου","highway":"footway"}},{"type":"Feature","geometry":{"type":"LineString","coordinates":[[23.7257187,37.9756041],[23.7257781,37.9757546],[23.7258685,37.9759894],[23.7258722,37.9759974],[23.7258845,37.9760236]]},"properties":{"site":"athens","name":"Άρεως","highway":"pedestrian"}},{"type":"Feature","geometry":{"type":"LineString","coordinates":[[23.7288331,37.9751486],[23.7288416,37.9752639]]},"properties":{"site":"athens","name":"Αγγέλου Βλάχου","highway":"pedestrian"}},{"type":"Feature","geometry":{"type":"LineString","coordinates":[[23.7274878,37.9777005],[23.7274828,37.977684],[23.7273572,37.9773073],[23.7272747,37.9770612],[23.7272697,37.9770385]]},"properties":{"site":"athens","name":"Καρόρη","highway":"pedestrian"}},{"type":"Feature","geometry":{"type":"LineString","coordinates":[[23.7233352,37.9721526],[23.7232539,37.9722113],[23.7232286,37.9722749]]},"properties":{"site":"athens","name":"","highway":"steps"}},{"type":"Feature","geometry":{"type":"LineString","coordinates":[[23.7231281,37.9723242],[23.7231098,37.9723442],[23.7230458,37.9723658],[23.7230196,37.9723888],[23.7229863,37.9723977],[23.7230018,37.9724759]]},"properties":{"site":"athens","name":"","highway":"footway"}},{"type":"Feature","geometry":{"type":"LineString","coordinates":[[23.7231373,37.9723111],[23.7231281,37.9723242]]},"properties":{"site":"athens","name":"","highway":"steps"}},{"type":"Feature","geometry":{"type":"LineString","coordinates":[[23.723451,37.972091],[23.7233352,37.9721526]]},"properties":{"site":"athens","name":"","highway":"path"}},{"type":"Feature","geometry":{"type":"LineString","coordinates":[[23.7262032,37.9769343],[23.7261027,37.9769634]]},"properties":{"site":"athens","name":"","highway":"footway"}},{"type":"Feature","geometry":{"type":"LineString","coordinates":[[23.7261027,37.9769634],[23.7260818,37.9769694],[23.7258987,37.9770224]]},"properties":{"site":"athens","name":"","highway":"footway"}},{"type":"Feature","geometry":{"type":"LineString","coordinates":[[23.7258091,37.9770481],[23.7258394,37.9770396]]},"properties":{"site":"athens","name":"","highway":"steps"}},{"type":"Feature","geometry":{"type":"LineString","coordinates":[[23.7251184,37.9733561],[23.7252535,37.9733534],[23.7252352,37.9730191]]},"properties":{"site":"athens","name":"Διοσκούρων","highway":"pedestrian"}},{"type":"Feature","geometry":{"type":"LineString","coordinates":[[23.7266363,37.9738946],[23.7269225,37.9738532],[23.7269592,37.9739039],[23.7271663,37.9738384],[23.7271868,37.9738319],[23.7272124,37.9738238]]},"properties":{"site":"athens","name":"Λυσίου","highway":"pedestrian"}},{"type":"Feature","geometry":{"type":"LineString","coordinates":[[23.7277995,37.9733542],[23.7279635,37.973609]]},"properties":{"site":"athens","name":"Μνησικλέους","highway":"steps"}},{"type":"Feature","geometry":{"type":"LineString","coordinates":[[23.7294118,37.972575],[23.7293313,37.9725422]]},"properties":{"site":"athens","name":"Επιχάρμου","highway":"pedestrian"}},{"type":"Feature","geometry":{"type":"LineString","coordinates":[[23.7274397,37.9759509],[23.7274169,37.9759565],[23.7272003,37.9760096],[23.7267493,37.9761201]]},"properties":{"site":"athens","name":"Μητροπόλεως","highway":"pedestrian"}},{"type":"Feature","geometry":{"type":"LineString","coordinates":[[23.7271185,37.9757834],[23.7270945,37.975799]]},"properties":{"site":"athens","name":"","highway":"path"}},{"type":"Feature","geometry":{"type":"LineString","coordinates":[[23.728149,37.9788086],[23.7283735,37.9784327],[23.7286104,37.9779771],[23.7286687,37.9778211],[23.728672,37.9778121],[23.7286813,37.9777866]]},"properties":{"site":"athens","name":"Νικίου","highway":"pedestrian"}},{"type":"Feature","geometry":{"type":"LineString","coordinates":[[23.7290358,37.9752182],[23.7292709,37.9751611],[23.7292291,37.9750514],[23.729621,37.9749547]]},"properties":{"site":"athens","name":"Πλατεία Μητροπόλεως","highway":"pedestrian"}},{"type":"Feature","geometry":{"type":"LineString","coordinates":[[23.7284036,37.9753808],[23.7283888,37.9753497],[23.7283093,37.9751693],[23.7282833,37.9751105]]},"properties":{"site":"athens","name":"Στοά Ν. Χαραγκιώνη","highway":"footway"}},{"type":"Feature","geometry":{"type":"LineString","coordinates":[[23.7282833,37.9751105],[23.728277,37.9750981],[23.7278579,37.9752278]]},"properties":{"site":"athens","name":"","highway":"footway"}},{"type":"Feature","geometry":{"type":"LineString","coordinates":[[23.7277854,37.9774305],[23.7277789,37.977404],[23.7277582,37.9773129],[23.7276798,37.977002]]},"properties":{"site":"athens","name":"Αιόλου","highway":"pedestrian"}},{"type":"Feature","geometry":{"type":"LineString","coordinates":[[23.7286593,37.9750854],[23.7286413,37.9750897],[23.7285749,37.9751056]]},"properties":{"site":"athens","name":"Στοά Ν. Χαραγκιώνη","highway":"footway"}},{"type":"Feature","geometry":{"type":"LineString","coordinates":[[23.7232528,37.9764917],[23.7229908,37.9766378],[23.722592,37.9768463],[23.7225066,37.9769146],[23.7223899,37.977077],[23.722312,37.977209]]},"properties":{"site":"athens","name":"Άστιγγος","highway":"pedestrian"}},{"type":"Feature","geometry":{"type":"LineString","coordinates":[[23.7211071,37.9768849],[23.7213772,37.976729],[23.7214866,37.9766638],[23.7215573,37.9766256],[23.7217975,37.9764854],[23.7219339,37.9764072],[23.7220056,37.9763687],[23.7220729,37.9763379],[23.7221392,37.9763121],[23.7222409,37.9762808],[23.7225068,37.9761999],[23.7229166,37.9760679],[23.7230395,37.9760293],[23.7231054,37.9760082],[23.7231653,37.9759914],[23.7232246,37.9759755],[23.7232419,37.9759726],[23.7232737,37.9759672],[23.7233385,37.9759609],[23.7234143,37.9759565],[23.7235731,37.9759501],[23.7237837,37.9759395],[23.7239222,37.9759248],[23.7241838,37.9758861],[23.7245256,37.9758328],[23.7247156,37.9758139]]},"properties":{"site":"athens","name":"Αδριανού","highway":"pedestrian"}},{"type":"Feature","geometry":{"type":"LineString","coordinates":[[23.7297245,37.9728716],[23.7297161,37.9729069],[23.729455,37.9733483],[23.7294419,37.9733705]]},"properties":{"site":"athens","name":"Σχολείου","highway":"pedestrian"}},{"type":"Feature","geometry":{"type":"LineString","coordinates":[[23.7283801,37.9751524],[23.7283093,37.9751693]]},"properties":{"site":"athens","name":"Στοά Ν. Χαραγκιώνη","highway":"footway"}},{"type":"Feature","geometry":{"type":"LineString","coordinates":[[23.7285749,37.9751056],[23.7283801,37.9751524]]},"properties":{"site":"athens","name":"Στοά Ν. Χαραγκιώνη","highway":"footway"}},{"type":"Feature","geometry":{"type":"LineString","coordinates":[[23.7271594,37.9759549],[23.7272003,37.9760096]]},"properties":{"site":"athens","name":"","highway":"path"}},{"type":"Feature","geometry":{"type":"LineString","coordinates":[[23.7270945,37.975799],[23.7271594,37.9759549]]},"properties":{"site":"athens","name":"","highway":"path"}},{"type":"Feature","geometry":{"type":"LineString","coordinates":[[23.7308368,37.975387],[23.7305499,37.9754167],[23.7304775,37.9754264],[23.7304227,37.9754337],[23.7297671,37.975544],[23.7291974,37.9756599],[23.7288459,37.9757376],[23.728395,37.975833],[23.7282837,37.9758649],[23.7274757,37.9760967],[23.7274474,37.9761048]]},"properties":{"site":"athens","name":"","highway":"footway"}},{"type":"Feature","geometry":{"type":"LineString","coordinates":[[23.7267493,37.9761201],[23.7266765,37.9758992]]},"properties":{"site":"athens","name":"Κηρυκείου","highway":"pedestrian"}},{"type":"Feature","geometry":{"type":"LineString","coordinates":[[23.7268046,37.976271],[23.7267493,37.9761201]]},"properties":{"site":"athens","name":"Κηρυκείου","highway":"pedestrian"}},{"type":"Feature","geometry":{"type":"LineString","coordinates":[[23.7274509,37.9761219],[23.7274474,37.9761048],[23.7274169,37.9759565]]},"properties":{"site":"athens","name":"","highway":"footway"}},{"type":"Feature","geometry":{"type":"LineString","coordinates":[[23.72886,37.9768376],[23.7288557,37.9768227],[23.7288482,37.9767971],[23.7287728,37.9765111],[23.7287682,37.9764934]]},"properties":{"site":"athens","name":"Καλαμιώτου","highway":"pedestrian"}},{"type":"Feature","geometry":{"type":"LineString","coordinates":[[23.7279436,37.9778744],[23.728672,37.9778121],[23.729295,37.9777589],[23.7296284,37.9777304],[23.7298465,37.9777117],[23.7305269,37.9776536],[23.7311272,37.9776023],[23.7318272,37.9775096],[23.7322054,37.9774596],[23.7327767,37.9773839],[23.7331484,37.9773359],[23.7331462,37.9773196]]},"properties":{"site":"athens","name":"","highway":"footway"}},{"type":"Feature","geometry":{"type":"LineString","coordinates":[[23.7224894,37.9752179],[23.7224774,37.9752564],[23.7224774,37.9752949],[23.7224968,37.9753181],[23.7225274,37.9753468]]},"properties":{"site":"athens","name":"","highway":"footway"}},{"type":"Feature","geometry":{"type":"LineString","coordinates":[[23.7295313,37.9719522],[23.7294715,37.9720606],[23.7293512,37.9722627],[23.7293096,37.9723161]]},"properties":{"site":"athens","name":"Ραγκαβά","highway":"footway"}},{"type":"Feature","geometry":{"type":"LineString","coordinates":[[23.7217176,37.9727015],[23.7217976,37.9726934],[23.7218692,37.972699],[23.7219296,37.9727001],[23.7219704,37.9726936],[23.7220209,37.9727012],[23.7220645,37.9726968],[23.7220926,37.9726968],[23.7221235,37.9727045],[23.722167,37.9727233],[23.7221977,37.9727248],[23.7222372,37.9727123],[23.7222794,37.9727012],[23.7223201,37.9727078],[23.7223369,37.9727156],[23.7223875,37.9727211],[23.7224184,37.9726923],[23.7224634,37.9726879],[23.7224943,37.9726757],[23.7225167,37.9726757],[23.7225546,37.9726768],[23.7226175,37.9727161]]},"properties":{"site":"athens","name":"","highway":"footway"}},{"type":"Feature","geometry":{"type":"LineString","coordinates":[[23.7221283,37.972837],[23.7221236,37.9728964],[23.7221023,37.9729346],[23.722077,37.9729683],[23.7220324,37.9729943],[23.7220072,37.9730081],[23.7219742,37.9730417],[23.7219489,37.9730708],[23.7219062,37.9730891],[23.7218655,37.9730922],[23.7218068,37.973101]]},"properties":{"site":"athens","name":"","highway":"footway"}},{"type":"Feature","geometry":{"type":"LineString","coordinates":[[23.7267133,37.9743634],[23.7266553,37.974225],[23.7265619,37.9740023]]},"properties":{"site":"athens","name":"","highway":"footway"}},{"type":"Feature","geometry":{"type":"LineString","coordinates":[[23.7272415,37.9751477],[23.7272912,37.9751365],[23.7275161,37.9750859],[23.7277703,37.9750287],[23.7277935,37.9750235]]},"properties":{"site":"athens","name":"Παλαιας Αγοράς","highway":"pedestrian"}},{"type":"Feature","geometry":{"type":"LineString","coordinates":[[23.7287572,37.9720271],[23.7286949,37.971988]]},"properties":{"site":"athens","name":"","highway":"footway"}},{"type":"Feature","geometry":{"type":"LineString","coordinates":[[23.7299777,37.9723101],[23.7298778,37.9725078],[23.7298821,37.9725389]]},"properties":{"site":"athens","name":"Λαγουμιτζή","highway":"footway"}},{"type":"Feature","geometry":{"type":"LineString","coordinates":[[23.725802,37.9746543],[23.7258298,37.9746459],[23.7258678,37.9746344],[23.7258569,37.9745832],[23.7258856,37.9745644],[23.7259109,37.9746488],[23.7259159,37.9746655],[23.7258989,37.9746683],[23.7258916,37.9746695],[23.7258905,37.9746657],[23.7258676,37.9746694],[23.7258744,37.9746951],[23.7258815,37.9747213],[23.7258858,37.9747367],[23.7258899,37.9747517],[23.725897,37.9747779],[23.7259042,37.9748065],[23.7259272,37.9748029],[23.725926,37.9747989],[23.7259569,37.9747938],[23.7261092,37.9747687],[23.7261178,37.9748098],[23.7261317,37.9748749],[23.7261475,37.974949],[23.7259586,37.9749918],[23.7259401,37.974996],[23.725849,37.9747602],[23.7258426,37.9747481],[23.725802,37.9746543]]},"properties":{"site":"athens","name":"Πλατεία Ταξιαρχών","highway":"pedestrian"}},{"type":"Feature","geometry":{"type":"LineString","coordinates":[[23.7294055,37.9724174],[23.7294825,37.9724957],[23.7294868,37.9724999]]},"properties":{"site":"athens","name":"Ραγκαβά","highway":"pedestrian"}},{"type":"Feature","geometry":{"type":"LineString","coordinates":[[23.7293313,37.9725422],[23.7292842,37.9725101],[23.7292714,37.9724964]]},"properties":{"site":"athens","name":"Επιχάρμου","highway":"steps"}},{"type":"Feature","geometry":{"type":"LineString","coordinates":[[23.7258845,37.9760236],[23.7259285,37.9760891],[23.7260125,37.9760588]]},"properties":{"site":"athens","name":"","highway":"footway"}},{"type":"Feature","geometry":{"type":"LineString","coordinates":[[23.7258859,37.9767395],[23.7258692,37.976689],[23.7258314,37.9765731],[23.725861,37.9763927],[23.7257673,37.9761493],[23.7258845,37.9760236]]},"properties":{"site":"athens","name":"","highway":"footway"}},{"type":"Feature","geometry":{"type":"LineString","coordinates":[[23.7262232,37.9763487],[23.7261988,37.9763517],[23.7259501,37.9763819],[23.725861,37.9763927],[23.7256885,37.9762583]]},"properties":{"site":"athens","name":"","highway":"footway"}},{"type":"Feature","geometry":{"type":"LineString","coordinates":[[23.7259285,37.9760891],[23.7259113,37.9761342],[23.7260211,37.97627],[23.7259501,37.9763819],[23.7259947,37.9765077],[23.7260012,37.976526],[23.7260805,37.9766593],[23.726096,37.9767151]]},"properties":{"site":"athens","name":"","highway":"footway"}},{"type":"Feature","geometry":{"type":"LineString","coordinates":[[23.7258377,37.97281],[23.7260608,37.9728283],[23.7262082,37.9728489],[23.7263697,37.9729011],[23.7264051,37.972918],[23.7264408,37.9729598],[23.7264635,37.9729706],[23.7266685,37.972996]]},"properties":{"site":"athens","name":"Θεωρίας","highway":"pedestrian"}},{"type":"Feature","geometry":{"type":"LineString","coordinates":[[23.7266685,37.972996],[23.7270463,37.972933]]},"properties":{"site":"athens","name":"Θεωρίας","highway":"pedestrian"}},{"type":"Feature","geometry":{"type":"LineString","coordinates":[[23.7261925,37.9732519],[23.7262143,37.9730676]]},"properties":{"site":"athens","name":"","highway":"steps"}},{"type":"Feature","geometry":{"type":"LineString","coordinates":[[23.7298821,37.9725389],[23.7298189,37.9726811],[23.7297967,37.9727096],[23.729757,37.9727292],[23.729744,37.9727499]]},"properties":{"site":"athens","name":"Σχολείου","highway":"pedestrian"}},{"type":"Feature","geometry":{"type":"LineString","coordinates":[[23.729744,37.9727499],[23.7297445,37.972779],[23.7297235,37.972836],[23.7297245,37.9728716]]},"properties":{"site":"athens","name":"Σχολείου","highway":"footway"}},{"type":"Feature","geometry":{"type":"LineString","coordinates":[[23.7292382,37.9725071],[23.7292714,37.9724964],[23.7294055,37.9724174]]},"properties":{"site":"athens","name":"Πρυτανείου","highway":"footway"}},{"type":"Feature","geometry":{"type":"LineString","coordinates":[[23.725695,37.9734678],[23.7258901,37.9734525]]},"properties":{"site":"athens","name":"Μητρώου","highway":"footway"}},{"type":"Feature","geometry":{"type":"LineString","coordinates":[[23.7258094,37.9745911],[23.7258298,37.9746459],[23.7259586,37.9749918],[23.725968,37.9750172]]},"properties":{"site":"athens","name":"Ταξιαρχών","highway":"pedestrian"}},{"type":"Feature","geometry":{"type":"LineString","coordinates":[[23.7266765,37.9758992],[23.7266453,37.9758057]]},"properties":{"site":"athens","name":"Κηρυκείου","highway":"steps"}},{"type":"Feature","geometry":{"type":"LineString","coordinates":[[23.7285282,37.9717405],[23.7285038,37.9718075],[23.7284769,37.9718641],[23.7284468,37.9719011],[23.7283958,37.9719375],[23.7282939,37.9719925],[23.7282059,37.9720195],[23.728169,37.9720295],[23.7281414,37.9720509],[23.7280164,37.9721224],[23.7278137,37.9722374],[23.7277621,37.9722612],[23.7276969,37.972285],[23.72755,37.9723265],[23.7272462,37.9724083],[23.7269684,37.9724742],[23.7268496,37.972497],[23.7267946,37.9725048],[23.7267449,37.9725081],[23.726631,37.9725081],[23.7264924,37.972498],[23.7263749,37.9724884],[23.7262556,37.9724789],[23.7261344,37.9724664],[23.7260834,37.9724588],[23.7260463,37.9724532],[23.7259916,37.9724456],[23.7259309,37.9724473],[23.7258677,37.9724389],[23.7257298,37.9724206],[23.7256151,37.9723902],[23.7255687,37.9723824],[23.7255488,37.9723807],[23.7255302,37.9723801],[23.7253882,37.972383],[23.725383,37.9723826],[23.7253585,37.9723805],[23.7252733,37.9723643],[23.7251623,37.9723415],[23.7251039,37.9723245],[23.725025,37.9722971],[23.7249481,37.9722682],[23.7248867,37.9722359],[23.7247864,37.972199]]},"properties":{"site":"athens","name":"Περίπατος Ακρόπολης (Βόρεια κλιτύς)","highway":"footway"}},{"type":"Feature","geometry":{"type":"LineString","coordinates":[[23.7252636,37.9727827],[23.7253497,37.9728001],[23.7255493,37.9728469],[23.7258377,37.97281]]},"properties":{"site":"athens","name":"Θεωρίας","highway":"pedestrian"}},{"type":"Feature","geometry":{"type":"LineString","coordinates":[[23.7283415,37.9743207],[23.7284662,37.9745333]]},"properties":{"site":"athens","name":"Μνησικλέους","highway":"steps"}},{"type":"Feature","geometry":{"type":"LineString","coordinates":[[23.7292748,37.9775697],[23.729221,37.9775005],[23.7290197,37.9772192],[23.72899,37.977177],[23.728953,37.9771244],[23.7289076,37.9770135],[23.7288672,37.9768624],[23.7288643,37.9768523],[23.72886,37.9768376]]},"properties":{"site":"athens","name":"Καλαμιώτου","highway":"pedestrian"}},{"type":"Feature","geometry":{"type":"LineString","coordinates":[[23.7286134,37.9749265],[23.728413,37.9749715],[23.7284556,37.9750742]]},"properties":{"site":"athens","name":"","highway":"footway"}},{"type":"Feature","geometry":{"type":"LineString","coordinates":[[23.7247864,37.972199],[23.724761,37.9721712],[23.7247268,37.9721284],[23.7246229,37.9719952],[23.7244666,37.9718398],[23.7243687,37.9717208],[23.7243191,37.9716304],[23.7242869,37.9715977],[23.7242655,37.9715818],[23.7242252,37.9715617],[23.7237747,37.9714677]]},"properties":{"site":"athens","name":"Αρχαίος Περίπατος","highway":"footway"}},{"type":"Feature","geometry":{"type":"LineString","coordinates":[[23.7258677,37.9724389],[23.725927,37.972406],[23.7260021,37.9723902],[23.7260243,37.9723838],[23.7260685,37.9723592],[23.7261131,37.9723482]]},"properties":{"site":"athens","name":"","highway":"footway"}},{"type":"Feature","geometry":{"type":"LineString","coordinates":[[23.7251422,37.9721923],[23.7250922,37.9721755],[23.725056,37.9721599],[23.7250427,37.9721507],[23.7250332,37.9721371],[23.7250298,37.9721264],[23.7250302,37.9721097]]},"properties":{"site":"athens","name":"","highway":"footway"}},{"type":"Feature","geometry":{"type":"LineString","coordinates":[[23.725383,37.9723826],[23.7253899,37.9723524],[23.7253817,37.9723504],[23.7253502,37.972346],[23.7253319,37.9723356],[23.725311,37.9723184],[23.7252937,37.9722974],[23.7252883,37.9722847],[23.7252909,37.9722773],[23.7251658,37.9722466],[23.7251422,37.9721923]]},"properties":{"site":"athens","name":"","highway":"steps"}},{"type":"Feature","geometry":{"type":"LineString","coordinates":[[23.7267213,37.9719919],[23.7267964,37.9719781],[23.72684,37.9719734],[23.7268715,37.971976],[23.726904,37.9719858],[23.7269372,37.9719985],[23.7269697,37.9720059],[23.7270153,37.9720111],[23.7271189,37.9720151],[23.7272842,37.9720162],[23.7273498,37.9720097],[23.7275052,37.9719968],[23.7276217,37.9719259],[23.7276995,37.9718977],[23.7277678,37.9718729],[23.7279034,37.9718701]]},"properties":{"site":"athens","name":"","highway":"footway"}},{"type":"Feature","geometry":{"type":"LineString","coordinates":[[23.7266046,37.9722395],[23.7265,37.9722304]]},"properties":{"site":"athens","name":"","highway":"steps"}},{"type":"Feature","geometry":{"type":"LineString","coordinates":[[23.7267213,37.9719919],[23.7266308,37.9722334],[23.7266234,37.9722392],[23.7266046,37.9722395]]},"properties":{"site":"athens","name":"","highway":"footway"}},{"type":"Feature","geometry":{"type":"LineString","coordinates":[[23.7256799,37.9720248],[23.7257093,37.9720367],[23.7257324,37.9720413],[23.7257581,37.9720421],[23.7257862,37.9720413],[23.7258472,37.9720291],[23.725869,37.9720289],[23.7258902,37.9720307],[23.7259116,37.9720365],[23.7259361,37.9720497],[23.7259928,37.9720883],[23.7260296,37.9721084],[23.7260642,37.9721229],[23.7260896,37.9721296],[23.7261598,37.9721348]]},"properties":{"site":"athens","name":"","highway":"footway"}},{"type":"Feature","geometry":{"type":"LineString","coordinates":[[23.726172,37.9722527],[23.7261528,37.9722955],[23.7261506,37.9723004],[23.7261454,37.9723118],[23.7261237,37.9723089]]},"properties":{"site":"athens","name":"","highway":"footway"}},{"type":"Feature","geometry":{"type":"LineString","coordinates":[[23.7265,37.9722304],[23.7264151,37.9722159],[23.7264007,37.9722169],[23.7263464,37.9722277],[23.7263034,37.9722362],[23.7262619,37.9722285],[23.7262006,37.9721813],[23.7261798,37.9721606],[23.7261598,37.9721348],[23.7261442,37.9720708],[23.7260852,37.9720282],[23.7260598,37.9719946],[23.7260591,37.9719727],[23.7261027,37.9717235],[23.7260953,37.9716945]]},"properties":{"site":"athens","name":"","highway":"footway"}},{"type":"Feature","geometry":{"type":"LineString","coordinates":[[23.7280893,37.9733585],[23.7282416,37.9733116]]},"properties":{"site":"athens","name":"Ερωτόκριτου","highway":"steps"}},{"type":"Feature","geometry":{"type":"LineString","coordinates":[[23.7282187,37.9732681],[23.7282007,37.9732678]]},"properties":{"site":"athens","name":"","highway":"steps"}},{"type":"Feature","geometry":{"type":"LineString","coordinates":[[23.7289214,37.972055],[23.7289651,37.9719507],[23.7290318,37.9719012],[23.7290442,37.9718674],[23.7290726,37.9717895]]},"properties":{"site":"athens","name":"","highway":"footway"}},{"type":"Feature","geometry":{"type":"LineString","coordinates":[[23.7288348,37.9740517],[23.7288097,37.9741283],[23.7285675,37.9742463],[23.7283415,37.9743207],[23.7280464,37.974402],[23.7280015,37.9743996],[23.7278416,37.9743229],[23.7277978,37.9743228],[23.7274665,37.9743934],[23.7273763,37.97437]]},"properties":{"site":"athens","name":"Διογένους","highway":"pedestrian"}},{"type":"Feature","geometry":{"type":"LineString","coordinates":[[23.7281707,37.9731773],[23.7281643,37.9731788]]},"properties":{"site":"athens","name":"","highway":"footway"}},{"type":"Feature","geometry":{"type":"LineString","coordinates":[[23.7262867,37.9737998],[23.7262929,37.9737588]]},"properties":{"site":"athens","name":"","highway":"steps"}},{"type":"Feature","geometry":{"type":"LineString","coordinates":[[23.7262867,37.9737998],[23.7262949,37.9739349]]},"properties":{"site":"athens","name":"","highway":"footway"}},{"type":"Feature","geometry":{"type":"LineString","coordinates":[[23.72805,37.9744098],[23.7278498,37.9744657],[23.7277978,37.9743228],[23.7277912,37.9743044],[23.7278584,37.9742902],[23.7279166,37.974278],[23.7279785,37.974265],[23.7280464,37.974402],[23.72805,37.9744098]]},"properties":{"site":"athens","name":"","highway":"pedestrian"}},{"type":"Feature","geometry":{"type":"LineString","coordinates":[[23.7279738,37.9732162],[23.7281606,37.9731699],[23.7281643,37.9731788],[23.7282007,37.9732678],[23.728203,37.9732734],[23.7280301,37.973321],[23.7280133,37.9732898],[23.7279738,37.9732162]]},"properties":{"site":"athens","name":"","highway":"pedestrian"}},{"type":"Feature","geometry":{"type":"LineString","coordinates":[[23.7293675,37.9741333],[23.7293522,37.9741195],[23.7292439,37.9739888],[23.7291924,37.9739184]]},"properties":{"site":"athens","name":"","highway":"footway"}},{"type":"Feature","geometry":{"type":"LineString","coordinates":[[23.7236683,37.9765989],[23.7235359,37.9763662]]},"properties":{"site":"athens","name":"Κυνέτου","highway":"footway"}},{"type":"Feature","geometry":{"type":"LineString","coordinates":[[23.7240548,37.9769753],[23.7239927,37.976754],[23.723981,37.9767173]]},"properties":{"site":"athens","name":"Αβησσυνίας","highway":"pedestrian"}},{"type":"Feature","geometry":{"type":"LineString","coordinates":[[23.7289408,37.9721405],[23.7289214,37.972055]]},"properties":{"site":"athens","name":"","highway":"steps"}},{"type":"Feature","geometry":{"type":"LineString","coordinates":[[23.7219687,37.9740872],[23.7220195,37.974097]]},"properties":{"site":"athens","name":"","highway":"footway"}},{"type":"Feature","geometry":{"type":"LineString","coordinates":[[23.722493,37.9746871],[23.7223032,37.9746831]]},"properties":{"site":"athens","name":"","highway":"footway"}},{"type":"Feature","geometry":{"type":"LineString","coordinates":[[23.722452,37.9748393],[23.7223202,37.9749504]]},"properties":{"site":"athens","name":"","highway":"footway"}},{"type":"Feature","geometry":{"type":"LineString","coordinates":[[23.7222235,37.9749516],[23.7223202,37.9749504]]},"properties":{"site":"athens","name":"","highway":"footway"}},{"type":"Feature","geometry":{"type":"LineString","coordinates":[[23.7223095,37.9753955],[23.7222778,37.975454],[23.722277,37.9755368],[23.7223586,37.9758901],[23.7224837,37.9758569]]},"properties":{"site":"athens","name":"","highway":"footway"}},{"type":"Feature","geometry":{"type":"LineString","coordinates":[[23.7231173,37.9757056],[23.7232442,37.9757647]]},"properties":{"site":"athens","name":"","highway":"footway"}},{"type":"Feature","geometry":{"type":"LineString","coordinates":[[23.7235299,37.9755291],[23.723316,37.9756698]]},"properties":{"site":"athens","name":"","highway":"footway"}},{"type":"Feature","geometry":{"type":"LineString","coordinates":[[23.7219399,37.9739259],[23.722032,37.9739751],[23.7221121,37.9739836],[23.7222046,37.9739726],[23.7222569,37.9739423]]},"properties":{"site":"athens","name":"","highway":"footway"}},{"type":"Feature","geometry":{"type":"LineString","coordinates":[[23.7281827,37.9721169],[23.7282152,37.9721143]]},"properties":{"site":"athens","name":"","highway":"footway"}},{"type":"Feature","geometry":{"type":"LineString","coordinates":[[23.7283749,37.9719915],[23.7283423,37.9720156],[23.7283304,37.9720046],[23.7282594,37.9720498],[23.7281979,37.9720964],[23.7281827,37.9721169],[23.7281738,37.9721289],[23.7281149,37.9721635],[23.728099,37.9721655],[23.728092,37.9721689],[23.7280659,37.9721408],[23.7280133,37.9721735],[23.727993,37.9721923],[23.7279493,37.9722154]]},"properties":{"site":"athens","name":"","highway":"footway"}},{"type":"Feature","geometry":{"type":"LineString","coordinates":[[23.7275233,37.9725174],[23.7275494,37.9725296],[23.7275619,37.9725368],[23.7276028,37.972552],[23.7276628,37.9725428]]},"properties":{"site":"athens","name":"","highway":"footway"}},{"type":"Feature","geometry":{"type":"LineString","coordinates":[[23.7283749,37.9719915],[23.7283834,37.9719967],[23.728413,37.9720096],[23.7284413,37.9720232],[23.7284476,37.9720141],[23.7284553,37.9720169],[23.7285044,37.972038]]},"properties":{"site":"athens","name":"","highway":"steps"}},{"type":"Feature","geometry":{"type":"LineString","coordinates":[[23.7281683,37.97224],[23.7281602,37.9722221],[23.7281556,37.9722021]]},"properties":{"site":"athens","name":"","highway":"footway"}},{"type":"Feature","geometry":{"type":"LineString","coordinates":[[23.7283096,37.9723478],[23.7282778,37.9723158],[23.7282394,37.9722839]]},"properties":{"site":"athens","name":"","highway":"footway"}},{"type":"Feature","geometry":{"type":"LineString","coordinates":[[23.7283361,37.9723567],[23.7283292,37.9723532],[23.7283206,37.9723546],[23.7283147,37.9723529],[23.7283096,37.9723478]]},"properties":{"site":"athens","name":"","highway":"steps"}},{"type":"Feature","geometry":{"type":"LineString","coordinates":[[23.7280192,37.9723122],[23.7280273,37.9723212]]},"properties":{"site":"athens","name":"","highway":"footway"}},{"type":"Feature","geometry":{"type":"LineString","coordinates":[[23.7279462,37.9723547],[23.7279722,37.9723386]]},"properties":{"site":"athens","name":"","highway":"footway"}},{"type":"Feature","geometry":{"type":"LineString","coordinates":[[23.7280273,37.9723212],[23.7280542,37.9723075],[23.7280604,37.9723124],[23.7280771,37.972338]]},"properties":{"site":"athens","name":"","highway":"steps"}},{"type":"Feature","geometry":{"type":"LineString","coordinates":[[23.7278879,37.9722731],[23.7279062,37.9722702]]},"properties":{"site":"athens","name":"","highway":"footway"}},{"type":"Feature","geometry":{"type":"LineString","coordinates":[[23.7274627,37.9725548],[23.7275233,37.9725174],[23.7275295,37.9725133],[23.7275316,37.9725119],[23.7275887,37.9724743],[23.7275916,37.9724724],[23.7277593,37.972421]]},"properties":{"site":"athens","name":"","highway":"footway"}},{"type":"Feature","geometry":{"type":"LineString","coordinates":[[23.7280771,37.972338],[23.7280875,37.972356],[23.7281368,37.9724172],[23.7281428,37.972423],[23.7281926,37.9724983],[23.7282333,37.9725396]]},"properties":{"site":"athens","name":"","highway":"footway"}},{"type":"Feature","geometry":{"type":"LineString","coordinates":[[23.7283756,37.9723974],[23.7283475,37.9723656],[23.7283361,37.9723567]]},"properties":{"site":"athens","name":"","highway":"footway"}},{"type":"Feature","geometry":{"type":"LineString","coordinates":[[23.7283802,37.9724026],[23.7283756,37.9723974]]},"properties":{"site":"athens","name":"","highway":"steps"}},{"type":"Feature","geometry":{"type":"LineString","coordinates":[[23.7283957,37.9724203],[23.7283802,37.9724026]]},"properties":{"site":"athens","name":"","highway":"footway"}},{"type":"Feature","geometry":{"type":"LineString","coordinates":[[23.7279722,37.9723386],[23.7279787,37.9723341],[23.7279967,37.9723216],[23.7280192,37.9723122]]},"properties":{"site":"athens","name":"","highway":"steps"}},{"type":"Feature","geometry":{"type":"LineString","coordinates":[[23.7284668,37.9721573],[23.728466,37.9721457],[23.7284696,37.9721384],[23.7284621,37.972129],[23.7284723,37.9721099],[23.7284823,37.972071],[23.7285044,37.972038],[23.7285098,37.97203],[23.7285226,37.9720052],[23.7285545,37.9719618]]},"properties":{"site":"athens","name":"","highway":"footway"}},{"type":"Feature","geometry":{"type":"LineString","coordinates":[[23.7284641,37.9723351],[23.7284448,37.9723232],[23.7283622,37.9722675],[23.7284324,37.9721962],[23.7284668,37.9721573],[23.7284773,37.9721528]]},"properties":{"site":"athens","name":"","highway":"footway"}},{"type":"Feature","geometry":{"type":"LineString","coordinates":[[23.7283515,37.972479],[23.7283721,37.9724953],[23.7283852,37.9725127],[23.7283999,37.9725373],[23.7284312,37.9726314]]},"properties":{"site":"athens","name":"","highway":"steps"}},{"type":"Feature","geometry":{"type":"LineString","coordinates":[[23.7284091,37.9724158],[23.7284037,37.9724392],[23.7283909,37.9724529],[23.7283515,37.972479]]},"properties":{"site":"athens","name":"","highway":"steps"}},{"type":"Feature","geometry":{"type":"LineString","coordinates":[[23.7282152,37.9721143],[23.7282229,37.9721124],[23.7282271,37.9721129],[23.7282341,37.9721182],[23.7282342,37.9721219]]},"properties":{"site":"athens","name":"","highway":"steps"}},{"type":"Feature","geometry":{"type":"LineString","coordinates":[[23.7281556,37.9722021],[23.7281701,37.9721923],[23.7282076,37.972167],[23.7282152,37.9721508],[23.7282338,37.9721285],[23.7282342,37.9721219]]},"properties":{"site":"athens","name":"","highway":"footway"}},{"type":"Feature","geometry":{"type":"LineString","coordinates":[[23.7284091,37.9724158],[23.7283957,37.9724203],[23.7283368,37.9724399],[23.7282852,37.9724686],[23.7282502,37.9724987],[23.7282391,37.9725191],[23.7282333,37.9725396]]},"properties":{"site":"athens","name":"","highway":"footway"}},{"type":"Feature","geometry":{"type":"LineString","coordinates":[[23.7279062,37.9722702],[23.7279203,37.9722701],[23.7279329,37.9722732],[23.7279439,37.9723003],[23.7279703,37.9723298],[23.7279787,37.9723341]]},"properties":{"site":"athens","name":"","highway":"steps"}},{"type":"Feature","geometry":{"type":"LineString","coordinates":[[23.7276628,37.9725428],[23.7276699,37.9725563]]},"properties":{"site":"athens","name":"","highway":"steps"}},{"type":"Feature","geometry":{"type":"LineString","coordinates":[[23.7276699,37.9725563],[23.7276756,37.9725669],[23.727717,37.9725509]]},"properties":{"site":"athens","name":"","highway":"footway"}},{"type":"Feature","geometry":{"type":"LineString","coordinates":[[23.727717,37.9725509],[23.7277676,37.9725393],[23.7278058,37.9725443],[23.7278181,37.9725461]]},"properties":{"site":"athens","name":"","highway":"steps"}},{"type":"Feature","geometry":{"type":"LineString","coordinates":[[23.7278594,37.972539],[23.7278677,37.9725318]]},"properties":{"site":"athens","name":"","highway":"steps"}},{"type":"Feature","geometry":{"type":"LineString","coordinates":[[23.7278181,37.9725461],[23.7278352,37.9725485],[23.7278539,37.9725438],[23.7278594,37.972539]]},"properties":{"site":"athens","name":"","highway":"footway"}},{"type":"Feature","geometry":{"type":"LineString","coordinates":[[23.7282333,37.9725396],[23.7281876,37.9725611],[23.7281666,37.9725724],[23.72815,37.9725649],[23.7281295,37.9725662],[23.7281141,37.9725607],[23.7281068,37.9725592],[23.7280514,37.9725816]]},"properties":{"site":"athens","name":"","highway":"footway"}},{"type":"Feature","geometry":{"type":"LineString","coordinates":[[23.7281506,37.9726543],[23.7281438,37.9726428],[23.72805,37.9726894],[23.7280057,37.9727113]]},"properties":{"site":"athens","name":"","highway":"footway"}},{"type":"Feature","geometry":{"type":"LineString","coordinates":[[23.7283361,37.9723567],[23.7283132,37.9723617],[23.7282701,37.9723766],[23.7282423,37.9723813],[23.7282216,37.9723849],[23.7281881,37.9723968],[23.7281464,37.9724054],[23.7281368,37.9724172]]},"properties":{"site":"athens","name":"","highway":"footway"}},{"type":"Feature","geometry":{"type":"LineString","coordinates":[[23.7278677,37.9725318],[23.7278873,37.9725149],[23.7279133,37.9724942],[23.7279609,37.9724705],[23.7279696,37.9724791],[23.7279761,37.9724862],[23.7280498,37.9724508],[23.7280548,37.972457],[23.7280635,37.9724549],[23.7281271,37.9724292],[23.7281368,37.9724172]]},"properties":{"site":"athens","name":"","highway":"footway"}},{"type":"Feature","geometry":{"type":"LineString","coordinates":[[23.7282394,37.9722839],[23.7282305,37.9722786],[23.7282132,37.9722609],[23.7281933,37.9722533],[23.7281845,37.9722475],[23.7281683,37.97224]]},"properties":{"site":"athens","name":"","highway":"steps"}},{"type":"Feature","geometry":{"type":"LineString","coordinates":[[23.728734,37.9720554],[23.7286727,37.9720792],[23.7286416,37.9721142],[23.7285859,37.9721843],[23.7285709,37.9722031],[23.7285421,37.9722407]]},"properties":{"site":"athens","name":"","highway":"footway"}},{"type":"Feature","geometry":{"type":"LineString","coordinates":[[23.7284773,37.9721528],[23.7284921,37.9721384],[23.7285859,37.9721843]]},"properties":{"site":"athens","name":"","highway":"steps"}},{"type":"Feature","geometry":{"type":"LineString","coordinates":[[23.7282442,37.9727488],[23.7282674,37.9727404],[23.7283667,37.9726769],[23.7284076,37.9726511],[23.7284312,37.9726314],[23.7284976,37.9725759],[23.7285942,37.9724706],[23.7286744,37.9723495],[23.7287058,37.9722852],[23.7287542,37.9721627],[23.7287556,37.9721511],[23.7287686,37.9721074],[23.728734,37.9720554]]},"properties":{"site":"athens","name":"Στράτωνος","highway":"pedestrian"}},{"type":"Feature","geometry":{"type":"LineString","coordinates":[[23.7271107,37.9732682],[23.7271801,37.9731903],[23.7272494,37.9731485],[23.7275093,37.9730665],[23.7277046,37.9730201],[23.7279633,37.9729547],[23.728306,37.9728307]]},"properties":{"site":"athens","name":"Πρυτανείου","highway":"pedestrian"}},{"type":"Feature","geometry":{"type":"LineString","coordinates":[[23.7273498,37.9720097],[23.7275632,37.9718909],[23.7276995,37.9718977]]},"properties":{"site":"athens","name":"","highway":"footway"}},{"type":"Feature","geometry":{"type":"LineString","coordinates":[[23.72708,37.9765882],[23.7270835,37.9766067],[23.7270865,37.976623],[23.72713,37.9768419]]},"properties":{"site":"athens","name":"","highway":"footway"}},{"type":"Feature","geometry":{"type":"LineString","coordinates":[[23.7267343,37.9771496],[23.7267288,37.9771403],[23.726721,37.9771273],[23.7266122,37.9769439],[23.7268319,37.9768595]]},"properties":{"site":"athens","name":"","highway":"footway"}},{"type":"Feature","geometry":{"type":"LineString","coordinates":[[23.7273572,37.9773073],[23.7273212,37.9773134],[23.7271436,37.9773433]]},"properties":{"site":"athens","name":"","highway":"footway"}},{"type":"Feature","geometry":{"type":"LineString","coordinates":[[23.7265487,37.9772209],[23.72656,37.977244],[23.7267591,37.9776302],[23.7269764,37.9779236],[23.7270038,37.9779474]]},"properties":{"site":"athens","name":"Διονυσίου Αβραμιώτου","highway":"pedestrian"}},{"type":"Feature","geometry":{"type":"LineString","coordinates":[[23.728306,37.9728307],[23.7282835,37.9728009],[23.7282539,37.9727617],[23.7282442,37.9727488]]},"properties":{"site":"athens","name":"","highway":"steps"}},{"type":"Feature","geometry":{"type":"LineString","coordinates":[[23.7280057,37.9727113],[23.727957,37.9726552],[23.7279337,37.972624],[23.7279736,37.972601],[23.7279864,37.9725917],[23.7280268,37.9725676],[23.728042,37.9725861],[23.7280514,37.9725816]]},"properties":{"site":"athens","name":"","highway":"steps"}},{"type":"Feature","geometry":{"type":"LineString","coordinates":[[23.7282442,37.9727488],[23.7282217,37.9727416],[23.7281506,37.9726543]]},"properties":{"site":"athens","name":"","highway":"steps"}},{"type":"Feature","geometry":{"type":"LineString","coordinates":[[23.7285421,37.9722407],[23.7284659,37.9723246],[23.7284641,37.9723351],[23.7284291,37.972389],[23.7284091,37.9724158]]},"properties":{"site":"athens","name":"","highway":"footway"}},{"type":"Feature","geometry":{"type":"LineString","coordinates":[[23.7283887,37.9773494],[23.7283606,37.9772255],[23.7282984,37.9769265],[23.7282951,37.976911],[23.7282925,37.9768988]]},"properties":{"site":"athens","name":"Πλατεία Αγίας Ειρήνης","highway":"pedestrian"}},{"type":"Feature","geometry":{"type":"LineString","coordinates":[[23.7277789,37.977404],[23.727832,37.9773961],[23.7280336,37.9773661],[23.7282559,37.977364],[23.7282981,37.9773602],[23.7283257,37.9773578],[23.7283887,37.9773494]]},"properties":{"site":"athens","name":"Πλατεία Αγίας Ειρήνης","highway":"pedestrian"}},{"type":"Feature","geometry":{"type":"LineString","coordinates":[[23.7279573,37.9778404],[23.7279788,37.9778237],[23.728045,37.9777721],[23.7282371,37.9775598],[23.7282633,37.9775414]]},"properties":{"site":"athens","name":"Βασιλικής","highway":"pedestrian"}},{"type":"Feature","geometry":{"type":"LineString","coordinates":[[23.7282165,37.9768298],[23.7281343,37.9764828]]},"properties":{"site":"athens","name":"Στοά Πύρρου","highway":"footway"}},{"type":"Feature","geometry":{"type":"LineString","coordinates":[[23.7282343,37.9769054],[23.7282314,37.9768929],[23.7282165,37.9768298]]},"properties":{"site":"athens","name":"Στοά Πύρρου","highway":"footway"}},{"type":"Feature","geometry":{"type":"LineString","coordinates":[[23.7281343,37.9764828],[23.7281246,37.976442]]},"properties":{"site":"athens","name":"Στοά Πύρρου","highway":"steps"}},{"type":"Feature","geometry":{"type":"LineString","coordinates":[[23.7301139,37.9776491],[23.729289,37.977714],[23.7286822,37.9777712],[23.7286284,37.9777763],[23.7280861,37.9778225],[23.7280084,37.9778282],[23.7279958,37.9778282],[23.7279788,37.9778237],[23.7279684,37.9778209],[23.7279424,37.9778103],[23.7279308,37.9778008],[23.7278645,37.9776819],[23.7278588,37.9776714],[23.72785,37.9776613],[23.7278412,37.9776563],[23.7278252,37.9776473],[23.7278105,37.9776438],[23.7277952,37.977643],[23.7277844,37.9776438],[23.7275281,37.9776901],[23.7275229,37.9776901],[23.7275177,37.9776892],[23.7275129,37.9776875],[23.7275088,37.9776849],[23.7275054,37.9776817],[23.7275031,37.9776779],[23.7274828,37.977684],[23.7274624,37.9776901],[23.7274624,37.9776943],[23.7274613,37.9776984],[23.727459,37.9777021],[23.7274558,37.9777054],[23.7274538,37.9777071],[23.7269982,37.9779259],[23.7268665,37.9777546],[23.7267689,37.9776277],[23.7265681,37.9772432],[23.7265668,37.9772402],[23.7265661,37.9772373],[23.7265665,37.9772344],[23.7265678,37.9772316],[23.72657,37.9772291],[23.7265733,37.9772271],[23.7269629,37.977083],[23.7272366,37.9770551],[23.7272414,37.9770552],[23.7272449,37.9770562],[23.727248,37.9770579],[23.7272504,37.9770602],[23.7272523,37.9770644],[23.7272747,37.9770612],[23.7272972,37.977058],[23.7272971,37.9770542],[23.7272983,37.9770514],[23.7273003,37.9770489],[23.7273031,37.9770469],[23.7273084,37.9770453],[23.7276221,37.9770021],[23.7276773,37.9769909],[23.7277654,37.9769731],[23.7282848,37.9769121],[23.7282951,37.976911],[23.7288527,37.9768537],[23.7288643,37.9768523],[23.7295167,37.9767716],[23.7295531,37.9767683],[23.7300779,37.9767271]]},"properties":{"site":"athens","name":"","highway":"footway"}},{"type":"Feature","geometry":{"type":"LineString","coordinates":[[23.7285559,37.9762886],[23.7286185,37.9762805]]},"properties":{"site":"athens","name":"","highway":"steps"}},{"type":"Feature","geometry":{"type":"LineString","coordinates":[[23.7287682,37.9764934],[23.7284776,37.9765308],[23.7284473,37.9763967],[23.7284306,37.9763224],[23.7284745,37.9762548],[23.7285277,37.9762467],[23.7286276,37.9762314],[23.7287853,37.9762819],[23.7288012,37.9763567],[23.7288121,37.9764082],[23.7287682,37.9764934]]},"properties":{"site":"athens","name":"Καλαμιώτου","highway":"pedestrian"}},{"type":"Feature","geometry":{"type":"LineString","coordinates":[[23.7295262,37.9771708],[23.7295628,37.9771718]]},"properties":{"site":"athens","name":"Στοά Πετροπούλου","highway":"footway"}},{"type":"Feature","geometry":{"type":"LineString","coordinates":[[23.7295628,37.9771718],[23.7296975,37.9771757],[23.7297716,37.9771734],[23.7298549,37.9771296],[23.7300658,37.9771131]]},"properties":{"site":"athens","name":"Στοά Πετροπούλου","highway":"footway"}},{"type":"Feature","geometry":{"type":"LineString","coordinates":[[23.7301197,37.9773452],[23.7301025,37.9773464],[23.7300483,37.9773499],[23.7295247,37.9773744],[23.7294935,37.9773563]]},"properties":{"site":"athens","name":"Κλειτίου","highway":"pedestrian"}},{"type":"Feature","geometry":{"type":"LineString","coordinates":[[23.7239593,37.9754024],[23.7236804,37.975418],[23.7234051,37.9754315]]},"properties":{"site":"athens","name":"","highway":"footway"}},{"type":"Feature","geometry":{"type":"LineString","coordinates":[[23.729996,37.9764223],[23.7300136,37.9762401]]},"properties":{"site":"athens","name":"Στοά Βοιβόνδα","highway":"footway"}},{"type":"Feature","geometry":{"type":"LineString","coordinates":[[23.7287719,37.9758079],[23.7291492,37.9757263],[23.7291428,37.9757071],[23.7297267,37.9755864],[23.7299249,37.97556],[23.7304784,37.9754699],[23.7318563,37.9753212],[23.7324202,37.9752605],[23.7332231,37.9751741],[23.7333148,37.9751642],[23.7336481,37.9751283]]},"properties":{"site":"athens","name":"","highway":"footway"}},{"type":"Feature","geometry":{"type":"LineString","coordinates":[[23.7257187,37.9756041],[23.725671,37.9756162],[23.7254561,37.9756705],[23.7249681,37.9757724],[23.7248276,37.9757996],[23.7247156,37.9758139]]},"properties":{"site":"athens","name":"Αδριανού","highway":"pedestrian"}},{"type":"Feature","geometry":{"type":"LineString","coordinates":[[23.7283515,37.972479],[23.728315,37.9725002],[23.7282747,37.9725204],[23.7282333,37.9725396]]},"properties":{"site":"athens","name":"","highway":"steps"}},{"type":"Feature","geometry":{"type":"LineString","coordinates":[[23.7273876,37.9766569],[23.7273655,37.9765483]]},"properties":{"site":"athens","name":"","highway":"footway"}},{"type":"Feature","geometry":{"type":"LineString","coordinates":[[23.7237852,37.9774976],[23.7241366,37.9777092]]},"properties":{"site":"athens","name":"","highway":"footway"}},{"type":"Feature","geometry":{"type":"LineString","coordinates":[[23.7262006,37.9721813],[23.7261906,37.9722273],[23.7261768,37.9722421],[23.726172,37.9722527]]},"properties":{"site":"athens","name":"","highway":"footway"}},{"type":"Feature","geometry":{"type":"LineString","coordinates":[[23.7260258,37.9764993],[23.7260317,37.9764981],[23.7260383,37.9764966]]},"properties":{"site":"athens","name":"","highway":"footway"}},{"type":"Feature","geometry":{"type":"LineString","coordinates":[[23.7260196,37.9764226],[23.7260153,37.976425],[23.7260002,37.9764335],[23.7260317,37.9764981]]},"properties":{"site":"athens","name":"","highway":"footway"}},{"type":"Feature","geometry":{"type":"LineString","coordinates":[[23.726206,37.9763729],[23.7260196,37.9764226]]},"properties":{"site":"athens","name":"","highway":"footway"}},{"type":"Feature","geometry":{"type":"LineString","coordinates":[[23.7259947,37.9765077],[23.7260258,37.9764993]]},"properties":{"site":"athens","name":"","highway":"steps"}},{"type":"Feature","geometry":{"type":"LineString","coordinates":[[23.7295079,37.9746374],[23.7294566,37.9746427],[23.7292744,37.974662],[23.7292721,37.9746624]]},"properties":{"site":"athens","name":"","highway":"service"}},{"type":"Feature","geometry":{"type":"LineString","coordinates":[[23.729637,37.9778147],[23.7296284,37.9777304]]},"properties":{"site":"athens","name":"","highway":"footway"}},{"type":"Feature","geometry":{"type":"LineString","coordinates":[[23.7273485,37.9810465],[23.7271999,37.9804594],[23.7270554,37.9798887],[23.7268462,37.9790883],[23.7267825,37.9788447],[23.7266524,37.9783468],[23.7266484,37.9783309],[23.726608,37.9781703],[23.7266047,37.978157],[23.7265995,37.978137],[23.7263827,37.9772968],[23.7263772,37.9772755],[23.7263721,37.9772547],[23.7262438,37.9767264],[23.726237,37.9766982]]},"properties":{"site":"athens","name":"","highway":"footway"}},{"type":"Feature","geometry":{"type":"LineString","coordinates":[[23.7262112,37.9769656],[23.7261111,37.9769951]]},"properties":{"site":"athens","name":"","highway":"footway"}},{"type":"Feature","geometry":{"type":"LineString","coordinates":[[23.7258391,37.9770456],[23.7257933,37.9769458]]},"properties":{"site":"athens","name":"","highway":"steps"}},{"type":"Feature","geometry":{"type":"LineString","coordinates":[[23.7261111,37.9769951],[23.7260913,37.9770009]]},"properties":{"site":"athens","name":"","highway":"footway"}},{"type":"Feature","geometry":{"type":"LineString","coordinates":[[23.7260913,37.9770009],[23.7258904,37.97706]]},"properties":{"site":"athens","name":"","highway":"steps"}},{"type":"Feature","geometry":{"type":"LineString","coordinates":[[23.7257682,37.9768868],[23.7257179,37.9767683]]},"properties":{"site":"athens","name":"","highway":"footway"}},{"type":"Feature","geometry":{"type":"LineString","coordinates":[[23.7260913,37.9770009],[23.7260818,37.9769694]]},"properties":{"site":"athens","name":"","highway":"footway"}},{"type":"Feature","geometry":{"type":"LineString","coordinates":[[23.7258904,37.97706],[23.7258391,37.9770456]]},"properties":{"site":"athens","name":"","highway":"footway"}},{"type":"Feature","geometry":{"type":"LineString","coordinates":[[23.7258413,37.9770115],[23.7258053,37.9769369],[23.7257877,37.9769325]]},"properties":{"site":"athens","name":"","highway":"footway"}},{"type":"Feature","geometry":{"type":"LineString","coordinates":[[23.7258987,37.9770224],[23.725853,37.9770356],[23.7258394,37.9770396]]},"properties":{"site":"athens","name":"","highway":"footway"}},{"type":"Feature","geometry":{"type":"LineString","coordinates":[[23.725853,37.9770356],[23.7258413,37.9770115]]},"properties":{"site":"athens","name":"","highway":"footway"}},{"type":"Feature","geometry":{"type":"LineString","coordinates":[[23.7257523,37.977051],[23.7258091,37.9770481]]},"properties":{"site":"athens","name":"","highway":"footway"}},{"type":"Feature","geometry":{"type":"LineString","coordinates":[[23.7257933,37.9769458],[23.7257877,37.9769325],[23.7257682,37.9768868]]},"properties":{"site":"athens","name":"","highway":"footway"}},{"type":"Feature","geometry":{"type":"LineString","coordinates":[[23.7220141,37.9754838],[23.7219954,37.9755109],[23.7219952,37.9755686],[23.722007,37.975653],[23.7219886,37.9757016]]},"properties":{"site":"athens","name":"","highway":"footway"}},{"type":"Feature","geometry":{"type":"LineString","coordinates":[[23.7291044,37.9720061],[23.7290558,37.9721931]]},"properties":{"site":"athens","name":"","highway":"footway"}},{"type":"Feature","geometry":{"type":"LineString","coordinates":[[23.7219489,37.9730708],[23.7220366,37.9730639],[23.7221044,37.973075],[23.7221511,37.9730627],[23.7222843,37.9730259],[23.7223451,37.9730266],[23.7224004,37.9730151],[23.7224902,37.972998],[23.7225601,37.9730216],[23.7226145,37.9730294],[23.722737,37.9730386]]},"properties":{"site":"athens","name":"","highway":"footway"}},{"type":"Feature","geometry":{"type":"LineString","coordinates":[[23.7225601,37.9730216],[23.7225773,37.9729858],[23.7225664,37.9729472],[23.7225343,37.9729223],[23.7224993,37.9728943],[23.7224675,37.9728592],[23.7224329,37.9728059]]},"properties":{"site":"athens","name":"","highway":"footway"}},{"type":"Feature","geometry":{"type":"LineString","coordinates":[[23.7292714,37.9724964],[23.7292253,37.9724532],[23.7291357,37.9723997],[23.7290715,37.9723817],[23.7289891,37.9723634],[23.7289475,37.97238],[23.7288945,37.9723676],[23.728835,37.9723554]]},"properties":{"site":"athens","name":"Επιχάρμου","highway":"steps"}},{"type":"Feature","geometry":{"type":"LineString","coordinates":[[23.728667,37.9726259],[23.7287307,37.9726934]]},"properties":{"site":"athens","name":"Επιχάρμου","highway":"steps"}},{"type":"Feature","geometry":{"type":"LineString","coordinates":[[23.7246328,37.9753547],[23.7246205,37.9753106],[23.7246898,37.9752921]]},"properties":{"site":"athens","name":"","highway":"footway"}},{"type":"Feature","geometry":{"type":"LineString","coordinates":[[23.7233345,37.9759182],[23.7233436,37.9759182]]},"properties":{"site":"athens","name":"","highway":"steps"}},{"type":"Feature","geometry":{"type":"LineString","coordinates":[[23.723308,37.9759094],[23.7233191,37.9759094]]},"properties":{"site":"athens","name":"","highway":"steps"}},{"type":"Feature","geometry":{"type":"LineString","coordinates":[[23.7232957,37.9759009],[23.7233054,37.9759008]]},"properties":{"site":"athens","name":"","highway":"steps"}},{"type":"Feature","geometry":{"type":"LineString","coordinates":[[23.7244869,37.9757079],[23.7245026,37.9756463]]},"properties":{"site":"athens","name":"","highway":"steps"}},{"type":"Feature","geometry":{"type":"LineString","coordinates":[[23.724433,37.9746548],[23.7244184,37.9746557],[23.7244156,37.9746198]]},"properties":{"site":"athens","name":"","highway":"steps"}},{"type":"Feature","geometry":{"type":"LineString","coordinates":[[23.7243491,37.9746662],[23.7243491,37.9746413]]},"properties":{"site":"athens","name":"","highway":"footway"}},{"type":"Feature","geometry":{"type":"LineString","coordinates":[[23.7254591,37.9745501],[23.7254719,37.9745468]]},"properties":{"site":"athens","name":"","highway":"steps"}},{"type":"Feature","geometry":{"type":"LineString","coordinates":[[23.7256287,37.9747727],[23.7256745,37.9747622]]},"properties":{"site":"athens","name":"","highway":"steps"}},{"type":"Feature","geometry":{"type":"LineString","coordinates":[[23.7258989,37.9746683],[23.725898,37.9746646]]},"properties":{"site":"athens","name":"Slope","highway":"path"}},{"type":"Feature","geometry":{"type":"LineString","coordinates":[[23.7258949,37.974735],[23.7258858,37.9747367]]},"properties":{"site":"athens","name":"","highway":"steps"}},{"type":"Feature","geometry":{"type":"LineString","coordinates":[[23.7259392,37.9747848],[23.7259429,37.9748002]]},"properties":{"site":"athens","name":"","highway":"steps"}},{"type":"Feature","geometry":{"type":"LineString","coordinates":[[23.7260999,37.9747746],[23.7260723,37.974779]]},"properties":{"site":"athens","name":"","highway":"steps"}},{"type":"Feature","geometry":{"type":"LineString","coordinates":[[23.7269682,37.9730196],[23.7269681,37.9730317]]},"properties":{"site":"athens","name":"","highway":"steps"}},{"type":"Feature","geometry":{"type":"LineString","coordinates":[[23.7269843,37.9730319],[23.7269843,37.9730366]]},"properties":{"site":"athens","name":"","highway":"steps"}},{"type":"Feature","geometry":{"type":"LineString","coordinates":[[23.7273829,37.9726387],[23.7273949,37.9726232]]},"properties":{"site":"athens","name":"","highway":"steps"}},{"type":"Feature","geometry":{"type":"LineString","coordinates":[[23.7274464,37.9725649],[23.7274627,37.9725548]]},"properties":{"site":"athens","name":"","highway":"steps"}},{"type":"Feature","geometry":{"type":"LineString","coordinates":[[23.7275313,37.9724804],[23.7275053,37.9724837]]},"properties":{"site":"athens","name":"Old steps","highway":"steps"}},{"type":"Feature","geometry":{"type":"LineString","coordinates":[[23.7275295,37.9725133],[23.7275316,37.9725119]]},"properties":{"site":"athens","name":"","highway":"steps"}},{"type":"Feature","geometry":{"type":"LineString","coordinates":[[23.7275887,37.9724743],[23.7275916,37.9724724]]},"properties":{"site":"athens","name":"","highway":"steps"}},{"type":"Feature","geometry":{"type":"LineString","coordinates":[[23.7277593,37.972421],[23.7277641,37.9724165]]},"properties":{"site":"athens","name":"","highway":"steps"}},{"type":"Feature","geometry":{"type":"LineString","coordinates":[[23.7277986,37.9723681],[23.7278014,37.9723652]]},"properties":{"site":"athens","name":"","highway":"steps"}},{"type":"Feature","geometry":{"type":"LineString","coordinates":[[23.7286384,37.9720568],[23.7286483,37.9720411]]},"properties":{"site":"athens","name":"","highway":"steps"}},{"type":"Feature","geometry":{"type":"LineString","coordinates":[[23.728631,37.972069],[23.7286201,37.9720879]]},"properties":{"site":"athens","name":"","highway":"steps"}},{"type":"Feature","geometry":{"type":"LineString","coordinates":[[23.7286384,37.9720568],[23.728631,37.972069]]},"properties":{"site":"athens","name":"","highway":"path"}},{"type":"Feature","geometry":{"type":"LineString","coordinates":[[23.7286219,37.9720578],[23.7286233,37.9720583]]},"properties":{"site":"athens","name":"","highway":"steps"}},{"type":"Feature","geometry":{"type":"LineString","coordinates":[[23.7278014,37.9723652],[23.7278531,37.9723108],[23.7278841,37.972282],[23.7278879,37.9722731],[23.7279278,37.9722389],[23.7279313,37.9722305],[23.7279493,37.9722154]]},"properties":{"site":"athens","name":"","highway":"footway"}},{"type":"Feature","geometry":{"type":"LineString","coordinates":[[23.7270463,37.972933],[23.7270571,37.9728766],[23.7273086,37.9727066],[23.7273643,37.9726627],[23.7273829,37.9726387]]},"properties":{"site":"athens","name":"","highway":"footway"}},{"type":"Feature","geometry":{"type":"LineString","coordinates":[[23.7235934,37.9721457],[23.7236309,37.9721832],[23.7236665,37.9722189],[23.7237234,37.9722771],[23.7237311,37.9722798],[23.7238871,37.9724396],[23.7241045,37.9726404]]},"properties":{"site":"athens","name":"","highway":"footway"}},{"type":"Feature","geometry":{"type":"LineString","coordinates":[[23.7236289,37.9721812],[23.7236309,37.9721832]]},"properties":{"site":"athens","name":"","highway":"steps"}},{"type":"Feature","geometry":{"type":"LineString","coordinates":[[23.7236665,37.9722189],[23.7236712,37.9722232]]},"properties":{"site":"athens","name":"","highway":"steps"}},{"type":"Feature","geometry":{"type":"LineString","coordinates":[[23.7237234,37.9722771],[23.7237312,37.9722798]]},"properties":{"site":"athens","name":"","highway":"steps"}},{"type":"Feature","geometry":{"type":"LineString","coordinates":[[23.7263476,37.9754033],[23.7263764,37.9753932]]},"properties":{"site":"athens","name":"","highway":"steps"}},{"type":"Feature","geometry":{"type":"LineString","coordinates":[[23.7266748,37.9748572],[23.7266815,37.9748921]]},"properties":{"site":"athens","name":"","highway":"steps"}},{"type":"Feature","geometry":{"type":"LineString","coordinates":[[23.7267214,37.9748826],[23.7267221,37.9748882]]},"properties":{"site":"athens","name":"","highway":"steps"}},{"type":"Feature","geometry":{"type":"LineString","coordinates":[[23.7273949,37.9726232],[23.7274344,37.9725723],[23.7274464,37.9725649]]},"properties":{"site":"athens","name":"","highway":"footway"}},{"type":"Feature","geometry":{"type":"LineString","coordinates":[[23.7277641,37.9724165],[23.7277986,37.9723681]]},"properties":{"site":"athens","name":"","highway":"footway"}}]}