{"type":"FeatureCollection","features":[{"type":"Feature","geometry":{"type":"LineString","coordinates":[[36.2055173,34.0048975],[36.2055409,34.0049449],[36.2054953,34.0049961],[36.2051332,34.0052849],[36.2047817,34.0055543]]},"properties":{"site":"baalbek","name":"","highway":"service"}},{"type":"Feature","geometry":{"type":"LineString","coordinates":[[36.2031122,34.0052412],[36.2034443,34.0054174],[36.2034977,34.0054459],[36.2036701,34.0054944],[36.2040009,34.005557],[36.2042303,34.0056628],[36.204455,34.0056807],[36.2046413,34.0057127]]},"properties":{"site":"baalbek","name":"","highway":"track"}},{"type":"Feature","geometry":{"type":"LineString","coordinates":[[36.2038793,34.0040799],[36.2040804,34.0040777]]},"properties":{"site":"baalbek","name":"","highway":"service"}},{"type":"Feature","geometry":{"type":"LineString","coordinates":[[36.2041931,34.0039844],[36.2040804,34.0040777],[36.204085,34.0041171],[36.2040845,34.0041511],[36.2040817,34.0042039],[36.2040871,34.0042456],[36.2040978,34.0042745],[36.2041166,34.004309],[36.2041421,34.004349],[36.2041956,34.0044136]]},"properties":{"site":"baalbek","name":"","highway":"service"}},{"type":"Feature","geometry":{"type":"LineString","coordinates":[[36.2024966,34.0022244],[36.2032087,34.0031127],[36.2035587,34.003513],[36.2036794,34.0036719],[36.2037291,34.0037564],[36.2037586,34.0038287],[36.2038109,34.0039577],[36.2038471,34.0040477],[36.2038793,34.0040799]]},"properties":{"site":"baalbek","name":"","highway":"service"}},{"type":"Feature","geometry":{"type":"LineString","coordinates":[[36.2098639,34.0042879],[36.210133,34.004106]]},"properties":{"site":"baalbek","name":"","highway":"service"}},{"type":"Feature","geometry":{"type":"LineString","coordinates":[[36.2093728,34.0097611],[36.208798,34.0090384],[36.2086228,34.0089005],[36.2084578,34.0087537],[36.2085114,34.0086981],[36.2084928,34.0086805],[36.2083653,34.0085125],[36.2083197,34.0084569],[36.2083425,34.0084413],[36.2082218,34.0082679],[36.208093,34.0081256]]},"properties":{"site":"baalbek","name":"","highway":"footway"}},{"type":"Feature","geometry":{"type":"LineString","coordinates":[[36.2077604,34.0084347],[36.208082,34.0088317],[36.208595,34.0093307],[36.2091117,34.0099005]]},"properties":{"site":"baalbek","name":"","highway":"footway"}},{"type":"Feature","geometry":{"type":"LineString","coordinates":[[36.2084458,34.0078677],[36.208722,34.0078632],[36.2089583,34.0078956],[36.2093857,34.0080521],[36.2102121,34.0081378]]},"properties":{"site":"baalbek","name":"","highway":"footway"}},{"type":"Feature","geometry":{"type":"LineString","coordinates":[[36.2060709,34.0055834],[36.2057375,34.00577],[36.2057259,34.0057722],[36.2053584,34.0059856],[36.2053182,34.0060212],[36.2052872,34.006056],[36.2052105,34.0061423]]},"properties":{"site":"baalbek","name":"","highway":"service"}},{"type":"Feature","geometry":{"type":"LineString","coordinates":[[36.2051332,34.0052849],[36.205343,34.0054711],[36.2057375,34.00577]]},"properties":{"site":"baalbek","name":"","highway":"footway"}},{"type":"Feature","geometry":{"type":"LineString","coordinates":[[36.2055173,34.0048975],[36.2056782,34.0050787],[36.2056936,34.0051197],[36.2060709,34.0055834]]},"properties":{"site":"baalbek","name":"","highway":"service"}},{"type":"Feature","geometry":{"type":"LineString","coordinates":[[36.2046413,34.0057127],[36.2048929,34.0058828],[36.2050785,34.0060293],[36.2052105,34.0061423],[36.2056056,34.0064767],[36.2058632,34.0066948],[36.2059284,34.0067157],[36.2060088,34.0067175],[36.2060804,34.0066977],[36.206157,34.0066452],[36.2064533,34.0064363],[36.2067358,34.0062446]]},"properties":{"site":"baalbek","name":"","highway":"pedestrian"}},{"type":"Feature","geometry":{"type":"LineString","coordinates":[[36.2046413,34.0057127],[36.2047817,34.0055543]]},"properties":{"site":"baalbek","name":"","highway":"footway"}},{"type":"Feature","geometry":{"type":"LineString","coordinates":[[36.2056936,34.0051197],[36.2056527,34.0051553],[36.2055288,34.0052684],[36.2055261,34.0053285],[36.205343,34.0054711],[36.2049688,34.0057735]]},"properties":{"site":"baalbek","name":"","highway":"footway"}},{"type":"Feature","geometry":{"type":"LineString","coordinates":[[36.2047817,34.0055543],[36.2049688,34.0057735],[36.2052872,34.006056]]},"properties":{"site":"baalbek","name":"","highway":"footway"}},{"type":"Feature","geometry":{"type":"LineString","coordinates":[[36.2058658,34.0073382],[36.2059218,34.0071462],[36.2059325,34.0070995],[36.2059191,34.0069928],[36.2058654,34.0069038],[36.2057018,34.0068082],[36.2054457,34.0066159],[36.2053935,34.0065872],[36.2052019,34.0065349],[36.2050524,34.0065204],[36.2049271,34.0065581],[36.2045141,34.0064834],[36.2044903,34.0064216],[36.2042246,34.0063561],[36.2039709,34.0062984],[36.2034076,34.0062001],[36.203271,34.0062021]]},"properties":{"site":"baalbek","name":"","highway":"footway"}},{"type":"Feature","geometry":{"type":"LineString","coordinates":[[36.2056056,34.0064767],[36.205536,34.0065296],[36.205506,34.0065525],[36.2054457,34.0066159]]},"properties":{"site":"baalbek","name":"","highway":"footway"}},{"type":"Feature","geometry":{"type":"LineString","coordinates":[[36.2056719,34.0073213],[36.2057873,34.0073209],[36.2058658,34.0073382]]},"properties":{"site":"baalbek","name":"","highway":"steps"}},{"type":"Feature","geometry":{"type":"LineString","coordinates":[[36.2064533,34.0064363],[36.2064811,34.0064867],[36.2064966,34.0065147],[36.2060541,34.0068355],[36.2058654,34.0069038]]},"properties":{"site":"baalbek","name":"","highway":"footway"}},{"type":"Feature","geometry":{"type":"LineString","coordinates":[[36.2044903,34.0064216],[36.2045392,34.0062478],[36.2044953,34.0062374]]},"properties":{"site":"baalbek","name":"","highway":"footway"}},{"type":"Feature","geometry":{"type":"LineString","coordinates":[[36.2044953,34.0062374],[36.2042257,34.0061716]]},"properties":{"site":"baalbek","name":"","highway":"steps"}},{"type":"Feature","geometry":{"type":"LineString","coordinates":[[36.2042257,34.0061716],[36.2042655,34.0060402],[36.203953,34.0059699]]},"properties":{"site":"baalbek","name":"","highway":"footway"}},{"type":"Feature","geometry":{"type":"LineString","coordinates":[[36.2039709,34.0062984],[36.2039182,34.0064566],[36.2039141,34.0065436]]},"properties":{"site":"baalbek","name":"","highway":"footway"}},{"type":"Feature","geometry":{"type":"LineString","coordinates":[[36.2039141,34.0065436],[36.2038809,34.0066546],[36.2040378,34.0066599]]},"properties":{"site":"baalbek","name":"","highway":"steps"}},{"type":"Feature","geometry":{"type":"LineString","coordinates":[[36.2040378,34.0066599],[36.2041871,34.0067215],[36.2044907,34.0068548],[36.2049286,34.0069588],[36.2048791,34.007164],[36.2048175,34.0073437],[36.2047513,34.0075621],[36.2038321,34.0073775]]},"properties":{"site":"baalbek","name":"","highway":"footway"}},{"type":"Feature","geometry":{"type":"LineString","coordinates":[[36.2048791,34.007164],[36.205465,34.0072731],[36.2056719,34.0073213]]},"properties":{"site":"baalbek","name":"","highway":"footway"}},{"type":"Feature","geometry":{"type":"LineString","coordinates":[[36.2048175,34.0073437],[36.203966,34.0071469],[36.2040186,34.0069707],[36.204065,34.0068154],[36.2041474,34.0068274],[36.2041871,34.0067215]]},"properties":{"site":"baalbek","name":"","highway":"footway"}},{"type":"Feature","geometry":{"type":"LineString","coordinates":[[36.2040186,34.0069707],[36.2038774,34.0069436]]},"properties":{"site":"baalbek","name":"","highway":"steps"}},{"type":"Feature","geometry":{"type":"LineString","coordinates":[[36.2038774,34.0069436],[36.2034322,34.0069214],[36.2029705,34.0068223],[36.2028468,34.0068479],[36.2027898,34.0069041]]},"properties":{"site":"baalbek","name":"","highway":"footway"}},{"type":"Feature","geometry":{"type":"LineString","coordinates":[[36.2091659,34.0052562],[36.2094408,34.0048738],[36.2094918,34.0047959],[36.2095481,34.0047693],[36.2096634,34.004816]]},"properties":{"site":"baalbek","name":"","highway":"service"}},{"type":"Feature","geometry":{"type":"LineString","coordinates":[[36.2072207,34.0057342],[36.2068713,34.0057965],[36.2067425,34.005841],[36.2066393,34.0058733],[36.2065628,34.005861],[36.2063979,34.0058054],[36.2063093,34.0057587],[36.2062302,34.0056675],[36.2061954,34.0056053],[36.2060709,34.0055834]]},"properties":{"site":"baalbek","name":"","highway":"service"}}]}