{"type":"FeatureCollection","features":[{"type":"Feature","geometry":{"type":"LineString","coordinates":[[14.0726501,40.8148237],[14.0731216,40.8152058],[14.0734484,40.8154397],[14.0737229,40.8153919],[14.0742624,40.815297],[14.0752444,40.8156344],[14.0751203,40.8158512]]},"properties":{"site":"baiae","name":"","highway":"service"}},{"type":"Feature","geometry":{"type":"LineString","coordinates":[[14.0759385,40.8300014],[14.0759262,40.8296496],[14.0759476,40.8296149],[14.0761709,40.8295802],[14.0763758,40.8296056]]},"properties":{"site":"baiae","name":"","highway":"service"}},{"type":"Feature","geometry":{"type":"LineString","coordinates":[[14.05957,40.8250259],[14.0596666,40.8248067],[14.0598383,40.8245388],[14.0599992,40.8243277],[14.0601065,40.8242222],[14.0602084,40.8241501]]},"properties":{"site":"baiae","name":"","highway":"path"}},{"type":"Feature","geometry":{"type":"LineString","coordinates":[[14.0764469,40.8279684],[14.0762786,40.8283076],[14.0761885,40.8284958],[14.0761866,40.8285358],[14.0762375,40.8285595],[14.0762923,40.8285683],[14.0763549,40.8285654],[14.0765487,40.8285846]]},"properties":{"site":"baiae","name":"","highway":"service"}},{"type":"Feature","geometry":{"type":"LineString","coordinates":[[14.0763549,40.8285654],[14.0763863,40.8285269],[14.0765916,40.8280811]]},"properties":{"site":"baiae","name":"","highway":"service"}},{"type":"Feature","geometry":{"type":"LineString","coordinates":[[14.0760461,40.8290108],[14.076004,40.8288951],[14.0759893,40.8287581],[14.0760079,40.8286376],[14.0761417,40.8283049],[14.0763787,40.8278305]]},"properties":{"site":"baiae","name":"","highway":"track"}},{"type":"Feature","geometry":{"type":"LineString","coordinates":[[14.076803,40.8285508],[14.0769615,40.8285751]]},"properties":{"site":"baiae","name":"","highway":"service"}},{"type":"Feature","geometry":{"type":"LineString","coordinates":[[14.0770984,40.8266555],[14.0771059,40.8266272],[14.0771198,40.8265745],[14.0771167,40.8265028],[14.0767894,40.826269]]},"properties":{"site":"baiae","name":"","highway":"service"}},{"type":"Feature","geometry":{"type":"LineString","coordinates":[[14.0763758,40.8296056],[14.0766782,40.8301253],[14.0766934,40.8301515]]},"properties":{"site":"baiae","name":"","highway":"service"}},{"type":"Feature","geometry":{"type":"LineString","coordinates":[[14.0763758,40.8296056],[14.0765104,40.8295593],[14.0765838,40.8294783],[14.0767979,40.8294181],[14.0770065,40.8293776]]},"properties":{"site":"baiae","name":"","highway":"service"}},{"type":"Feature","geometry":{"type":"LineString","coordinates":[[14.0763787,40.8278305],[14.0764469,40.8279684],[14.0765916,40.8280811],[14.0767479,40.8282029],[14.0768463,40.8282795],[14.0768698,40.8283284],[14.0768561,40.8284054],[14.0768208,40.8285165],[14.076803,40.8285508],[14.0767954,40.8285654],[14.0767425,40.8285891],[14.0766505,40.8285935],[14.0765487,40.8285846],[14.0765722,40.8285506],[14.0766016,40.8285017],[14.0766486,40.8284039],[14.0767053,40.8282825],[14.0767479,40.8282029]]},"properties":{"site":"baiae","name":"","highway":"service"}},{"type":"Feature","geometry":{"type":"LineString","coordinates":[[14.0719652,40.8165124],[14.0721441,40.8165684]]},"properties":{"site":"baiae","name":"","highway":"service"}},{"type":"Feature","geometry":{"type":"LineString","coordinates":[[14.0730446,40.816482],[14.0732235,40.816538]]},"properties":{"site":"baiae","name":"","highway":"service"}},{"type":"Feature","geometry":{"type":"LineString","coordinates":[[14.0728985,40.8166599],[14.0730446,40.816482]]},"properties":{"site":"baiae","name":"","highway":"service"}},{"type":"Feature","geometry":{"type":"LineString","coordinates":[[14.0718997,40.8164909],[14.0719652,40.8165124]]},"properties":{"site":"baiae","name":"","highway":"service"}},{"type":"Feature","geometry":{"type":"LineString","coordinates":[[14.0713887,40.8157802],[14.0718733,40.8160823],[14.0718458,40.8161663],[14.0715324,40.8171217],[14.0714629,40.8173335]]},"properties":{"site":"baiae","name":"Via Molo di Baia","highway":"service"}},{"type":"Feature","geometry":{"type":"LineString","coordinates":[[14.072159,40.8164301],[14.0728985,40.8166599],[14.0731033,40.8167236]]},"properties":{"site":"baiae","name":"","highway":"service"}},{"type":"Feature","geometry":{"type":"LineString","coordinates":[[14.0719518,40.8163247],[14.0718997,40.8164909],[14.0716992,40.8171531],[14.0716196,40.8174162],[14.0715809,40.8181527],[14.0712499,40.8182037]]},"properties":{"site":"baiae","name":"Via Molo di Baia","highway":"service"}},{"type":"Feature","geometry":{"type":"LineString","coordinates":[[14.0652433,40.825335],[14.0652358,40.8250321],[14.0651633,40.8250138],[14.0650185,40.8249935],[14.064812,40.824955],[14.0646349,40.8249306],[14.0646492,40.8248017],[14.0646725,40.8247358],[14.0647047,40.8246586],[14.0647503,40.8245775],[14.064786,40.8244831],[14.064735,40.8244486],[14.0646518,40.8244039],[14.0645437,40.8243603],[14.0644365,40.8243319],[14.0642683,40.8242842],[14.0642871,40.8242375],[14.0643461,40.8240954],[14.0643748,40.8240315],[14.0644338,40.8240436],[14.0645277,40.8240802],[14.0646859,40.8241553],[14.0647637,40.8241878],[14.0648522,40.8242527],[14.0649434,40.8243177],[14.0650346,40.8243806],[14.0651285,40.8244293],[14.0651561,40.8244242],[14.0651856,40.8243796],[14.0652431,40.8243212],[14.0652626,40.8243014],[14.0653135,40.8242405],[14.0653296,40.8241614],[14.0653591,40.8239483],[14.0654262,40.8237981],[14.0654262,40.823723],[14.0653994,40.8236722],[14.0653645,40.8236073],[14.0653243,40.8235261],[14.0652411,40.823451],[14.0652089,40.823384],[14.0651875,40.823313],[14.0651668,40.8232571],[14.0650944,40.8232308],[14.0650024,40.8231973],[14.0649469,40.8231678],[14.0648522,40.8231222],[14.0647878,40.8230958],[14.0646779,40.8230958],[14.064617,40.8230846],[14.0645728,40.8230658],[14.0645384,40.8230511],[14.0643909,40.8230085],[14.0643345,40.8229638],[14.0642817,40.8229283],[14.0641503,40.822906],[14.0640851,40.8228887],[14.0640207,40.8228542],[14.0639832,40.8227994],[14.0639349,40.8227487],[14.0639107,40.8227081],[14.063874,40.8226746],[14.0638579,40.8226239],[14.063841,40.8225985],[14.0638893,40.8225518],[14.0639349,40.822499],[14.063951,40.8224382],[14.0639403,40.8224057],[14.0640127,40.8223387],[14.0640743,40.8222529],[14.0642764,40.8220911],[14.0643539,40.8220053],[14.064415,40.8219206],[14.0644292,40.8217957],[14.0644251,40.8217848],[14.0644043,40.8217298],[14.064405,40.8216851],[14.0644298,40.8216568],[14.06453,40.8215836]]},"properties":{"site":"baiae","name":"Mofete \"la vallata\"","highway":"track"}},{"type":"Feature","geometry":{"type":"LineString","coordinates":[[14.070408,40.8172668],[14.0702449,40.8175619],[14.070165,40.8176353],[14.0700938,40.8176722],[14.0700601,40.817672],[14.0700527,40.8177271],[14.0703142,40.8177472],[14.070462,40.8180232],[14.0704423,40.8180835]]},"properties":{"site":"baiae","name":"","highway":"path"}},{"type":"Feature","geometry":{"type":"LineString","coordinates":[[14.0693259,40.8184195],[14.0693839,40.818371],[14.0695759,40.8182983],[14.0698133,40.8182881],[14.0701378,40.8182851],[14.0704168,40.8183124],[14.070438,40.8183036]]},"properties":{"site":"baiae","name":"Via Sella di Baia","highway":"steps"}},{"type":"Feature","geometry":{"type":"LineString","coordinates":[[14.0702537,40.8163491],[14.0702103,40.8163891],[14.0702344,40.81645],[14.0701942,40.8166307],[14.0701347,40.8166725],[14.070057,40.8167045],[14.070044,40.8167363],[14.0702693,40.8167687],[14.0703792,40.8164196],[14.0707574,40.8164785],[14.0708062,40.8164315]]},"properties":{"site":"baiae","name":"","highway":"path"}},{"type":"Feature","geometry":{"type":"LineString","coordinates":[[14.0709148,40.816236],[14.0709295,40.8162381],[14.0709396,40.8162053]]},"properties":{"site":"baiae","name":"","highway":"path"}},{"type":"Feature","geometry":{"type":"LineString","coordinates":[[14.077176,40.8259427],[14.0771236,40.8258798],[14.077188,40.825754],[14.077243,40.8256586],[14.0772457,40.8255835],[14.0771867,40.8255246],[14.0771317,40.8255003],[14.0770593,40.8255297],[14.0769689,40.8256272],[14.0768447,40.8257611],[14.0767975,40.8257791],[14.0767492,40.8257974]]},"properties":{"site":"baiae","name":"","highway":"service"}},{"type":"Feature","geometry":{"type":"LineString","coordinates":[[14.0623949,40.8231013],[14.0621528,40.8230378],[14.0621273,40.8230226],[14.0621179,40.8229911],[14.0621367,40.8229495],[14.0622547,40.8227932],[14.0624559,40.8225151]]},"properties":{"site":"baiae","name":"","highway":"service"}},{"type":"Feature","geometry":{"type":"LineString","coordinates":[[14.0632726,40.8226266],[14.0634658,40.8223992],[14.0635418,40.8222655],[14.0636357,40.8221538],[14.0637296,40.8219671],[14.0638127,40.8217864],[14.0639066,40.8216728],[14.063947,40.8216206]]},"properties":{"site":"baiae","name":"","highway":"path"}},{"type":"Feature","geometry":{"type":"LineString","coordinates":[[14.063947,40.8216206],[14.0640758,40.8214765],[14.0643641,40.82124],[14.0638326,40.8208544],[14.0634383,40.8206338]]},"properties":{"site":"baiae","name":"","highway":"path"}},{"type":"Feature","geometry":{"type":"LineString","coordinates":[[14.0624021,40.819504],[14.0624907,40.819339]]},"properties":{"site":"baiae","name":"","highway":"service"}},{"type":"Feature","geometry":{"type":"LineString","coordinates":[[14.063103,40.8179071],[14.0631906,40.8176018]]},"properties":{"site":"baiae","name":"","highway":"service"}},{"type":"Feature","geometry":{"type":"LineString","coordinates":[[14.0622037,40.8178721],[14.0622504,40.8179262],[14.0624931,40.8180446],[14.0625604,40.8183663]]},"properties":{"site":"baiae","name":"","highway":"service"}},{"type":"Feature","geometry":{"type":"LineString","coordinates":[[14.0625164,40.8165436],[14.0624746,40.8165591],[14.0619461,40.8167505],[14.0620248,40.8168903],[14.0620412,40.8169195],[14.0620615,40.8169556],[14.0621098,40.8170144],[14.0622251,40.8170997]]},"properties":{"site":"baiae","name":"","highway":"service"}},{"type":"Feature","geometry":{"type":"LineString","coordinates":[[14.0619327,40.8169474],[14.0620248,40.8168903]]},"properties":{"site":"baiae","name":"","highway":"service"}},{"type":"Feature","geometry":{"type":"LineString","coordinates":[[14.0620412,40.8169195],[14.0622827,40.816943],[14.0623753,40.8169525]]},"properties":{"site":"baiae","name":"","highway":"service"}},{"type":"Feature","geometry":{"type":"LineString","coordinates":[[14.0656084,40.8178139],[14.0658252,40.8172869],[14.0659218,40.8171407],[14.0665325,40.817109],[14.0666648,40.8171022]]},"properties":{"site":"baiae","name":"","highway":"service"}},{"type":"Feature","geometry":{"type":"LineString","coordinates":[[14.0843388,40.8299357],[14.08442,40.8299262],[14.0844707,40.8299202],[14.0845679,40.8298884]]},"properties":{"site":"baiae","name":"","highway":"service"}},{"type":"Feature","geometry":{"type":"LineString","coordinates":[[14.0711946,40.8252361],[14.0712982,40.8249975],[14.0713835,40.8247886],[14.0714313,40.8246408],[14.0715395,40.8243209],[14.0716648,40.8240209],[14.0717471,40.8238892],[14.0718313,40.8238156],[14.0719884,40.8237236],[14.0720875,40.8237038],[14.0722128,40.8237449],[14.0722895,40.8237873],[14.0723962,40.8238015],[14.0724392,40.8237689],[14.0724484,40.8235861],[14.0724516,40.8235721],[14.0724491,40.8235581],[14.072441,40.8235454],[14.0724283,40.8235351],[14.072412,40.8235282],[14.0723937,40.8235254],[14.0723097,40.8235181],[14.0722973,40.8235084],[14.0722895,40.8234962],[14.0722871,40.8234828],[14.0722903,40.8234695],[14.0722987,40.8234575],[14.0723117,40.8234482],[14.0723278,40.8234423],[14.0724223,40.8234604],[14.0725234,40.8234816],[14.0726279,40.8234937],[14.0726409,40.8234945],[14.0726536,40.8234921],[14.0726645,40.8234868],[14.0726726,40.823479],[14.0726769,40.8234697],[14.072677,40.8234598],[14.0726729,40.8234504],[14.0726649,40.8234425],[14.0726541,40.8234371],[14.0725514,40.8234179],[14.072394,40.8233768],[14.0723818,40.8233636],[14.0723763,40.823348],[14.0723779,40.823332],[14.0723866,40.8233173],[14.0724013,40.8233056],[14.0724203,40.8232984],[14.0724414,40.8232964],[14.0727375,40.823317],[14.0728002,40.8231801],[14.0728657,40.8229706],[14.0729667,40.8228687],[14.0731298,40.8228376],[14.0732487,40.8227286],[14.0733778,40.8226726]]},"properties":{"site":"baiae","name":"","highway":"track"}},{"type":"Feature","geometry":{"type":"LineString","coordinates":[[14.0727375,40.823317],[14.072928,40.8233353],[14.0732235,40.8233922]]},"properties":{"site":"baiae","name":"","highway":"track"}},{"type":"Feature","geometry":{"type":"LineString","coordinates":[[14.0742214,40.8224064],[14.0742079,40.8224081],[14.0740853,40.822369],[14.0740708,40.8223876],[14.0741832,40.8224637],[14.0741689,40.822481],[14.0739897,40.822458],[14.0739317,40.8225467],[14.0738306,40.8225561],[14.0737906,40.822539],[14.0736268,40.8225133],[14.0734959,40.8224696],[14.0733224,40.8224344]]},"properties":{"site":"baiae","name":"","highway":"steps"}},{"type":"Feature","geometry":{"type":"LineString","coordinates":[[14.0727383,40.8217204],[14.0727372,40.8216701],[14.0726812,40.8216216],[14.0724227,40.821523],[14.0722482,40.8214578],[14.0720649,40.8214511],[14.0718572,40.8214795],[14.0715943,40.8214628],[14.0717357,40.8215932],[14.0719213,40.8216952],[14.0722836,40.8218155],[14.0720251,40.8215464],[14.0720339,40.8215113],[14.0721797,40.8215731]]},"properties":{"site":"baiae","name":"","highway":"path"}},{"type":"Feature","geometry":{"type":"LineString","coordinates":[[14.0719213,40.8216952],[14.0720671,40.8217988],[14.0721332,40.8218881],[14.0721667,40.82195],[14.0721785,40.8219919]]},"properties":{"site":"baiae","name":"","highway":"path"}},{"type":"Feature","geometry":{"type":"LineString","coordinates":[[14.0730956,40.8218138],[14.0730353,40.8218282],[14.0729355,40.8218591],[14.0727383,40.8217204]]},"properties":{"site":"baiae","name":"","highway":"service"}},{"type":"Feature","geometry":{"type":"LineString","coordinates":[[14.0736942,40.8253102],[14.073721,40.8252645],[14.0737224,40.8252321],[14.0736808,40.8252036],[14.0735507,40.8251803],[14.0734649,40.825159],[14.0733509,40.825091],[14.073139,40.8250362],[14.0730532,40.8250088],[14.0726683,40.8248616],[14.0725999,40.8248261],[14.0725752,40.8247834],[14.0725622,40.8246452],[14.0725439,40.8244735],[14.072518,40.8242274],[14.0725234,40.8241868],[14.0725476,40.824132],[14.072632,40.8240812],[14.0726978,40.8240264],[14.0727447,40.8239523],[14.0728171,40.8238377],[14.0728708,40.8238042],[14.0728922,40.8237707],[14.0729499,40.8236682],[14.073025,40.8236073],[14.0731242,40.8235281],[14.0731738,40.8234673],[14.0732235,40.8233922],[14.0733428,40.8232531],[14.0735561,40.8231445],[14.0735883,40.8231181],[14.073599,40.8230755],[14.0735748,40.8230217],[14.0734389,40.8228707],[14.0734092,40.8228269],[14.0734199,40.8227706],[14.0734627,40.8227416],[14.0735963,40.8227614],[14.0736888,40.822768],[14.0737385,40.822765],[14.0737606,40.8227355],[14.0737545,40.8227132],[14.0737311,40.822699]]},"properties":{"site":"baiae","name":"","highway":"track"}},{"type":"Feature","geometry":{"type":"LineString","coordinates":[[14.0602084,40.8241501],[14.0603076,40.8240699]]},"properties":{"site":"baiae","name":"","highway":"service"}},{"type":"Feature","geometry":{"type":"LineString","coordinates":[[14.0603225,40.8241625],[14.0603076,40.8240699],[14.0603167,40.8240396],[14.0603747,40.8239055],[14.0604498,40.8238325],[14.0605541,40.8237808],[14.0606566,40.823753]]},"properties":{"site":"baiae","name":"","highway":"service"}},{"type":"Feature","geometry":{"type":"LineString","coordinates":[[14.0680756,40.8170169],[14.0680978,40.8170607],[14.0680977,40.817093]]},"properties":{"site":"baiae","name":"","highway":"service"}},{"type":"Feature","geometry":{"type":"LineString","coordinates":[[14.0676834,40.8217126],[14.0676646,40.821879],[14.0676472,40.8220718]]},"properties":{"site":"baiae","name":"","highway":"service"}},{"type":"Feature","geometry":{"type":"LineString","coordinates":[[14.0591545,40.8195548],[14.0592665,40.8195486],[14.0594226,40.8195302],[14.0597272,40.819523],[14.0598375,40.8195391],[14.0601079,40.8195473],[14.0602841,40.8195473],[14.0605496,40.8195267],[14.0607166,40.8195065],[14.0608122,40.8195042]]},"properties":{"site":"baiae","name":"","highway":"footway"}},{"type":"Feature","geometry":{"type":"LineString","coordinates":[[14.0605496,40.8195267],[14.0605422,40.8194583],[14.0604741,40.8193752],[14.0604223,40.8193237],[14.0603511,40.819283],[14.0602707,40.8192212]]},"properties":{"site":"baiae","name":"","highway":"footway"}},{"type":"Feature","geometry":{"type":"LineString","coordinates":[[14.0845679,40.8298884],[14.0850463,40.8300599],[14.0851066,40.8299569],[14.0845934,40.8297682],[14.0845396,40.8297818],[14.084508,40.8298259],[14.0845679,40.8298884]]},"properties":{"site":"baiae","name":"","highway":"service"}},{"type":"Feature","geometry":{"type":"LineString","coordinates":[[14.0845396,40.8297818],[14.0844069,40.8297296]]},"properties":{"site":"baiae","name":"","highway":"service"}},{"type":"Feature","geometry":{"type":"LineString","coordinates":[[14.061764,40.8180343],[14.062033,40.8184364]]},"properties":{"site":"baiae","name":"","highway":"service"}},{"type":"Feature","geometry":{"type":"LineString","coordinates":[[14.0621163,40.817905],[14.0620727,40.8178538],[14.0618032,40.8177895],[14.0615772,40.8177511],[14.0613121,40.8176568],[14.0613433,40.8175992]]},"properties":{"site":"baiae","name":"","highway":"service"}},{"type":"Feature","geometry":{"type":"LineString","coordinates":[[14.0647205,40.8175403],[14.0647867,40.8173993],[14.0649697,40.8174538],[14.064896,40.8175943]]},"properties":{"site":"baiae","name":"","highway":"service"}},{"type":"Feature","geometry":{"type":"LineString","coordinates":[[14.0649697,40.8174538],[14.0651008,40.8171954]]},"properties":{"site":"baiae","name":"","highway":"service"}},{"type":"Feature","geometry":{"type":"LineString","coordinates":[[14.0608053,40.8149411],[14.0610316,40.8146908]]},"properties":{"site":"baiae","name":"","highway":"service"}},{"type":"Feature","geometry":{"type":"LineString","coordinates":[[14.0694356,40.81812],[14.0694673,40.817737],[14.0693305,40.8176335],[14.0696121,40.8167099],[14.0697455,40.8167275],[14.0697533,40.8166905],[14.0697918,40.8166957],[14.0699098,40.8163631],[14.0699247,40.816321]]},"properties":{"site":"baiae","name":"","highway":"path"}},{"type":"Feature","geometry":{"type":"LineString","coordinates":[[14.0692302,40.8184162],[14.0692413,40.8183731],[14.0692621,40.8183133],[14.0694247,40.8182746],[14.0694356,40.81812]]},"properties":{"site":"baiae","name":"","highway":"service"}},{"type":"Feature","geometry":{"type":"LineString","coordinates":[[14.0716805,40.8196649],[14.0717157,40.8196626],[14.071733,40.8196614],[14.0717613,40.8196609],[14.0718608,40.8198683]]},"properties":{"site":"baiae","name":"","highway":"service"}},{"type":"Feature","geometry":{"type":"LineString","coordinates":[[14.0653675,40.8247759],[14.0653793,40.8245368]]},"properties":{"site":"baiae","name":"","highway":"service"}},{"type":"Feature","geometry":{"type":"LineString","coordinates":[[14.0614748,40.8209563],[14.0614149,40.8209693],[14.0613431,40.820975],[14.0611756,40.8207581]]},"properties":{"site":"baiae","name":"","highway":"service"}},{"type":"Feature","geometry":{"type":"LineString","coordinates":[[14.0609234,40.8200502],[14.0608484,40.8200721],[14.0606557,40.8201283],[14.0606705,40.820359]]},"properties":{"site":"baiae","name":"","highway":"service"}},{"type":"Feature","geometry":{"type":"LineString","coordinates":[[14.0606705,40.820359],[14.0599555,40.8203995],[14.0606557,40.8201283]]},"properties":{"site":"baiae","name":"","highway":"service"}},{"type":"Feature","geometry":{"type":"LineString","coordinates":[[14.0603511,40.819283],[14.0602184,40.8192733],[14.060031,40.8192816],[14.059948,40.8192949],[14.0598609,40.8193089],[14.0597056,40.8193482],[14.0597272,40.819523]]},"properties":{"site":"baiae","name":"","highway":"footway"}},{"type":"Feature","geometry":{"type":"LineString","coordinates":[[14.0605496,40.8195267],[14.0605158,40.8196297],[14.0604786,40.8197065],[14.0604431,40.819723],[14.0603905,40.8197474],[14.0602255,40.8197797],[14.0600684,40.8197892],[14.0599338,40.8197588],[14.059801,40.8197036],[14.0597272,40.819523]]},"properties":{"site":"baiae","name":"","highway":"footway"}},{"type":"Feature","geometry":{"type":"LineString","coordinates":[[14.0592665,40.8195486],[14.0595329,40.819915],[14.0595949,40.8200025],[14.0596838,40.8201387],[14.059785,40.8203472],[14.0598436,40.8205023],[14.0601607,40.821409],[14.0603214,40.8219325],[14.0604803,40.8223424],[14.0605526,40.8227809],[14.0605615,40.8230051],[14.0605502,40.8231574]]},"properties":{"site":"baiae","name":"","highway":"footway"}},{"type":"Feature","geometry":{"type":"LineString","coordinates":[[14.0637479,40.8206123],[14.063582,40.8205137]]},"properties":{"site":"baiae","name":"","highway":"steps"}},{"type":"Feature","geometry":{"type":"LineString","coordinates":[[14.081011,40.8283882],[14.0810395,40.828351],[14.0810744,40.8283087]]},"properties":{"site":"baiae","name":"","highway":"footway"}},{"type":"Feature","geometry":{"type":"LineString","coordinates":[[14.0789187,40.8273784],[14.0804104,40.8281003],[14.0804691,40.8281285],[14.0805157,40.8281509],[14.081011,40.8283882],[14.082145,40.8289262],[14.0830989,40.8293945],[14.0835102,40.8295945],[14.0835598,40.8296252],[14.0836184,40.8296894]]},"properties":{"site":"baiae","name":"","highway":"footway"}},{"type":"Feature","geometry":{"type":"LineString","coordinates":[[14.0787623,40.8273998],[14.0787371,40.8273881],[14.0787018,40.8273717]]},"properties":{"site":"baiae","name":"","highway":"footway"}},{"type":"Feature","geometry":{"type":"LineString","coordinates":[[14.0785527,40.8271947],[14.0785268,40.8271802],[14.0784113,40.8271154],[14.0782732,40.8270285],[14.0782062,40.8269956],[14.0780479,40.826918],[14.0778402,40.8268187],[14.0777768,40.8267882],[14.0772517,40.8265344],[14.0771702,40.8264851],[14.0770721,40.8264158],[14.0770217,40.8263725],[14.0768989,40.8262351],[14.076693,40.8259898],[14.0766592,40.8259764],[14.0766264,40.8259295],[14.0765996,40.8258914],[14.0769502,40.8254745],[14.0769868,40.8254089],[14.0770626,40.8249899],[14.0771154,40.8247635],[14.0771574,40.8246508],[14.0772386,40.8245217]]},"properties":{"site":"baiae","name":"","highway":"footway"}},{"type":"Feature","geometry":{"type":"LineString","coordinates":[[14.0663089,40.8186701],[14.066292,40.8185545],[14.0662733,40.8184316],[14.0662267,40.8181247],[14.0662071,40.8179949]]},"properties":{"site":"baiae","name":"","highway":"service"}},{"type":"Feature","geometry":{"type":"LineString","coordinates":[[14.0662267,40.8181247],[14.0664269,40.8181846],[14.0666424,40.8182491],[14.0666834,40.8182759],[14.0667001,40.8183083],[14.0666983,40.8183421],[14.0666906,40.8183766],[14.0666684,40.8184029],[14.0664807,40.8184817],[14.066292,40.8185545]]},"properties":{"site":"baiae","name":"","highway":"service"}},{"type":"Feature","geometry":{"type":"LineString","coordinates":[[14.0664807,40.8184817],[14.0664269,40.8181846]]},"properties":{"site":"baiae","name":"","highway":"service"}},{"type":"Feature","geometry":{"type":"LineString","coordinates":[[14.0618439,40.8215599],[14.0617923,40.8215944],[14.0615884,40.8217162],[14.0614919,40.8217223],[14.0608052,40.8216736],[14.060765,40.821633],[14.0607409,40.821564],[14.0607543,40.8215011],[14.0609125,40.8213001]]},"properties":{"site":"baiae","name":"","highway":"service"}},{"type":"Feature","geometry":{"type":"LineString","coordinates":[[14.0643586,40.819837],[14.0644815,40.8199067],[14.064768,40.8201049],[14.0649036,40.8201819],[14.0652055,40.8203544],[14.0655814,40.8205456],[14.0656985,40.8205876],[14.0655722,40.8207158]]},"properties":{"site":"baiae","name":"","highway":"service"}},{"type":"Feature","geometry":{"type":"LineString","coordinates":[[14.0617322,40.8221496],[14.0618481,40.8219727]]},"properties":{"site":"baiae","name":"","highway":"service"}},{"type":"Feature","geometry":{"type":"LineString","coordinates":[[14.0617322,40.8221496],[14.0616118,40.8223218],[14.0614916,40.8222784],[14.061609,40.8221036]]},"properties":{"site":"baiae","name":"","highway":"service"}},{"type":"Feature","geometry":{"type":"LineString","coordinates":[[14.0718458,40.8161663],[14.0719518,40.8163247]]},"properties":{"site":"baiae","name":"Via Molo di Baia","highway":"service"}},{"type":"Feature","geometry":{"type":"LineString","coordinates":[[14.0735221,40.8220895],[14.0735402,40.822066],[14.0735658,40.8220344]]},"properties":{"site":"baiae","name":"","highway":"footway"}},{"type":"Feature","geometry":{"type":"LineString","coordinates":[[14.0724209,40.8212544],[14.0723881,40.8212192],[14.0723271,40.8211278],[14.0722984,40.8210563],[14.0720557,40.8204954],[14.0717484,40.8197824],[14.0717209,40.8196874],[14.0717157,40.8196626],[14.0717065,40.8196186],[14.0716826,40.8194838],[14.0716599,40.8193897],[14.071691,40.8193833],[14.0716016,40.8190766],[14.0714614,40.8185961],[14.0714277,40.8185365]]},"properties":{"site":"baiae","name":"","highway":"footway"}},{"type":"Feature","geometry":{"type":"LineString","coordinates":[[14.0714277,40.8185365],[14.0713697,40.8185474],[14.0713376,40.8185556]]},"properties":{"site":"baiae","name":"","highway":"footway"}},{"type":"Feature","geometry":{"type":"LineString","coordinates":[[14.0714915,40.8182078],[14.0715639,40.8185175],[14.0715713,40.8185491],[14.0716688,40.8185389],[14.0716897,40.8181816],[14.0715836,40.8181956],[14.0714915,40.8182078]]},"properties":{"site":"baiae","name":"","highway":"pedestrian"}},{"type":"Feature","geometry":{"type":"LineString","coordinates":[[14.0714277,40.8185365],[14.0714813,40.8185462],[14.0714857,40.8185666]]},"properties":{"site":"baiae","name":"","highway":"steps"}},{"type":"Feature","geometry":{"type":"LineString","coordinates":[[14.0714857,40.8185666],[14.0715967,40.8189538]]},"properties":{"site":"baiae","name":"","highway":"footway"}},{"type":"Feature","geometry":{"type":"LineString","coordinates":[[14.0715967,40.8189538],[14.0716178,40.8190216]]},"properties":{"site":"baiae","name":"","highway":"steps"}},{"type":"Feature","geometry":{"type":"LineString","coordinates":[[14.0716178,40.8190216],[14.0716016,40.8190766]]},"properties":{"site":"baiae","name":"","highway":"footway"}},{"type":"Feature","geometry":{"type":"LineString","coordinates":[[14.0714813,40.8185462],[14.0715639,40.8185175]]},"properties":{"site":"baiae","name":"","highway":"footway"}},{"type":"Feature","geometry":{"type":"LineString","coordinates":[[14.0715809,40.8181527],[14.0715836,40.8181956],[14.071603,40.818504],[14.0715639,40.8185175]]},"properties":{"site":"baiae","name":"","highway":"footway"}},{"type":"Feature","geometry":{"type":"LineString","coordinates":[[14.0722984,40.8210563],[14.0722265,40.8210729],[14.0721775,40.8210842]]},"properties":{"site":"baiae","name":"","highway":"footway"}},{"type":"Feature","geometry":{"type":"LineString","coordinates":[[14.0724209,40.8212544],[14.0724424,40.821239],[14.0724436,40.8211557],[14.0724663,40.8211187],[14.0725117,40.8211006],[14.0725763,40.8211042],[14.0726349,40.8211349],[14.0727186,40.8211485]]},"properties":{"site":"baiae","name":"","highway":"service"}},{"type":"Feature","geometry":{"type":"LineString","coordinates":[[14.0725117,40.8211006],[14.0725464,40.821051],[14.0725862,40.8210046],[14.0723287,40.8205823]]},"properties":{"site":"baiae","name":"","highway":"service"}},{"type":"Feature","geometry":{"type":"LineString","coordinates":[[14.0770891,40.8237934],[14.0771373,40.823764],[14.0768108,40.823409],[14.0767725,40.823351],[14.0767464,40.8232744],[14.0766483,40.8228452],[14.0766176,40.8227953],[14.0765686,40.822764],[14.076449,40.8227373],[14.0763248,40.8227478],[14.0761838,40.8227698],[14.0759876,40.8227942],[14.0759073,40.8227964],[14.0755945,40.8227848],[14.0751929,40.8227396]]},"properties":{"site":"baiae","name":"","highway":"footway"}},{"type":"Feature","geometry":{"type":"LineString","coordinates":[[14.0751929,40.8227396],[14.0751789,40.822785],[14.0751714,40.8228092]]},"properties":{"site":"baiae","name":"","highway":"footway"}},{"type":"Feature","geometry":{"type":"LineString","coordinates":[[14.0759073,40.8227964],[14.0759095,40.8228354],[14.0759119,40.8228753]]},"properties":{"site":"baiae","name":"","highway":"footway"}},{"type":"Feature","geometry":{"type":"LineString","coordinates":[[14.0763059,40.8228014],[14.0763471,40.8228377],[14.0763776,40.8228649],[14.0764529,40.8228952],[14.0765067,40.8229357],[14.0765189,40.8229693],[14.0764883,40.8229995],[14.0764346,40.8229925],[14.076358,40.8229565],[14.0762721,40.8229449],[14.076174,40.8229879],[14.0760836,40.8230029],[14.076033,40.8230273],[14.0759095,40.8232756]]},"properties":{"site":"baiae","name":"","highway":"service"}},{"type":"Feature","geometry":{"type":"LineString","coordinates":[[14.0774375,40.824221],[14.0774931,40.8242205],[14.0774686,40.824335],[14.0774196,40.8244378],[14.077344,40.8245388],[14.0772833,40.8246313],[14.077244,40.8247153],[14.077175,40.824997],[14.0771398,40.8251425]]},"properties":{"site":"baiae","name":"","highway":"footway"}},{"type":"Feature","geometry":{"type":"LineString","coordinates":[[14.077175,40.824997],[14.0771213,40.8249936],[14.0770626,40.8249899]]},"properties":{"site":"baiae","name":"","highway":"footway"}},{"type":"Feature","geometry":{"type":"LineString","coordinates":[[14.0767975,40.8257791],[14.0767837,40.8258719],[14.0767878,40.8259334],[14.0768595,40.8260215],[14.0769475,40.8261332],[14.0770883,40.8262817],[14.077179,40.8263606],[14.07729,40.8264364],[14.0774173,40.826503],[14.0782052,40.8268964],[14.0785667,40.8271064],[14.0786373,40.8271407],[14.0805298,40.8280486],[14.0810744,40.8283087],[14.0831544,40.8293315],[14.0836011,40.8295548],[14.0836433,40.8295806],[14.083679,40.8296033]]},"properties":{"site":"baiae","name":"","highway":"footway"}},{"type":"Feature","geometry":{"type":"LineString","coordinates":[[14.0763471,40.8228377],[14.0759119,40.8228753],[14.0756525,40.822876],[14.0753565,40.8228452],[14.0751714,40.8228092],[14.0749606,40.8227753],[14.0748219,40.8227361],[14.0747016,40.8226731],[14.074376,40.8224764],[14.0742214,40.8224064],[14.0739655,40.8222905],[14.0735221,40.8220895]]},"properties":{"site":"baiae","name":"","highway":"footway"}},{"type":"Feature","geometry":{"type":"LineString","coordinates":[[14.0712371,40.8181515],[14.0711981,40.8181473],[14.0709385,40.818118]]},"properties":{"site":"baiae","name":"","highway":"service"}},{"type":"Feature","geometry":{"type":"LineString","coordinates":[[14.071186,40.8179432],[14.071415,40.8179288]]},"properties":{"site":"baiae","name":"","highway":"service"}},{"type":"Feature","geometry":{"type":"LineString","coordinates":[[14.0716992,40.8171531],[14.0715324,40.8171217],[14.0710818,40.817037]]},"properties":{"site":"baiae","name":"","highway":"service"}},{"type":"Feature","geometry":{"type":"LineString","coordinates":[[14.0742127,40.8136828],[14.0741751,40.8136482],[14.0740887,40.8135741],[14.0741263,40.8135283],[14.0739286,40.8132093],[14.0738469,40.8132538],[14.0737848,40.8133391],[14.0740348,40.8135877],[14.0740887,40.8135741]]},"properties":{"site":"baiae","name":"","highway":"service"}},{"type":"Feature","geometry":{"type":"LineString","coordinates":[[14.0653094,40.8160544],[14.0652388,40.8160116],[14.0650925,40.8159249],[14.0648001,40.8157928]]},"properties":{"site":"baiae","name":"","highway":"service"}},{"type":"Feature","geometry":{"type":"LineString","coordinates":[[14.0657905,40.8154676],[14.0657005,40.8153905],[14.0654863,40.8152961],[14.0654196,40.8152707],[14.0652145,40.8151813]]},"properties":{"site":"baiae","name":"","highway":"service"}},{"type":"Feature","geometry":{"type":"LineString","coordinates":[[14.0664752,40.8162119],[14.0664714,40.8161166],[14.0664644,40.8159547],[14.0666,40.8154639],[14.0665705,40.8154099],[14.0664992,40.8153823],[14.0663531,40.815402],[14.0662157,40.8153625],[14.065974,40.8153902],[14.0661132,40.8159442]]},"properties":{"site":"baiae","name":"","highway":"service"}},{"type":"Feature","geometry":{"type":"LineString","coordinates":[[14.0655205,40.8147246],[14.0655514,40.8147302],[14.0658267,40.8147672],[14.0658823,40.8147667],[14.0662634,40.8147631],[14.0662756,40.8149756],[14.0662905,40.8152332]]},"properties":{"site":"baiae","name":"","highway":"service"}},{"type":"Feature","geometry":{"type":"LineString","coordinates":[[14.0662756,40.8149756],[14.0666485,40.8149715],[14.0666974,40.8150782],[14.0666974,40.8152352],[14.0667462,40.8152352],[14.0669903,40.8149848]]},"properties":{"site":"baiae","name":"","highway":"service"}},{"type":"Feature","geometry":{"type":"LineString","coordinates":[[14.0658823,40.8147667],[14.0658633,40.8151911]]},"properties":{"site":"baiae","name":"","highway":"service"}},{"type":"Feature","geometry":{"type":"LineString","coordinates":[[14.0676523,40.8163933],[14.0675709,40.8163577],[14.0675396,40.8163222],[14.0674978,40.8162222],[14.0673987,40.8159366],[14.0673709,40.8159037],[14.0673205,40.8158721],[14.0670335,40.8158129]]},"properties":{"site":"baiae","name":"","highway":"service"}},{"type":"Feature","geometry":{"type":"LineString","coordinates":[[14.0679185,40.8159489],[14.0678337,40.8159117],[14.0677431,40.8158714],[14.0675291,40.8157491],[14.0674096,40.8156084],[14.0672115,40.815554]]},"properties":{"site":"baiae","name":"","highway":"service"}},{"type":"Feature","geometry":{"type":"LineString","coordinates":[[14.0607118,40.8189749],[14.0607781,40.8189688],[14.0615198,40.8189166],[14.0615336,40.8189688]]},"properties":{"site":"baiae","name":"","highway":"service"}},{"type":"Feature","geometry":{"type":"LineString","coordinates":[[14.0615336,40.8189688],[14.0615868,40.8194307]]},"properties":{"site":"baiae","name":"","highway":"service"}},{"type":"Feature","geometry":{"type":"LineString","coordinates":[[14.0682015,40.8147021],[14.0683075,40.8147057],[14.068372,40.814728],[14.0684325,40.8148284],[14.0685392,40.8151386],[14.0685994,40.8153207],[14.0686411,40.8153737],[14.0686902,40.8153969],[14.0687418,40.8153997],[14.0687835,40.8153811],[14.0689774,40.8151916]]},"properties":{"site":"baiae","name":"","highway":"service"}},{"type":"Feature","geometry":{"type":"LineString","coordinates":[[14.0685392,40.8151386],[14.0686059,40.8150367],[14.0686364,40.8149105],[14.0686267,40.8147969],[14.0685475,40.8144371],[14.0685656,40.8143667],[14.0685822,40.8143172],[14.0688449,40.8140406],[14.0690186,40.8139059],[14.0691368,40.8137618],[14.069298,40.8135662],[14.0695078,40.8133537],[14.0696468,40.813218],[14.0697108,40.8131707],[14.0697816,40.8131391],[14.0699206,40.8130992],[14.0701096,40.8130529],[14.0701652,40.8130245],[14.0702292,40.8129698],[14.070585,40.812508],[14.0707267,40.8122755],[14.0710237,40.811741]]},"properties":{"site":"baiae","name":"","highway":"service"}},{"type":"Feature","geometry":{"type":"LineString","coordinates":[[14.0685656,40.8143667],[14.0686255,40.8143981],[14.0686954,40.8144713],[14.0687385,40.8144996],[14.0687969,40.8145032],[14.0689357,40.8145068],[14.0691042,40.8145286],[14.0691606,40.8145286],[14.0692229,40.8145126],[14.0693243,40.8144735],[14.0693846,40.8144684],[14.0694354,40.8144778]]},"properties":{"site":"baiae","name":"","highway":"service"}},{"type":"Feature","geometry":{"type":"LineString","coordinates":[[14.0747258,40.827803],[14.0747845,40.8279598],[14.0748086,40.8280608],[14.0748079,40.8281458],[14.0748509,40.8282928]]},"properties":{"site":"baiae","name":"","highway":"service"}},{"type":"Feature","geometry":{"type":"LineString","coordinates":[[14.0759325,40.8264204],[14.0759166,40.826375],[14.0759567,40.8262511],[14.0759935,40.8261992],[14.0760921,40.8261018],[14.0761824,40.8260347],[14.0761991,40.825998],[14.0761841,40.8259676],[14.0761239,40.8259499],[14.0760486,40.8259676],[14.075843,40.8260676],[14.075644,40.8261903],[14.0755721,40.826208],[14.0755303,40.8261891],[14.0755169,40.8261524],[14.0762877,40.825516],[14.0762944,40.8254641],[14.0762677,40.8254287],[14.0762092,40.8254097],[14.0761322,40.8254312],[14.0757895,40.8256526],[14.0754802,40.8258221]]},"properties":{"site":"baiae","name":"","highway":"service"}},{"type":"Feature","geometry":{"type":"LineString","coordinates":[[14.0762677,40.8254287],[14.0762443,40.8253654],[14.076266,40.8253047],[14.0765804,40.8248757]]},"properties":{"site":"baiae","name":"","highway":"service"}},{"type":"Feature","geometry":{"type":"LineString","coordinates":[[14.0763758,40.8296056],[14.0761149,40.8291265],[14.0760557,40.8290269],[14.0760461,40.8290108]]},"properties":{"site":"baiae","name":"","highway":"track"}},{"type":"Feature","geometry":{"type":"LineString","coordinates":[[14.0762339,40.8244116],[14.0762852,40.8244604],[14.0762677,40.8246305]]},"properties":{"site":"baiae","name":"","highway":"service"}},{"type":"Feature","geometry":{"type":"LineString","coordinates":[[14.0746989,40.825424],[14.0750277,40.8254032]]},"properties":{"site":"baiae","name":"","highway":"service"}},{"type":"Feature","geometry":{"type":"LineString","coordinates":[[14.069588,40.8193904],[14.0695166,40.8193377],[14.0694318,40.8192861],[14.0693275,40.8190615],[14.0692725,40.8190416],[14.0691927,40.8190311],[14.0686515,40.8189601]]},"properties":{"site":"baiae","name":"","highway":"service"}},{"type":"Feature","geometry":{"type":"LineString","coordinates":[[14.069588,40.8193904],[14.0696767,40.819234],[14.0695895,40.818984],[14.0695358,40.8188298]]},"properties":{"site":"baiae","name":"","highway":"service"}},{"type":"Feature","geometry":{"type":"LineString","coordinates":[[14.0683077,40.8183492],[14.0683155,40.8184015],[14.0684968,40.8184338],[14.0684915,40.8184717],[14.0683315,40.8184822],[14.0683102,40.8188994],[14.0684881,40.8189611],[14.0686136,40.81896],[14.0686515,40.8189601]]},"properties":{"site":"baiae","name":"","highway":"steps"}},{"type":"Feature","geometry":{"type":"LineString","coordinates":[[14.0684881,40.8189611],[14.0685535,40.8190629]]},"properties":{"site":"baiae","name":"","highway":"steps"}},{"type":"Feature","geometry":{"type":"LineString","coordinates":[[14.0685535,40.8190629],[14.068541,40.819237],[14.0685624,40.8192839]]},"properties":{"site":"baiae","name":"","highway":"path"}},{"type":"Feature","geometry":{"type":"LineString","coordinates":[[14.0697283,40.8185643],[14.0696682,40.8186074],[14.0697234,40.8187242],[14.0697026,40.8187439],[14.0696592,40.8187434],[14.0695677,40.818627],[14.0695242,40.8186206],[14.0694963,40.8186481],[14.0695469,40.8188096],[14.0695358,40.8188298]]},"properties":{"site":"baiae","name":"","highway":"steps"}},{"type":"Feature","geometry":{"type":"LineString","coordinates":[[14.0691927,40.8190311],[14.0692068,40.8190075],[14.0693239,40.8189909],[14.0693344,40.8190289],[14.069394,40.8190202]]},"properties":{"site":"baiae","name":"","highway":"steps"}},{"type":"Feature","geometry":{"type":"LineString","coordinates":[[14.069394,40.8190202],[14.0695895,40.818984]]},"properties":{"site":"baiae","name":"","highway":"path"}},{"type":"Feature","geometry":{"type":"LineString","coordinates":[[14.0735658,40.8220344],[14.0732573,40.8218797],[14.0731413,40.8218119],[14.0729799,40.8216915],[14.0725028,40.8213423],[14.0724209,40.8212544]]},"properties":{"site":"baiae","name":"","highway":"footway"}},{"type":"Feature","geometry":{"type":"LineString","coordinates":[[14.0723734,40.8212886],[14.0724209,40.8212544]]},"properties":{"site":"baiae","name":"","highway":"service"}},{"type":"Feature","geometry":{"type":"LineString","coordinates":[[14.0662267,40.8181247],[14.0661621,40.8181216],[14.0660631,40.8181169],[14.0661069,40.8180471],[14.066128,40.8180136],[14.0661449,40.8179761]]},"properties":{"site":"baiae","name":"","highway":"service"}},{"type":"Feature","geometry":{"type":"LineString","coordinates":[[14.0660631,40.8181169],[14.0659117,40.818109],[14.0659238,40.8180168],[14.0661069,40.8180471]]},"properties":{"site":"baiae","name":"","highway":"service"}},{"type":"Feature","geometry":{"type":"LineString","coordinates":[[14.0662733,40.8184316],[14.0659254,40.8184094]]},"properties":{"site":"baiae","name":"","highway":"service"}},{"type":"Feature","geometry":{"type":"LineString","coordinates":[[14.0609399,40.8167062],[14.0610509,40.8166802],[14.0611211,40.8166541],[14.062136,40.8162764],[14.0623269,40.8165616],[14.0612582,40.8169654],[14.0612125,40.8169531],[14.0611733,40.8169173],[14.0611505,40.8168691],[14.0611325,40.8167691],[14.0611211,40.8166541]]},"properties":{"site":"baiae","name":"","highway":"service"}},{"type":"Feature","geometry":{"type":"LineString","coordinates":[[14.0606386,40.8186106],[14.0606743,40.818504]]},"properties":{"site":"baiae","name":"","highway":"steps"}},{"type":"Feature","geometry":{"type":"LineString","coordinates":[[14.0606743,40.818504],[14.060711,40.8183903]]},"properties":{"site":"baiae","name":"","highway":"footway"}},{"type":"Feature","geometry":{"type":"LineString","coordinates":[[14.0607261,40.8183466],[14.0606101,40.8183261]]},"properties":{"site":"baiae","name":"","highway":"steps"}},{"type":"Feature","geometry":{"type":"LineString","coordinates":[[14.0605672,40.8182041],[14.0605558,40.8182333],[14.0605388,40.8182763]]},"properties":{"site":"baiae","name":"","highway":"footway"}},{"type":"Feature","geometry":{"type":"LineString","coordinates":[[14.0606101,40.8183261],[14.0605264,40.8183086],[14.0605388,40.8182763]]},"properties":{"site":"baiae","name":"","highway":"footway"}},{"type":"Feature","geometry":{"type":"LineString","coordinates":[[14.0606386,40.8186106],[14.0607612,40.8186221],[14.0608705,40.8185591],[14.0611479,40.8185986],[14.0611563,40.8185714]]},"properties":{"site":"baiae","name":"","highway":"footway"}},{"type":"Feature","geometry":{"type":"LineString","coordinates":[[14.0608705,40.8185591],[14.0609619,40.8185468]]},"properties":{"site":"baiae","name":"","highway":"footway"}},{"type":"Feature","geometry":{"type":"LineString","coordinates":[[14.0609619,40.8185468],[14.0611185,40.8185678]]},"properties":{"site":"baiae","name":"","highway":"steps"}},{"type":"Feature","geometry":{"type":"LineString","coordinates":[[14.0611185,40.8185678],[14.0611495,40.8184628]]},"properties":{"site":"baiae","name":"","highway":"footway"}},{"type":"Feature","geometry":{"type":"LineString","coordinates":[[14.0611495,40.8184628],[14.0612884,40.8184865]]},"properties":{"site":"baiae","name":"","highway":"steps"}},{"type":"Feature","geometry":{"type":"LineString","coordinates":[[14.060147,40.8144792],[14.0599661,40.8147265],[14.0590323,40.8152711],[14.0589834,40.8152781],[14.0588273,40.8152575],[14.0586976,40.815256],[14.0585964,40.8152675],[14.0585506,40.8152698],[14.058504,40.81527]]},"properties":{"site":"baiae","name":"","highway":"service"}},{"type":"Feature","geometry":{"type":"LineString","coordinates":[[14.0654863,40.8152961],[14.0654666,40.8153162],[14.0653771,40.8154256]]},"properties":{"site":"baiae","name":"","highway":"service"}},{"type":"Feature","geometry":{"type":"LineString","coordinates":[[14.0653662,40.8160335],[14.0653029,40.8159513],[14.0651881,40.8158595],[14.0653104,40.8157668]]},"properties":{"site":"baiae","name":"","highway":"service"}},{"type":"Feature","geometry":{"type":"LineString","coordinates":[[14.0671508,40.8163881],[14.0671679,40.8162348]]},"properties":{"site":"baiae","name":"","highway":"service"}},{"type":"Feature","geometry":{"type":"LineString","coordinates":[[14.0751446,40.8250792],[14.0754303,40.8252021],[14.0755751,40.825034]]},"properties":{"site":"baiae","name":"","highway":"service"}},{"type":"Feature","geometry":{"type":"LineString","coordinates":[[14.0754784,40.8248992],[14.0756657,40.8249838]]},"properties":{"site":"baiae","name":"","highway":"service"}},{"type":"Feature","geometry":{"type":"LineString","coordinates":[[14.0719518,40.8163247],[14.0720664,40.8164013],[14.072159,40.8164301]]},"properties":{"site":"baiae","name":"","highway":"service"}},{"type":"Feature","geometry":{"type":"LineString","coordinates":[[14.0595949,40.8200025],[14.0601095,40.8199482],[14.0603747,40.8199226],[14.0605898,40.8199003],[14.0605753,40.819875],[14.0604786,40.8197065]]},"properties":{"site":"baiae","name":"","highway":"footway"}},{"type":"Feature","geometry":{"type":"LineString","coordinates":[[14.0601095,40.8199482],[14.0600134,40.8198682],[14.0599338,40.8197588]]},"properties":{"site":"baiae","name":"","highway":"footway"}},{"type":"Feature","geometry":{"type":"LineString","coordinates":[[14.0603747,40.8199226],[14.06043,40.8198288],[14.0604431,40.819723]]},"properties":{"site":"baiae","name":"","highway":"footway"}},{"type":"Feature","geometry":{"type":"LineString","coordinates":[[14.0606886,40.8188593],[14.0606159,40.8188725],[14.0599486,40.819016]]},"properties":{"site":"baiae","name":"","highway":"footway"}},{"type":"Feature","geometry":{"type":"LineString","coordinates":[[14.0602707,40.8192212],[14.0603999,40.8191823],[14.0605207,40.8191611],[14.0604826,40.8192625],[14.0604741,40.8193752]]},"properties":{"site":"baiae","name":"","highway":"footway"}},{"type":"Feature","geometry":{"type":"LineString","coordinates":[[14.0837079,40.829823],[14.0835795,40.829823],[14.0835103,40.8298376],[14.0825863,40.8301578],[14.0826138,40.8302351],[14.0826631,40.8303115]]},"properties":{"site":"baiae","name":"","highway":"service"}},{"type":"Feature","geometry":{"type":"LineString","coordinates":[[14.0805018,40.8280906],[14.0804691,40.8281285],[14.0803591,40.8282573]]},"properties":{"site":"baiae","name":"","highway":"service"}},{"type":"Feature","geometry":{"type":"LineString","coordinates":[[14.0803591,40.8282573],[14.080343,40.8281803],[14.0804104,40.8281003],[14.0804428,40.8280619]]},"properties":{"site":"baiae","name":"","highway":"service"}},{"type":"Feature","geometry":{"type":"LineString","coordinates":[[14.0803591,40.8282573],[14.0806241,40.8283],[14.0809862,40.8284688],[14.0809318,40.8285549],[14.0806017,40.8285028],[14.0802778,40.8283709],[14.0803591,40.8282573]]},"properties":{"site":"baiae","name":"","highway":"service"}},{"type":"Feature","geometry":{"type":"LineString","coordinates":[[14.070054,40.8163124],[14.0702537,40.8163491],[14.0703474,40.8163659]]},"properties":{"site":"baiae","name":"","highway":"steps"}},{"type":"Feature","geometry":{"type":"LineString","coordinates":[[14.0699247,40.816321],[14.0700451,40.8163423],[14.070054,40.8163124]]},"properties":{"site":"baiae","name":"","highway":"path"}},{"type":"Feature","geometry":{"type":"LineString","coordinates":[[14.0699017,40.8163155],[14.0699251,40.8162655],[14.0700161,40.8162813]]},"properties":{"site":"baiae","name":"","highway":"path"}},{"type":"Feature","geometry":{"type":"LineString","coordinates":[[14.0703727,40.8162933],[14.0704017,40.8162202]]},"properties":{"site":"baiae","name":"","highway":"path"}},{"type":"Feature","geometry":{"type":"LineString","coordinates":[[14.0703474,40.8163659],[14.0703727,40.8162933]]},"properties":{"site":"baiae","name":"","highway":"steps"}},{"type":"Feature","geometry":{"type":"LineString","coordinates":[[14.0699098,40.8163631],[14.0698879,40.8163583],[14.0699017,40.8163155]]},"properties":{"site":"baiae","name":"","highway":"steps"}},{"type":"Feature","geometry":{"type":"LineString","coordinates":[[14.0700161,40.8162813],[14.0700089,40.8163035],[14.070054,40.8163124]]},"properties":{"site":"baiae","name":"","highway":"steps"}},{"type":"Feature","geometry":{"type":"LineString","coordinates":[[14.0700161,40.8162813],[14.070222,40.8163187]]},"properties":{"site":"baiae","name":"","highway":"path"}},{"type":"Feature","geometry":{"type":"LineString","coordinates":[[14.0707691,40.8164155],[14.0707843,40.8163935],[14.0708275,40.816409],[14.0708737,40.8163315],[14.0708194,40.8163113],[14.0707825,40.8162981],[14.070752,40.8162727],[14.0707372,40.8162465],[14.0710035,40.8158556]]},"properties":{"site":"baiae","name":"","highway":"path"}},{"type":"Feature","geometry":{"type":"LineString","coordinates":[[14.0703474,40.8163659],[14.0707444,40.8164322],[14.0707691,40.8164155],[14.0708062,40.8164315]]},"properties":{"site":"baiae","name":"","highway":"steps"}},{"type":"Feature","geometry":{"type":"LineString","coordinates":[[14.0702693,40.8167687],[14.0703927,40.8168012],[14.0704729,40.8168432],[14.070505,40.816869],[14.0704166,40.8172072]]},"properties":{"site":"baiae","name":"","highway":"path"}},{"type":"Feature","geometry":{"type":"LineString","coordinates":[[14.0704166,40.8172072],[14.070408,40.8172668]]},"properties":{"site":"baiae","name":"","highway":"steps"}},{"type":"Feature","geometry":{"type":"LineString","coordinates":[[14.0700938,40.8176722],[14.0701116,40.8175501],[14.0701306,40.8175184],[14.0701448,40.817458],[14.0701315,40.81744],[14.0700781,40.8174073],[14.0700748,40.8173981],[14.0700847,40.8173383],[14.0700794,40.817329],[14.0700656,40.8173229],[14.0699981,40.8173123],[14.0699546,40.8173073],[14.0699635,40.8172646]]},"properties":{"site":"baiae","name":"","highway":"path"}},{"type":"Feature","geometry":{"type":"LineString","coordinates":[[14.0764282,40.8277292],[14.0763799,40.8276999],[14.076391,40.8276306],[14.076395,40.827623],[14.0764307,40.827555],[14.0763706,40.8274836],[14.0763382,40.8274661],[14.0763049,40.8274577],[14.0762013,40.8274458],[14.0761514,40.8274409],[14.0760626,40.8274304],[14.0760201,40.827429],[14.0759581,40.8274094],[14.0758443,40.8273877],[14.0757749,40.8273653],[14.0757574,40.8273569]]},"properties":{"site":"baiae","name":"","highway":"footway"}},{"type":"Feature","geometry":{"type":"LineString","coordinates":[[14.0723287,40.8205823],[14.0723217,40.8205094],[14.0722497,40.820343],[14.0721285,40.8201703]]},"properties":{"site":"baiae","name":"","highway":"footway"}},{"type":"Feature","geometry":{"type":"LineString","coordinates":[[14.0837627,40.8294189],[14.0838283,40.8292978]]},"properties":{"site":"baiae","name":"","highway":"footway"}},{"type":"Feature","geometry":{"type":"LineString","coordinates":[[14.0836433,40.8295806],[14.0836642,40.8295537],[14.0837165,40.8294989],[14.0837568,40.8294301],[14.0837627,40.8294189]]},"properties":{"site":"baiae","name":"","highway":"footway"}},{"type":"Feature","geometry":{"type":"LineString","coordinates":[[14.0838283,40.8292978],[14.083831,40.8292922],[14.0838571,40.8292385],[14.0838569,40.8292074],[14.0839108,40.8291103],[14.0840687,40.8291823],[14.0842482,40.8292692],[14.0845464,40.8294039],[14.0846053,40.8294639],[14.0846402,40.8295071],[14.0849655,40.8296085],[14.0849936,40.8296463],[14.0858353,40.8299402],[14.086494,40.83015]]},"properties":{"site":"baiae","name":"","highway":"footway"}},{"type":"Feature","geometry":{"type":"LineString","coordinates":[[14.0837568,40.8294301],[14.0836519,40.8293967]]},"properties":{"site":"baiae","name":"","highway":"steps"}},{"type":"Feature","geometry":{"type":"LineString","coordinates":[[14.0836519,40.8293967],[14.0836687,40.8293646]]},"properties":{"site":"baiae","name":"","highway":"footway"}},{"type":"Feature","geometry":{"type":"LineString","coordinates":[[14.083831,40.8292922],[14.0837203,40.8292568]]},"properties":{"site":"baiae","name":"","highway":"steps"}},{"type":"Feature","geometry":{"type":"LineString","coordinates":[[14.0837203,40.8292568],[14.0837131,40.8292704]]},"properties":{"site":"baiae","name":"","highway":"footway"}},{"type":"Feature","geometry":{"type":"LineString","coordinates":[[14.0836642,40.8295537],[14.0835785,40.8295135],[14.0836302,40.8294312],[14.0836519,40.8293967]]},"properties":{"site":"baiae","name":"","highway":"footway"}},{"type":"Feature","geometry":{"type":"LineString","coordinates":[[14.083831,40.8292922],[14.083946,40.8293289]]},"properties":{"site":"baiae","name":"","highway":"steps"}},{"type":"Feature","geometry":{"type":"LineString","coordinates":[[14.083946,40.8293289],[14.0839387,40.8293416]]},"properties":{"site":"baiae","name":"","highway":"footway"}},{"type":"Feature","geometry":{"type":"LineString","coordinates":[[14.060943,40.817328],[14.0612284,40.8174157]]},"properties":{"site":"baiae","name":"","highway":"service"}},{"type":"Feature","geometry":{"type":"LineString","coordinates":[[14.060894,40.8173175],[14.060943,40.817328]]},"properties":{"site":"baiae","name":"","highway":"service"}},{"type":"Feature","geometry":{"type":"LineString","coordinates":[[14.0698554,40.8219841],[14.0698707,40.8220211],[14.069876,40.8220476],[14.069858,40.8220972],[14.0697486,40.8221728]]},"properties":{"site":"baiae","name":"","highway":"service"}},{"type":"Feature","geometry":{"type":"LineString","coordinates":[[14.069876,40.8220476],[14.0699311,40.8220483],[14.0700722,40.8220549],[14.0701743,40.8221308],[14.0702054,40.8222821],[14.0701397,40.8223889],[14.0702392,40.8224301],[14.0703525,40.8222743]]},"properties":{"site":"baiae","name":"","highway":"service"}},{"type":"Feature","geometry":{"type":"LineString","coordinates":[[14.0701618,40.8247041],[14.070418,40.8242382]]},"properties":{"site":"baiae","name":"","highway":"service"}},{"type":"Feature","geometry":{"type":"LineString","coordinates":[[14.0694837,40.8212385],[14.0695153,40.8212559],[14.0699271,40.8214782],[14.07,40.8215158],[14.0700168,40.8215205],[14.0700349,40.8215204],[14.0700713,40.8215112],[14.0701123,40.8214975]]},"properties":{"site":"baiae","name":"","highway":"service"}},{"type":"Feature","geometry":{"type":"LineString","coordinates":[[14.0692531,40.8213927],[14.0692873,40.8214076],[14.0693722,40.8214305],[14.0695301,40.8214698],[14.0696297,40.8215104],[14.0696643,40.8215215],[14.0697051,40.8215312],[14.0699247,40.8215561],[14.0700058,40.8215704],[14.0700248,40.8215735],[14.0700433,40.8215796],[14.0701165,40.8216144],[14.0701283,40.8216202],[14.0701459,40.8216223],[14.0702142,40.8216131],[14.0702329,40.8216128],[14.0702743,40.8216135],[14.0703191,40.8216163],[14.0703601,40.821628],[14.0703969,40.8216619],[14.0704225,40.8216928],[14.0704893,40.8217185],[14.0705082,40.8217101]]},"properties":{"site":"baiae","name":"","highway":"service"}},{"type":"Feature","geometry":{"type":"LineString","coordinates":[[14.0708916,40.8162325],[14.0709148,40.816236]]},"properties":{"site":"baiae","name":"","highway":"steps"}},{"type":"Feature","geometry":{"type":"LineString","coordinates":[[14.0708194,40.8163113],[14.07087,40.8162301],[14.0708916,40.8162325]]},"properties":{"site":"baiae","name":"","highway":"path"}},{"type":"Feature","geometry":{"type":"LineString","coordinates":[[14.0673677,40.8182851],[14.067741,40.81828]]},"properties":{"site":"baiae","name":"","highway":"steps"}},{"type":"Feature","geometry":{"type":"LineString","coordinates":[[14.0678488,40.818323],[14.067741,40.81828],[14.0677681,40.8181226],[14.0677019,40.8180784]]},"properties":{"site":"baiae","name":"","highway":"footway"}},{"type":"Feature","geometry":{"type":"LineString","coordinates":[[14.0673677,40.8182851],[14.0672467,40.8182747]]},"properties":{"site":"baiae","name":"","highway":"footway"}},{"type":"Feature","geometry":{"type":"LineString","coordinates":[[14.0619182,40.8222201],[14.0618395,40.8221903],[14.0617322,40.8221496]]},"properties":{"site":"baiae","name":"","highway":"service"}},{"type":"Feature","geometry":{"type":"LineString","coordinates":[[14.0617322,40.8221496],[14.061609,40.8221036]]},"properties":{"site":"baiae","name":"","highway":"service"}},{"type":"Feature","geometry":{"type":"LineString","coordinates":[[14.0700993,40.8215805],[14.07011,40.8215856],[14.0701219,40.8215865],[14.0701429,40.8215835],[14.070174,40.8215681]]},"properties":{"site":"baiae","name":"","highway":"footway"}},{"type":"Feature","geometry":{"type":"LineString","coordinates":[[14.0700168,40.8215205],[14.07005,40.8215475]]},"properties":{"site":"baiae","name":"","highway":"footway"}},{"type":"Feature","geometry":{"type":"LineString","coordinates":[[14.07005,40.8215475],[14.0700993,40.8215805]]},"properties":{"site":"baiae","name":"","highway":"steps"}},{"type":"Feature","geometry":{"type":"LineString","coordinates":[[14.0599486,40.819016],[14.0602707,40.8192212]]},"properties":{"site":"baiae","name":"","highway":"footway"}},{"type":"Feature","geometry":{"type":"LineString","coordinates":[[14.0614025,40.818162],[14.0613897,40.8180848],[14.0613858,40.8179974]]},"properties":{"site":"baiae","name":"","highway":"service"}},{"type":"Feature","geometry":{"type":"LineString","coordinates":[[14.0618126,40.8178419],[14.061994,40.8178811],[14.06203,40.8179348]]},"properties":{"site":"baiae","name":"","highway":"service"}},{"type":"Feature","geometry":{"type":"LineString","coordinates":[[14.0764403,40.8130445],[14.076467,40.8130297],[14.0765096,40.8130282]]},"properties":{"site":"baiae","name":"","highway":"service"}},{"type":"Feature","geometry":{"type":"LineString","coordinates":[[14.0765096,40.8130282],[14.0765823,40.8130373],[14.076662,40.813057],[14.0767382,40.8130835],[14.0768234,40.8130892],[14.0769802,40.8131006],[14.0770935,40.813123],[14.0771547,40.8131541],[14.0772108,40.8131958],[14.0772734,40.8132353],[14.0773431,40.8132633],[14.0774193,40.8132633],[14.0774844,40.8132474],[14.0775245,40.8132239],[14.0775671,40.8131943],[14.0775947,40.8131412],[14.0776183,40.8130593],[14.0776278,40.81298],[14.0776453,40.8129398],[14.0776754,40.8129155],[14.077841,40.8128823],[14.0779089,40.8128687],[14.0780199,40.8128464],[14.0782391,40.8127934],[14.0784605,40.8127145]]},"properties":{"site":"baiae","name":"","highway":"service"}},{"type":"Feature","geometry":{"type":"LineString","coordinates":[[14.077841,40.8128823],[14.0779318,40.8129182],[14.0779858,40.8130061],[14.0780216,40.8130408],[14.0780506,40.8130295],[14.0781678,40.8129839]]},"properties":{"site":"baiae","name":"","highway":"service"}},{"type":"Feature","geometry":{"type":"LineString","coordinates":[[14.0780216,40.8130408],[14.0780616,40.813061],[14.0780812,40.8130598]]},"properties":{"site":"baiae","name":"","highway":"footway"}},{"type":"Feature","geometry":{"type":"LineString","coordinates":[[14.0780812,40.8130598],[14.0781639,40.8130458]]},"properties":{"site":"baiae","name":"","highway":"steps"}},{"type":"Feature","geometry":{"type":"LineString","coordinates":[[14.0780506,40.8130295],[14.0780163,40.8129798]]},"properties":{"site":"baiae","name":"","highway":"footway"}},{"type":"Feature","geometry":{"type":"LineString","coordinates":[[14.0630153,40.8192906],[14.0631097,40.8197592]]},"properties":{"site":"baiae","name":"","highway":"service"}},{"type":"Feature","geometry":{"type":"LineString","coordinates":[[14.0646052,40.8191588],[14.0646204,40.8192489],[14.064616,40.8193766],[14.0644568,40.8193915],[14.0640998,40.8194248],[14.0641382,40.8196314],[14.0642935,40.8196155],[14.0642779,40.8194933],[14.0644097,40.8194779],[14.0644568,40.8193915]]},"properties":{"site":"baiae","name":"","highway":"service"}},{"type":"Feature","geometry":{"type":"LineString","coordinates":[[14.0642935,40.8196155],[14.0643198,40.819811]]},"properties":{"site":"baiae","name":"","highway":"service"}},{"type":"Feature","geometry":{"type":"LineString","coordinates":[[14.0788052,40.8271997],[14.0788205,40.8271823],[14.0788891,40.8271047]]},"properties":{"site":"baiae","name":"","highway":"footway"}},{"type":"Feature","geometry":{"type":"LineString","coordinates":[[14.0786531,40.8271227],[14.0788052,40.8271997]]},"properties":{"site":"baiae","name":"","highway":"steps"}},{"type":"Feature","geometry":{"type":"LineString","coordinates":[[14.0786373,40.8271407],[14.0786531,40.8271227]]},"properties":{"site":"baiae","name":"","highway":"footway"}},{"type":"Feature","geometry":{"type":"LineString","coordinates":[[14.0788891,40.8271047],[14.0788113,40.8270653],[14.0788441,40.8270283]]},"properties":{"site":"baiae","name":"","highway":"steps"}},{"type":"Feature","geometry":{"type":"LineString","coordinates":[[14.071186,40.8182996],[14.0712799,40.8182981]]},"properties":{"site":"baiae","name":"via Sella di Baia","highway":"steps"}},{"type":"Feature","geometry":{"type":"LineString","coordinates":[[14.0711568,40.8183003],[14.071186,40.8182996]]},"properties":{"site":"baiae","name":"via Sella di Baia","highway":"steps"}},{"type":"Feature","geometry":{"type":"LineString","coordinates":[[14.0710755,40.8182857],[14.0711191,40.818289],[14.0711568,40.8183003]]},"properties":{"site":"baiae","name":"via Sella di Baia","highway":"footway"}},{"type":"Feature","geometry":{"type":"LineString","coordinates":[[14.0707217,40.8183134],[14.0710755,40.8182857]]},"properties":{"site":"baiae","name":"via Sella di Baia","highway":"steps"}},{"type":"Feature","geometry":{"type":"LineString","coordinates":[[14.0705563,40.8182376],[14.0706782,40.8183045]]},"properties":{"site":"baiae","name":"Rampe Giulio Travaglio","highway":"steps"}},{"type":"Feature","geometry":{"type":"LineString","coordinates":[[14.0706782,40.8183045],[14.0706963,40.8183144],[14.0707217,40.8183134]]},"properties":{"site":"baiae","name":"via Sella di Baia","highway":"footway"}},{"type":"Feature","geometry":{"type":"LineString","coordinates":[[14.070438,40.8183036],[14.0705384,40.8182476]]},"properties":{"site":"baiae","name":"Via Sella di Baia","highway":"steps"}},{"type":"Feature","geometry":{"type":"LineString","coordinates":[[14.0705384,40.8182476],[14.0705563,40.8182376]]},"properties":{"site":"baiae","name":"Via Sella di Baia","highway":"steps"}},{"type":"Feature","geometry":{"type":"LineString","coordinates":[[14.0708219,40.8185762],[14.0708567,40.8185523]]},"properties":{"site":"baiae","name":"","highway":"steps"}},{"type":"Feature","geometry":{"type":"LineString","coordinates":[[14.0708113,40.8186615],[14.0708219,40.8185762]]},"properties":{"site":"baiae","name":"","highway":"footway"}},{"type":"Feature","geometry":{"type":"LineString","coordinates":[[14.0708567,40.8185523],[14.0709167,40.8184903]]},"properties":{"site":"baiae","name":"","highway":"footway"}},{"type":"Feature","geometry":{"type":"LineString","coordinates":[[14.0709167,40.8184903],[14.0709643,40.8184563]]},"properties":{"site":"baiae","name":"","highway":"footway"}},{"type":"Feature","geometry":{"type":"LineString","coordinates":[[14.0709643,40.8184563],[14.0711294,40.8183379],[14.0711568,40.8183003]]},"properties":{"site":"baiae","name":"","highway":"footway"}},{"type":"Feature","geometry":{"type":"LineString","coordinates":[[14.0784927,40.827218],[14.0785268,40.8271802],[14.0785582,40.8271454]]},"properties":{"site":"baiae","name":"","highway":"service"}},{"type":"Feature","geometry":{"type":"LineString","coordinates":[[14.0784927,40.827218],[14.0782057,40.827079],[14.0782062,40.8269956],[14.0782301,40.8269653]]},"properties":{"site":"baiae","name":"","highway":"service"}},{"type":"Feature","geometry":{"type":"LineString","coordinates":[[14.0836184,40.8296894],[14.0836495,40.8296469],[14.083679,40.8296033]]},"properties":{"site":"baiae","name":"","highway":"footway"}},{"type":"Feature","geometry":{"type":"LineString","coordinates":[[14.0806576,40.8279882],[14.080621,40.8279258]]},"properties":{"site":"baiae","name":"","highway":"footway"}},{"type":"Feature","geometry":{"type":"LineString","coordinates":[[14.0807581,40.8280438],[14.0806576,40.8279882]]},"properties":{"site":"baiae","name":"","highway":"steps"}},{"type":"Feature","geometry":{"type":"LineString","coordinates":[[14.0806599,40.828144],[14.0807581,40.8280438]]},"properties":{"site":"baiae","name":"","highway":"footway"}},{"type":"Feature","geometry":{"type":"LineString","coordinates":[[14.0805432,40.8280807],[14.0806599,40.828144]]},"properties":{"site":"baiae","name":"","highway":"steps"}},{"type":"Feature","geometry":{"type":"LineString","coordinates":[[14.0805298,40.8280486],[14.0805432,40.8280807]]},"properties":{"site":"baiae","name":"","highway":"footway"}},{"type":"Feature","geometry":{"type":"LineString","coordinates":[[14.0785527,40.8271947],[14.0786408,40.8272412],[14.0786928,40.8272802],[14.0787165,40.8273312],[14.0787018,40.8273717]]},"properties":{"site":"baiae","name":"","highway":"footway"}},{"type":"Feature","geometry":{"type":"LineString","coordinates":[[14.0787623,40.8273998],[14.0788039,40.8273835],[14.0788554,40.8273709],[14.0789187,40.8273784]]},"properties":{"site":"baiae","name":"","highway":"footway"}},{"type":"Feature","geometry":{"type":"LineString","coordinates":[[14.060711,40.8183903],[14.0607261,40.8183466]]},"properties":{"site":"baiae","name":"","highway":"footway"}},{"type":"Feature","geometry":{"type":"LineString","coordinates":[[14.0631906,40.8176018],[14.0632197,40.8175004]]},"properties":{"site":"baiae","name":"","highway":"service"}},{"type":"Feature","geometry":{"type":"LineString","coordinates":[[14.0782045,40.8279038],[14.0781984,40.8278646]]},"properties":{"site":"baiae","name":"","highway":"service"}},{"type":"Feature","geometry":{"type":"LineString","coordinates":[[14.0784927,40.827218],[14.0786,40.8272881],[14.0786308,40.8273276],[14.0786295,40.8274139],[14.0786335,40.8274951]]},"properties":{"site":"baiae","name":"","highway":"service"}},{"type":"Feature","geometry":{"type":"LineString","coordinates":[[14.0781603,40.8279864],[14.0785934,40.8280899]]},"properties":{"site":"baiae","name":"","highway":"service"}},{"type":"Feature","geometry":{"type":"LineString","coordinates":[[14.0780784,40.8279553],[14.0781603,40.8279864]]},"properties":{"site":"baiae","name":"","highway":"service"}},{"type":"Feature","geometry":{"type":"LineString","coordinates":[[14.0786244,40.8275064],[14.0786898,40.8275298]]},"properties":{"site":"baiae","name":"","highway":"service"}},{"type":"Feature","geometry":{"type":"LineString","coordinates":[[14.0715093,40.8211092],[14.071553,40.8211392]]},"properties":{"site":"baiae","name":"","highway":"steps"}},{"type":"Feature","geometry":{"type":"LineString","coordinates":[[14.0715988,40.8209538],[14.0716496,40.8210177]]},"properties":{"site":"baiae","name":"","highway":"steps"}},{"type":"Feature","geometry":{"type":"LineString","coordinates":[[14.083679,40.8296033],[14.0839049,40.8297351],[14.0843339,40.829904],[14.0844028,40.8299074],[14.0844106,40.8299154]]},"properties":{"site":"baiae","name":"","highway":"footway"}},{"type":"Feature","geometry":{"type":"LineString","coordinates":[[14.0844106,40.8299154],[14.08442,40.8299262],[14.0844398,40.8299449]]},"properties":{"site":"baiae","name":"","highway":"footway"}},{"type":"Feature","geometry":{"type":"LineString","coordinates":[[14.0844398,40.8299449],[14.0845009,40.8299783],[14.0849406,40.8301272]]},"properties":{"site":"baiae","name":"","highway":"footway"}},{"type":"Feature","geometry":{"type":"LineString","coordinates":[[14.0838569,40.8292074],[14.0836947,40.829155]]},"properties":{"site":"baiae","name":"","highway":"footway"}},{"type":"Feature","geometry":{"type":"LineString","coordinates":[[14.0831107,40.8287685],[14.0830383,40.8287358],[14.0825615,40.8285125],[14.082282,40.8283817],[14.0820368,40.8282669],[14.0816487,40.8280851],[14.0816987,40.8280213],[14.0807886,40.8275952],[14.080759,40.8276374],[14.0802735,40.8273798],[14.0800952,40.8275921],[14.080599,40.8278404],[14.080759,40.8276374]]},"properties":{"site":"baiae","name":"","highway":"footway"}},{"type":"Feature","geometry":{"type":"LineString","coordinates":[[14.0816487,40.8280851],[14.0815196,40.8282411],[14.0814764,40.8282933]]},"properties":{"site":"baiae","name":"","highway":"footway"}},{"type":"Feature","geometry":{"type":"LineString","coordinates":[[14.0815196,40.8282411],[14.0819134,40.8284182],[14.0821605,40.8285294],[14.0824502,40.8286597],[14.0825615,40.8285125]]},"properties":{"site":"baiae","name":"","highway":"footway"}},{"type":"Feature","geometry":{"type":"LineString","coordinates":[[14.0819134,40.8284182],[14.0820368,40.8282669]]},"properties":{"site":"baiae","name":"","highway":"footway"}},{"type":"Feature","geometry":{"type":"LineString","coordinates":[[14.0821605,40.8285294],[14.082282,40.8283817]]},"properties":{"site":"baiae","name":"","highway":"footway"}},{"type":"Feature","geometry":{"type":"LineString","coordinates":[[14.0830383,40.8287358],[14.0831691,40.8284401]]},"properties":{"site":"baiae","name":"","highway":"footway"}},{"type":"Feature","geometry":{"type":"LineString","coordinates":[[14.0836947,40.829155],[14.0835471,40.8290993],[14.0835225,40.8290758],[14.0835491,40.8290004],[14.0835282,40.828971],[14.0831922,40.8288091],[14.0831624,40.8287947]]},"properties":{"site":"baiae","name":"","highway":"footway"}},{"type":"Feature","geometry":{"type":"LineString","coordinates":[[14.0831624,40.8287947],[14.0831107,40.8287685]]},"properties":{"site":"baiae","name":"","highway":"footway"}},{"type":"Feature","geometry":{"type":"LineString","coordinates":[[14.0831922,40.8288091],[14.0831824,40.8290263],[14.0834793,40.8291181],[14.0835225,40.8290758]]},"properties":{"site":"baiae","name":"","highway":"footway"}}]}