{"type":"FeatureCollection","features":[{"type":"Feature","geometry":{"type":"LineString","coordinates":[[14.2657698,41.0834831],[14.2657485,41.0834369],[14.2657343,41.0833801],[14.2657308,41.0833197],[14.2657361,41.0832628],[14.2657467,41.0832059],[14.2658036,41.083158],[14.2658942,41.0831171],[14.265983,41.0830833],[14.2660754,41.083094],[14.2661785,41.0831295],[14.2662691,41.0831811],[14.2663064,41.0832326],[14.2663135,41.0832983],[14.2663064,41.0833623],[14.2662869,41.0834245],[14.2662265,41.0835204],[14.2661643,41.0835648],[14.2660577,41.0835791],[14.2659457,41.0835773],[14.2658587,41.083556],[14.2658305,41.0835426],[14.2657912,41.083524],[14.2657698,41.0834831]]},"properties":{"site":"capua","name":"","highway":"service"}},{"type":"Feature","geometry":{"type":"LineString","coordinates":[[14.2658878,41.0819512],[14.2658932,41.0821819],[14.2663587,41.0821748],[14.2667886,41.082157],[14.2669699,41.082157],[14.267112,41.0821641],[14.2672541,41.0822103],[14.2673465,41.0822921],[14.2674211,41.0824307],[14.267446,41.0825444],[14.2674034,41.0826829],[14.2673394,41.0827931],[14.2672008,41.0828677],[14.267048,41.0829175],[14.2668455,41.0829281],[14.2656007,41.0829796],[14.2649551,41.0830063],[14.2648236,41.0829992],[14.2647205,41.0829743],[14.264621,41.0829104],[14.2645464,41.0828429],[14.2644753,41.0827362],[14.2644647,41.0825906],[14.264518,41.0824093],[14.264621,41.0823418],[14.2648094,41.0822707],[14.2650119,41.0822388],[14.2652287,41.0822246],[14.2658932,41.0821819]]},"properties":{"site":"capua","name":"","highway":"service"}},{"type":"Feature","geometry":{"type":"LineString","coordinates":[[14.2656007,41.0829796],[14.2656579,41.0830354],[14.2657041,41.0831153],[14.2657467,41.0832059]]},"properties":{"site":"capua","name":"","highway":"service"}},{"type":"Feature","geometry":{"type":"LineString","coordinates":[[14.2658305,41.0835426],[14.2658503,41.0836286],[14.265849,41.0836591],[14.2658501,41.0837492]]},"properties":{"site":"capua","name":"","highway":"service"}},{"type":"Feature","geometry":{"type":"LineString","coordinates":[[14.267048,41.0829175],[14.2670167,41.0830062],[14.2662776,41.0830453],[14.2661426,41.0830631],[14.265983,41.0830833]]},"properties":{"site":"capua","name":"","highway":"service"}},{"type":"Feature","geometry":{"type":"LineString","coordinates":[[14.2675952,41.089336],[14.2675523,41.0893372],[14.2675434,41.0893375],[14.2666718,41.0893622]]},"properties":{"site":"capua","name":"Via Aristotele","highway":"footway"}},{"type":"Feature","geometry":{"type":"LineString","coordinates":[[14.2592025,41.0796034],[14.2597385,41.079612],[14.2601347,41.0796057]]},"properties":{"site":"capua","name":"","highway":"service"}},{"type":"Feature","geometry":{"type":"LineString","coordinates":[[14.2654158,41.0941761],[14.2674,41.0941416],[14.2675072,41.0941264],[14.2681296,41.0939684],[14.2693655,41.0936546],[14.2703331,41.0935208],[14.2707718,41.0934224],[14.2711468,41.0932811],[14.2713175,41.0931751],[14.2715184,41.0929278],[14.2715275,41.0929042],[14.2715854,41.0927537],[14.2715653,41.0922768],[14.271495,41.0920724],[14.2714448,41.0919992],[14.2714548,41.0918226],[14.2715385,41.0912195],[14.2717212,41.0903522],[14.2718064,41.0899476],[14.2718639,41.089573]]},"properties":{"site":"capua","name":"","highway":"track"}},{"type":"Feature","geometry":{"type":"LineString","coordinates":[[14.2516293,41.0788189],[14.2491667,41.0788145]]},"properties":{"site":"capua","name":"Rampetta de Michele","highway":"service"}},{"type":"Feature","geometry":{"type":"LineString","coordinates":[[14.2675952,41.089336],[14.2676551,41.0893343],[14.2683236,41.089315],[14.2694505,41.0892826],[14.2695917,41.0892785],[14.270488,41.0892133]]},"properties":{"site":"capua","name":"","highway":"footway"}},{"type":"Feature","geometry":{"type":"LineString","coordinates":[[14.2706635,41.0897062],[14.2706576,41.0896758],[14.2706015,41.0893877],[14.270579,41.089278]]},"properties":{"site":"capua","name":"","highway":"footway"}},{"type":"Feature","geometry":{"type":"LineString","coordinates":[[14.2532617,41.0928504],[14.2519005,41.0928034],[14.2519092,41.0926484],[14.251945,41.0920084],[14.2519656,41.09164],[14.2520152,41.0915966],[14.2521154,41.0915639],[14.2522066,41.0903416],[14.2523319,41.0903443],[14.2531602,41.0903622],[14.2534909,41.0903693]]},"properties":{"site":"capua","name":"Area Commerciale Galatina","highway":"service"}},{"type":"Feature","geometry":{"type":"LineString","coordinates":[[14.2532786,41.0915596],[14.2532874,41.091581],[14.2532874,41.0916034],[14.2532786,41.0916248],[14.2532618,41.0916433],[14.2532386,41.0916573],[14.2532061,41.0916662],[14.2531714,41.0916662],[14.2531389,41.0916573],[14.2531124,41.0916405],[14.2530951,41.0916179],[14.253089,41.0915922],[14.2530951,41.0915665],[14.2531124,41.0915439],[14.2531389,41.0915271],[14.2531714,41.0915182],[14.2532061,41.0915182],[14.2532386,41.0915271],[14.2532618,41.0915411],[14.2532786,41.0915596]]},"properties":{"site":"capua","name":"Area Commerciale Galatina","highway":"service"}},{"type":"Feature","geometry":{"type":"LineString","coordinates":[[14.2521154,41.0915639],[14.2522766,41.0915686],[14.252876,41.091586],[14.253089,41.0915922]]},"properties":{"site":"capua","name":"Area Commerciale Galatina","highway":"service"}},{"type":"Feature","geometry":{"type":"LineString","coordinates":[[14.2533758,41.0917136],[14.2532386,41.0916573]]},"properties":{"site":"capua","name":"Area Commerciale Galatina","highway":"service"}},{"type":"Feature","geometry":{"type":"LineString","coordinates":[[14.2532386,41.0915271],[14.2533953,41.0914829]]},"properties":{"site":"capua","name":"Area Commerciale Galatina","highway":"service"}},{"type":"Feature","geometry":{"type":"LineString","coordinates":[[14.2711293,41.0841164],[14.2713552,41.0829896]]},"properties":{"site":"capua","name":"Via Ludovico di Monaco","highway":"service"}},{"type":"Feature","geometry":{"type":"LineString","coordinates":[[14.2710044,41.0856289],[14.2709633,41.0866021]]},"properties":{"site":"capua","name":"","highway":"service"}},{"type":"Feature","geometry":{"type":"LineString","coordinates":[[14.2470448,41.087415],[14.2474177,41.0873447],[14.2475218,41.0872304],[14.2477671,41.0873489],[14.2479441,41.0874345],[14.2481194,41.0875192],[14.2482994,41.0876062],[14.2478264,41.0876324],[14.2473534,41.0874435],[14.2474177,41.0873447]]},"properties":{"site":"capua","name":"Parcheggio del Parco Adriano","highway":"service"}},{"type":"Feature","geometry":{"type":"LineString","coordinates":[[14.2479441,41.0874345],[14.2481633,41.0871752]]},"properties":{"site":"capua","name":"","highway":"service"}},{"type":"Feature","geometry":{"type":"LineString","coordinates":[[14.2477671,41.0873489],[14.2479838,41.0870888]]},"properties":{"site":"capua","name":"","highway":"service"}},{"type":"Feature","geometry":{"type":"LineString","coordinates":[[14.2481194,41.0875192],[14.2483369,41.0872587]]},"properties":{"site":"capua","name":"","highway":"service"}},{"type":"Feature","geometry":{"type":"LineString","coordinates":[[14.2475218,41.0872304],[14.2476839,41.0870506],[14.2477506,41.0869766],[14.2479838,41.0870888],[14.2481633,41.0871752],[14.2483369,41.0872587],[14.2485115,41.0873427],[14.2482994,41.0876062]]},"properties":{"site":"capua","name":"Parcheggio del Parco Adriano","highway":"service"}},{"type":"Feature","geometry":{"type":"LineString","coordinates":[[14.2541565,41.0805821],[14.2536928,41.080587],[14.2534772,41.0805895]]},"properties":{"site":"capua","name":"","highway":"service"}},{"type":"Feature","geometry":{"type":"LineString","coordinates":[[14.249814,41.0737812],[14.2493015,41.0742908],[14.2491734,41.0744073],[14.2490895,41.0745006],[14.2490365,41.0745672],[14.2490099,41.0745872],[14.2489662,41.0746039]]},"properties":{"site":"capua","name":"","highway":"track"}},{"type":"Feature","geometry":{"type":"LineString","coordinates":[[14.2675122,41.0900921],[14.267481,41.0900871],[14.2674606,41.0900838],[14.2670953,41.0900817],[14.266575,41.0900787],[14.2659686,41.0900753],[14.2656966,41.0900737],[14.2656631,41.0900395],[14.2656541,41.0900303],[14.2655966,41.0899715]]},"properties":{"site":"capua","name":"","highway":"footway"}},{"type":"Feature","geometry":{"type":"LineString","coordinates":[[14.272885,41.0893057],[14.2732988,41.0893017],[14.2736424,41.0893014],[14.2735876,41.0891294],[14.2735546,41.0889609],[14.2733512,41.0889765],[14.2732102,41.0889887],[14.2730862,41.0891322],[14.2729924,41.0892216],[14.272885,41.0893057]]},"properties":{"site":"capua","name":"","highway":"footway"}},{"type":"Feature","geometry":{"type":"LineString","coordinates":[[14.2732988,41.0893017],[14.273328,41.0891301],[14.2733512,41.0889765]]},"properties":{"site":"capua","name":"","highway":"footway"}},{"type":"Feature","geometry":{"type":"LineString","coordinates":[[14.2730862,41.0891322],[14.273328,41.0891301],[14.2735876,41.0891294]]},"properties":{"site":"capua","name":"","highway":"footway"}},{"type":"Feature","geometry":{"type":"LineString","coordinates":[[14.2521154,41.0915639],[14.2513171,41.0915409],[14.2513201,41.091481],[14.251375,41.0903934],[14.2513787,41.0903195],[14.2522066,41.0903416]]},"properties":{"site":"capua","name":"Area Commerciale Galatina","highway":"service"}},{"type":"Feature","geometry":{"type":"LineString","coordinates":[[14.26741,41.0901308],[14.2656384,41.0901419],[14.2656289,41.0901308],[14.2656663,41.0900765],[14.2655934,41.0900479],[14.2656223,41.0900398],[14.2656631,41.0900395],[14.2659715,41.0900373],[14.2664833,41.0900337],[14.2665761,41.090035],[14.2666309,41.0900358],[14.2670921,41.0899712],[14.2673651,41.0899353],[14.2674212,41.0899458],[14.2674599,41.0899732],[14.267477,41.0900024],[14.2674829,41.0900365],[14.2674677,41.0900772],[14.2674606,41.0900838],[14.26741,41.0901308]]},"properties":{"site":"capua","name":"","highway":"pedestrian"}},{"type":"Feature","geometry":{"type":"LineString","coordinates":[[14.2682739,41.0897886],[14.2682714,41.089755],[14.2682509,41.0894819],[14.2682388,41.0894525],[14.2681825,41.0894394],[14.2676587,41.0894449],[14.2675993,41.0894455]]},"properties":{"site":"capua","name":"","highway":"service"}},{"type":"Feature","geometry":{"type":"LineString","coordinates":[[14.2563776,41.0800496],[14.2565353,41.0800441],[14.2565691,41.0800391],[14.2566089,41.0800257],[14.2566435,41.0800069],[14.2566626,41.0799805],[14.2566723,41.0799444],[14.2566693,41.0798998],[14.2566632,41.0798607],[14.2566524,41.0798297],[14.256624,41.0797961],[14.2565874,41.0797795],[14.2565456,41.0797723],[14.256353,41.079778],[14.2563776,41.0800496]]},"properties":{"site":"capua","name":"Piazza Giovanni Bovio","highway":"pedestrian"}},{"type":"Feature","geometry":{"type":"LineString","coordinates":[[14.2562107,41.0757793],[14.2562561,41.0755479],[14.2562653,41.075489],[14.2568875,41.0755597],[14.2568147,41.0758507],[14.2562107,41.0757793]]},"properties":{"site":"capua","name":"Piazzale Vincenzo Simonelli","highway":"pedestrian"}},{"type":"Feature","geometry":{"type":"LineString","coordinates":[[14.2626038,41.0781083],[14.2626013,41.0781572],[14.2625986,41.0782087],[14.2625865,41.078408]]},"properties":{"site":"capua","name":"","highway":"service"}},{"type":"Feature","geometry":{"type":"LineString","coordinates":[[14.2580542,41.0779902],[14.2579381,41.0780055],[14.257319,41.0780041],[14.2571455,41.0779933]]},"properties":{"site":"capua","name":"Accesso al Tribunale di Santa Maria Capua Vetere Sede Penale","highway":"service"}},{"type":"Feature","geometry":{"type":"LineString","coordinates":[[14.2555588,41.0788259],[14.2555596,41.0788423],[14.2555678,41.0789968],[14.2555705,41.0790547],[14.2555751,41.0791651]]},"properties":{"site":"capua","name":"","highway":"service"}},{"type":"Feature","geometry":{"type":"LineString","coordinates":[[14.2552449,41.0782281],[14.2551203,41.0781175],[14.2549642,41.0778703]]},"properties":{"site":"capua","name":"","highway":"pedestrian"}},{"type":"Feature","geometry":{"type":"LineString","coordinates":[[14.2542863,41.0816183],[14.2547916,41.0815863]]},"properties":{"site":"capua","name":"","highway":"service"}},{"type":"Feature","geometry":{"type":"LineString","coordinates":[[14.253337,41.0805922],[14.2532507,41.0806067],[14.2527316,41.0805895]]},"properties":{"site":"capua","name":"","highway":"service"}},{"type":"Feature","geometry":{"type":"LineString","coordinates":[[14.2534772,41.0805895],[14.253337,41.0805922]]},"properties":{"site":"capua","name":"","highway":"service"}},{"type":"Feature","geometry":{"type":"LineString","coordinates":[[14.2520543,41.0868899],[14.251806,41.0869821],[14.2517118,41.0870143],[14.2514176,41.08708],[14.2510124,41.0871312],[14.2507542,41.0871174],[14.2500544,41.0871417],[14.2499248,41.0871574],[14.2497944,41.0871857],[14.2494146,41.0873061],[14.2491538,41.0873994],[14.2486764,41.0875814]]},"properties":{"site":"capua","name":"Via Antonino Pio","highway":"footway"}},{"type":"Feature","geometry":{"type":"LineString","coordinates":[[14.2721511,41.0806166],[14.2719931,41.0803908],[14.2717703,41.0800724],[14.2715532,41.0800914],[14.2712148,41.0801153],[14.2703814,41.0801942],[14.2701489,41.0802281],[14.2699276,41.0803032]]},"properties":{"site":"capua","name":"Centro Commerciale Le Corti","highway":"service"}},{"type":"Feature","geometry":{"type":"LineString","coordinates":[[14.2565227,41.0839052],[14.2565214,41.0839455],[14.2565201,41.0839852]]},"properties":{"site":"capua","name":"","highway":"footway"}},{"type":"Feature","geometry":{"type":"LineString","coordinates":[[14.2568024,41.083898],[14.2568019,41.0839409],[14.2568015,41.0839772]]},"properties":{"site":"capua","name":"","highway":"footway"}},{"type":"Feature","geometry":{"type":"LineString","coordinates":[[14.2565201,41.0839852],[14.2565818,41.084029],[14.2566754,41.0840955],[14.256753,41.0840227],[14.2568015,41.0839772]]},"properties":{"site":"capua","name":"","highway":"path"}},{"type":"Feature","geometry":{"type":"LineString","coordinates":[[14.2566754,41.0840955],[14.2566764,41.0841096],[14.2567104,41.0845965]]},"properties":{"site":"capua","name":"","highway":"path"}},{"type":"Feature","geometry":{"type":"LineString","coordinates":[[14.2568407,41.0859582],[14.2568416,41.0860349],[14.256842,41.0860733]]},"properties":{"site":"capua","name":"","highway":"footway"}},{"type":"Feature","geometry":{"type":"LineString","coordinates":[[14.2568407,41.0859582],[14.2568149,41.0856183],[14.2567937,41.0853395]]},"properties":{"site":"capua","name":"","highway":"path"}},{"type":"Feature","geometry":{"type":"LineString","coordinates":[[14.2574264,41.0848045],[14.257368,41.0848067],[14.2572938,41.0848099]]},"properties":{"site":"capua","name":"","highway":"footway"}},{"type":"Feature","geometry":{"type":"LineString","coordinates":[[14.2572938,41.0848099],[14.2572723,41.0848056],[14.2571977,41.0848089],[14.2571269,41.084812]]},"properties":{"site":"capua","name":"","highway":"path"}},{"type":"Feature","geometry":{"type":"LineString","coordinates":[[14.2561973,41.0848481],[14.2562332,41.0848361],[14.2562729,41.0848349],[14.2563866,41.0848315]]},"properties":{"site":"capua","name":"","highway":"path"}},{"type":"Feature","geometry":{"type":"LineString","coordinates":[[14.2568149,41.0856183],[14.256936,41.08561],[14.2570413,41.0855863],[14.2571337,41.0855543],[14.2571928,41.0855028],[14.257239,41.0854373],[14.2572446,41.0853412],[14.2572265,41.0851363],[14.2571977,41.0848089],[14.2571559,41.0843344],[14.257106,41.084262],[14.2570081,41.0841882],[14.2568224,41.0840654],[14.2568136,41.0840595],[14.256753,41.0840227]]},"properties":{"site":"capua","name":"","highway":"path"}},{"type":"Feature","geometry":{"type":"LineString","coordinates":[[14.2565818,41.084029],[14.2565296,41.0840684],[14.2565192,41.0840786],[14.2562746,41.0843177],[14.2562469,41.0843846],[14.2562729,41.0848349],[14.2562971,41.0851908],[14.2563116,41.0854025],[14.2563688,41.0855139],[14.256476,41.0855835],[14.2565739,41.0856114],[14.2566903,41.0856197],[14.2568149,41.0856183]]},"properties":{"site":"capua","name":"","highway":"path"}},{"type":"Feature","geometry":{"type":"LineString","coordinates":[[14.2572265,41.0851363],[14.257058,41.0851379]]},"properties":{"site":"capua","name":"","highway":"path"}},{"type":"Feature","geometry":{"type":"LineString","coordinates":[[14.2562971,41.0851908],[14.2564612,41.0851783]]},"properties":{"site":"capua","name":"","highway":"path"}},{"type":"Feature","geometry":{"type":"LineString","coordinates":[[14.2566764,41.0841096],[14.2566223,41.0841127],[14.2565682,41.0841045],[14.2565192,41.0840786]]},"properties":{"site":"capua","name":"","highway":"path"}},{"type":"Feature","geometry":{"type":"LineString","coordinates":[[14.2566764,41.0841096],[14.2567439,41.0841045],[14.256787,41.0840906],[14.2568224,41.0840654]]},"properties":{"site":"capua","name":"","highway":"path"}},{"type":"Feature","geometry":{"type":"LineString","coordinates":[[14.2535905,41.0920862],[14.2535813,41.09171],[14.253581,41.0916983],[14.2536117,41.0913761]]},"properties":{"site":"capua","name":"FIGORENT PARKING","highway":"service"}},{"type":"Feature","geometry":{"type":"LineString","coordinates":[[14.272236,41.0840522],[14.2722213,41.0841036]]},"properties":{"site":"capua","name":"","highway":"steps"}},{"type":"Feature","geometry":{"type":"LineString","coordinates":[[14.2737382,41.0875359],[14.2724853,41.0875466]]},"properties":{"site":"capua","name":"Via dei Tulipani","highway":"service"}},{"type":"Feature","geometry":{"type":"LineString","coordinates":[[14.2737105,41.0869422],[14.2727072,41.0869434]]},"properties":{"site":"capua","name":"Via dei Gerani","highway":"service"}},{"type":"Feature","geometry":{"type":"LineString","coordinates":[[14.2736389,41.0867055],[14.272587,41.0867112]]},"properties":{"site":"capua","name":"Via delle Mimose","highway":"service"}},{"type":"Feature","geometry":{"type":"LineString","coordinates":[[14.2735748,41.086584],[14.2728489,41.0865834]]},"properties":{"site":"capua","name":"Via delle Primule","highway":"service"}},{"type":"Feature","geometry":{"type":"LineString","coordinates":[[14.2486764,41.0875814],[14.2486601,41.0873597],[14.2486567,41.0873142],[14.2486594,41.0872617],[14.2486788,41.0871355],[14.2487853,41.0864956],[14.2488062,41.0863332],[14.2488001,41.0862937],[14.2487568,41.086256],[14.2482741,41.0860219]]},"properties":{"site":"capua","name":"Via Spartaco","highway":"footway"}},{"type":"Feature","geometry":{"type":"LineString","coordinates":[[14.2734938,41.0918532],[14.2734936,41.0919652],[14.2725301,41.0919639],[14.2725303,41.0918531]]},"properties":{"site":"capua","name":"Via del Sole","highway":"service"}},{"type":"Feature","geometry":{"type":"LineString","coordinates":[[14.2665775,41.0899789],[14.2665764,41.0900237],[14.2665761,41.090035],[14.266575,41.0900787]]},"properties":{"site":"capua","name":"","highway":"footway"}},{"type":"Feature","geometry":{"type":"LineString","coordinates":[[14.2670953,41.0900817],[14.2670921,41.0899712]]},"properties":{"site":"capua","name":"","highway":"footway"}},{"type":"Feature","geometry":{"type":"LineString","coordinates":[[14.2659686,41.0900753],[14.2659715,41.0900373],[14.2659722,41.0900284],[14.2659765,41.0899735]]},"properties":{"site":"capua","name":"","highway":"footway"}},{"type":"Feature","geometry":{"type":"LineString","coordinates":[[14.2476839,41.0870506],[14.2475373,41.0868546]]},"properties":{"site":"capua","name":"Parcheggio del Parco Adriano","highway":"service"}},{"type":"Feature","geometry":{"type":"LineString","coordinates":[[14.2712934,41.0891424],[14.2713152,41.0892916],[14.2713591,41.0896087],[14.2713626,41.0896337]]},"properties":{"site":"capua","name":"","highway":"footway"}},{"type":"Feature","geometry":{"type":"LineString","coordinates":[[14.2713152,41.0892916],[14.2711618,41.0892982],[14.2711618,41.0893334],[14.2710638,41.0893368]]},"properties":{"site":"capua","name":"","highway":"footway"}},{"type":"Feature","geometry":{"type":"LineString","coordinates":[[14.2709395,41.0891738],[14.2709555,41.0892699]]},"properties":{"site":"capua","name":"","highway":"footway"}},{"type":"Feature","geometry":{"type":"LineString","coordinates":[[14.271317,41.0794115],[14.2713231,41.0793328]]},"properties":{"site":"capua","name":"Via Pola","highway":"service"}},{"type":"Feature","geometry":{"type":"LineString","coordinates":[[14.2667833,41.0814148],[14.2669772,41.0814061],[14.266997,41.0817218]]},"properties":{"site":"capua","name":"","highway":"service"}},{"type":"Feature","geometry":{"type":"LineString","coordinates":[[14.266467,41.0817427],[14.2664554,41.0814283],[14.2666215,41.0814228]]},"properties":{"site":"capua","name":"","highway":"service"}},{"type":"Feature","geometry":{"type":"LineString","coordinates":[[14.2666215,41.0814228],[14.2667833,41.0814148]]},"properties":{"site":"capua","name":"","highway":"service"}},{"type":"Feature","geometry":{"type":"LineString","coordinates":[[14.2475074,41.0914857],[14.2476141,41.0916252],[14.2477323,41.0917616],[14.2478526,41.0919003],[14.2478892,41.0919424]]},"properties":{"site":"capua","name":"","highway":"service"}},{"type":"Feature","geometry":{"type":"LineString","coordinates":[[14.2476141,41.0916252],[14.2479259,41.0914809],[14.2479567,41.0914699],[14.2479852,41.0914658],[14.2480091,41.0914739],[14.2480184,41.0914861],[14.2480428,41.0916182],[14.24807,41.0917653],[14.2480677,41.0917816],[14.2480584,41.0917967],[14.2480368,41.0918129],[14.2478526,41.0919003]]},"properties":{"site":"capua","name":"","highway":"service"}},{"type":"Feature","geometry":{"type":"LineString","coordinates":[[14.2477323,41.0917616],[14.2480428,41.0916182]]},"properties":{"site":"capua","name":"","highway":"service"}},{"type":"Feature","geometry":{"type":"LineString","coordinates":[[14.2693734,41.0763454],[14.2693811,41.0770717]]},"properties":{"site":"capua","name":"","highway":"service"}},{"type":"Feature","geometry":{"type":"LineString","coordinates":[[14.25397,41.0917032],[14.2549706,41.0916856],[14.2549768,41.0919936]]},"properties":{"site":"capua","name":"Parcheggio Coperto Conad","highway":"service"}},{"type":"Feature","geometry":{"type":"LineString","coordinates":[[14.2533758,41.0917136],[14.2535813,41.09171]]},"properties":{"site":"capua","name":"Parcheggio Coperto Conad","highway":"service"}},{"type":"Feature","geometry":{"type":"LineString","coordinates":[[14.2549768,41.0919936],[14.2549783,41.0920681]]},"properties":{"site":"capua","name":"Parcheggio Coperto Conad","highway":"service"}},{"type":"Feature","geometry":{"type":"LineString","coordinates":[[14.2537209,41.0917075],[14.25397,41.0917032]]},"properties":{"site":"capua","name":"Parcheggio Coperto Conad","highway":"service"}},{"type":"Feature","geometry":{"type":"LineString","coordinates":[[14.2544343,41.0919536],[14.2544343,41.0917276]]},"properties":{"site":"capua","name":"","highway":"service"}},{"type":"Feature","geometry":{"type":"LineString","coordinates":[[14.2544343,41.0919536],[14.2543121,41.0919544],[14.2543093,41.0917285],[14.2544343,41.0917276]]},"properties":{"site":"capua","name":"","highway":"service"}},{"type":"Feature","geometry":{"type":"LineString","coordinates":[[14.2544343,41.0917276],[14.2544343,41.0916732],[14.2544344,41.0913972]]},"properties":{"site":"capua","name":"Via Gran Bretagna","highway":"service"}},{"type":"Feature","geometry":{"type":"LineString","coordinates":[[14.2544342,41.0920752],[14.2544343,41.0919536]]},"properties":{"site":"capua","name":"Via Nove Novembre","highway":"service"}},{"type":"Feature","geometry":{"type":"LineString","coordinates":[[14.2535813,41.09171],[14.2536511,41.0917088],[14.2537209,41.0917075]]},"properties":{"site":"capua","name":"Parcheggio Coperto Conad","highway":"service"}},{"type":"Feature","geometry":{"type":"LineString","coordinates":[[14.252876,41.091586],[14.2527498,41.0916575],[14.2525805,41.0916593],[14.2524848,41.0916593],[14.2524241,41.0916681],[14.2523033,41.0917217]]},"properties":{"site":"capua","name":"","highway":"service"}},{"type":"Feature","geometry":{"type":"LineString","coordinates":[[14.253138,41.0917253],[14.2530014,41.0917226],[14.2529828,41.0916997],[14.2529466,41.0916874],[14.2529174,41.0916857],[14.2528543,41.0916909],[14.2528193,41.0917033],[14.252789,41.0917173],[14.2526081,41.0917117],[14.2525041,41.0917085],[14.2524492,41.0917129],[14.2524101,41.0917183],[14.252392,41.0917209],[14.2523033,41.0917217]]},"properties":{"site":"capua","name":"","highway":"service"}},{"type":"Feature","geometry":{"type":"LineString","coordinates":[[14.2522221,41.0920227],[14.2522297,41.0917543],[14.2522601,41.0917297],[14.2523033,41.0917217]]},"properties":{"site":"capua","name":"","highway":"service"}},{"type":"Feature","geometry":{"type":"LineString","coordinates":[[14.253138,41.0917253],[14.2531649,41.0917473],[14.2531871,41.091793],[14.2531701,41.0920491]]},"properties":{"site":"capua","name":"","highway":"service"}},{"type":"Feature","geometry":{"type":"LineString","coordinates":[[14.2523998,41.0920283],[14.2524101,41.0917183]]},"properties":{"site":"capua","name":"","highway":"service"}},{"type":"Feature","geometry":{"type":"LineString","coordinates":[[14.2525959,41.0920345],[14.2526081,41.0917117]]},"properties":{"site":"capua","name":"","highway":"service"}},{"type":"Feature","geometry":{"type":"LineString","coordinates":[[14.2527716,41.0920338],[14.252789,41.0917173]]},"properties":{"site":"capua","name":"","highway":"service"}},{"type":"Feature","geometry":{"type":"LineString","coordinates":[[14.2530014,41.0917226],[14.252982,41.0920464]]},"properties":{"site":"capua","name":"","highway":"service"}},{"type":"Feature","geometry":{"type":"LineString","coordinates":[[14.2522998,41.0911256],[14.2524138,41.0911292],[14.2525996,41.0911351],[14.2527851,41.0911409],[14.2529752,41.0911469],[14.2530807,41.0911503],[14.253099,41.0904909],[14.2531532,41.0904765]]},"properties":{"site":"capua","name":"","highway":"service"}},{"type":"Feature","geometry":{"type":"LineString","coordinates":[[14.2531532,41.0904765],[14.2532517,41.0904836],[14.253304,41.0904997],[14.2532619,41.0913574],[14.2532364,41.0913978],[14.2531908,41.0914342],[14.2531493,41.0914494],[14.2530679,41.0914628],[14.2530393,41.0914676],[14.2529803,41.0914888],[14.2529591,41.0914953],[14.2529146,41.091509],[14.2528833,41.0915091],[14.252876,41.091586]]},"properties":{"site":"capua","name":"","highway":"service"}},{"type":"Feature","geometry":{"type":"LineString","coordinates":[[14.2522766,41.0915686],[14.2522829,41.0915061],[14.2523068,41.0914921],[14.2523537,41.0914881],[14.2524076,41.0914902],[14.2525852,41.0914973],[14.2527746,41.0915048],[14.2528833,41.0915091]]},"properties":{"site":"capua","name":"","highway":"service"}},{"type":"Feature","geometry":{"type":"LineString","coordinates":[[14.2522998,41.0911256],[14.2522829,41.0915061]]},"properties":{"site":"capua","name":"","highway":"service"}},{"type":"Feature","geometry":{"type":"LineString","coordinates":[[14.2531602,41.0903622],[14.2531532,41.0904765]]},"properties":{"site":"capua","name":"","highway":"service"}},{"type":"Feature","geometry":{"type":"LineString","coordinates":[[14.2530807,41.0911503],[14.2530679,41.0914628]]},"properties":{"site":"capua","name":"","highway":"service"}},{"type":"Feature","geometry":{"type":"LineString","coordinates":[[14.2529591,41.0914953],[14.2529752,41.0911469]]},"properties":{"site":"capua","name":"","highway":"service"}},{"type":"Feature","geometry":{"type":"LineString","coordinates":[[14.2527746,41.0915048],[14.2527851,41.0911409]]},"properties":{"site":"capua","name":"","highway":"service"}},{"type":"Feature","geometry":{"type":"LineString","coordinates":[[14.2525852,41.0914973],[14.2525996,41.0911351]]},"properties":{"site":"capua","name":"","highway":"service"}},{"type":"Feature","geometry":{"type":"LineString","coordinates":[[14.2524076,41.0914902],[14.2524138,41.0911292]]},"properties":{"site":"capua","name":"","highway":"service"}},{"type":"Feature","geometry":{"type":"LineString","coordinates":[[14.2523319,41.0903443],[14.2522998,41.0911256]]},"properties":{"site":"capua","name":"","highway":"service"}},{"type":"Feature","geometry":{"type":"LineString","coordinates":[[14.256534,41.0902713],[14.2567449,41.0902425],[14.257117,41.0902425]]},"properties":{"site":"capua","name":"","highway":"footway"}},{"type":"Feature","geometry":{"type":"LineString","coordinates":[[14.2571164,41.090487],[14.257117,41.0902425],[14.2571177,41.0899726]]},"properties":{"site":"capua","name":"","highway":"footway"}},{"type":"Feature","geometry":{"type":"LineString","coordinates":[[14.246761,41.0918053],[14.2467429,41.0918163]]},"properties":{"site":"capua","name":"","highway":"footway"}},{"type":"Feature","geometry":{"type":"LineString","coordinates":[[14.2461202,41.0913282],[14.2460996,41.0913395]]},"properties":{"site":"capua","name":"","highway":"footway"}},{"type":"Feature","geometry":{"type":"LineString","coordinates":[[14.2717938,41.0794233],[14.2720016,41.080195],[14.2722853,41.0805593]]},"properties":{"site":"capua","name":"","highway":"service"}},{"type":"Feature","geometry":{"type":"LineString","coordinates":[[14.2501058,41.0851779],[14.2501027,41.0855169]]},"properties":{"site":"capua","name":"","highway":"footway"}},{"type":"Feature","geometry":{"type":"LineString","coordinates":[[14.2502544,41.0840968],[14.2502044,41.0841258]]},"properties":{"site":"capua","name":"","highway":"footway"}},{"type":"Feature","geometry":{"type":"LineString","coordinates":[[14.2501134,41.0849135],[14.2501129,41.0849448]]},"properties":{"site":"capua","name":"","highway":"footway"}},{"type":"Feature","geometry":{"type":"LineString","coordinates":[[14.2501431,41.0836237],[14.2496051,41.083919],[14.2495111,41.0840041],[14.2494129,41.0841399]]},"properties":{"site":"capua","name":"","highway":"service"}},{"type":"Feature","geometry":{"type":"LineString","coordinates":[[14.25123,41.0847724],[14.2509666,41.0847426],[14.2509672,41.0837032]]},"properties":{"site":"capua","name":"","highway":"footway"}},{"type":"Feature","geometry":{"type":"LineString","coordinates":[[14.2502544,41.0840968],[14.2503126,41.0840605]]},"properties":{"site":"capua","name":"","highway":"steps"}},{"type":"Feature","geometry":{"type":"LineString","coordinates":[[14.2503126,41.0840605],[14.2506454,41.0838689]]},"properties":{"site":"capua","name":"","highway":"footway"}},{"type":"Feature","geometry":{"type":"LineString","coordinates":[[14.2501129,41.0849448],[14.2501079,41.0850815]]},"properties":{"site":"capua","name":"","highway":"steps"}},{"type":"Feature","geometry":{"type":"LineString","coordinates":[[14.2501079,41.0850815],[14.2501069,41.0851284],[14.2501058,41.0851779]]},"properties":{"site":"capua","name":"","highway":"footway"}},{"type":"Feature","geometry":{"type":"LineString","coordinates":[[14.2502044,41.0841258],[14.2502206,41.0834023]]},"properties":{"site":"capua","name":"","highway":"footway"}},{"type":"Feature","geometry":{"type":"LineString","coordinates":[[14.2502044,41.0841258],[14.2501989,41.0846899],[14.2501173,41.0846906]]},"properties":{"site":"capua","name":"","highway":"footway"}},{"type":"Feature","geometry":{"type":"LineString","coordinates":[[14.2505882,41.0835838],[14.2506454,41.0838689],[14.2507455,41.0843677],[14.2505525,41.0847787],[14.2505481,41.0851114]]},"properties":{"site":"capua","name":"Via Anfiteatro Flavio","highway":"footway"}},{"type":"Feature","geometry":{"type":"LineString","coordinates":[[14.2628359,41.0762227],[14.2627807,41.0762197],[14.2626886,41.0762381],[14.2626247,41.0762523],[14.2625721,41.0762593],[14.2624744,41.0762608],[14.2622573,41.0762427]]},"properties":{"site":"capua","name":"Via Carfora","highway":"service"}},{"type":"Feature","geometry":{"type":"LineString","coordinates":[[14.263181,41.0762413],[14.2630248,41.0762329]]},"properties":{"site":"capua","name":"Via Carfora","highway":"service"}},{"type":"Feature","geometry":{"type":"LineString","coordinates":[[14.2630248,41.0762329],[14.2628359,41.0762227]]},"properties":{"site":"capua","name":"Via Carfora","highway":"service"}},{"type":"Feature","geometry":{"type":"LineString","coordinates":[[14.2622573,41.0762427],[14.2620743,41.0762336],[14.2618642,41.0762231],[14.2618264,41.0762212],[14.2617372,41.0760606],[14.2617604,41.0757993],[14.2619054,41.0758092],[14.2621083,41.0758231]]},"properties":{"site":"capua","name":"Parcheggio Carfora-Melorio","highway":"service"}},{"type":"Feature","geometry":{"type":"LineString","coordinates":[[14.2621083,41.0758231],[14.2620743,41.0762336]]},"properties":{"site":"capua","name":"Parcheggio Carfora-Melorio","highway":"service"}},{"type":"Feature","geometry":{"type":"LineString","coordinates":[[14.2618642,41.0762231],[14.2619054,41.0758092]]},"properties":{"site":"capua","name":"Parcheggio Carfora-Melorio","highway":"service"}},{"type":"Feature","geometry":{"type":"LineString","coordinates":[[14.2638088,41.0771126],[14.2639859,41.075726]]},"properties":{"site":"capua","name":"Via Antonio Cardarelli","highway":"service"}},{"type":"Feature","geometry":{"type":"LineString","coordinates":[[14.2644622,41.0740128],[14.2646611,41.0734194]]},"properties":{"site":"capua","name":"Traversa Privata Saccone","highway":"service"}},{"type":"Feature","geometry":{"type":"LineString","coordinates":[[14.2648268,41.0740915],[14.2648995,41.0739049],[14.2650955,41.0739484]]},"properties":{"site":"capua","name":"","highway":"service"}},{"type":"Feature","geometry":{"type":"LineString","coordinates":[[14.2650327,41.074045],[14.2650955,41.0739484],[14.265185,41.0738108],[14.2652025,41.0737645],[14.2653061,41.0734899]]},"properties":{"site":"capua","name":"","highway":"service"}},{"type":"Feature","geometry":{"type":"LineString","coordinates":[[14.2606011,41.0885333],[14.2615745,41.0885231],[14.2615718,41.0886779],[14.2615566,41.0892072],[14.2615463,41.0895066],[14.2606418,41.0895247]]},"properties":{"site":"capua","name":"","highway":"service"}},{"type":"Feature","geometry":{"type":"LineString","coordinates":[[14.2723367,41.0911947],[14.2725806,41.0911939],[14.2725778,41.0909917]]},"properties":{"site":"capua","name":"","highway":"pedestrian"}},{"type":"Feature","geometry":{"type":"LineString","coordinates":[[14.2706664,41.0891972],[14.2709395,41.0891738],[14.2712934,41.0891424],[14.2720076,41.0890789]]},"properties":{"site":"capua","name":"","highway":"footway"}},{"type":"Feature","geometry":{"type":"LineString","coordinates":[[14.2704985,41.0892847],[14.270579,41.089278],[14.2706771,41.0892698],[14.2706664,41.0891972],[14.270657,41.0891333],[14.2705626,41.0891399],[14.2704784,41.0891483],[14.270488,41.0892133],[14.2704985,41.0892847]]},"properties":{"site":"capua","name":"","highway":"pedestrian"}},{"type":"Feature","geometry":{"type":"LineString","coordinates":[[14.2709797,41.0894036],[14.2709913,41.0894698]]},"properties":{"site":"capua","name":"","highway":"footway"}},{"type":"Feature","geometry":{"type":"LineString","coordinates":[[14.2705626,41.0891399],[14.2705213,41.0888134],[14.2705167,41.0887837]]},"properties":{"site":"capua","name":"","highway":"footway"}},{"type":"Feature","geometry":{"type":"LineString","coordinates":[[14.2708813,41.0893431],[14.2707812,41.0893466],[14.2707823,41.08938],[14.2706015,41.0893877]]},"properties":{"site":"capua","name":"","highway":"footway"}},{"type":"Feature","geometry":{"type":"LineString","coordinates":[[14.2708911,41.0894071],[14.2709797,41.0894036],[14.2710749,41.0893999],[14.2710638,41.0893368],[14.2710515,41.0892672],[14.2709555,41.0892699],[14.2708705,41.0892724],[14.2708813,41.0893431],[14.2708911,41.0894071]]},"properties":{"site":"capua","name":"","highway":"pedestrian"}},{"type":"Feature","geometry":{"type":"LineString","coordinates":[[14.272063,41.0896212],[14.2721314,41.0895766],[14.2722574,41.0895322],[14.2724096,41.0894885],[14.2726145,41.0893964],[14.2727822,41.0893135],[14.2729132,41.0892163],[14.2730229,41.0891219],[14.2730312,41.089112],[14.2730959,41.0890347],[14.273324,41.0887587],[14.2734481,41.0886071],[14.2734836,41.0885637],[14.2735178,41.0885573],[14.2735457,41.0885846],[14.273572,41.088763],[14.2735932,41.0889391],[14.2736411,41.0891277],[14.2736615,41.0892083],[14.2736709,41.0892394],[14.2737019,41.0893413],[14.2737276,41.0894256]]},"properties":{"site":"capua","name":"","highway":"footway"}},{"type":"Feature","geometry":{"type":"LineString","coordinates":[[14.2739408,41.0902462],[14.2739037,41.0897692]]},"properties":{"site":"capua","name":"","highway":"footway"}},{"type":"Feature","geometry":{"type":"LineString","coordinates":[[14.273647,41.0883732],[14.2737726,41.0879865],[14.2738048,41.0878875]]},"properties":{"site":"capua","name":"","highway":"footway"}},{"type":"Feature","geometry":{"type":"LineString","coordinates":[[14.2739425,41.0903235],[14.2739411,41.0902765],[14.2739408,41.0902462]]},"properties":{"site":"capua","name":"","highway":"footway"}},{"type":"Feature","geometry":{"type":"LineString","coordinates":[[14.2737355,41.08914],[14.2736303,41.0885886],[14.2736299,41.0885769],[14.2736263,41.0884685]]},"properties":{"site":"capua","name":"","highway":"footway"}},{"type":"Feature","geometry":{"type":"LineString","coordinates":[[14.2739425,41.0903235],[14.2745472,41.0903452]]},"properties":{"site":"capua","name":"","highway":"footway"}},{"type":"Feature","geometry":{"type":"LineString","coordinates":[[14.2736263,41.0884685],[14.2736364,41.0884256],[14.2736389,41.08841],[14.273647,41.0883732]]},"properties":{"site":"capua","name":"","highway":"footway"}},{"type":"Feature","geometry":{"type":"LineString","coordinates":[[14.274535,41.0905642],[14.2739427,41.0905419]]},"properties":{"site":"capua","name":"","highway":"footway"}},{"type":"Feature","geometry":{"type":"LineString","coordinates":[[14.2738896,41.089689],[14.2738842,41.0896604],[14.2738527,41.089495],[14.2737615,41.0892344]]},"properties":{"site":"capua","name":"","highway":"footway"}},{"type":"Feature","geometry":{"type":"LineString","coordinates":[[14.2737615,41.0892344],[14.2737488,41.089189],[14.2737355,41.08914]]},"properties":{"site":"capua","name":"","highway":"footway"}},{"type":"Feature","geometry":{"type":"LineString","coordinates":[[14.2739428,41.0905809],[14.2739427,41.0905419],[14.2739425,41.0903235]]},"properties":{"site":"capua","name":"","highway":"footway"}},{"type":"Feature","geometry":{"type":"LineString","coordinates":[[14.2739037,41.0897692],[14.2738972,41.0897317],[14.2738896,41.089689]]},"properties":{"site":"capua","name":"","highway":"footway"}},{"type":"Feature","geometry":{"type":"LineString","coordinates":[[14.2738621,41.0910343],[14.2738585,41.0909829],[14.2738583,41.0909461]]},"properties":{"site":"capua","name":"","highway":"footway"}},{"type":"Feature","geometry":{"type":"LineString","coordinates":[[14.2738601,41.0919306],[14.2738612,41.091871],[14.2738628,41.0918384]]},"properties":{"site":"capua","name":"","highway":"footway"}},{"type":"Feature","geometry":{"type":"LineString","coordinates":[[14.2738307,41.0902443],[14.2738093,41.0897627]]},"properties":{"site":"capua","name":"","highway":"footway"}},{"type":"Feature","geometry":{"type":"LineString","coordinates":[[14.2738093,41.0897627],[14.2738002,41.0897136],[14.2737951,41.0896906]]},"properties":{"site":"capua","name":"","highway":"footway"}},{"type":"Feature","geometry":{"type":"LineString","coordinates":[[14.2737951,41.0896906],[14.2737276,41.0894256]]},"properties":{"site":"capua","name":"","highway":"footway"}},{"type":"Feature","geometry":{"type":"LineString","coordinates":[[14.2738583,41.0909461],[14.2738378,41.0903111]]},"properties":{"site":"capua","name":"","highway":"footway"}},{"type":"Feature","geometry":{"type":"LineString","coordinates":[[14.2739286,41.0922414],[14.2738707,41.0922415],[14.2738601,41.0919306]]},"properties":{"site":"capua","name":"","highway":"footway"}},{"type":"Feature","geometry":{"type":"LineString","coordinates":[[14.2738378,41.0903111],[14.273835,41.0902749],[14.2738307,41.0902443]]},"properties":{"site":"capua","name":"","highway":"footway"}},{"type":"Feature","geometry":{"type":"LineString","coordinates":[[14.2738628,41.0918384],[14.2738621,41.0910343]]},"properties":{"site":"capua","name":"","highway":"footway"}},{"type":"Feature","geometry":{"type":"LineString","coordinates":[[14.2721031,41.087921],[14.2721734,41.0879225],[14.2723167,41.08792],[14.272348,41.0879131],[14.2724613,41.0879105],[14.2726299,41.087912],[14.2727997,41.0879135],[14.272908,41.0879128],[14.2729749,41.0879123],[14.2731496,41.0879131],[14.2733302,41.087915],[14.2734881,41.0879138],[14.27351,41.0879145],[14.2735714,41.0879166],[14.2736215,41.0879339],[14.2736483,41.0879595],[14.2736611,41.0879902],[14.273664,41.0880232],[14.2736375,41.0880986],[14.2735833,41.088237],[14.2735425,41.0883469],[14.2735115,41.0884238],[14.2734506,41.0884972],[14.2733822,41.08858],[14.2733645,41.0886014],[14.2732763,41.0887139],[14.2731944,41.0888026]]},"properties":{"site":"capua","name":"","highway":"footway"}},{"type":"Feature","geometry":{"type":"LineString","coordinates":[[14.2699773,41.0878141],[14.2700401,41.0878138],[14.2700941,41.0878136]]},"properties":{"site":"capua","name":"","highway":"footway"}},{"type":"Feature","geometry":{"type":"LineString","coordinates":[[14.2719668,41.0879178],[14.2719731,41.0880283],[14.2719722,41.088171],[14.2719592,41.0883156],[14.2719591,41.0884434],[14.2719775,41.0885217],[14.2719791,41.0886543],[14.2719649,41.0886678],[14.2715225,41.0886913],[14.2710833,41.0887193],[14.2706011,41.088749],[14.2705107,41.0887537],[14.2701418,41.0887666],[14.2696852,41.08878],[14.2696199,41.0887825],[14.2692201,41.0887963],[14.2687884,41.0888136],[14.2683281,41.088841],[14.2680055,41.0888604],[14.2678075,41.0888735],[14.2677671,41.0888721],[14.2677036,41.0888698],[14.267653,41.0888426],[14.2676232,41.0887922],[14.2676224,41.0887851],[14.2676005,41.0885863],[14.2675907,41.0883245],[14.2675775,41.0881077],[14.2675652,41.0879544],[14.2675769,41.0879226],[14.2675994,41.0878834],[14.2676343,41.0878581],[14.2677053,41.0878509],[14.2678708,41.0878505],[14.2682549,41.0878553],[14.2685458,41.0878593]]},"properties":{"site":"capua","name":"","highway":"footway"}},{"type":"Feature","geometry":{"type":"LineString","coordinates":[[14.271145,41.0879028],[14.2709519,41.0879022],[14.2706917,41.0878961]]},"properties":{"site":"capua","name":"","highway":"footway"}},{"type":"Feature","geometry":{"type":"LineString","coordinates":[[14.2706917,41.0878961],[14.2706519,41.0878947],[14.2706137,41.0878934]]},"properties":{"site":"capua","name":"","highway":"footway"}},{"type":"Feature","geometry":{"type":"LineString","coordinates":[[14.2712349,41.0879017],[14.2711904,41.0879022],[14.271145,41.0879028]]},"properties":{"site":"capua","name":"","highway":"footway"}},{"type":"Feature","geometry":{"type":"LineString","coordinates":[[14.2685458,41.0878593],[14.2686106,41.0878611],[14.2686916,41.0878619]]},"properties":{"site":"capua","name":"","highway":"footway"}},{"type":"Feature","geometry":{"type":"LineString","coordinates":[[14.2656776,41.0877706],[14.266388,41.0877656],[14.2666686,41.0877636],[14.2672582,41.0877622],[14.2677478,41.0877712],[14.2685852,41.0877859],[14.2689493,41.0877909],[14.2699773,41.0878141]]},"properties":{"site":"capua","name":"","highway":"footway"}},{"type":"Feature","geometry":{"type":"LineString","coordinates":[[14.2712349,41.0879017],[14.271473,41.0879041],[14.2717879,41.0879161],[14.2719668,41.0879178]]},"properties":{"site":"capua","name":"","highway":"footway"}},{"type":"Feature","geometry":{"type":"LineString","coordinates":[[14.2721031,41.087921],[14.2720226,41.0879191],[14.2719668,41.0879178]]},"properties":{"site":"capua","name":"","highway":"footway"}},{"type":"Feature","geometry":{"type":"LineString","coordinates":[[14.2731442,41.0888582],[14.2731281,41.0888893],[14.2730369,41.0889916],[14.2729615,41.0890897],[14.2728707,41.0891668],[14.2727839,41.0892411],[14.2726872,41.0892963],[14.272594,41.0893393],[14.2725009,41.0893835],[14.272398,41.0894306],[14.272298,41.0894655],[14.2721971,41.0894904],[14.2720954,41.0894968],[14.2720847,41.0895333]]},"properties":{"site":"capua","name":"","highway":"footway"}},{"type":"Feature","geometry":{"type":"LineString","coordinates":[[14.2704062,41.0878136],[14.2702164,41.0878145],[14.2700941,41.0878136]]},"properties":{"site":"capua","name":"","highway":"footway"}},{"type":"Feature","geometry":{"type":"LineString","coordinates":[[14.2686916,41.0878619],[14.2689452,41.087866],[14.2692158,41.0878704],[14.2694515,41.0878775],[14.2695028,41.0878787],[14.2696966,41.087883],[14.2699424,41.0878805],[14.2701199,41.0878865],[14.2703697,41.0878949],[14.2706137,41.0878934]]},"properties":{"site":"capua","name":"","highway":"footway"}},{"type":"Feature","geometry":{"type":"LineString","coordinates":[[14.2689493,41.0877909],[14.2689458,41.0878267],[14.2689452,41.087866]]},"properties":{"site":"capua","name":"","highway":"footway"}},{"type":"Feature","geometry":{"type":"LineString","coordinates":[[14.2731944,41.0888026],[14.2731442,41.0888582]]},"properties":{"site":"capua","name":"","highway":"footway"}},{"type":"Feature","geometry":{"type":"LineString","coordinates":[[14.2719642,41.0878398],[14.2715798,41.0878326],[14.2715649,41.0878325],[14.2712509,41.0878313],[14.2710901,41.0878273],[14.2708187,41.0878205],[14.2705258,41.0878155]]},"properties":{"site":"capua","name":"","highway":"footway"}},{"type":"Feature","geometry":{"type":"LineString","coordinates":[[14.2737475,41.0878434],[14.2737119,41.0878431],[14.2735619,41.0878431],[14.2735124,41.0878428],[14.2732119,41.0878411],[14.2728364,41.0878428],[14.2725596,41.0878378],[14.2722305,41.0878386],[14.2720848,41.0878387]]},"properties":{"site":"capua","name":"","highway":"footway"}},{"type":"Feature","geometry":{"type":"LineString","coordinates":[[14.2719642,41.0878398],[14.2720266,41.0878392],[14.2720848,41.0878387]]},"properties":{"site":"capua","name":"","highway":"footway"}},{"type":"Feature","geometry":{"type":"LineString","coordinates":[[14.2704062,41.0878136],[14.2704742,41.0878147],[14.2705258,41.0878155]]},"properties":{"site":"capua","name":"","highway":"footway"}},{"type":"Feature","geometry":{"type":"LineString","coordinates":[[14.2735124,41.0878428],[14.2735118,41.0878848],[14.27351,41.0879145]]},"properties":{"site":"capua","name":"","highway":"footway"}},{"type":"Feature","geometry":{"type":"LineString","coordinates":[[14.2739275,41.0815874],[14.2740145,41.0815882],[14.2740936,41.0815871]]},"properties":{"site":"capua","name":"","highway":"footway"}},{"type":"Feature","geometry":{"type":"LineString","coordinates":[[14.2728396,41.081479],[14.2728389,41.0815301],[14.2728383,41.0815818]]},"properties":{"site":"capua","name":"","highway":"footway"}},{"type":"Feature","geometry":{"type":"LineString","coordinates":[[14.2713429,41.0815632],[14.2713867,41.0815634],[14.2714253,41.0815635]]},"properties":{"site":"capua","name":"","highway":"footway"}},{"type":"Feature","geometry":{"type":"LineString","coordinates":[[14.2714232,41.0815635],[14.2714253,41.0815635],[14.2720288,41.0815725]]},"properties":{"site":"capua","name":"","highway":"footway"}},{"type":"Feature","geometry":{"type":"LineString","coordinates":[[14.2725023,41.0814809],[14.2728396,41.081479],[14.2729301,41.0814811]]},"properties":{"site":"capua","name":"","highway":"footway"}},{"type":"Feature","geometry":{"type":"LineString","coordinates":[[14.2721309,41.0815765],[14.2728383,41.0815818],[14.2728834,41.0815822]]},"properties":{"site":"capua","name":"","highway":"footway"}},{"type":"Feature","geometry":{"type":"LineString","coordinates":[[14.2720288,41.0815725],[14.2720916,41.081575],[14.2721309,41.0815765]]},"properties":{"site":"capua","name":"","highway":"footway"}},{"type":"Feature","geometry":{"type":"LineString","coordinates":[[14.2728834,41.0815822],[14.2729724,41.081581],[14.273017,41.0815804]]},"properties":{"site":"capua","name":"","highway":"footway"}},{"type":"Feature","geometry":{"type":"LineString","coordinates":[[14.2670921,41.0899712],[14.2670918,41.0899608],[14.2670903,41.0899094]]},"properties":{"site":"capua","name":"","highway":"footway"}},{"type":"Feature","geometry":{"type":"LineString","coordinates":[[14.2702808,41.081494],[14.2702808,41.0815489],[14.2703499,41.0815573],[14.2713429,41.0815632]]},"properties":{"site":"capua","name":"","highway":"footway"}},{"type":"Feature","geometry":{"type":"LineString","coordinates":[[14.273017,41.0815804],[14.2739275,41.0815874]]},"properties":{"site":"capua","name":"","highway":"footway"}},{"type":"Feature","geometry":{"type":"LineString","coordinates":[[14.2739362,41.0814933],[14.273576,41.0814908],[14.273086,41.0814838]]},"properties":{"site":"capua","name":"","highway":"footway"}},{"type":"Feature","geometry":{"type":"LineString","coordinates":[[14.2739362,41.0814933],[14.2740122,41.0814953],[14.2740868,41.0814942]]},"properties":{"site":"capua","name":"","highway":"footway"}},{"type":"Feature","geometry":{"type":"LineString","coordinates":[[14.273086,41.0814838],[14.2729806,41.081482],[14.2729301,41.0814811]]},"properties":{"site":"capua","name":"","highway":"footway"}},{"type":"Feature","geometry":{"type":"LineString","coordinates":[[14.2705167,41.0887837],[14.2705107,41.0887537]]},"properties":{"site":"capua","name":"","highway":"footway"}},{"type":"Feature","geometry":{"type":"LineString","coordinates":[[14.2492475,41.0857021],[14.2493962,41.0854819],[14.2494522,41.0854171],[14.2495073,41.085365],[14.2495699,41.085315],[14.2496437,41.0852707],[14.24978,41.085201],[14.2499491,41.0851573],[14.2501069,41.0851284],[14.2502115,41.0851369],[14.2503423,41.0851728],[14.25046,41.0852179],[14.2505739,41.0852693],[14.2506683,41.0853277],[14.2507579,41.0853988],[14.2508242,41.0854706],[14.2509036,41.0855692],[14.2509559,41.0856522],[14.2509914,41.0857458],[14.2510148,41.0858444],[14.2510166,41.0859761],[14.2510017,41.0860985],[14.2509718,41.0862055],[14.2509204,41.0863224],[14.2508513,41.0864287],[14.2507719,41.0865223],[14.2506636,41.0866054],[14.250544,41.0866723],[14.2504282,41.0867194],[14.2502554,41.0867645],[14.2500761,41.0867779],[14.2499323,41.0867666],[14.2498155,41.0867342],[14.249668,41.0866807],[14.2495456,41.0866131],[14.2494326,41.0865308],[14.2493644,41.0864526],[14.2493009,41.0863576],[14.2492355,41.086207],[14.249201,41.0860669],[14.2491982,41.0859282],[14.2492103,41.0858022],[14.2492475,41.0857021]]},"properties":{"site":"capua","name":"","highway":"footway"}},{"type":"Feature","geometry":{"type":"LineString","coordinates":[[14.2605721,41.088047],[14.2608992,41.0880447],[14.2611364,41.088043],[14.2613611,41.0880414],[14.2615916,41.0880398],[14.2615745,41.0885231]]},"properties":{"site":"capua","name":"","highway":"service"}},{"type":"Feature","geometry":{"type":"LineString","coordinates":[[14.2613678,41.0884125],[14.2613611,41.0880414]]},"properties":{"site":"capua","name":"","highway":"service"}},{"type":"Feature","geometry":{"type":"LineString","coordinates":[[14.2608992,41.0884031],[14.2608992,41.0880447]]},"properties":{"site":"capua","name":"","highway":"service"}},{"type":"Feature","geometry":{"type":"LineString","coordinates":[[14.2611335,41.088411],[14.2611364,41.088043]]},"properties":{"site":"capua","name":"","highway":"service"}},{"type":"Feature","geometry":{"type":"LineString","coordinates":[[14.2615718,41.0886779],[14.2605791,41.0886885]]},"properties":{"site":"capua","name":"","highway":"service"}},{"type":"Feature","geometry":{"type":"LineString","coordinates":[[14.2624041,41.0878764],[14.2624099,41.0882764],[14.262414,41.0885569]]},"properties":{"site":"capua","name":"","highway":"service"}},{"type":"Feature","geometry":{"type":"LineString","coordinates":[[14.2624099,41.0882764],[14.2622359,41.0882777],[14.2622313,41.0881898],[14.2617655,41.0881937],[14.2617814,41.0887646],[14.262103,41.0887669],[14.2620986,41.0883793],[14.2622371,41.0883715],[14.2622359,41.0882777]]},"properties":{"site":"capua","name":"","highway":"service"}},{"type":"Feature","geometry":{"type":"LineString","coordinates":[[14.2615566,41.0892072],[14.2606008,41.0892157]]},"properties":{"site":"capua","name":"","highway":"service"}},{"type":"Feature","geometry":{"type":"LineString","coordinates":[[14.2734481,41.0886071],[14.2734128,41.0885921],[14.2733822,41.08858]]},"properties":{"site":"capua","name":"","highway":"footway"}},{"type":"Feature","geometry":{"type":"LineString","coordinates":[[14.2736182,41.0885775],[14.2735937,41.0885789],[14.2735572,41.0885832]]},"properties":{"site":"capua","name":"","highway":"footway"}},{"type":"Feature","geometry":{"type":"LineString","coordinates":[[14.2737726,41.0879865],[14.2737031,41.0879877],[14.2736611,41.0879902]]},"properties":{"site":"capua","name":"","highway":"footway"}},{"type":"Feature","geometry":{"type":"LineString","coordinates":[[14.2665933,41.088975],[14.2665978,41.0890153],[14.2666261,41.0892718],[14.2665213,41.0892796],[14.2664958,41.0892808]]},"properties":{"site":"capua","name":"","highway":"service"}},{"type":"Feature","geometry":{"type":"LineString","coordinates":[[14.2666718,41.0893622],[14.2665632,41.0893653],[14.2665,41.0893678]]},"properties":{"site":"capua","name":"Via Aristotele","highway":"footway"}},{"type":"Feature","geometry":{"type":"LineString","coordinates":[[14.2655318,41.0871197],[14.2655912,41.0871202],[14.2656024,41.0871203],[14.2663669,41.0871263],[14.2664,41.087137],[14.2664284,41.0871584],[14.2664313,41.0871933],[14.2664227,41.087229],[14.266401,41.0872432],[14.2655835,41.0872471],[14.2655726,41.0872471],[14.2655108,41.0872474]]},"properties":{"site":"capua","name":"","highway":"service"}},{"type":"Feature","geometry":{"type":"LineString","coordinates":[[14.267521,41.0887923],[14.2674951,41.088257],[14.2674807,41.087938],[14.2674471,41.0878718],[14.2673773,41.0878411],[14.2671677,41.0878436],[14.2669145,41.0878375],[14.2667691,41.0878381],[14.266684,41.0878454],[14.2666176,41.0878837],[14.2666015,41.087943],[14.2665998,41.0879751],[14.2666059,41.0883194],[14.2666168,41.0884293],[14.2666189,41.0885642],[14.2666285,41.0888295],[14.2666363,41.0888586],[14.266639,41.0888686],[14.2666649,41.0888942],[14.2666951,41.0889186],[14.266727,41.0889341],[14.2667758,41.0889373],[14.2670041,41.0889168],[14.2672039,41.0888954],[14.2673852,41.0888799],[14.2674176,41.088871],[14.2674365,41.0888658],[14.2674743,41.0888489],[14.2675046,41.0888242],[14.267521,41.0887923]]},"properties":{"site":"capua","name":"","highway":"footway"}},{"type":"Feature","geometry":{"type":"LineString","coordinates":[[14.2715764,41.0878702],[14.2715798,41.0878326],[14.2717543,41.0859007]]},"properties":{"site":"capua","name":"","highway":"service"}},{"type":"Feature","geometry":{"type":"LineString","coordinates":[[14.2697238,41.0858459],[14.269718,41.086199]]},"properties":{"site":"capua","name":"","highway":"service"}},{"type":"Feature","geometry":{"type":"LineString","coordinates":[[14.267071,41.0904762],[14.2670404,41.0904738],[14.2670032,41.0904709],[14.2669437,41.0904663],[14.2668969,41.0904626],[14.2667318,41.0904473],[14.2659594,41.0904352],[14.2659686,41.0908404]]},"properties":{"site":"capua","name":"","highway":"service"}},{"type":"Feature","geometry":{"type":"LineString","coordinates":[[14.2659686,41.0908404],[14.2667948,41.0908438],[14.2669262,41.0905808],[14.2669437,41.0904663]]},"properties":{"site":"capua","name":"","highway":"service"}},{"type":"Feature","geometry":{"type":"LineString","coordinates":[[14.265435,41.0908724],[14.2654879,41.0908749],[14.2655036,41.0908751],[14.2663908,41.090884],[14.2663925,41.091312],[14.2657311,41.0913099]]},"properties":{"site":"capua","name":"","highway":"service"}},{"type":"Feature","geometry":{"type":"LineString","coordinates":[[14.271893,41.0895083],[14.2717183,41.0895404],[14.2713591,41.0896087],[14.2711231,41.0896322],[14.2708713,41.0896587],[14.2706576,41.0896758],[14.2705729,41.0896826],[14.2698731,41.0897454],[14.2697185,41.0897594],[14.269679,41.0897507],[14.269523,41.0897532],[14.2693128,41.0897496],[14.2690752,41.089751],[14.2688947,41.0897524],[14.2686893,41.0897567],[14.2684562,41.0897533],[14.2683372,41.0897544],[14.2682714,41.089755],[14.2682276,41.0897555],[14.2681878,41.0897559],[14.2680109,41.0897647],[14.2678607,41.0897698],[14.2678018,41.089762],[14.2677381,41.0897404],[14.2676953,41.0897121],[14.2676806,41.0896928],[14.2676757,41.0896864],[14.2676637,41.089517],[14.2676587,41.0894449],[14.2676555,41.0893683],[14.2676551,41.0893343],[14.2676548,41.089305],[14.2676481,41.0892054],[14.2676383,41.0890862],[14.2676393,41.0890169],[14.2676629,41.0889791],[14.2676994,41.0889527],[14.2677463,41.0889382],[14.2677741,41.0889352],[14.2678343,41.0889287],[14.2682888,41.0889014],[14.268561,41.088889],[14.2688659,41.0888754],[14.2689014,41.0888816],[14.2690893,41.088871],[14.2692312,41.0888574],[14.2696671,41.0888432],[14.2699922,41.0888324],[14.2702922,41.0888181],[14.2705213,41.0888134],[14.2706312,41.0888033],[14.2713711,41.0887658],[14.2718807,41.0887371],[14.2719214,41.0887494],[14.2719441,41.0887758],[14.2719695,41.088825],[14.2720129,41.0888263]]},"properties":{"site":"capua","name":"","highway":"footway"}},{"type":"Feature","geometry":{"type":"LineString","coordinates":[[14.2719888,41.0895016],[14.2720954,41.0894968]]},"properties":{"site":"capua","name":"","highway":"footway"}},{"type":"Feature","geometry":{"type":"LineString","coordinates":[[14.2719888,41.0895016],[14.271893,41.0895083]]},"properties":{"site":"capua","name":"","highway":"footway"}},{"type":"Feature","geometry":{"type":"LineString","coordinates":[[14.2664158,41.0878418],[14.2663935,41.0878423],[14.2663048,41.0878441],[14.2657532,41.0878488],[14.2656919,41.0878588],[14.2656803,41.0878643],[14.2656374,41.0878845],[14.2655872,41.0879267],[14.2655442,41.087965],[14.2655294,41.0880329],[14.2655347,41.0881738],[14.2655343,41.0883547],[14.2655283,41.0884942],[14.2655168,41.0886995],[14.2655136,41.0888468],[14.2655149,41.0889129],[14.26555,41.0889558],[14.2656021,41.088972],[14.2663995,41.0889588],[14.2664191,41.0889585],[14.2664776,41.088939],[14.2665153,41.0889099],[14.266542,41.0888632],[14.2665363,41.0884144],[14.2665325,41.0882555],[14.2665351,41.0882397],[14.2665296,41.087981],[14.2665218,41.0879352],[14.2665081,41.087895],[14.2664982,41.0878829],[14.2664885,41.087871],[14.2664581,41.0878532],[14.2664158,41.0878418]]},"properties":{"site":"capua","name":"","highway":"footway"}},{"type":"Feature","geometry":{"type":"LineString","coordinates":[[14.2666057,41.0878836],[14.2665587,41.087883],[14.2665101,41.0878829]]},"properties":{"site":"capua","name":"","highway":"footway"}},{"type":"Feature","geometry":{"type":"LineString","coordinates":[[14.2666176,41.0878837],[14.2666057,41.0878836]]},"properties":{"site":"capua","name":"","highway":"footway"}},{"type":"Feature","geometry":{"type":"LineString","coordinates":[[14.2665101,41.0878829],[14.2664982,41.0878829]]},"properties":{"site":"capua","name":"","highway":"footway"}},{"type":"Feature","geometry":{"type":"LineString","coordinates":[[14.2665538,41.0888626],[14.2665897,41.0888607],[14.2666245,41.0888591]]},"properties":{"site":"capua","name":"","highway":"footway"}},{"type":"Feature","geometry":{"type":"LineString","coordinates":[[14.266542,41.0888632],[14.2665538,41.0888626]]},"properties":{"site":"capua","name":"","highway":"footway"}},{"type":"Feature","geometry":{"type":"LineString","coordinates":[[14.2666245,41.0888591],[14.2666363,41.0888586]]},"properties":{"site":"capua","name":"","highway":"footway"}},{"type":"Feature","geometry":{"type":"LineString","coordinates":[[14.2656776,41.0877795],[14.2656778,41.087824],[14.2656797,41.0878553]]},"properties":{"site":"capua","name":"","highway":"footway"}},{"type":"Feature","geometry":{"type":"LineString","coordinates":[[14.2656776,41.0877706],[14.2656776,41.0877795]]},"properties":{"site":"capua","name":"","highway":"footway"}},{"type":"Feature","geometry":{"type":"LineString","coordinates":[[14.2656797,41.0878553],[14.2656803,41.0878643]]},"properties":{"site":"capua","name":"","highway":"footway"}},{"type":"Feature","geometry":{"type":"LineString","coordinates":[[14.2675328,41.0887917],[14.2675847,41.088789],[14.2676108,41.0887863]]},"properties":{"site":"capua","name":"","highway":"footway"}},{"type":"Feature","geometry":{"type":"LineString","coordinates":[[14.267521,41.0887923],[14.2675328,41.0887917]]},"properties":{"site":"capua","name":"","highway":"footway"}},{"type":"Feature","geometry":{"type":"LineString","coordinates":[[14.2676108,41.0887863],[14.2676224,41.0887851]]},"properties":{"site":"capua","name":"","highway":"footway"}},{"type":"Feature","geometry":{"type":"LineString","coordinates":[[14.2677683,41.0888811],[14.267771,41.0889008],[14.2677733,41.0889262]]},"properties":{"site":"capua","name":"","highway":"footway"}},{"type":"Feature","geometry":{"type":"LineString","coordinates":[[14.2677671,41.0888721],[14.2677683,41.0888811]]},"properties":{"site":"capua","name":"","highway":"footway"}},{"type":"Feature","geometry":{"type":"LineString","coordinates":[[14.2677733,41.0889262],[14.2677741,41.0889352]]},"properties":{"site":"capua","name":"","highway":"footway"}},{"type":"Feature","geometry":{"type":"LineString","coordinates":[[14.267225,41.088959],[14.267434,41.0889401],[14.267485,41.0889505],[14.2675217,41.0889779],[14.2675434,41.0890239],[14.2675523,41.0893372],[14.2675654,41.0895929],[14.2675719,41.0897019],[14.2675537,41.0897417],[14.2675184,41.0897818],[14.2674715,41.0898159],[14.2674152,41.0898432],[14.2671847,41.089874],[14.2669137,41.0899039],[14.2665987,41.0899425],[14.2665952,41.0897892],[14.2665977,41.0894372],[14.2665737,41.0893846],[14.2665632,41.0893653],[14.2665614,41.089353],[14.2665239,41.0893512],[14.2665213,41.0892796],[14.2665168,41.0890206],[14.2665978,41.0890153],[14.26674,41.0890059],[14.266786,41.0890029],[14.267225,41.088959]]},"properties":{"site":"capua","name":"","highway":"footway"}},{"type":"Feature","geometry":{"type":"LineString","coordinates":[[14.2676275,41.0890173],[14.26759,41.0890186],[14.2675549,41.0890226]]},"properties":{"site":"capua","name":"","highway":"footway"}},{"type":"Feature","geometry":{"type":"LineString","coordinates":[[14.2676393,41.0890169],[14.2676275,41.0890173]]},"properties":{"site":"capua","name":"","highway":"footway"}},{"type":"Feature","geometry":{"type":"LineString","coordinates":[[14.2675549,41.0890226],[14.2675434,41.0890239]]},"properties":{"site":"capua","name":"","highway":"footway"}},{"type":"Feature","geometry":{"type":"LineString","coordinates":[[14.2675836,41.089701],[14.2676088,41.0896992],[14.267669,41.0896938]]},"properties":{"site":"capua","name":"","highway":"footway"}},{"type":"Feature","geometry":{"type":"LineString","coordinates":[[14.2675719,41.0897019],[14.2675836,41.089701]]},"properties":{"site":"capua","name":"","highway":"footway"}},{"type":"Feature","geometry":{"type":"LineString","coordinates":[[14.267669,41.0896938],[14.2676806,41.0896928]]},"properties":{"site":"capua","name":"","highway":"footway"}},{"type":"Feature","geometry":{"type":"LineString","coordinates":[[14.2668768,41.0899912],[14.2670918,41.0899608],[14.2673129,41.0899322],[14.2673796,41.0899266],[14.2674297,41.0899391],[14.267471,41.0899676],[14.2674999,41.0900132],[14.2674965,41.090063],[14.267481,41.0900871],[14.2673627,41.0901887],[14.2671833,41.0903382],[14.2670668,41.0904376],[14.2670404,41.0904738],[14.2669841,41.0905734],[14.2668967,41.0907355],[14.2667937,41.0909544],[14.266704,41.0911536],[14.2666579,41.0912444],[14.2666407,41.0912796],[14.2665985,41.0913022],[14.2665451,41.0913294],[14.2664778,41.091342],[14.2663748,41.0913498],[14.2662196,41.09135],[14.2659923,41.0913499],[14.2658142,41.091344],[14.2655762,41.0913409],[14.2654715,41.0913397],[14.2654715,41.0912196],[14.2654729,41.0911128],[14.2654777,41.0909942],[14.2654879,41.0908749],[14.265497,41.0907644],[14.2655246,41.090535],[14.2655314,41.0902028],[14.2655301,41.0901079],[14.265553,41.0900654],[14.2656039,41.0900381],[14.2656541,41.0900303],[14.2657749,41.0900292],[14.2659722,41.0900284],[14.2662095,41.0900277],[14.2665039,41.0900278],[14.2665764,41.0900237],[14.2668768,41.0899912]]},"properties":{"site":"capua","name":"","highway":"footway"}},{"type":"Feature","geometry":{"type":"LineString","coordinates":[[14.2674315,41.0889311],[14.2674267,41.0889139],[14.2674195,41.08888]]},"properties":{"site":"capua","name":"","highway":"footway"}},{"type":"Feature","geometry":{"type":"LineString","coordinates":[[14.267434,41.0889401],[14.2674315,41.0889311]]},"properties":{"site":"capua","name":"","highway":"footway"}},{"type":"Feature","geometry":{"type":"LineString","coordinates":[[14.2674195,41.08888],[14.2674176,41.088871]]},"properties":{"site":"capua","name":"","highway":"footway"}},{"type":"Feature","geometry":{"type":"LineString","coordinates":[[14.266777,41.0889463],[14.2667785,41.0889576],[14.2667845,41.0889939]]},"properties":{"site":"capua","name":"","highway":"footway"}},{"type":"Feature","geometry":{"type":"LineString","coordinates":[[14.2667758,41.0889373],[14.266777,41.0889463]]},"properties":{"site":"capua","name":"","highway":"footway"}},{"type":"Feature","geometry":{"type":"LineString","coordinates":[[14.2667845,41.0889939],[14.266786,41.0890029]]},"properties":{"site":"capua","name":"","highway":"footway"}},{"type":"Feature","geometry":{"type":"LineString","coordinates":[[14.2664455,41.0890255],[14.2664556,41.0893508],[14.2655552,41.0893632],[14.2655111,41.0893455],[14.2655121,41.0890363],[14.2655632,41.08902],[14.2656017,41.0890202],[14.266404,41.0890252],[14.2664455,41.0890255]]},"properties":{"site":"capua","name":"","highway":"footway"}},{"type":"Feature","geometry":{"type":"LineString","coordinates":[[14.2665137,41.0890214],[14.2664864,41.0890269],[14.2664573,41.0890252]]},"properties":{"site":"capua","name":"","highway":"footway"}},{"type":"Feature","geometry":{"type":"LineString","coordinates":[[14.2665168,41.0890206],[14.2665137,41.0890214]]},"properties":{"site":"capua","name":"","highway":"footway"}},{"type":"Feature","geometry":{"type":"LineString","coordinates":[[14.2664573,41.0890252],[14.2664455,41.0890255]]},"properties":{"site":"capua","name":"","highway":"footway"}},{"type":"Feature","geometry":{"type":"LineString","coordinates":[[14.2665119,41.0893508],[14.2664992,41.0893503],[14.2664675,41.0893507]]},"properties":{"site":"capua","name":"","highway":"footway"}},{"type":"Feature","geometry":{"type":"LineString","coordinates":[[14.2664675,41.0893507],[14.2664556,41.0893508]]},"properties":{"site":"capua","name":"","highway":"footway"}},{"type":"Feature","geometry":{"type":"LineString","coordinates":[[14.2656019,41.0889809],[14.2656017,41.0889922],[14.2656017,41.0890113]]},"properties":{"site":"capua","name":"","highway":"footway"}},{"type":"Feature","geometry":{"type":"LineString","coordinates":[[14.2656021,41.088972],[14.2656019,41.0889809]]},"properties":{"site":"capua","name":"","highway":"footway"}},{"type":"Feature","geometry":{"type":"LineString","coordinates":[[14.2656017,41.0890113],[14.2656017,41.0890202]]},"properties":{"site":"capua","name":"","highway":"footway"}},{"type":"Feature","geometry":{"type":"LineString","coordinates":[[14.2664034,41.0890162],[14.266401,41.0889834],[14.2664,41.0889678]]},"properties":{"site":"capua","name":"","highway":"footway"}},{"type":"Feature","geometry":{"type":"LineString","coordinates":[[14.266404,41.0890252],[14.2664034,41.0890162]]},"properties":{"site":"capua","name":"","highway":"footway"}},{"type":"Feature","geometry":{"type":"LineString","coordinates":[[14.2664,41.0889678],[14.2663995,41.0889588]]},"properties":{"site":"capua","name":"","highway":"footway"}},{"type":"Feature","geometry":{"type":"LineString","coordinates":[[14.2663927,41.0878333],[14.2663904,41.0878085],[14.2663885,41.0877745]]},"properties":{"site":"capua","name":"","highway":"footway"}},{"type":"Feature","geometry":{"type":"LineString","coordinates":[[14.2663935,41.0878423],[14.2663927,41.0878333]]},"properties":{"site":"capua","name":"","highway":"footway"}},{"type":"Feature","geometry":{"type":"LineString","coordinates":[[14.2663885,41.0877745],[14.266388,41.0877656]]},"properties":{"site":"capua","name":"","highway":"footway"}},{"type":"Feature","geometry":{"type":"LineString","coordinates":[[14.2737498,41.0892347],[14.2737288,41.0892359],[14.2736826,41.0892387]]},"properties":{"site":"capua","name":"","highway":"footway"}},{"type":"Feature","geometry":{"type":"LineString","coordinates":[[14.2737615,41.0892344],[14.2737498,41.0892347]]},"properties":{"site":"capua","name":"","highway":"footway"}},{"type":"Feature","geometry":{"type":"LineString","coordinates":[[14.2736826,41.0892387],[14.2736709,41.0892394]]},"properties":{"site":"capua","name":"","highway":"footway"}},{"type":"Feature","geometry":{"type":"LineString","coordinates":[[14.2735876,41.0891294],[14.2736411,41.0891277]]},"properties":{"site":"capua","name":"","highway":"footway"}},{"type":"Feature","geometry":{"type":"LineString","coordinates":[[14.2737019,41.0893413],[14.2736566,41.0893442],[14.2736424,41.0893014]]},"properties":{"site":"capua","name":"","highway":"footway"}},{"type":"Feature","geometry":{"type":"LineString","coordinates":[[14.272885,41.0893057],[14.2727775,41.0893995]]},"properties":{"site":"capua","name":"","highway":"footway"}},{"type":"Feature","geometry":{"type":"LineString","coordinates":[[14.2727775,41.0893995],[14.2726145,41.0893964]]},"properties":{"site":"capua","name":"","highway":"path"}},{"type":"Feature","geometry":{"type":"LineString","coordinates":[[14.2730862,41.0891322],[14.2730312,41.089112]]},"properties":{"site":"capua","name":"","highway":"steps"}},{"type":"Feature","geometry":{"type":"LineString","coordinates":[[14.2736299,41.0885769],[14.2736182,41.0885775]]},"properties":{"site":"capua","name":"","highway":"footway"}},{"type":"Feature","geometry":{"type":"LineString","coordinates":[[14.2735572,41.0885832],[14.2735457,41.0885846]]},"properties":{"site":"capua","name":"","highway":"footway"}},{"type":"Feature","geometry":{"type":"LineString","coordinates":[[14.2656776,41.0877706],[14.2656447,41.0877902],[14.2655939,41.0877929],[14.2655664,41.0877623],[14.2655613,41.0876623],[14.2655681,41.0872892],[14.2655726,41.0872471],[14.2655823,41.0871566],[14.2655912,41.0871202],[14.2656164,41.0870166],[14.2656331,41.0869483],[14.2656961,41.0867675],[14.2657429,41.0866909],[14.2658211,41.0866143],[14.2659675,41.0865338],[14.2661759,41.0864695],[14.2664726,41.086399],[14.2665833,41.0863779],[14.2667013,41.0863554],[14.2669269,41.086304],[14.2671323,41.0862544],[14.2672814,41.0862124],[14.2673682,41.0861879],[14.2674919,41.0861488],[14.2676577,41.08607],[14.2678427,41.0859855],[14.2679291,41.0859314],[14.2681183,41.0858144],[14.2681846,41.0857683],[14.2682309,41.0857361],[14.2682946,41.0856749],[14.2684277,41.0855367],[14.2685777,41.0853722],[14.2686524,41.0852815],[14.2686688,41.0852583],[14.2687248,41.0851786],[14.2687972,41.0850664],[14.2688439,41.0849582],[14.268918,41.0848143],[14.2689991,41.0846361],[14.2690785,41.0844684],[14.2691585,41.0842832],[14.2692169,41.0841402],[14.2692403,41.0840516],[14.2692516,41.0840087],[14.269219,41.0838545],[14.2691915,41.0837757],[14.2691954,41.0837561],[14.2692143,41.0836604],[14.2692632,41.0834451]]},"properties":{"site":"capua","name":"","highway":"footway"}},{"type":"Feature","geometry":{"type":"LineString","coordinates":[[14.2665987,41.0899425],[14.2665772,41.0899454],[14.2665357,41.0899511],[14.2654912,41.0899395],[14.2654912,41.0894251],[14.2654994,41.0893925],[14.2655111,41.0893455]]},"properties":{"site":"capua","name":"","highway":"footway"}},{"type":"Feature","geometry":{"type":"LineString","coordinates":[[14.2665239,41.0893512],[14.2665119,41.0893508]]},"properties":{"site":"capua","name":"","highway":"footway"}},{"type":"Feature","geometry":{"type":"LineString","coordinates":[[14.2700231,41.0809451],[14.2699451,41.0809733],[14.2701196,41.0812337],[14.2701604,41.0812553],[14.270216,41.0812401],[14.2703004,41.081206]]},"properties":{"site":"capua","name":"","highway":"service"}},{"type":"Feature","geometry":{"type":"LineString","coordinates":[[14.2698672,41.0808391],[14.2699598,41.0808553],[14.2700231,41.0809451],[14.270096,41.0809121],[14.2703004,41.081206],[14.271915,41.0805443],[14.2719758,41.0805307],[14.2720083,41.0805256],[14.2720222,41.0805269],[14.2720371,41.0805322],[14.272112,41.0806333]]},"properties":{"site":"capua","name":"","highway":"service"}},{"type":"Feature","geometry":{"type":"LineString","coordinates":[[14.2602063,41.08972],[14.2602519,41.0897338],[14.2602805,41.0897537],[14.2603092,41.0897719],[14.2603421,41.0897858],[14.2603843,41.089781],[14.2604164,41.0897652],[14.2604371,41.089746],[14.2604489,41.089722],[14.260452,41.0896974],[14.2604412,41.0896717],[14.2604186,41.0896545],[14.260383,41.0896423],[14.26035,41.0896353],[14.2603191,41.0896312],[14.2602902,41.0896457],[14.26026,41.0896688],[14.2602424,41.0896827],[14.2602058,41.0896929]]},"properties":{"site":"capua","name":"","highway":"footway"}},{"type":"Feature","geometry":{"type":"LineString","coordinates":[[14.2602058,41.0896929],[14.2596689,41.0896938],[14.2589648,41.089695],[14.2584834,41.0896958],[14.2584491,41.0896914],[14.2584326,41.0896827],[14.2584114,41.0896715],[14.2583875,41.0896546],[14.2583527,41.0896405],[14.2583193,41.0896385],[14.2582963,41.089647],[14.2582778,41.089656],[14.2582602,41.0896716],[14.2582471,41.08969],[14.258248,41.0897097],[14.2582489,41.0897288],[14.258255,41.0897458],[14.2582692,41.0897601],[14.2582895,41.0897694],[14.2583092,41.0897791],[14.2583385,41.0897801],[14.2583633,41.0897774],[14.2583893,41.0897686],[14.2584078,41.0897577],[14.2584254,41.0897448],[14.2584414,41.0897337],[14.2584595,41.0897261],[14.2589645,41.0897243],[14.2596689,41.0897219],[14.2602063,41.08972]]},"properties":{"site":"capua","name":"","highway":"footway"}},{"type":"Feature","geometry":{"type":"LineString","coordinates":[[14.2589691,41.0898927],[14.2589685,41.0898022],[14.2589645,41.0897243],[14.2589648,41.089695]]},"properties":{"site":"capua","name":"","highway":"footway"}},{"type":"Feature","geometry":{"type":"LineString","coordinates":[[14.2596688,41.0898927],[14.2596683,41.0897979],[14.2596689,41.0897219],[14.2596689,41.0896938]]},"properties":{"site":"capua","name":"","highway":"footway"}},{"type":"Feature","geometry":{"type":"LineString","coordinates":[[14.2665853,41.0862771],[14.2665833,41.0863779],[14.2665713,41.0869749],[14.2664961,41.0870056],[14.2657753,41.0870146]]},"properties":{"site":"capua","name":"","highway":"service"}},{"type":"Feature","geometry":{"type":"LineString","coordinates":[[14.2657753,41.0870146],[14.2658077,41.0867719]]},"properties":{"site":"capua","name":"","highway":"service"}},{"type":"Feature","geometry":{"type":"LineString","coordinates":[[14.2657753,41.0870146],[14.2656164,41.0870166],[14.2655541,41.0870174]]},"properties":{"site":"capua","name":"","highway":"service"}},{"type":"Feature","geometry":{"type":"LineString","coordinates":[[14.2658774,41.081766],[14.2658878,41.0819512]]},"properties":{"site":"capua","name":"","highway":"service"}}]}