{"type":"FeatureCollection","features":[{"type":"Feature","geometry":{"type":"LineString","coordinates":[[16.8721126,48.114935],[16.8714532,48.1155575]]},"properties":{"site":"carnuntum","name":"Pfaffenbrunnenweg","highway":"service"}},{"type":"Feature","geometry":{"type":"LineString","coordinates":[[16.8683559,48.114595],[16.8686123,48.1144824],[16.8693264,48.1147958],[16.869506,48.11486],[16.8700269,48.1150451],[16.8700288,48.1150963]]},"properties":{"site":"carnuntum","name":"","highway":"footway"}},{"type":"Feature","geometry":{"type":"LineString","coordinates":[[16.8609185,48.1197927],[16.8614784,48.1199529],[16.8620291,48.1201013],[16.8623194,48.1201968],[16.8625151,48.1202511],[16.8626004,48.1202843],[16.8628814,48.1203989],[16.8630681,48.1204656],[16.86341,48.1205682],[16.8637416,48.1206554],[16.8641291,48.1207674],[16.8642265,48.1207821],[16.8646166,48.1208127],[16.8648192,48.1208509],[16.8655195,48.1210255],[16.8660153,48.1211589],[16.8667098,48.1212893],[16.8675568,48.1213864],[16.8681061,48.1215137],[16.8683917,48.1215576],[16.8686854,48.1216125],[16.8690698,48.1216674],[16.8692644,48.1216851],[16.8694409,48.1216882],[16.8695332,48.121683],[16.8696674,48.1216721],[16.8696307,48.1217851],[16.8696278,48.121794],[16.8695786,48.1219237],[16.8694592,48.1221709]]},"properties":{"site":"carnuntum","name":"","highway":"track"}},{"type":"Feature","geometry":{"type":"LineString","coordinates":[[16.8799351,48.1212677],[16.8804408,48.1210134],[16.8805936,48.1209788],[16.8807042,48.1210275],[16.8810193,48.1213603],[16.8810593,48.1214121],[16.8811251,48.1214216],[16.8811628,48.1214074],[16.8811816,48.1213713],[16.881071,48.1212395],[16.8805395,48.1207967],[16.8797705,48.1203226],[16.8793825,48.1201358],[16.879112,48.1199191],[16.8786416,48.1197244],[16.8778797,48.1194277],[16.8773599,48.1191608],[16.8769766,48.1189002],[16.8768425,48.1188562],[16.8766995,48.1188581],[16.8743006,48.1191501],[16.8732445,48.1192316],[16.8719295,48.1193598],[16.8706999,48.1195151],[16.8690481,48.1196897],[16.8673502,48.1198889],[16.865649,48.1201409],[16.8653563,48.1202021],[16.8652084,48.1202539],[16.8650807,48.1203325],[16.8649466,48.120496],[16.8648192,48.1208509]]},"properties":{"site":"carnuntum","name":"","highway":"track"}},{"type":"Feature","geometry":{"type":"LineString","coordinates":[[16.8798936,48.112497],[16.8798937,48.1125065],[16.8798938,48.1125126],[16.879892,48.1125446],[16.8799184,48.1125821],[16.879965,48.1126159],[16.8800394,48.1126453],[16.8804194,48.1127672],[16.880898,48.112903],[16.8817304,48.1131234],[16.8819191,48.1131689],[16.8821141,48.1132056],[16.8825569,48.113307],[16.8830741,48.1134375],[16.8834351,48.1135322],[16.8835795,48.1135791],[16.8837277,48.1136377],[16.8847606,48.1141525],[16.8855304,48.1145463],[16.8860824,48.1148271],[16.8865463,48.1150398],[16.887103,48.1152986],[16.8874162,48.1154533],[16.8879076,48.1157224],[16.8882925,48.1159217],[16.8890022,48.1162675],[16.8896612,48.1165809],[16.8902885,48.1169376]]},"properties":{"site":"carnuntum","name":"","highway":"track"}},{"type":"Feature","geometry":{"type":"LineString","coordinates":[[16.8798936,48.112497],[16.879824,48.1125308],[16.8796559,48.1126094],[16.879494,48.1126981],[16.8793679,48.1127807],[16.8789853,48.1130555],[16.8782761,48.1135663],[16.8782252,48.1135867]]},"properties":{"site":"carnuntum","name":"","highway":"track"}},{"type":"Feature","geometry":{"type":"LineString","coordinates":[[16.8782252,48.1135867],[16.8802184,48.1150986],[16.882136,48.1170373],[16.8837093,48.1186627],[16.8840924,48.1190383],[16.8849964,48.1198974]]},"properties":{"site":"carnuntum","name":"","highway":"track"}},{"type":"Feature","geometry":{"type":"LineString","coordinates":[[16.8719195,48.1136711],[16.8728238,48.1129247]]},"properties":{"site":"carnuntum","name":"","highway":"service"}},{"type":"Feature","geometry":{"type":"LineString","coordinates":[[16.8702401,48.1147196],[16.8705372,48.1143113],[16.8706459,48.1141619],[16.8708859,48.1138303]]},"properties":{"site":"carnuntum","name":"","highway":"service"}},{"type":"Feature","geometry":{"type":"LineString","coordinates":[[16.8949327,48.125084],[16.8934175,48.1230847],[16.8932404,48.1228941],[16.8930039,48.1227013],[16.8926741,48.1224967],[16.8914234,48.1217989],[16.8899901,48.1209347],[16.8897593,48.1208124],[16.8895968,48.12074],[16.8884023,48.1202835],[16.8880541,48.1201229],[16.8861931,48.1191976]]},"properties":{"site":"carnuntum","name":"","highway":"track"}},{"type":"Feature","geometry":{"type":"LineString","coordinates":[[16.8861931,48.1191976],[16.8868433,48.1188476],[16.8878348,48.1182965],[16.8891711,48.1175431],[16.8895935,48.1172932],[16.8899961,48.1170738],[16.8901817,48.1169569],[16.8902885,48.1169376]]},"properties":{"site":"carnuntum","name":"","highway":"track"}},{"type":"Feature","geometry":{"type":"LineString","coordinates":[[16.8798936,48.112497],[16.8799427,48.1124781],[16.8801275,48.1124027],[16.8801914,48.1123669],[16.8802236,48.1123395],[16.880246,48.1122994],[16.8802381,48.1122564],[16.8802142,48.1122067],[16.8801145,48.1121046],[16.8797024,48.1118034],[16.8793028,48.1115891],[16.8786396,48.1112411],[16.8773224,48.1106281],[16.8760046,48.1099755],[16.874881,48.1094456],[16.8745548,48.1092874],[16.8743111,48.1091084],[16.8737974,48.1088543],[16.8736062,48.1087704],[16.8732037,48.1086469],[16.8730958,48.1085309],[16.8728271,48.1083899],[16.8718404,48.107913],[16.8713897,48.1077109],[16.8711297,48.1076043],[16.8708897,48.107532],[16.8706823,48.1074952],[16.8701472,48.107411],[16.870011,48.1073859],[16.8698596,48.1073383],[16.8696444,48.107254],[16.8691907,48.107013],[16.869154,48.1069888]]},"properties":{"site":"carnuntum","name":"","highway":"track"}},{"type":"Feature","geometry":{"type":"LineString","coordinates":[[16.8861931,48.1191976],[16.8849964,48.1198974]]},"properties":{"site":"carnuntum","name":"","highway":"track"}},{"type":"Feature","geometry":{"type":"LineString","coordinates":[[16.8700226,48.1112447],[16.870781,48.1106331],[16.8720209,48.1096054],[16.8730394,48.1087593],[16.8732037,48.1086469],[16.8733333,48.1085466],[16.8735025,48.1084103],[16.8737562,48.1082059],[16.8737569,48.1081355],[16.8735022,48.1079521],[16.8732104,48.1077136],[16.8729109,48.1074824],[16.8729031,48.1074185],[16.8730996,48.1072441]]},"properties":{"site":"carnuntum","name":"","highway":"track"}},{"type":"Feature","geometry":{"type":"LineString","coordinates":[[16.8773224,48.1106281],[16.8773291,48.1106624],[16.8773158,48.1106907],[16.8763974,48.1114275],[16.8755554,48.1121204]]},"properties":{"site":"carnuntum","name":"","highway":"track"}},{"type":"Feature","geometry":{"type":"LineString","coordinates":[[16.8809487,48.111893],[16.8811894,48.1117323],[16.8821812,48.1111103],[16.8824625,48.110916],[16.8829822,48.1105767],[16.8835932,48.110216],[16.8848588,48.1094996],[16.8859764,48.1088592],[16.8867049,48.1084551],[16.88702,48.1082852],[16.8872584,48.1081603],[16.8875451,48.10803],[16.8879126,48.1078705],[16.8887519,48.1075253]]},"properties":{"site":"carnuntum","name":"","highway":"track"}},{"type":"Feature","geometry":{"type":"LineString","coordinates":[[16.8676159,48.1149242],[16.8681751,48.1149171],[16.8682903,48.114852],[16.868445,48.1146355],[16.8683559,48.114595],[16.8680229,48.1144983],[16.8678812,48.1144572]]},"properties":{"site":"carnuntum","name":"Kirchenplatz","highway":"service"}},{"type":"Feature","geometry":{"type":"LineString","coordinates":[[16.8681946,48.1019612],[16.8690558,48.1020545],[16.8697083,48.1021103],[16.8702772,48.1021721],[16.8707875,48.1022389],[16.8714917,48.102304],[16.8720718,48.1023687],[16.8723144,48.1023873],[16.8725176,48.102399],[16.8727788,48.1024196],[16.8729965,48.1024593],[16.873246,48.1025258],[16.8736332,48.1026669],[16.8750329,48.1032475],[16.8755738,48.1034719],[16.8766693,48.1039152],[16.8774709,48.1042458],[16.877745,48.1043725],[16.8778001,48.1044157],[16.8778089,48.1044558],[16.8778762,48.1044546],[16.8779571,48.1044852],[16.8784942,48.1048627],[16.8793558,48.1054757],[16.8804269,48.1062669],[16.8808992,48.1065986],[16.8816613,48.1071578],[16.8840799,48.1089159],[16.8848588,48.1094996]]},"properties":{"site":"carnuntum","name":"","highway":"track"}},{"type":"Feature","geometry":{"type":"LineString","coordinates":[[16.8700288,48.1150963],[16.8699793,48.1150803],[16.869381,48.1148717],[16.8691503,48.1151349],[16.8683628,48.1148603],[16.8682903,48.114852],[16.8681445,48.1147965],[16.8680131,48.1147302],[16.8679621,48.1146703],[16.8679604,48.11467],[16.867824,48.1146474]]},"properties":{"site":"carnuntum","name":"","highway":"footway"}},{"type":"Feature","geometry":{"type":"LineString","coordinates":[[16.8679621,48.1146703],[16.8679836,48.1146084],[16.8680229,48.1144983]]},"properties":{"site":"carnuntum","name":"","highway":"footway"}},{"type":"Feature","geometry":{"type":"LineString","coordinates":[[16.8744759,48.1155663],[16.8742354,48.1154096],[16.8742323,48.1153826],[16.874167,48.1153438],[16.8740927,48.1153221],[16.873955,48.1152316],[16.8737526,48.1151079],[16.873502,48.1149622],[16.8731994,48.1148015],[16.8731569,48.1147792],[16.8728612,48.1146245],[16.8726623,48.1145268],[16.8725915,48.1144765],[16.8721379,48.1142559],[16.8716863,48.1140986],[16.8716231,48.1140746],[16.8715809,48.1139936],[16.8708859,48.1138303]]},"properties":{"site":"carnuntum","name":"Hauptstraße","highway":"footway"}},{"type":"Feature","geometry":{"type":"LineString","coordinates":[[16.8849964,48.1198974],[16.8845852,48.1202058],[16.8838306,48.120747],[16.8835807,48.1209163],[16.8834658,48.1210066]]},"properties":{"site":"carnuntum","name":"","highway":"track"}},{"type":"Feature","geometry":{"type":"LineString","coordinates":[[16.8694592,48.1221709],[16.8694449,48.1222033]]},"properties":{"site":"carnuntum","name":"","highway":"track"}},{"type":"Feature","geometry":{"type":"LineString","coordinates":[[16.868793,48.1135659],[16.8687844,48.1136046],[16.8687523,48.1137493],[16.8686369,48.1137493],[16.8685721,48.1136022],[16.8685536,48.1135601]]},"properties":{"site":"carnuntum","name":"","highway":"service"}},{"type":"Feature","geometry":{"type":"LineString","coordinates":[[16.8696674,48.1216721],[16.8697647,48.1216613],[16.8699483,48.1216701],[16.8701744,48.1217137],[16.87041,48.1217403],[16.870687,48.1217865],[16.8710729,48.1218901],[16.8715322,48.1220268],[16.8720446,48.122194],[16.8723223,48.1222835],[16.872741,48.1224086],[16.8729558,48.1224435],[16.8732552,48.1224706],[16.8736604,48.1224965],[16.8741827,48.1225258],[16.8745381,48.1225396],[16.8751335,48.1225736],[16.8754797,48.1226043],[16.8763175,48.122647],[16.8770315,48.1227131],[16.8776109,48.1228353],[16.8783186,48.1230377],[16.8787774,48.1231455],[16.8792506,48.1232485],[16.8801938,48.1234377],[16.8805049,48.1234995],[16.8810437,48.1236335],[16.8817393,48.1238144],[16.8825237,48.1239758],[16.8840326,48.1243205]]},"properties":{"site":"carnuntum","name":"","highway":"track"}},{"type":"Feature","geometry":{"type":"LineString","coordinates":[[16.8712905,48.107407],[16.8715117,48.1075432],[16.8717206,48.1076904],[16.8718784,48.1077736],[16.8723861,48.108033],[16.8724961,48.1080697],[16.8726021,48.1080813],[16.8727335,48.1080733],[16.8729057,48.1080548],[16.8729843,48.1080599],[16.8731136,48.1080986],[16.8732552,48.1081655],[16.8733912,48.1082643],[16.8734724,48.1083535],[16.8734858,48.1083983],[16.8735025,48.1084103]]},"properties":{"site":"carnuntum","name":"","highway":"track"}},{"type":"Feature","geometry":{"type":"LineString","coordinates":[[16.8689512,48.1240902],[16.8688546,48.1239075],[16.868796,48.1238105],[16.8687742,48.1237428],[16.8687735,48.1236846],[16.8688013,48.1236098],[16.8689136,48.1233919],[16.8691872,48.1227837],[16.8694449,48.1222033]]},"properties":{"site":"carnuntum","name":"","highway":"footway"}},{"type":"Feature","geometry":{"type":"LineString","coordinates":[[16.8691011,48.1243638],[16.8692338,48.124354],[16.8694001,48.1243128],[16.8698829,48.1241248],[16.8704729,48.1239171],[16.8706205,48.1238742],[16.8707465,48.1238598],[16.8712857,48.1238652],[16.8719938,48.1238795],[16.8723827,48.1239028],[16.8727555,48.1239511],[16.8731873,48.1239386],[16.8737211,48.1238992],[16.8747389,48.1240402],[16.8757663,48.124539],[16.8801374,48.126746],[16.8832383,48.1282298],[16.8840511,48.1288345],[16.8852342,48.1294432],[16.8858011,48.1297311],[16.8869842,48.1303892],[16.8875758,48.1306606]]},"properties":{"site":"carnuntum","name":"","highway":"track"}},{"type":"Feature","geometry":{"type":"LineString","coordinates":[[16.8651673,48.1118838],[16.8654544,48.1119874],[16.8655875,48.1120572],[16.865727,48.1121033],[16.8659266,48.1122301],[16.8659409,48.1122658],[16.8659562,48.1122741],[16.866276,48.1124478],[16.866574,48.1126341],[16.8666034,48.1126615],[16.8669372,48.1128625],[16.8669461,48.1128789],[16.8671181,48.1129798],[16.8674945,48.1131532],[16.8675521,48.1131797],[16.8675762,48.1131886],[16.8675975,48.1131621],[16.8681527,48.1133751],[16.8683104,48.1134459],[16.8683319,48.1134543],[16.8684512,48.1135013],[16.8686152,48.1135233],[16.8687988,48.1135334],[16.8688139,48.1135239],[16.8688906,48.1135251],[16.8689066,48.113512],[16.8690331,48.1135126],[16.869255,48.1135179],[16.8694805,48.1135316],[16.8697893,48.1135549]]},"properties":{"site":"carnuntum","name":"Hauptstraße","highway":"footway"}},{"type":"Feature","geometry":{"type":"LineString","coordinates":[[16.8697866,48.1135907],[16.8697893,48.1135549]]},"properties":{"site":"carnuntum","name":"","highway":"service"}},{"type":"Feature","geometry":{"type":"LineString","coordinates":[[16.8697893,48.1135549],[16.8697965,48.1134585],[16.8698153,48.1133519],[16.8698703,48.1131155],[16.8699333,48.1129651],[16.8701512,48.1126258]]},"properties":{"site":"carnuntum","name":"","highway":"service"}},{"type":"Feature","geometry":{"type":"LineString","coordinates":[[16.8702927,48.1140423],[16.8706459,48.1141619]]},"properties":{"site":"carnuntum","name":"","highway":"service"}},{"type":"Feature","geometry":{"type":"LineString","coordinates":[[16.8705372,48.1143113],[16.8706586,48.1143522]]},"properties":{"site":"carnuntum","name":"","highway":"footway"}},{"type":"Feature","geometry":{"type":"LineString","coordinates":[[16.8680732,48.1125022],[16.8685289,48.1118059]]},"properties":{"site":"carnuntum","name":"","highway":"service"}},{"type":"Feature","geometry":{"type":"LineString","coordinates":[[16.8727597,48.1140481],[16.8726209,48.1141591],[16.8725632,48.1141827]]},"properties":{"site":"carnuntum","name":"","highway":"service"}},{"type":"Feature","geometry":{"type":"LineString","coordinates":[[16.8708859,48.1138303],[16.8709267,48.1137757]]},"properties":{"site":"carnuntum","name":"","highway":"service"}},{"type":"Feature","geometry":{"type":"LineString","coordinates":[[16.8682635,48.1135288],[16.8683319,48.1134543]]},"properties":{"site":"carnuntum","name":"","highway":"footway"}},{"type":"Feature","geometry":{"type":"LineString","coordinates":[[16.8708859,48.1138303],[16.870632,48.1137716],[16.8704604,48.1137403],[16.870433,48.113734],[16.8701166,48.1136744],[16.8698829,48.1136418],[16.8696613,48.1136255],[16.8695102,48.1136117],[16.8692314,48.1136036],[16.8689301,48.1136005],[16.8687844,48.1136046],[16.8685721,48.1136022],[16.868503,48.1135961],[16.8683227,48.1136356],[16.8681836,48.1136064],[16.8681172,48.1135923],[16.8680984,48.113534],[16.8680712,48.1135177],[16.8680001,48.1134888]]},"properties":{"site":"carnuntum","name":"","highway":"footway"}},{"type":"Feature","geometry":{"type":"LineString","coordinates":[[16.870476,48.1136979],[16.8704604,48.1137403]]},"properties":{"site":"carnuntum","name":"","highway":"footway"}},{"type":"Feature","geometry":{"type":"LineString","coordinates":[[16.8697893,48.1135549],[16.870491,48.1136618],[16.8705662,48.1136571],[16.8711718,48.1137436],[16.8712241,48.113797],[16.8715576,48.1138811],[16.8718158,48.1139618],[16.8721459,48.1140938],[16.8724271,48.1142401],[16.8725649,48.114291],[16.8726444,48.1143295],[16.8727247,48.1143725],[16.8730481,48.1145456],[16.873283,48.1146671],[16.8734865,48.1147723],[16.8737199,48.1149068],[16.8741279,48.1151646],[16.874372,48.1153214],[16.8746073,48.1154677],[16.8748885,48.1156182],[16.8752128,48.1157727]]},"properties":{"site":"carnuntum","name":"Hauptstraße","highway":"footway"}},{"type":"Feature","geometry":{"type":"LineString","coordinates":[[16.8745681,48.1154943],[16.8746073,48.1154677]]},"properties":{"site":"carnuntum","name":"","highway":"footway"}},{"type":"Feature","geometry":{"type":"LineString","coordinates":[[16.8760437,48.116238],[16.8755777,48.1160327],[16.875235,48.1158927],[16.8751935,48.115923],[16.8751764,48.1159379]]},"properties":{"site":"carnuntum","name":"","highway":"footway"}},{"type":"Feature","geometry":{"type":"LineString","coordinates":[[16.8744396,48.1155929],[16.8746167,48.1156649],[16.8749591,48.1158472],[16.8751764,48.1159379],[16.875478,48.1160703],[16.8759182,48.1162581],[16.8761098,48.1163397],[16.8761451,48.1163203]]},"properties":{"site":"carnuntum","name":"","highway":"footway"}},{"type":"Feature","geometry":{"type":"LineString","coordinates":[[16.875235,48.1158927],[16.8752886,48.1158534],[16.8753213,48.1158259]]},"properties":{"site":"carnuntum","name":"","highway":"footway"}},{"type":"Feature","geometry":{"type":"LineString","coordinates":[[16.8731569,48.1147792],[16.8732483,48.1146984],[16.873283,48.1146671]]},"properties":{"site":"carnuntum","name":"","highway":"footway"}},{"type":"Feature","geometry":{"type":"LineString","coordinates":[[16.8726864,48.1143975],[16.8727247,48.1143725]]},"properties":{"site":"carnuntum","name":"","highway":"footway"}},{"type":"Feature","geometry":{"type":"LineString","coordinates":[[16.8717948,48.1139821],[16.8718158,48.1139618]]},"properties":{"site":"carnuntum","name":"","highway":"footway"}},{"type":"Feature","geometry":{"type":"LineString","coordinates":[[16.8752128,48.1157727],[16.8753213,48.1158259],[16.8761316,48.1161537],[16.8760878,48.1161917],[16.8760437,48.116238]]},"properties":{"site":"carnuntum","name":"","highway":"footway"}},{"type":"Feature","geometry":{"type":"LineString","coordinates":[[16.8623194,48.1201968],[16.8631039,48.1196987],[16.8647184,48.118588],[16.8658399,48.1180368],[16.8671463,48.1176501],[16.8678384,48.1174567],[16.8694386,48.1170494],[16.8703875,48.1169013],[16.8726798,48.116926],[16.8731728,48.1172305],[16.8736658,48.1173456],[16.8743436,48.1174197],[16.8746024,48.1176583],[16.8750214,48.1178064],[16.8758841,48.1179956],[16.8759827,48.1180944],[16.8770796,48.1183988]]},"properties":{"site":"carnuntum","name":"","highway":"track"}},{"type":"Feature","geometry":{"type":"LineString","coordinates":[[16.8770796,48.1183988],[16.8777857,48.1188382],[16.8787126,48.1193267],[16.8798022,48.1198044]]},"properties":{"site":"carnuntum","name":"","highway":"path"}},{"type":"Feature","geometry":{"type":"LineString","coordinates":[[16.8798022,48.1198044],[16.8796513,48.1199235],[16.8793825,48.1201358]]},"properties":{"site":"carnuntum","name":"","highway":"path"}}]}