{"type":"FeatureCollection","features":[{"type":"Feature","geometry":{"type":"Polygon","coordinates":[[[16.875724,48.1159224],[16.8756028,48.1158465],[16.8757279,48.1157574],[16.8757849,48.1157931],[16.8758358,48.1157569],[16.8759,48.1157971],[16.875724,48.1159224]]]},"properties":{"site":"carnuntum","name":"Kulturhaus Petronell-Carnuntum","category":"other","osm_id":29658575}},{"type":"Feature","geometry":{"type":"Polygon","coordinates":[[[16.8705396,48.1141594],[16.8703644,48.1143879],[16.870165,48.1143197],[16.8702125,48.1142578],[16.8698161,48.1141223],[16.869851,48.1140768],[16.8697977,48.1140586],[16.869881,48.11395],[16.8701769,48.1140511],[16.8701142,48.114133],[16.8702731,48.1141873],[16.8703453,48.1140931],[16.8705396,48.1141594]]]},"properties":{"site":"carnuntum","name":"Volksschule Petronell","category":"other","osm_id":29658589}},{"type":"Feature","geometry":{"type":"Polygon","coordinates":[[[16.8689787,48.1151075],[16.8690687,48.1151405],[16.8690237,48.1151955],[16.8689337,48.1151625],[16.8689787,48.1151075]]]},"properties":{"site":"carnuntum","name":null,"category":"other","osm_id":29658595}},{"type":"Feature","geometry":{"type":"Polygon","coordinates":[[[16.8679093,48.115089],[16.8679083,48.114961],[16.8682333,48.11496],[16.8682343,48.115087],[16.8679093,48.115089]]]},"properties":{"site":"carnuntum","name":"Pfarramt","category":"other","osm_id":29658606}},{"type":"Feature","geometry":{"type":"Polygon","coordinates":[[[16.8677444,48.1135908],[16.8678729,48.1135867],[16.8678682,48.1135205],[16.8680469,48.1135148],[16.8680591,48.1136859],[16.8677519,48.1136957],[16.8677453,48.1136037],[16.8677444,48.1135908]]]},"properties":{"site":"carnuntum","name":"Il Centro","category":"other","osm_id":136502103}},{"type":"Feature","geometry":{"type":"Polygon","coordinates":[[[16.8703758,48.1139074],[16.8704072,48.1138102],[16.8705968,48.1138376],[16.8705654,48.1139347],[16.8703758,48.1139074]]]},"properties":{"site":"carnuntum","name":null,"category":"other","osm_id":159530290}},{"type":"Feature","geometry":{"type":"Polygon","coordinates":[[[16.8715405,48.1144418],[16.8716252,48.1143459],[16.8717886,48.1144102],[16.8717039,48.1145061],[16.8715405,48.1144418]]]},"properties":{"site":"carnuntum","name":null,"category":"other","osm_id":159530291}},{"type":"Feature","geometry":{"type":"Polygon","coordinates":[[[16.8705198,48.1148377],[16.8703578,48.1147736],[16.8704454,48.114675],[16.8706074,48.1147391],[16.8705198,48.1148377]]]},"properties":{"site":"carnuntum","name":null,"category":"other","osm_id":159530292}},{"type":"Feature","geometry":{"type":"Polygon","coordinates":[[[16.8713142,48.1129889],[16.8714242,48.1129028],[16.8714409,48.1129123],[16.8714588,48.1129225],[16.8713488,48.1130086],[16.8713142,48.1129889]]]},"properties":{"site":"carnuntum","name":null,"category":"other","osm_id":159530293}},{"type":"Feature","geometry":{"type":"Polygon","coordinates":[[[16.8706489,48.1148459],[16.8707479,48.1147378],[16.8708689,48.1147872],[16.87077,48.1148953],[16.8706489,48.1148459]]]},"properties":{"site":"carnuntum","name":null,"category":"other","osm_id":159530297}},{"type":"Feature","geometry":{"type":"Polygon","coordinates":[[[16.8714203,48.1145831],[16.8714943,48.1145058],[16.871645,48.11457],[16.8715711,48.1146474],[16.8714203,48.1145831]]]},"properties":{"site":"carnuntum","name":null,"category":"other","osm_id":159530298}},{"type":"Feature","geometry":{"type":"Polygon","coordinates":[[[16.8712454,48.1141211],[16.8713174,48.1140383],[16.8714934,48.1141065],[16.8714214,48.1141893],[16.8712454,48.1141211]]]},"properties":{"site":"carnuntum","name":null,"category":"other","osm_id":159530299}},{"type":"Feature","geometry":{"type":"Polygon","coordinates":[[[16.8708168,48.1146735],[16.8709156,48.1145639],[16.8710344,48.1146117],[16.8709356,48.1147212],[16.8708168,48.1146735]]]},"properties":{"site":"carnuntum","name":null,"category":"other","osm_id":159530300}},{"type":"Feature","geometry":{"type":"Polygon","coordinates":[[[16.8704353,48.115124],[16.8705299,48.11501],[16.8706715,48.1150623],[16.8705769,48.1151764],[16.8704353,48.115124]]]},"properties":{"site":"carnuntum","name":null,"category":"other","osm_id":159530302}},{"type":"Feature","geometry":{"type":"Polygon","coordinates":[[[16.8715981,48.1132753],[16.8716701,48.1132162],[16.8717616,48.1132659],[16.8718615,48.1131839],[16.8719381,48.1132255],[16.8717663,48.1133666],[16.8715981,48.1132753]]]},"properties":{"site":"carnuntum","name":null,"category":"other","osm_id":159530306}},{"type":"Feature","geometry":{"type":"Polygon","coordinates":[[[16.8714696,48.1132046],[16.8712965,48.1131076],[16.8713943,48.1130299],[16.8714803,48.1130782],[16.8715345,48.1130351],[16.8716215,48.1130839],[16.8714696,48.1132046]]]},"properties":{"site":"carnuntum","name":null,"category":"other","osm_id":159530307}},{"type":"Feature","geometry":{"type":"Polygon","coordinates":[[[16.8708377,48.1125233],[16.8709168,48.1124589],[16.8710281,48.1125197],[16.870949,48.1125842],[16.8708377,48.1125233]]]},"properties":{"site":"carnuntum","name":null,"category":"other","osm_id":159530308}},{"type":"Feature","geometry":{"type":"Polygon","coordinates":[[[16.8722762,48.1136783],[16.8721681,48.1137667],[16.8722843,48.1138301],[16.8723924,48.1137416],[16.8722762,48.1136783]]]},"properties":{"site":"carnuntum","name":null,"category":"other","osm_id":159530310}},{"type":"Feature","geometry":{"type":"Polygon","coordinates":[[[16.8706818,48.1146159],[16.8707761,48.1145048],[16.8706291,48.1144492],[16.8705765,48.1145113],[16.8706035,48.1145215],[16.8705619,48.1145706],[16.8706818,48.1146159]]]},"properties":{"site":"carnuntum","name":null,"category":"other","osm_id":159530311}},{"type":"Feature","geometry":{"type":"Polygon","coordinates":[[[16.8710718,48.1130048],[16.871143,48.1129465],[16.8712727,48.113017],[16.8712015,48.1130754],[16.8710718,48.1130048]]]},"properties":{"site":"carnuntum","name":null,"category":"other","osm_id":159530314}},{"type":"Feature","geometry":{"type":"Polygon","coordinates":[[[16.870319,48.1150697],[16.8704199,48.1149492],[16.8702839,48.1148985],[16.870183,48.1150189],[16.870319,48.1150697]]]},"properties":{"site":"carnuntum","name":null,"category":"other","osm_id":159530315}},{"type":"Feature","geometry":{"type":"Polygon","coordinates":[[[16.8709947,48.1144184],[16.8710655,48.1143395],[16.8712223,48.1144023],[16.8711514,48.1144812],[16.8709947,48.1144184]]]},"properties":{"site":"carnuntum","name":null,"category":"other","osm_id":159530317}},{"type":"Feature","geometry":{"type":"Polygon","coordinates":[[[16.871674,48.114289],[16.8717504,48.114199],[16.8719185,48.1142625],[16.8718421,48.1143526],[16.871674,48.114289]]]},"properties":{"site":"carnuntum","name":null,"category":"other","osm_id":159530319}},{"type":"Feature","geometry":{"type":"Polygon","coordinates":[[[16.8701389,48.1124535],[16.8699911,48.1123713],[16.8701468,48.1122466],[16.8702142,48.1122841],[16.8701295,48.1123519],[16.8702099,48.1123967],[16.8701389,48.1124535]]]},"properties":{"site":"carnuntum","name":null,"category":"other","osm_id":159530322}},{"type":"Feature","geometry":{"type":"Polygon","coordinates":[[[16.8704614,48.1124406],[16.8705602,48.1123558],[16.8706745,48.1124152],[16.8705757,48.1124999],[16.8704614,48.1124406]]]},"properties":{"site":"carnuntum","name":null,"category":"other","osm_id":159530323}},{"type":"Feature","geometry":{"type":"Polygon","coordinates":[[[16.8711225,48.1142685],[16.8711886,48.1141912],[16.8713596,48.1142563],[16.8712936,48.1143336],[16.8711225,48.1142685]]]},"properties":{"site":"carnuntum","name":null,"category":"other","osm_id":159530324}},{"type":"Feature","geometry":{"type":"Polygon","coordinates":[[[16.8740045,48.1144912],[16.8741299,48.1143922],[16.8742416,48.1144552],[16.8741163,48.1145542],[16.8740045,48.1144912]]]},"properties":{"site":"carnuntum","name":null,"category":"other","osm_id":159530784}},{"type":"Feature","geometry":{"type":"Polygon","coordinates":[[[16.8741881,48.1143335],[16.8742942,48.1142493],[16.8744215,48.1143208],[16.8743154,48.114405],[16.8741881,48.1143335]]]},"properties":{"site":"carnuntum","name":null,"category":"other","osm_id":159530785}},{"type":"Feature","geometry":{"type":"Polygon","coordinates":[[[16.8739948,48.1149743],[16.8741057,48.1148801],[16.8742648,48.1149636],[16.8741539,48.1150578],[16.8739948,48.1149743]]]},"properties":{"site":"carnuntum","name":null,"category":"other","osm_id":159530786}},{"type":"Feature","geometry":{"type":"Polygon","coordinates":[[[16.8736237,48.1144947],[16.8735013,48.1144266],[16.8736018,48.1143462],[16.8737241,48.1144144],[16.8736237,48.1144947]]]},"properties":{"site":"carnuntum","name":null,"category":"other","osm_id":159530787}},{"type":"Feature","geometry":{"type":"Polygon","coordinates":[[[16.8738368,48.1146289],[16.873932,48.1145583],[16.8740407,48.1146237],[16.8739456,48.1146943],[16.8738368,48.1146289]]]},"properties":{"site":"carnuntum","name":null,"category":"other","osm_id":159530788}},{"type":"Feature","geometry":{"type":"Polygon","coordinates":[[[16.8739367,48.1140742],[16.8740285,48.113999],[16.8741487,48.1140643],[16.8740569,48.1141395],[16.8739367,48.1140742]]]},"properties":{"site":"carnuntum","name":null,"category":"other","osm_id":159530789}},{"type":"Feature","geometry":{"type":"Polygon","coordinates":[[[16.8743428,48.1142046],[16.8744547,48.1141164],[16.8745666,48.1141796],[16.8744547,48.1142678],[16.8743428,48.1142046]]]},"properties":{"site":"carnuntum","name":null,"category":"other","osm_id":159530790}},{"type":"Feature","geometry":{"type":"Polygon","coordinates":[[[16.8736507,48.1147758],[16.8737789,48.1146786],[16.8738797,48.1147379],[16.8737515,48.1148351],[16.8736507,48.1147758]]]},"properties":{"site":"carnuntum","name":"Wählamt Petronell","category":"other","osm_id":159530791}},{"type":"Feature","geometry":{"type":"Polygon","coordinates":[[[16.8733192,48.114568],[16.873433,48.114484],[16.8735578,48.1145593],[16.8734441,48.1146434],[16.8733192,48.114568]]]},"properties":{"site":"carnuntum","name":null,"category":"other","osm_id":159530792}},{"type":"Feature","geometry":{"type":"Polygon","coordinates":[[[16.8739372,48.1142527],[16.8737571,48.1141545],[16.8738488,48.1140795],[16.8740289,48.1141777],[16.8739372,48.1142527]]]},"properties":{"site":"carnuntum","name":null,"category":"other","osm_id":159530793}},{"type":"Feature","geometry":{"type":"Polygon","coordinates":[[[16.873415,48.1139685],[16.8735053,48.1138907],[16.8736381,48.1139593],[16.8735478,48.1140372],[16.873415,48.1139685]]]},"properties":{"site":"carnuntum","name":null,"category":"other","osm_id":159530794}},{"type":"Feature","geometry":{"type":"Polygon","coordinates":[[[16.8754768,48.1124903],[16.8755902,48.1123978],[16.8754472,48.1123196],[16.8753337,48.1124121],[16.8754768,48.1124903]]]},"properties":{"site":"carnuntum","name":null,"category":"other","osm_id":159532227}},{"type":"Feature","geometry":{"type":"Polygon","coordinates":[[[16.8748711,48.1127773],[16.874972,48.1126944],[16.8751052,48.1127667],[16.8750043,48.1128496],[16.8748711,48.1127773]]]},"properties":{"site":"carnuntum","name":null,"category":"other","osm_id":159532228}},{"type":"Feature","geometry":{"type":"Polygon","coordinates":[[[16.875771,48.1132012],[16.8756491,48.1131356],[16.8757625,48.1130417],[16.8758844,48.1131073],[16.875771,48.1132012]]]},"properties":{"site":"carnuntum","name":null,"category":"other","osm_id":159532229}},{"type":"Feature","geometry":{"type":"Polygon","coordinates":[[[16.875651,48.1123798],[16.8754781,48.1122796],[16.8755761,48.1122043],[16.8757489,48.1123045],[16.875651,48.1123798]]]},"properties":{"site":"carnuntum","name":null,"category":"other","osm_id":159532230}},{"type":"Feature","geometry":{"type":"Polygon","coordinates":[[[16.8755491,48.1129395],[16.8756599,48.1128528],[16.8755337,48.1127809],[16.8754229,48.1128676],[16.8755491,48.1129395]]]},"properties":{"site":"carnuntum","name":null,"category":"other","osm_id":159532233}},{"type":"Feature","geometry":{"type":"Polygon","coordinates":[[[16.8751038,48.1133061],[16.8749403,48.1132143],[16.8750183,48.1131525],[16.8750529,48.1131719],[16.8751763,48.1130739],[16.8753052,48.1131463],[16.8751038,48.1133061]]]},"properties":{"site":"carnuntum","name":null,"category":"other","osm_id":159532234}},{"type":"Feature","geometry":{"type":"Polygon","coordinates":[[[16.8748735,48.1129915],[16.8747184,48.1129107],[16.8748171,48.1128263],[16.8749722,48.1129071],[16.8748735,48.1129915]]]},"properties":{"site":"carnuntum","name":null,"category":"other","osm_id":159532235}},{"type":"Feature","geometry":{"type":"Polygon","coordinates":[[[16.8755762,48.1133564],[16.8754595,48.1132892],[16.8755947,48.1131846],[16.8757114,48.1132518],[16.8755762,48.1133564]]]},"properties":{"site":"carnuntum","name":null,"category":"other","osm_id":159532237}},{"type":"Feature","geometry":{"type":"Polygon","coordinates":[[[16.8750387,48.113644],[16.8751394,48.1135634],[16.8752612,48.1136312],[16.8751605,48.1137118],[16.8750387,48.113644]]]},"properties":{"site":"carnuntum","name":null,"category":"other","osm_id":159532238}},{"type":"Feature","geometry":{"type":"Polygon","coordinates":[[[16.8747026,48.1134426],[16.8747948,48.1133686],[16.8749225,48.1134395],[16.8748304,48.1135136],[16.8747026,48.1134426]]]},"properties":{"site":"carnuntum","name":null,"category":"other","osm_id":159532239}},{"type":"Feature","geometry":{"type":"Polygon","coordinates":[[[16.8758471,48.1126907],[16.8757454,48.1126269],[16.8758576,48.1125471],[16.8759593,48.1126109],[16.8758471,48.1126907]]]},"properties":{"site":"carnuntum","name":null,"category":"other","osm_id":159532241}},{"type":"Feature","geometry":{"type":"Polygon","coordinates":[[[16.8756885,48.1128167],[16.8755615,48.1127453],[16.875669,48.1126601],[16.875796,48.1127315],[16.8756885,48.1128167]]]},"properties":{"site":"carnuntum","name":null,"category":"other","osm_id":159532243}},{"type":"Feature","geometry":{"type":"Polygon","coordinates":[[[16.8754503,48.1134823],[16.8755449,48.1133968],[16.8754185,48.1133344],[16.8753238,48.1134199],[16.8754503,48.1134823]]]},"properties":{"site":"carnuntum","name":null,"category":"other","osm_id":159532244}},{"type":"Feature","geometry":{"type":"Polygon","coordinates":[[[16.875273,48.1125916],[16.8751758,48.1125339],[16.8752865,48.1124508],[16.8754348,48.1125388],[16.8753534,48.1125999],[16.8753023,48.1125696],[16.875273,48.1125916]]]},"properties":{"site":"carnuntum","name":null,"category":"other","osm_id":159532245}},{"type":"Feature","geometry":{"type":"Polygon","coordinates":[[[16.8744654,48.1133132],[16.8745131,48.1132742],[16.8745427,48.1132904],[16.8745955,48.1132472],[16.8744306,48.1131573],[16.8743829,48.1131963],[16.8743487,48.1131777],[16.874296,48.1132208],[16.8744654,48.1133132]]]},"properties":{"site":"carnuntum","name":null,"category":"other","osm_id":159532247}},{"type":"Feature","geometry":{"type":"Polygon","coordinates":[[[16.8753808,48.1130772],[16.8752338,48.1129903],[16.875308,48.1129344],[16.8753482,48.1129582],[16.8753962,48.1129219],[16.875503,48.1129851],[16.8753808,48.1130772]]]},"properties":{"site":"carnuntum","name":null,"category":"other","osm_id":159532249}},{"type":"Feature","geometry":{"type":"Polygon","coordinates":[[[16.8759428,48.11306],[16.8758274,48.1129974],[16.8759373,48.1129072],[16.8760527,48.1129698],[16.8759428,48.11306]]]},"properties":{"site":"carnuntum","name":null,"category":"other","osm_id":159532251}},{"type":"Feature","geometry":{"type":"Polygon","coordinates":[[[16.8760026,48.1125732],[16.8758697,48.1124984],[16.8759602,48.1124268],[16.876093,48.1125016],[16.8760026,48.1125732]]]},"properties":{"site":"carnuntum","name":null,"category":"other","osm_id":159532253}},{"type":"Feature","geometry":{"type":"Polygon","coordinates":[[[16.8745154,48.1140666],[16.874621,48.1139812],[16.8747237,48.1140378],[16.8746181,48.1141232],[16.8745154,48.1140666]]]},"properties":{"site":"carnuntum","name":null,"category":"other","osm_id":159532255}},{"type":"Feature","geometry":{"type":"Polygon","coordinates":[[[16.8753437,48.1140621],[16.8754752,48.113951],[16.8753725,48.1138969],[16.8753246,48.1139374],[16.8752728,48.1139101],[16.8751893,48.1139807],[16.8753437,48.1140621]]]},"properties":{"site":"carnuntum","name":null,"category":"other","osm_id":159532257}},{"type":"Feature","geometry":{"type":"Polygon","coordinates":[[[16.8747177,48.1131029],[16.8745696,48.1130234],[16.8746489,48.1129575],[16.874797,48.1130371],[16.8747177,48.1131029]]]},"properties":{"site":"carnuntum","name":null,"category":"other","osm_id":159532259}},{"type":"Feature","geometry":{"type":"Polygon","coordinates":[[[16.874399,48.1129304],[16.8745439,48.1128119],[16.8744009,48.112734],[16.874256,48.1128526],[16.874399,48.1129304]]]},"properties":{"site":"carnuntum","name":null,"category":"other","osm_id":159532260}},{"type":"Feature","geometry":{"type":"Polygon","coordinates":[[[16.8750247,48.1126501],[16.8751362,48.112567],[16.8752904,48.112659],[16.875179,48.1127422],[16.8750247,48.1126501]]]},"properties":{"site":"carnuntum","name":null,"category":"other","osm_id":159532262}},{"type":"Feature","geometry":{"type":"Polygon","coordinates":[[[16.8757854,48.113703],[16.8756448,48.1136251],[16.8757511,48.1135396],[16.8758917,48.1136175],[16.8757854,48.113703]]]},"properties":{"site":"carnuntum","name":null,"category":"other","osm_id":159532264}},{"type":"Feature","geometry":{"type":"Polygon","coordinates":[[[16.8748254,48.1140129],[16.874685,48.1139269],[16.8747958,48.1138463],[16.8749361,48.1139324],[16.8748254,48.1140129]]]},"properties":{"site":"carnuntum","name":null,"category":"other","osm_id":159532266}},{"type":"Feature","geometry":{"type":"Polygon","coordinates":[[[16.8748607,48.1137803],[16.8749647,48.1136976],[16.8751074,48.1137776],[16.8750035,48.1138603],[16.8748607,48.1137803]]]},"properties":{"site":"carnuntum","name":null,"category":"other","osm_id":159532267}},{"type":"Feature","geometry":{"type":"Polygon","coordinates":[[[16.874934,48.1159839],[16.8750043,48.1159163],[16.875096,48.1159588],[16.8750257,48.1160265],[16.874934,48.1159839]]]},"properties":{"site":"carnuntum","name":null,"category":"other","osm_id":159628596}},{"type":"Feature","geometry":{"type":"Polygon","coordinates":[[[16.8756519,48.1162792],[16.8755476,48.1162367],[16.8756222,48.1161551],[16.8757265,48.1161975],[16.8756519,48.1162792]]]},"properties":{"site":"carnuntum","name":null,"category":"other","osm_id":159628597}},{"type":"Feature","geometry":{"type":"Polygon","coordinates":[[[16.8729036,48.1154724],[16.872991,48.1153853],[16.8731208,48.1154434],[16.8730334,48.1155305],[16.8729036,48.1154724]]]},"properties":{"site":"carnuntum","name":null,"category":"other","osm_id":159628599}},{"type":"Feature","geometry":{"type":"Polygon","coordinates":[[[16.8757531,48.1163286],[16.8758392,48.1162404],[16.8759847,48.1163038],[16.8758986,48.116392],[16.8757531,48.1163286]]]},"properties":{"site":"carnuntum","name":null,"category":"other","osm_id":159628600}},{"type":"Feature","geometry":{"type":"Polygon","coordinates":[[[16.8717442,48.1150602],[16.8718432,48.1149514],[16.8719739,48.1150044],[16.8718749,48.1151132],[16.8717442,48.1150602]]]},"properties":{"site":"carnuntum","name":null,"category":"other","osm_id":159628601}},{"type":"Feature","geometry":{"type":"Polygon","coordinates":[[[16.8710343,48.11499],[16.8711417,48.1148832],[16.8712592,48.1149359],[16.8711518,48.1150427],[16.8710343,48.11499]]]},"properties":{"site":"carnuntum","name":null,"category":"other","osm_id":159628602}},{"type":"Feature","geometry":{"type":"Polygon","coordinates":[[[16.87078,48.1152395],[16.8708531,48.1151535],[16.8710245,48.1152184],[16.8709515,48.1153044],[16.87078,48.1152395]]]},"properties":{"site":"carnuntum","name":null,"category":"other","osm_id":159628603}},{"type":"Feature","geometry":{"type":"Polygon","coordinates":[[[16.8715124,48.1152038],[16.8716081,48.115101],[16.8717304,48.1151517],[16.8716347,48.1152545],[16.8715124,48.1152038]]]},"properties":{"site":"carnuntum","name":null,"category":"other","osm_id":159628604}},{"type":"Feature","geometry":{"type":"Polygon","coordinates":[[[16.8736531,48.1158185],[16.8737496,48.1157073],[16.8735979,48.1156487],[16.8735283,48.115729],[16.8736132,48.1157618],[16.8735863,48.1157927],[16.8736531,48.1158185]]]},"properties":{"site":"carnuntum","name":null,"category":"other","osm_id":159628606}},{"type":"Feature","geometry":{"type":"Polygon","coordinates":[[[16.8712775,48.1154608],[16.8713768,48.115351],[16.871503,48.1154019],[16.8714037,48.1155117],[16.8712775,48.1154608]]]},"properties":{"site":"carnuntum","name":null,"category":"other","osm_id":159628607}},{"type":"Feature","geometry":{"type":"Polygon","coordinates":[[[16.8745431,48.1158394],[16.8746213,48.1157626],[16.8747231,48.1158087],[16.874645,48.1158856],[16.8745431,48.1158394]]]},"properties":{"site":"carnuntum","name":null,"category":"other","osm_id":159628608}},{"type":"Feature","geometry":{"type":"Polygon","coordinates":[[[16.8744406,48.1158378],[16.8745438,48.1157195],[16.8744194,48.1156711],[16.8743353,48.1157676],[16.8743863,48.1157875],[16.8743673,48.1158093],[16.8744406,48.1158378]]]},"properties":{"site":"carnuntum","name":null,"category":"other","osm_id":159628609}},{"type":"Feature","geometry":{"type":"Polygon","coordinates":[[[16.8721121,48.1151061],[16.872188,48.1150444],[16.8722899,48.1151002],[16.872214,48.115162],[16.8721121,48.1151061]]]},"properties":{"site":"carnuntum","name":null,"category":"other","osm_id":159628610}},{"type":"Feature","geometry":{"type":"Polygon","coordinates":[[[16.8754129,48.115714],[16.8755467,48.115621],[16.8756469,48.1156853],[16.875603,48.1157158],[16.8756422,48.1157409],[16.8755523,48.1158034],[16.8754129,48.115714]]]},"properties":{"site":"carnuntum","name":null,"category":"other","osm_id":159628611}},{"type":"Feature","geometry":{"type":"Polygon","coordinates":[[[16.8720711,48.1148519],[16.8719377,48.1147936],[16.871974,48.1147566],[16.8719452,48.114744],[16.8720044,48.1146837],[16.8721666,48.1147545],[16.8720711,48.1148519]]]},"properties":{"site":"carnuntum","name":null,"category":"other","osm_id":159628613}},{"type":"Feature","geometry":{"type":"Polygon","coordinates":[[[16.8724937,48.1152986],[16.8725717,48.1152244],[16.8727033,48.1152861],[16.8726253,48.1153603],[16.8724937,48.1152986]]]},"properties":{"site":"carnuntum","name":null,"category":"other","osm_id":159628614}},{"type":"Feature","geometry":{"type":"Polygon","coordinates":[[[16.8716042,48.115007],[16.871706,48.1149005],[16.8715545,48.1148359],[16.8714527,48.1149425],[16.8716042,48.115007]]]},"properties":{"site":"carnuntum","name":null,"category":"other","osm_id":159628615}},{"type":"Feature","geometry":{"type":"Polygon","coordinates":[[[16.8753407,48.1161344],[16.8754067,48.1160711],[16.8754968,48.1161129],[16.8754308,48.1161763],[16.8753407,48.1161344]]]},"properties":{"site":"carnuntum","name":null,"category":"other","osm_id":159628616}},{"type":"Feature","geometry":{"type":"Polygon","coordinates":[[[16.8710906,48.1153748],[16.8711902,48.1152659],[16.8713019,48.1153113],[16.8712024,48.1154203],[16.8710906,48.1153748]]]},"properties":{"site":"carnuntum","name":null,"category":"other","osm_id":159628617}},{"type":"Feature","geometry":{"type":"Polygon","coordinates":[[[16.8731041,48.1155527],[16.8731884,48.1154743],[16.8732987,48.1155271],[16.8732144,48.1156056],[16.8731041,48.1155527]]]},"properties":{"site":"carnuntum","name":null,"category":"other","osm_id":159628619}},{"type":"Feature","geometry":{"type":"Polygon","coordinates":[[[16.8752141,48.1161238],[16.8752891,48.1160367],[16.8751797,48.1159947],[16.8751047,48.1160817],[16.8752141,48.1161238]]]},"properties":{"site":"carnuntum","name":null,"category":"other","osm_id":159628621}},{"type":"Feature","geometry":{"type":"Polygon","coordinates":[[[16.8739227,48.1159538],[16.8739544,48.1159171],[16.8738699,48.1158845],[16.8738382,48.1159212],[16.8739227,48.1159538]]]},"properties":{"site":"carnuntum","name":null,"category":"other","osm_id":159628623}},{"type":"Feature","geometry":{"type":"Polygon","coordinates":[[[16.874797,48.1160089],[16.8749191,48.1158796],[16.874764,48.1158143],[16.8747119,48.1158695],[16.8747522,48.1158865],[16.8746823,48.1159606],[16.874797,48.1160089]]]},"properties":{"site":"carnuntum","name":null,"category":"other","osm_id":159628624}},{"type":"Feature","geometry":{"type":"Polygon","coordinates":[[[16.8723502,48.1145508],[16.8722423,48.114499],[16.8723164,48.1144302],[16.8722756,48.1144106],[16.8723068,48.1143817],[16.8724554,48.1144529],[16.8723502,48.1145508]]]},"properties":{"site":"carnuntum","name":null,"category":"other","osm_id":159628626}},{"type":"Feature","geometry":{"type":"Polygon","coordinates":[[[16.8722672,48.1152329],[16.8723532,48.1151424],[16.8724964,48.115203],[16.8724103,48.1152935],[16.8722672,48.1152329]]]},"properties":{"site":"carnuntum","name":null,"category":"other","osm_id":159628627}},{"type":"Feature","geometry":{"type":"Polygon","coordinates":[[[16.8714271,48.1151729],[16.8715297,48.1150601],[16.8713915,48.1150041],[16.8712889,48.1151169],[16.8714271,48.1151729]]]},"properties":{"site":"carnuntum","name":null,"category":"other","osm_id":159628628}},{"type":"Feature","geometry":{"type":"Polygon","coordinates":[[[16.872825,48.1154205],[16.8728908,48.1153517],[16.8727861,48.1153071],[16.8727203,48.1153759],[16.872825,48.1154205]]]},"properties":{"site":"carnuntum","name":null,"category":"other","osm_id":159628629}},{"type":"Feature","geometry":{"type":"Polygon","coordinates":[[[16.8721887,48.1147047],[16.872064,48.1146474],[16.8721619,48.1145524],[16.8722865,48.1146097],[16.8721887,48.1147047]]]},"properties":{"site":"carnuntum","name":null,"category":"other","osm_id":159628630}},{"type":"Feature","geometry":{"type":"Polygon","coordinates":[[[16.8734649,48.1157156],[16.8735427,48.1156325],[16.8734166,48.1155798],[16.8733387,48.1156629],[16.8734649,48.1157156]]]},"properties":{"site":"carnuntum","name":null,"category":"other","osm_id":159628631}},{"type":"Feature","geometry":{"type":"Polygon","coordinates":[[[16.8749694,48.1155572],[16.8750548,48.1154963],[16.8751132,48.1155329],[16.8751648,48.1154962],[16.8752424,48.1155447],[16.8751053,48.1156423],[16.8749694,48.1155572]]]},"properties":{"site":"carnuntum","name":null,"category":"other","osm_id":159628633}},{"type":"Feature","geometry":{"type":"Polygon","coordinates":[[[16.8733202,48.1152714],[16.8733943,48.1152],[16.8735057,48.1152516],[16.8734316,48.115323],[16.8733202,48.1152714]]]},"properties":{"site":"carnuntum","name":null,"category":"other","osm_id":159628790}},{"type":"Feature","geometry":{"type":"Polygon","coordinates":[[[16.873663,48.1154583],[16.8737462,48.1153761],[16.8738455,48.1154208],[16.8737623,48.1155031],[16.873663,48.1154583]]]},"properties":{"site":"carnuntum","name":null,"category":"other","osm_id":159628791}},{"type":"Feature","geometry":{"type":"Polygon","coordinates":[[[16.8727771,48.1140391],[16.8728516,48.1139826],[16.8730604,48.1141055],[16.8729859,48.1141619],[16.8727771,48.1140391]]]},"properties":{"site":"carnuntum","name":null,"category":"other","osm_id":159628792}},{"type":"Feature","geometry":{"type":"Polygon","coordinates":[[[16.8731572,48.1139817],[16.8730795,48.1139381],[16.8732764,48.1137817],[16.8733591,48.1138281],[16.8732345,48.1139271],[16.8732723,48.1139483],[16.8732372,48.1139762],[16.8731943,48.1139522],[16.8731572,48.1139817]]]},"properties":{"site":"carnuntum","name":null,"category":"other","osm_id":159628793}},{"type":"Feature","geometry":{"type":"Polygon","coordinates":[[[16.873475,48.1153613],[16.8735646,48.1152783],[16.8736803,48.115334],[16.8735907,48.115417],[16.873475,48.1153613]]]},"properties":{"site":"carnuntum","name":null,"category":"other","osm_id":159628794}},{"type":"Feature","geometry":{"type":"Polygon","coordinates":[[[16.8731259,48.1151805],[16.8732079,48.1151085],[16.8733134,48.1151621],[16.8732314,48.115234],[16.8731259,48.1151805]]]},"properties":{"site":"carnuntum","name":null,"category":"other","osm_id":159628795}},{"type":"Feature","geometry":{"type":"Polygon","coordinates":[[[16.8738273,48.1155443],[16.8739243,48.1154498],[16.8740389,48.1155023],[16.8739419,48.1155967],[16.8738273,48.1155443]]]},"properties":{"site":"carnuntum","name":null,"category":"other","osm_id":159628796}},{"type":"Feature","geometry":{"type":"Polygon","coordinates":[[[16.8740377,48.1156157],[16.8741197,48.115534],[16.8742334,48.1155849],[16.8741514,48.1156666],[16.8740377,48.1156157]]]},"properties":{"site":"carnuntum","name":null,"category":"other","osm_id":159628797}},{"type":"Feature","geometry":{"type":"Polygon","coordinates":[[[16.873238,48.1142064],[16.8733213,48.1141299],[16.8731518,48.1140477],[16.8730685,48.1141242],[16.873238,48.1142064]]]},"properties":{"site":"carnuntum","name":null,"category":"other","osm_id":159628798}},{"type":"Feature","geometry":{"type":"Polygon","coordinates":[[[16.8725659,48.1148592],[16.8726584,48.1147828],[16.8724969,48.1146957],[16.8724045,48.1147721],[16.8725659,48.1148592]]]},"properties":{"site":"carnuntum","name":null,"category":"other","osm_id":159628799}},{"type":"Feature","geometry":{"type":"Polygon","coordinates":[[[16.8730848,48.1144555],[16.87283,48.1143084],[16.872905,48.1142504],[16.8730471,48.1143325],[16.8731726,48.1142356],[16.8732237,48.1142651],[16.8731257,48.1143408],[16.8731872,48.1143764],[16.8730848,48.1144555]]]},"properties":{"site":"carnuntum","name":null,"category":"other","osm_id":159628800}},{"type":"Feature","geometry":{"type":"Polygon","coordinates":[[[16.8735579,48.1138549],[16.8736825,48.113759],[16.8738016,48.113828],[16.873677,48.1139239],[16.8735579,48.1138549]]]},"properties":{"site":"carnuntum","name":null,"category":"other","osm_id":159628801}},{"type":"Feature","geometry":{"type":"Polygon","coordinates":[[[16.8730338,48.1150175],[16.8731001,48.1149632],[16.8731928,48.1150137],[16.8731265,48.115068],[16.8730338,48.1150175]]]},"properties":{"site":"carnuntum","name":null,"category":"other","osm_id":159628802}},{"type":"Feature","geometry":{"type":"Polygon","coordinates":[[[16.8726205,48.115079],[16.8727195,48.1149923],[16.8729018,48.1150852],[16.8728509,48.1151297],[16.8727875,48.1150974],[16.8727394,48.1151395],[16.8726205,48.115079]]]},"properties":{"site":"carnuntum","name":null,"category":"other","osm_id":159628803}},{"type":"Feature","geometry":{"type":"Polygon","coordinates":[[[16.8745204,48.113763],[16.8744015,48.113694],[16.8745125,48.1136087],[16.8746315,48.1136777],[16.8745204,48.113763]]]},"properties":{"site":"carnuntum","name":null,"category":"other","osm_id":159628841}},{"type":"Feature","geometry":{"type":"Polygon","coordinates":[[[16.8741602,48.1133468],[16.8742673,48.113266],[16.8743794,48.1133323],[16.8742723,48.1134131],[16.8741602,48.1133468]]]},"properties":{"site":"carnuntum","name":null,"category":"other","osm_id":159628842}},{"type":"Feature","geometry":{"type":"Polygon","coordinates":[[[16.8747015,48.1136198],[16.8747894,48.113553],[16.8746511,48.1134718],[16.8745202,48.1135713],[16.8746135,48.113626],[16.8746565,48.1135933],[16.8747015,48.1136198]]]},"properties":{"site":"carnuntum","name":null,"category":"other","osm_id":159628843}},{"type":"Feature","geometry":{"type":"Polygon","coordinates":[[[16.8737027,48.1137178],[16.8738155,48.1136254],[16.8739788,48.1137142],[16.873914,48.1137673],[16.873869,48.1137429],[16.8738211,48.1137821],[16.8737027,48.1137178]]]},"properties":{"site":"carnuntum","name":null,"category":"other","osm_id":159628844}},{"type":"Feature","geometry":{"type":"Polygon","coordinates":[[[16.8740762,48.1136664],[16.8741456,48.1136057],[16.873963,48.1135128],[16.8738489,48.1136128],[16.8739729,48.1136759],[16.8740177,48.1136367],[16.8740762,48.1136664]]]},"properties":{"site":"carnuntum","name":null,"category":"other","osm_id":159628845}},{"type":"Feature","geometry":{"type":"Polygon","coordinates":[[[16.8743676,48.1138963],[16.8744722,48.1138088],[16.8743387,48.1137377],[16.8742732,48.1137926],[16.874304,48.113809],[16.8742518,48.1138528],[16.8743324,48.1138957],[16.8743457,48.1138846],[16.8743676,48.1138963]]]},"properties":{"site":"carnuntum","name":null,"category":"other","osm_id":159628846}},{"type":"Feature","geometry":{"type":"Polygon","coordinates":[[[16.8740556,48.1139365],[16.874112,48.1138915],[16.8741515,48.1139136],[16.8742188,48.11386],[16.874326,48.11392],[16.8742022,48.1140186],[16.8740556,48.1139365]]]},"properties":{"site":"carnuntum","name":null,"category":"other","osm_id":159628847}},{"type":"Feature","geometry":{"type":"Polygon","coordinates":[[[16.8740087,48.1134794],[16.8741354,48.1133831],[16.8742366,48.1134424],[16.8741665,48.1134958],[16.8742059,48.1135188],[16.8741493,48.1135618],[16.8740087,48.1134794]]]},"properties":{"site":"carnuntum","name":null,"category":"other","osm_id":159628848}},{"type":"Feature","geometry":{"type":"Polygon","coordinates":[[[16.8750132,48.1143462],[16.8748899,48.1142781],[16.8750185,48.1141743],[16.8751418,48.1142423],[16.8750132,48.1143462]]]},"properties":{"site":"carnuntum","name":null,"category":"other","osm_id":159628991}},{"type":"Feature","geometry":{"type":"Polygon","coordinates":[[[16.8747066,48.1144145],[16.8748344,48.1143145],[16.8749594,48.1143856],[16.8748315,48.1144857],[16.8747066,48.1144145]]]},"properties":{"site":"carnuntum","name":null,"category":"other","osm_id":159628992}},{"type":"Feature","geometry":{"type":"Polygon","coordinates":[[[16.8759784,48.11354],[16.8758778,48.113484],[16.8759779,48.1134039],[16.8760785,48.11346],[16.8759784,48.11354]]]},"properties":{"site":"carnuntum","name":null,"category":"other","osm_id":159628993}},{"type":"Feature","geometry":{"type":"Polygon","coordinates":[[[16.8777409,48.1134965],[16.8776974,48.1134701],[16.8777677,48.1134186],[16.8778112,48.113445],[16.8777409,48.1134965]]]},"properties":{"site":"carnuntum","name":null,"category":"other","osm_id":159628994}},{"type":"Feature","geometry":{"type":"Polygon","coordinates":[[[16.8782369,48.113827],[16.8781276,48.1137594],[16.8782262,48.1136883],[16.8783355,48.1137558],[16.8782369,48.113827]]]},"properties":{"site":"carnuntum","name":null,"category":"other","osm_id":159628995}},{"type":"Feature","geometry":{"type":"Polygon","coordinates":[[[16.8758285,48.114127],[16.8759532,48.114027],[16.8758022,48.113943],[16.8756479,48.1140665],[16.8757454,48.1141208],[16.8757749,48.1140972],[16.8758285,48.114127]]]},"properties":{"site":"carnuntum","name":null,"category":"other","osm_id":159628996}},{"type":"Feature","geometry":{"type":"Polygon","coordinates":[[[16.8777363,48.1140467],[16.8778375,48.1139801],[16.8779174,48.1140342],[16.8778161,48.1141008],[16.8777363,48.1140467]]]},"properties":{"site":"carnuntum","name":null,"category":"other","osm_id":159628997}},{"type":"Feature","geometry":{"type":"Polygon","coordinates":[[[16.8776122,48.1134457],[16.8774953,48.1133751],[16.8775933,48.1133027],[16.8777102,48.1133734],[16.8776122,48.1134457]]]},"properties":{"site":"carnuntum","name":null,"category":"other","osm_id":159628998}},{"type":"Feature","geometry":{"type":"Polygon","coordinates":[[[16.8774382,48.1133478],[16.8773322,48.1132835],[16.8774245,48.1132158],[16.8775304,48.1132801],[16.8774382,48.1133478]]]},"properties":{"site":"carnuntum","name":null,"category":"other","osm_id":159628999}},{"type":"Feature","geometry":{"type":"Polygon","coordinates":[[[16.8772019,48.1137819],[16.87711,48.1137263],[16.877161,48.1136888],[16.8771016,48.1136529],[16.8771992,48.1135809],[16.8772343,48.1136021],[16.8772876,48.1135628],[16.8774038,48.113633],[16.8772019,48.1137819]]]},"properties":{"site":"carnuntum","name":null,"category":"other","osm_id":159629000}},{"type":"Feature","geometry":{"type":"Polygon","coordinates":[[[16.8772343,48.1140128],[16.8773894,48.1139045],[16.8775313,48.113995],[16.8773762,48.1141033],[16.8772343,48.1140128]]]},"properties":{"site":"carnuntum","name":null,"category":"other","osm_id":159629001}},{"type":"Feature","geometry":{"type":"Polygon","coordinates":[[[16.8778711,48.1139555],[16.8779662,48.1138928],[16.8780961,48.1139806],[16.8780011,48.1140433],[16.8778711,48.1139555]]]},"properties":{"site":"carnuntum","name":null,"category":"other","osm_id":159629002}},{"type":"Feature","geometry":{"type":"Polygon","coordinates":[[[16.8750634,48.1141276],[16.8751745,48.1140355],[16.8752986,48.1141022],[16.8751875,48.1141943],[16.8750634,48.1141276]]]},"properties":{"site":"carnuntum","name":null,"category":"other","osm_id":159629003}},{"type":"Feature","geometry":{"type":"Polygon","coordinates":[[[16.8777208,48.1142299],[16.8776128,48.1141596],[16.8777074,48.1140948],[16.8778154,48.114165],[16.8777208,48.1142299]]]},"properties":{"site":"carnuntum","name":null,"category":"other","osm_id":159629004}},{"type":"Feature","geometry":{"type":"Polygon","coordinates":[[[16.8760449,48.1142663],[16.8761548,48.1141769],[16.8760206,48.1141034],[16.8759108,48.1141929],[16.8760449,48.1142663]]]},"properties":{"site":"carnuntum","name":null,"category":"other","osm_id":159629005}},{"type":"Feature","geometry":{"type":"Polygon","coordinates":[[[16.8769235,48.1135597],[16.8770644,48.1134462],[16.8771921,48.1135168],[16.8770512,48.1136303],[16.8769235,48.1135597]]]},"properties":{"site":"carnuntum","name":null,"category":"other","osm_id":159629006}},{"type":"Feature","geometry":{"type":"Polygon","coordinates":[[[16.8757401,48.1152545],[16.8756514,48.1151919],[16.8758043,48.1150954],[16.8758929,48.115158],[16.8757401,48.1152545]]]},"properties":{"site":"carnuntum","name":null,"category":"other","osm_id":160137393}},{"type":"Feature","geometry":{"type":"Polygon","coordinates":[[[16.8754825,48.1154463],[16.8753945,48.1153896],[16.8755252,48.1152991],[16.8756132,48.1153557],[16.8754825,48.1154463]]]},"properties":{"site":"carnuntum","name":null,"category":"other","osm_id":160137394}},{"type":"Feature","geometry":{"type":"Polygon","coordinates":[[[16.8769219,48.1132222],[16.8767789,48.1131423],[16.8769064,48.1130405],[16.8770116,48.1130992],[16.876971,48.1131316],[16.8770089,48.1131527],[16.8769219,48.1132222]]]},"properties":{"site":"carnuntum","name":null,"category":"other","osm_id":160137395}},{"type":"Feature","geometry":{"type":"Polygon","coordinates":[[[16.8766554,48.1134096],[16.8765399,48.1133408],[16.8767008,48.1132203],[16.8768163,48.1132891],[16.8766554,48.1134096]]]},"properties":{"site":"carnuntum","name":null,"category":"other","osm_id":160137396}},{"type":"Feature","geometry":{"type":"Polygon","coordinates":[[[16.8759486,48.1151208],[16.8758045,48.1150281],[16.8758747,48.1149795],[16.8758504,48.1149639],[16.8759299,48.1149087],[16.8760983,48.115017],[16.8759486,48.1151208]]]},"properties":{"site":"carnuntum","name":null,"category":"other","osm_id":160137397}},{"type":"Feature","geometry":{"type":"Polygon","coordinates":[[[16.8761799,48.1149519],[16.8760487,48.1148615],[16.8761714,48.1147821],[16.8763026,48.1148725],[16.8761799,48.1149519]]]},"properties":{"site":"carnuntum","name":null,"category":"other","osm_id":160137398}},{"type":"Feature","geometry":{"type":"Polygon","coordinates":[[[16.8752596,48.1150692],[16.8753553,48.1149989],[16.8753797,48.1150137],[16.8753949,48.1150026],[16.8754812,48.115055],[16.875466,48.1150661],[16.875483,48.1150764],[16.8753873,48.1151467],[16.8752596,48.1150692]]]},"properties":{"site":"carnuntum","name":null,"category":"other","osm_id":160137399}},{"type":"Feature","geometry":{"type":"Polygon","coordinates":[[[16.8771723,48.1132713],[16.8770655,48.113203],[16.8772095,48.1131027],[16.8773162,48.1131709],[16.8771723,48.1132713]]]},"properties":{"site":"carnuntum","name":null,"category":"other","osm_id":160137400}},{"type":"Feature","geometry":{"type":"Polygon","coordinates":[[[16.8770249,48.11436],[16.8769258,48.1142955],[16.8770275,48.1142257],[16.8771267,48.1142902],[16.8770249,48.11436]]]},"properties":{"site":"carnuntum","name":null,"category":"other","osm_id":160137401}},{"type":"Feature","geometry":{"type":"Polygon","coordinates":[[[16.8768612,48.1135042],[16.8767329,48.1134289],[16.8768346,48.1133516],[16.8769629,48.1134269],[16.8768612,48.1135042]]]},"properties":{"site":"carnuntum","name":null,"category":"other","osm_id":160137402}},{"type":"Feature","geometry":{"type":"Polygon","coordinates":[[[16.8766573,48.1146071],[16.8765581,48.1145408],[16.8766894,48.1144532],[16.8767887,48.1145194],[16.8766573,48.1146071]]]},"properties":{"site":"carnuntum","name":null,"category":"other","osm_id":160137403}},{"type":"Feature","geometry":{"type":"Polygon","coordinates":[[[16.8764265,48.114779],[16.8763202,48.1147039],[16.87645,48.114622],[16.8765563,48.1146971],[16.8764265,48.114779]]]},"properties":{"site":"carnuntum","name":null,"category":"other","osm_id":160137404}},{"type":"Feature","geometry":{"type":"Polygon","coordinates":[[[16.8766561,48.1129789],[16.8765344,48.11291],[16.8766698,48.1128033],[16.8767915,48.1128722],[16.8766561,48.1129789]]]},"properties":{"site":"carnuntum","name":null,"category":"other","osm_id":160137406}},{"type":"Feature","geometry":{"type":"Polygon","coordinates":[[[16.8751417,48.1147042],[16.8750347,48.1146449],[16.8751308,48.1145677],[16.8752378,48.1146271],[16.8751417,48.1147042]]]},"properties":{"site":"carnuntum","name":null,"category":"other","osm_id":160137407}},{"type":"Feature","geometry":{"type":"Polygon","coordinates":[[[16.8688709,48.1148613],[16.8688976,48.1148364],[16.8690005,48.1148855],[16.8689871,48.1148979],[16.8690459,48.114926],[16.8690111,48.1149585],[16.86904,48.1149723],[16.8689765,48.1150315],[16.8688991,48.1149945],[16.8688809,48.1150114],[16.8686781,48.1149145],[16.868697,48.1148969],[16.8686351,48.1148673],[16.8687022,48.1148048],[16.868749,48.1148272],[16.8687662,48.1148112],[16.8688709,48.1148613]]]},"properties":{"site":"carnuntum","name":"Pfarrkirche Petronell (Hl. Petronilla)","category":"other","osm_id":180693333}},{"type":"Feature","geometry":{"type":"Polygon","coordinates":[[[16.8764869,48.1131315],[16.8763533,48.1130591],[16.8764458,48.1129831],[16.8764658,48.1129939],[16.8765077,48.1129594],[16.8766213,48.113021],[16.8764869,48.1131315]]]},"properties":{"site":"carnuntum","name":null,"category":"other","osm_id":238215404}},{"type":"Feature","geometry":{"type":"Polygon","coordinates":[[[16.8761491,48.1134322],[16.8760018,48.1133507],[16.8761467,48.1132339],[16.8762716,48.113303],[16.8762297,48.1133367],[16.8762521,48.1133492],[16.8761491,48.1134322]]]},"properties":{"site":"carnuntum","name":null,"category":"other","osm_id":238215407}},{"type":"Feature","geometry":{"type":"Polygon","coordinates":[[[16.8763592,48.1128072],[16.8761869,48.1127054],[16.8762971,48.1126222],[16.8764513,48.1127133],[16.8763904,48.1127592],[16.8764086,48.11277],[16.8763592,48.1128072]]]},"properties":{"site":"carnuntum","name":null,"category":"other","osm_id":238215409}},{"type":"Feature","geometry":{"type":"Polygon","coordinates":[[[16.8689281,48.1139227],[16.8684327,48.1138307],[16.8683188,48.1137501],[16.868245,48.1136588],[16.8685239,48.1136015],[16.8685715,48.1137043],[16.8684106,48.1137428],[16.868487,48.113784],[16.8685004,48.1137678],[16.8685407,48.1137616],[16.8686909,48.1137902],[16.8686869,48.1138063],[16.8688773,48.1138377],[16.868888,48.113809],[16.8689316,48.1138164],[16.8689292,48.1138918],[16.8689281,48.1139227]]]},"properties":{"site":"carnuntum","name":"Cinadr GmbH","category":"other","osm_id":313782247}},{"type":"Feature","geometry":{"type":"Polygon","coordinates":[[[16.8681048,48.1137598],[16.8682202,48.1138233],[16.8683188,48.1137501],[16.868245,48.1136588],[16.8681048,48.1137598]]]},"properties":{"site":"carnuntum","name":null,"category":"other","osm_id":313782262}},{"type":"Feature","geometry":{"type":"Polygon","coordinates":[[[16.8749871,48.1092471],[16.8750105,48.1092243],[16.8750552,48.1092447],[16.8750813,48.1092192],[16.8751123,48.1092334],[16.8750629,48.1092817],[16.8749871,48.1092471]]]},"properties":{"site":"carnuntum","name":null,"category":"other","osm_id":320808516}},{"type":"Feature","geometry":{"type":"Polygon","coordinates":[[[16.8716253,48.1135994],[16.8716355,48.1135809],[16.8714922,48.1135042],[16.8713825,48.1136896],[16.8712791,48.1136642],[16.8712709,48.1136703],[16.8712423,48.1137407],[16.8715131,48.1138032],[16.8715955,48.1136536],[16.8716253,48.1135994]]]},"properties":{"site":"carnuntum","name":null,"category":"other","osm_id":626765798}},{"type":"Feature","geometry":{"type":"Polygon","coordinates":[[[16.8711121,48.1135568],[16.8710174,48.1135426],[16.8709937,48.113613],[16.8708844,48.1135966],[16.8708562,48.1136804],[16.8710602,48.113711],[16.8711121,48.1135568]]]},"properties":{"site":"carnuntum","name":null,"category":"other","osm_id":626765799}},{"type":"Feature","geometry":{"type":"Polygon","coordinates":[[[16.8723044,48.1129723],[16.8725029,48.1130708],[16.8725796,48.1130018],[16.8723811,48.1129033],[16.8723044,48.1129723]]]},"properties":{"site":"carnuntum","name":null,"category":"other","osm_id":626765800}},{"type":"Feature","geometry":{"type":"Polygon","coordinates":[[[16.8729722,48.1131209],[16.8731734,48.1129615],[16.8730744,48.1129058],[16.8728732,48.1130652],[16.8729722,48.1131209]]]},"properties":{"site":"carnuntum","name":null,"category":"other","osm_id":626765801}},{"type":"Feature","geometry":{"type":"Polygon","coordinates":[[[16.8727747,48.1132715],[16.8729097,48.1131576],[16.8727694,48.1130834],[16.8726769,48.1131615],[16.8727245,48.1131867],[16.872682,48.1132225],[16.8727747,48.1132715]]]},"properties":{"site":"carnuntum","name":null,"category":"other","osm_id":626765802}},{"type":"Feature","geometry":{"type":"Polygon","coordinates":[[[16.8722762,48.1136783],[16.8725749,48.113434],[16.8724982,48.1133922],[16.8723393,48.1135221],[16.8722964,48.1134987],[16.8722009,48.1135768],[16.8722313,48.1135934],[16.872187,48.1136297],[16.8722762,48.1136783]]]},"properties":{"site":"carnuntum","name":null,"category":"other","osm_id":626765803}},{"type":"Feature","geometry":{"type":"Polygon","coordinates":[[[16.8761674,48.1132073],[16.8763136,48.1132749],[16.8764402,48.1131529],[16.876355,48.1131135],[16.8763025,48.1131642],[16.8762415,48.1131359],[16.8761674,48.1132073]]]},"properties":{"site":"carnuntum","name":null,"category":"other","osm_id":626765804}},{"type":"Feature","geometry":{"type":"Polygon","coordinates":[[[16.8744823,48.1152833],[16.8746493,48.1153722],[16.8748002,48.1152468],[16.8749066,48.1151556],[16.8748394,48.1151186],[16.8746558,48.1152669],[16.8745647,48.1152167],[16.8744823,48.1152833]]]},"properties":{"site":"carnuntum","name":null,"category":"other","osm_id":626765805}},{"type":"Feature","geometry":{"type":"Polygon","coordinates":[[[16.8746493,48.1153722],[16.8747647,48.1154341],[16.8748939,48.1153267],[16.8748576,48.1153072],[16.8748792,48.1152892],[16.8748002,48.1152468],[16.8746493,48.1153722]]]},"properties":{"site":"carnuntum","name":null,"category":"other","osm_id":626765806}},{"type":"Feature","geometry":{"type":"Polygon","coordinates":[[[16.8742758,48.1151615],[16.8743629,48.1152069],[16.8744675,48.1151173],[16.8743804,48.115072],[16.8742758,48.1151615]]]},"properties":{"site":"carnuntum","name":null,"category":"other","osm_id":626765807}},{"type":"Feature","geometry":{"type":"Polygon","coordinates":[[[16.874198,48.1148535],[16.8743091,48.1149126],[16.8744045,48.1148328],[16.8742934,48.1147736],[16.874198,48.1148535]]]},"properties":{"site":"carnuntum","name":null,"category":"other","osm_id":626765809}},{"type":"Feature","geometry":{"type":"Polygon","coordinates":[[[16.8745132,48.1145374],[16.8746607,48.1146189],[16.874767,48.1145331],[16.8746195,48.1144516],[16.8745132,48.1145374]]]},"properties":{"site":"carnuntum","name":null,"category":"other","osm_id":626765810}},{"type":"Feature","geometry":{"type":"Polygon","coordinates":[[[16.8743576,48.1147031],[16.8744992,48.1147763],[16.8746467,48.1146491],[16.8745051,48.1145759],[16.8743576,48.1147031]]]},"properties":{"site":"carnuntum","name":null,"category":"other","osm_id":626765811}},{"type":"Feature","geometry":{"type":"Polygon","coordinates":[[[16.8759896,48.1128525],[16.8761251,48.1129252],[16.8762723,48.1128029],[16.8761368,48.1127301],[16.8759896,48.1128525]]]},"properties":{"site":"carnuntum","name":null,"category":"other","osm_id":626765812}},{"type":"Feature","geometry":{"type":"Polygon","coordinates":[[[16.8749923,48.115002],[16.8750999,48.1149159],[16.8750185,48.1148705],[16.8749655,48.114913],[16.8748739,48.1148619],[16.8747925,48.114927],[16.8749655,48.1150234],[16.8749309,48.1150512],[16.8749947,48.1150867],[16.8750562,48.1150376],[16.8749923,48.115002]]]},"properties":{"site":"carnuntum","name":null,"category":"other","osm_id":626765813}},{"type":"Feature","geometry":{"type":"Polygon","coordinates":[[[16.8753696,48.1147666],[16.8753942,48.1147455],[16.8752501,48.1146704],[16.8751636,48.1147444],[16.8753066,48.1148189],[16.8753182,48.114809],[16.8753971,48.1148501],[16.8754297,48.1148222],[16.8754474,48.1148071],[16.8753696,48.1147666]]]},"properties":{"site":"carnuntum","name":null,"category":"other","osm_id":626765814}},{"type":"Feature","geometry":{"type":"Polygon","coordinates":[[[16.8753631,48.1148792],[16.8755539,48.1149786],[16.875644,48.1149015],[16.8755384,48.1148465],[16.8755149,48.1148666],[16.8754297,48.1148222],[16.8753971,48.1148501],[16.8753631,48.1148792]]]},"properties":{"site":"carnuntum","name":null,"category":"other","osm_id":626765815}},{"type":"Feature","geometry":{"type":"Polygon","coordinates":[[[16.8757376,48.1146762],[16.8758047,48.114712],[16.8758201,48.1146991],[16.8759042,48.114748],[16.8760115,48.1146656],[16.8758771,48.1145876],[16.8757966,48.1146493],[16.8757803,48.1146406],[16.8757376,48.1146762]]]},"properties":{"site":"carnuntum","name":null,"category":"other","osm_id":626765816}},{"type":"Feature","geometry":{"type":"Polygon","coordinates":[[[16.8762633,48.1143001],[16.8763912,48.1143707],[16.8764932,48.1142883],[16.8763652,48.1142178],[16.8762633,48.1143001]]]},"properties":{"site":"carnuntum","name":null,"category":"other","osm_id":626765817}},{"type":"Feature","geometry":{"type":"Polygon","coordinates":[[[16.8757188,48.1143619],[16.8758749,48.1144461],[16.8759594,48.1143762],[16.8758033,48.1142921],[16.8757188,48.1143619]]]},"properties":{"site":"carnuntum","name":null,"category":"other","osm_id":626765818}},{"type":"Feature","geometry":{"type":"Polygon","coordinates":[[[16.8760112,48.1145249],[16.8761151,48.1145842],[16.8762103,48.1145099],[16.8761064,48.1144506],[16.8760112,48.1145249]]]},"properties":{"site":"carnuntum","name":null,"category":"other","osm_id":626765819}},{"type":"Feature","geometry":{"type":"Polygon","coordinates":[[[16.8752187,48.1144499],[16.8753253,48.1145041],[16.8754184,48.1144225],[16.8753117,48.1143683],[16.8752187,48.1144499]]]},"properties":{"site":"carnuntum","name":null,"category":"other","osm_id":626765820}},{"type":"Feature","geometry":{"type":"Polygon","coordinates":[[[16.8754781,48.114543],[16.8755748,48.1145951],[16.8756697,48.1145164],[16.8755731,48.1144644],[16.8754781,48.114543]]]},"properties":{"site":"carnuntum","name":null,"category":"other","osm_id":626765821}},{"type":"Feature","geometry":{"type":"Polygon","coordinates":[[[16.8754466,48.1142294],[16.8755519,48.1142867],[16.8756579,48.1141998],[16.8755525,48.1141426],[16.8754466,48.1142294]]]},"properties":{"site":"carnuntum","name":null,"category":"other","osm_id":626765822}},{"type":"Feature","geometry":{"type":"Polygon","coordinates":[[[16.8685764,48.1121337],[16.8686267,48.1120661],[16.8685434,48.1120385],[16.8684931,48.1121061],[16.8685764,48.1121337]]]},"properties":{"site":"carnuntum","name":null,"category":"other","osm_id":691749793}},{"type":"Feature","geometry":{"type":"Polygon","coordinates":[[[16.8706951,48.1121458],[16.8705603,48.1120688],[16.8704721,48.1121376],[16.8706069,48.1122146],[16.8706951,48.1121458]]]},"properties":{"site":"carnuntum","name":null,"category":"other","osm_id":691749794}},{"type":"Feature","geometry":{"type":"Polygon","coordinates":[[[16.8702122,48.1127323],[16.8701605,48.1128286],[16.8702029,48.1128509],[16.8702351,48.1128268],[16.8704014,48.1129203],[16.8704302,48.1128474],[16.8702498,48.1127413],[16.8702122,48.1127323]]]},"properties":{"site":"carnuntum","name":null,"category":"other","osm_id":691749795}},{"type":"Feature","geometry":{"type":"Polygon","coordinates":[[[16.8699824,48.1131603],[16.8699937,48.1131393],[16.8701605,48.1128286],[16.8702122,48.1127323],[16.8701519,48.1126996],[16.8699135,48.1131438],[16.8699824,48.1131603]]]},"properties":{"site":"carnuntum","name":null,"category":"other","osm_id":691749796}},{"type":"Feature","geometry":{"type":"Polygon","coordinates":[[[16.8689731,48.1129311],[16.8692936,48.112478],[16.8692249,48.1124564],[16.8689044,48.1129094],[16.8689731,48.1129311]]]},"properties":{"site":"carnuntum","name":null,"category":"other","osm_id":691749797}},{"type":"Feature","geometry":{"type":"Polygon","coordinates":[[[16.8690632,48.1124453],[16.8691402,48.1123268],[16.8690633,48.1123045],[16.8690439,48.1123344],[16.8689807,48.112316],[16.8689231,48.1124046],[16.8690632,48.1124453]]]},"properties":{"site":"carnuntum","name":null,"category":"other","osm_id":691749798}},{"type":"Feature","geometry":{"type":"Polygon","coordinates":[[[16.869423,48.1122761],[16.8692527,48.1121816],[16.8691796,48.1122918],[16.8693499,48.1123889],[16.869423,48.1122761]]]},"properties":{"site":"carnuntum","name":null,"category":"other","osm_id":691749799}},{"type":"Feature","geometry":{"type":"Polygon","coordinates":[[[16.8682398,48.1121919],[16.8682988,48.1120983],[16.8681224,48.1120488],[16.8680635,48.1121424],[16.8682398,48.1121919]]]},"properties":{"site":"carnuntum","name":null,"category":"other","osm_id":691749800}},{"type":"Feature","geometry":{"type":"Polygon","coordinates":[[[16.8683263,48.1124679],[16.8681769,48.1124196],[16.8681169,48.1125024],[16.868183,48.1125238],[16.86821,48.1125519],[16.8682384,48.1125417],[16.8682663,48.1125507],[16.8683263,48.1124679]]]},"properties":{"site":"carnuntum","name":null,"category":"other","osm_id":691749801}},{"type":"Feature","geometry":{"type":"Polygon","coordinates":[[[16.8680829,48.1126887],[16.8681399,48.1126086],[16.86802,48.1125706],[16.8679631,48.1126507],[16.8680829,48.1126887]]]},"properties":{"site":"carnuntum","name":null,"category":"other","osm_id":691749802}},{"type":"Feature","geometry":{"type":"Polygon","coordinates":[[[16.8690703,48.1146046],[16.869126,48.1145079],[16.8689892,48.1144728],[16.8689468,48.1145465],[16.8689667,48.1145516],[16.8689535,48.1145746],[16.8690703,48.1146046]]]},"properties":{"site":"carnuntum","name":null,"category":"other","osm_id":691749806}},{"type":"Feature","geometry":{"type":"Polygon","coordinates":[[[16.8700647,48.1134701],[16.8701141,48.1133476],[16.8699935,48.1133259],[16.8700862,48.1131616],[16.8699937,48.1131393],[16.8699824,48.1131603],[16.8699022,48.1133095],[16.8698528,48.1134321],[16.8700647,48.1134701]]]},"properties":{"site":"carnuntum","name":null,"category":"other","osm_id":691749807}},{"type":"Feature","geometry":{"type":"Polygon","coordinates":[[[16.8696624,48.1132557],[16.8697167,48.1131321],[16.8697979,48.1129893],[16.8698562,48.1130054],[16.8700299,48.1127278],[16.869881,48.1126848],[16.8696129,48.1131118],[16.8695586,48.1132353],[16.8696624,48.1132557]]]},"properties":{"site":"carnuntum","name":null,"category":"other","osm_id":691749808}},{"type":"Feature","geometry":{"type":"Polygon","coordinates":[[[16.8697496,48.1135359],[16.869775,48.1134306],[16.869526,48.1134039],[16.8695084,48.1134554],[16.869502,48.1135093],[16.8697496,48.1135359]]]},"properties":{"site":"carnuntum","name":null,"category":"other","osm_id":691749809}},{"type":"Feature","geometry":{"type":"Polygon","coordinates":[[[16.8701673,48.1121852],[16.8699729,48.11208],[16.8698435,48.1121866],[16.870038,48.1122918],[16.8701673,48.1121852]]]},"properties":{"site":"carnuntum","name":null,"category":"other","osm_id":691749810}},{"type":"Feature","geometry":{"type":"Polygon","coordinates":[[[16.8694337,48.1118335],[16.8693532,48.1118925],[16.8695149,48.1119908],[16.8695953,48.1119318],[16.8694337,48.1118335]]]},"properties":{"site":"carnuntum","name":null,"category":"other","osm_id":691749811}},{"type":"Feature","geometry":{"type":"Polygon","coordinates":[[[16.8690549,48.111772],[16.8690796,48.1117377],[16.8692721,48.1114711],[16.8690353,48.1113948],[16.868966,48.1114908],[16.8691107,48.1115374],[16.8689627,48.1117423],[16.8690549,48.111772]]]},"properties":{"site":"carnuntum","name":null,"category":"other","osm_id":691749812}},{"type":"Feature","geometry":{"type":"Polygon","coordinates":[[[16.8682839,48.111398],[16.8683248,48.1113378],[16.8683706,48.1113517],[16.8684437,48.1112443],[16.8683766,48.1112239],[16.8683382,48.1112804],[16.8683087,48.1112714],[16.8682963,48.1112897],[16.8682293,48.1112694],[16.8681976,48.1113161],[16.8682152,48.1113215],[16.8681838,48.1113677],[16.8682839,48.111398]]]},"properties":{"site":"carnuntum","name":null,"category":"other","osm_id":692396742}},{"type":"Feature","geometry":{"type":"Polygon","coordinates":[[[16.8708894,48.11331],[16.8709808,48.1132414],[16.8709187,48.1132045],[16.8708771,48.1132358],[16.8708558,48.1132231],[16.870806,48.1132605],[16.8708274,48.1132731],[16.8708894,48.11331]]]},"properties":{"site":"carnuntum","name":null,"category":"other","osm_id":692396745}},{"type":"Feature","geometry":{"type":"Polygon","coordinates":[[[16.8708274,48.1132731],[16.8707793,48.1133092],[16.8707575,48.1132962],[16.8707303,48.1133166],[16.8707522,48.1133297],[16.8706846,48.1133804],[16.8707466,48.1134172],[16.8708894,48.11331],[16.8708274,48.1132731]]]},"properties":{"site":"carnuntum","name":null,"category":"other","osm_id":692396746}},{"type":"Feature","geometry":{"type":"Polygon","coordinates":[[[16.8701538,48.1137019],[16.8700504,48.1136882],[16.870035,48.1137403],[16.8700653,48.1137442],[16.8700353,48.1138456],[16.8701084,48.1138553],[16.8701339,48.1137691],[16.8701538,48.1137019]]]},"properties":{"site":"carnuntum","name":null,"category":"other","osm_id":692396747}},{"type":"Feature","geometry":{"type":"Polygon","coordinates":[[[16.8704288,48.1135691],[16.870512,48.1134065],[16.8704727,48.1134],[16.8704103,48.1133898],[16.8703609,48.1134848],[16.8702132,48.1134506],[16.8701814,48.1135117],[16.8704288,48.1135691]]]},"properties":{"site":"carnuntum","name":null,"category":"other","osm_id":692396748}},{"type":"Feature","geometry":{"type":"Polygon","coordinates":[[[16.8719476,48.1137629],[16.8718996,48.1137936],[16.8719883,48.1138581],[16.8719336,48.113925],[16.872012,48.1139536],[16.872048,48.113909],[16.8720722,48.1139297],[16.872158,48.114047],[16.8722127,48.1140121],[16.8722577,48.1140434],[16.8723057,48.1140127],[16.8719476,48.1137629]]]},"properties":{"site":"carnuntum","name":null,"category":"other","osm_id":692396749}},{"type":"Feature","geometry":{"type":"Polygon","coordinates":[[[16.8698931,48.1136599],[16.8698896,48.1137207],[16.8700318,48.1137242],[16.8700325,48.1136707],[16.8698931,48.1136599]]]},"properties":{"site":"carnuntum","name":null,"category":"other","osm_id":692410078}},{"type":"Feature","geometry":{"type":"Polygon","coordinates":[[[16.8694928,48.1136174],[16.869489,48.1136385],[16.8694746,48.1137172],[16.869448,48.1137834],[16.8694076,48.1138842],[16.869478,48.1138968],[16.8695563,48.1137254],[16.8697824,48.1137506],[16.8698076,48.1136546],[16.8694928,48.1136174]]]},"properties":{"site":"carnuntum","name":null,"category":"other","osm_id":692410080}},{"type":"Feature","geometry":{"type":"Polygon","coordinates":[[[16.8680786,48.1152497],[16.8680859,48.1151431],[16.8679951,48.1151403],[16.8679877,48.1152469],[16.8680786,48.1152497]]]},"properties":{"site":"carnuntum","name":null,"category":"other","osm_id":692410082}},{"type":"Feature","geometry":{"type":"Polygon","coordinates":[[[16.8695082,48.112641],[16.869613,48.1126692],[16.8697402,48.112465],[16.869645,48.1124144],[16.8695082,48.112641]]]},"properties":{"site":"carnuntum","name":null,"category":"other","osm_id":692410096}},{"type":"Feature","geometry":{"type":"Polygon","coordinates":[[[16.8697167,48.1121328],[16.8695457,48.1120383],[16.8694489,48.1121165],[16.8696199,48.1122109],[16.8697167,48.1121328]]]},"properties":{"site":"carnuntum","name":null,"category":"other","osm_id":692410098}},{"type":"Feature","geometry":{"type":"Polygon","coordinates":[[[16.868837,48.1115436],[16.8687419,48.111514],[16.8688018,48.1114283],[16.8686742,48.1113885],[16.8685922,48.1115059],[16.8686964,48.1115384],[16.8686713,48.1115743],[16.8687897,48.1116112],[16.868837,48.1115436]]]},"properties":{"site":"carnuntum","name":null,"category":"other","osm_id":692410099}},{"type":"Feature","geometry":{"type":"Polygon","coordinates":[[[16.8686432,48.1121216],[16.8687279,48.1121499],[16.8687531,48.1121163],[16.8688376,48.1121445],[16.8688699,48.1121013],[16.8688842,48.112106],[16.8689362,48.1120366],[16.8688836,48.112019],[16.8688606,48.1120498],[16.8687297,48.1120061],[16.8686432,48.1121216]]]},"properties":{"site":"carnuntum","name":null,"category":"other","osm_id":692410101}},{"type":"Feature","geometry":{"type":"Polygon","coordinates":[[[16.8692831,48.1132168],[16.8694277,48.1129794],[16.8693384,48.1129539],[16.8693089,48.1130087],[16.8692949,48.1130054],[16.8692614,48.1130681],[16.869134,48.113043],[16.8691186,48.1130606],[16.8690264,48.1131655],[16.8691927,48.1132041],[16.8692831,48.1132168]]]},"properties":{"site":"carnuntum","name":null,"category":"other","osm_id":693385128}},{"type":"Feature","geometry":{"type":"Polygon","coordinates":[[[16.868147,48.11395],[16.8679793,48.1139183],[16.8679216,48.1141381],[16.8681349,48.1141837],[16.868161,48.1141273],[16.8681041,48.114113],[16.8681309,48.1140111],[16.868147,48.11395]]]},"properties":{"site":"carnuntum","name":null,"category":"other","osm_id":693401165}},{"type":"Feature","geometry":{"type":"Polygon","coordinates":[[[16.8680926,48.1143852],[16.868092,48.1142563],[16.8679596,48.1142566],[16.86796,48.1143324],[16.8679723,48.1143324],[16.8679726,48.1143855],[16.8680926,48.1143852]]]},"properties":{"site":"carnuntum","name":null,"category":"other","osm_id":693401166}},{"type":"Feature","geometry":{"type":"Polygon","coordinates":[[[16.8700788,48.1148439],[16.8700922,48.1148257],[16.8699818,48.1147892],[16.8699683,48.1148074],[16.8697697,48.1147418],[16.869744,48.1147764],[16.8696389,48.1147417],[16.8695825,48.1148176],[16.8696872,48.1148522],[16.869692,48.1148457],[16.8697679,48.1148708],[16.8697465,48.1148997],[16.8698698,48.1149404],[16.8698542,48.1149614],[16.8699646,48.1149979],[16.8699802,48.1149769],[16.8699984,48.1149829],[16.8700969,48.1148499],[16.8700788,48.1148439]]]},"properties":{"site":"carnuntum","name":"Kindergarten Petronell","category":"other","osm_id":693401174}},{"type":"Feature","geometry":{"type":"Polygon","coordinates":[[[16.8692118,48.1142097],[16.8691618,48.1141637],[16.8690584,48.1142138],[16.8690321,48.1141896],[16.8689723,48.1142185],[16.8689985,48.1142427],[16.8689472,48.1142675],[16.8689972,48.1143136],[16.8690485,48.1142887],[16.8690609,48.1143001],[16.8691207,48.1142712],[16.8691083,48.1142598],[16.8692118,48.1142097]]]},"properties":{"site":"carnuntum","name":null,"category":"other","osm_id":693616824}},{"type":"Feature","geometry":{"type":"Polygon","coordinates":[[[16.8684017,48.1111184],[16.8683777,48.1111513],[16.8684853,48.1111864],[16.8685427,48.1111079],[16.8684704,48.1110843],[16.868437,48.1111299],[16.8684017,48.1111184]]]},"properties":{"site":"carnuntum","name":null,"category":"other","osm_id":693616836}},{"type":"Feature","geometry":{"type":"Polygon","coordinates":[[[16.868345,48.1128277],[16.8682923,48.1129141],[16.8683558,48.1129345],[16.8684046,48.1129512],[16.8683784,48.1129863],[16.8684462,48.1130089],[16.8684665,48.1129818],[16.8685344,48.1128908],[16.8684,48.112846],[16.868345,48.1128277]]]},"properties":{"site":"carnuntum","name":null,"category":"other","osm_id":693616837}},{"type":"Feature","geometry":{"type":"Polygon","coordinates":[[[16.8683072,48.1134312],[16.868404,48.1133248],[16.8683451,48.1133009],[16.8683042,48.1133458],[16.8682691,48.1133315],[16.868393,48.1131813],[16.8683312,48.1131596],[16.8681705,48.1133682],[16.8683072,48.1134312]]]},"properties":{"site":"carnuntum","name":null,"category":"other","osm_id":693616838}},{"type":"Feature","geometry":{"type":"Polygon","coordinates":[[[16.8681126,48.1128093],[16.8679404,48.1127605],[16.8678834,48.1128504],[16.8679405,48.1128665],[16.8679593,48.1128369],[16.8680718,48.1128688],[16.8681126,48.1128093]]]},"properties":{"site":"carnuntum","name":null,"category":"other","osm_id":693616839}},{"type":"Feature","geometry":{"type":"Polygon","coordinates":[[[16.8684665,48.1129818],[16.8686546,48.1130408],[16.8687181,48.1129504],[16.8686781,48.1129378],[16.8687106,48.1128916],[16.8686166,48.1128621],[16.8685841,48.1129083],[16.8685344,48.1128908],[16.8684665,48.1129818]]]},"properties":{"site":"carnuntum","name":null,"category":"other","osm_id":693616840}},{"type":"Feature","geometry":{"type":"Polygon","coordinates":[[[16.867998,48.1129764],[16.8679941,48.1129853],[16.8679752,48.1130166],[16.8678265,48.1132326],[16.8680085,48.1133125],[16.8680535,48.1132541],[16.8681071,48.1131707],[16.8680397,48.1131505],[16.8679903,48.1132233],[16.8679444,48.1132095],[16.8680846,48.1130022],[16.8680716,48.1129989],[16.867998,48.1129764]]]},"properties":{"site":"carnuntum","name":null,"category":"other","osm_id":693820017}},{"type":"Feature","geometry":{"type":"Polygon","coordinates":[[[16.8679941,48.1129853],[16.867998,48.1129764],[16.8680515,48.1128983],[16.8679862,48.1128783],[16.8679268,48.1129646],[16.8679941,48.1129853]]]},"properties":{"site":"carnuntum","name":null,"category":"other","osm_id":693820018}},{"type":"Feature","geometry":{"type":"Polygon","coordinates":[[[16.8689292,48.1138918],[16.8690036,48.1138929],[16.8690077,48.1137643],[16.8690261,48.1137645],[16.8690294,48.1136621],[16.869077,48.1136628],[16.8690755,48.1137097],[16.8691669,48.113711],[16.8691273,48.1138641],[16.869195,48.1138708],[16.8692145,48.1138068],[16.8692406,48.1136747],[16.8692413,48.1136344],[16.8692403,48.1136172],[16.8691548,48.1136124],[16.869154,48.1136182],[16.8689384,48.1136062],[16.8689449,48.1137078],[16.8689316,48.1138164],[16.8689292,48.1138918]]]},"properties":{"site":"carnuntum","name":null,"category":"other","osm_id":693881358}},{"type":"Feature","geometry":{"type":"Polygon","coordinates":[[[16.869448,48.1137834],[16.8694746,48.1137172],[16.869489,48.1136385],[16.8692413,48.1136344],[16.8692406,48.1136747],[16.8692145,48.1138068],[16.8692775,48.1138117],[16.8693011,48.1137025],[16.8694073,48.1137052],[16.8693807,48.1137714],[16.869448,48.1137834]]]},"properties":{"site":"carnuntum","name":null,"category":"other","osm_id":693881359}},{"type":"Feature","geometry":{"type":"Polygon","coordinates":[[[16.8702116,48.1133559],[16.8704103,48.1133898],[16.8704727,48.1134],[16.8704811,48.1133658],[16.8702683,48.1133329],[16.8703003,48.1132606],[16.8703233,48.1132652],[16.8703361,48.1132362],[16.870354,48.1132398],[16.870434,48.1130595],[16.8703504,48.113043],[16.8702116,48.1133559]]]},"properties":{"site":"carnuntum","name":null,"category":"other","osm_id":693881360}},{"type":"Feature","geometry":{"type":"Polygon","coordinates":[[[16.8705428,48.1133537],[16.8706052,48.1131585],[16.8705179,48.1131461],[16.8705292,48.1131107],[16.8704626,48.1131012],[16.8704364,48.1131832],[16.8704764,48.1131889],[16.8704474,48.1132797],[16.8703842,48.1132707],[16.8703657,48.1133285],[16.8705428,48.1133537]]]},"properties":{"site":"carnuntum","name":null,"category":"other","osm_id":693881361}},{"type":"Feature","geometry":{"type":"Polygon","coordinates":[[[16.8690796,48.1117377],[16.8690549,48.111772],[16.8690002,48.1118477],[16.8690723,48.1118709],[16.8691517,48.111761],[16.8690796,48.1117377]]]},"properties":{"site":"carnuntum","name":null,"category":"other","osm_id":945721649}},{"type":"Feature","geometry":{"type":"Polygon","coordinates":[[[16.8715955,48.1136536],[16.8717289,48.1136863],[16.8717587,48.1136321],[16.8716253,48.1135994],[16.8715955,48.1136536]]]},"properties":{"site":"carnuntum","name":null,"category":"other","osm_id":945721651}},{"type":"Feature","geometry":{"type":"Polygon","coordinates":[[[16.8710602,48.113711],[16.8712423,48.1137407],[16.8712709,48.1136703],[16.8711757,48.113653],[16.871208,48.1135734],[16.8711121,48.1135568],[16.8710602,48.113711]]]},"properties":{"site":"carnuntum","name":null,"category":"other","osm_id":945721652}},{"type":"Feature","geometry":{"type":"Polygon","coordinates":[[[16.8701339,48.1137691],[16.8702651,48.1137864],[16.870285,48.1137192],[16.8701538,48.1137019],[16.8701339,48.1137691]]]},"properties":{"site":"carnuntum","name":null,"category":"other","osm_id":945721663}},{"type":"Feature","geometry":{"type":"Polygon","coordinates":[[[16.8707085,48.1138766],[16.8707766,48.1138982],[16.8708128,48.1138471],[16.8707447,48.1138256],[16.8707085,48.1138766]]]},"properties":{"site":"carnuntum","name":null,"category":"other","osm_id":945721664}},{"type":"Feature","geometry":{"type":"Polygon","coordinates":[[[16.872682,48.1132225],[16.872515,48.1133634],[16.8726076,48.1134124],[16.8727747,48.1132715],[16.872682,48.1132225]]]},"properties":{"site":"carnuntum","name":null,"category":"other","osm_id":945721674}},{"type":"Feature","geometry":{"type":"Polygon","coordinates":[[[16.8714409,48.1129123],[16.8714793,48.1128822],[16.871463,48.1128729],[16.8715101,48.1128361],[16.8713961,48.1127712],[16.8713479,48.1128089],[16.8713269,48.1127968],[16.8712895,48.1128261],[16.8714242,48.1129028],[16.8714409,48.1129123]]]},"properties":{"site":"carnuntum","name":null,"category":"other","osm_id":945721675}},{"type":"Feature","geometry":{"type":"Polygon","coordinates":[[[16.8764118,48.1128731],[16.8764918,48.1129193],[16.876549,48.1128751],[16.876469,48.112829],[16.8764118,48.1128731]]]},"properties":{"site":"carnuntum","name":null,"category":"other","osm_id":945721684}},{"type":"Feature","geometry":{"type":"Polygon","coordinates":[[[16.876469,48.112829],[16.8764835,48.1128178],[16.8764096,48.1127752],[16.876338,48.1128305],[16.8764118,48.1128731],[16.876469,48.112829]]]},"properties":{"site":"carnuntum","name":null,"category":"other","osm_id":945721685}},{"type":"Feature","geometry":{"type":"Polygon","coordinates":[[[16.8708844,48.1135966],[16.8708913,48.1135689],[16.8708136,48.1135584],[16.8707964,48.1136151],[16.8706598,48.1135967],[16.8706422,48.1136548],[16.8708562,48.1136804],[16.8708844,48.1135966]]]},"properties":{"site":"carnuntum","name":null,"category":"other","osm_id":945721689}},{"type":"Feature","geometry":{"type":"Polygon","coordinates":[[[16.8708292,48.1128836],[16.8709517,48.1129512],[16.8710791,48.1128482],[16.8709566,48.1127807],[16.8708292,48.1128836]]]},"properties":{"site":"carnuntum","name":null,"category":"other","osm_id":945721690}},{"type":"Feature","geometry":{"type":"Polygon","coordinates":[[[16.8688296,48.1131102],[16.8689572,48.1131574],[16.8689234,48.113198],[16.8689796,48.1132188],[16.8690264,48.1131655],[16.8691186,48.1130606],[16.8689292,48.1129903],[16.8688296,48.1131102]]]},"properties":{"site":"carnuntum","name":null,"category":"other","osm_id":945721691}},{"type":"Feature","geometry":{"type":"Polygon","coordinates":[[[16.8692325,48.1133764],[16.8692831,48.1132168],[16.8691927,48.1132041],[16.8691295,48.1134035],[16.8692198,48.1134162],[16.8692325,48.1133764]]]},"properties":{"site":"carnuntum","name":null,"category":"other","osm_id":945721692}},{"type":"Feature","geometry":{"type":"Polygon","coordinates":[[[16.8692198,48.1134162],[16.8692169,48.1134399],[16.8692088,48.1135075],[16.8695004,48.1135229],[16.869502,48.1135093],[16.8695084,48.1134554],[16.8693161,48.1134452],[16.8693371,48.1133828],[16.8692325,48.1133764],[16.8692198,48.1134162]]]},"properties":{"site":"carnuntum","name":null,"category":"other","osm_id":945721693}},{"type":"Feature","geometry":{"type":"Polygon","coordinates":[[[16.8689739,48.1135001],[16.8692088,48.1135075],[16.8692169,48.1134399],[16.8692198,48.1134162],[16.8691295,48.1134035],[16.8691262,48.1134389],[16.8689784,48.1134334],[16.8689739,48.1135001]]]},"properties":{"site":"carnuntum","name":null,"category":"other","osm_id":945721694}},{"type":"Feature","geometry":{"type":"Polygon","coordinates":[[[16.8689595,48.1134031],[16.8690744,48.1132581],[16.8689851,48.1132266],[16.8688658,48.113377],[16.8689595,48.1134031]]]},"properties":{"site":"carnuntum","name":null,"category":"other","osm_id":945721695}},{"type":"Feature","geometry":{"type":"Polygon","coordinates":[[[16.8689784,48.1134334],[16.8689367,48.1134319],[16.8689595,48.1134031],[16.8688658,48.113377],[16.8688497,48.1133976],[16.8687998,48.1135125],[16.8688872,48.1135158],[16.8688888,48.1134969],[16.8689739,48.1135001],[16.8689784,48.1134334]]]},"properties":{"site":"carnuntum","name":null,"category":"other","osm_id":945721696}},{"type":"Feature","geometry":{"type":"Polygon","coordinates":[[[16.8688497,48.1133976],[16.8688658,48.113377],[16.8689221,48.113305],[16.8688577,48.1132839],[16.8687685,48.1133819],[16.8688497,48.1133976]]]},"properties":{"site":"carnuntum","name":null,"category":"other","osm_id":945721697}},{"type":"Feature","geometry":{"type":"Polygon","coordinates":[[[16.8687685,48.1133819],[16.8687454,48.1134351],[16.868655,48.1134293],[16.8687137,48.1133405],[16.8686492,48.1133215],[16.8685285,48.1135041],[16.8686025,48.1135088],[16.868796,48.1135211],[16.8687998,48.1135125],[16.8688497,48.1133976],[16.8687685,48.1133819]]]},"properties":{"site":"carnuntum","name":null,"category":"other","osm_id":945721698}},{"type":"Feature","geometry":{"type":"Polygon","coordinates":[[[16.8686492,48.1133215],[16.8687137,48.1133405],[16.8688468,48.1131815],[16.8687893,48.1131594],[16.8686492,48.1133215]]]},"properties":{"site":"carnuntum","name":null,"category":"other","osm_id":945721699}},{"type":"Feature","geometry":{"type":"Polygon","coordinates":[[[16.86878,48.1128666],[16.8688403,48.1127824],[16.8687929,48.1127673],[16.8687325,48.1128514],[16.86878,48.1128666]]]},"properties":{"site":"carnuntum","name":null,"category":"other","osm_id":945721700}},{"type":"Feature","geometry":{"type":"Polygon","coordinates":[[[16.8685049,48.1133156],[16.868663,48.1131492],[16.868599,48.1131222],[16.868441,48.1132885],[16.8685049,48.1133156]]]},"properties":{"site":"carnuntum","name":null,"category":"other","osm_id":945721701}},{"type":"Feature","geometry":{"type":"Polygon","coordinates":[[[16.868441,48.1132885],[16.868404,48.1133248],[16.8683072,48.1134312],[16.8685285,48.1135041],[16.8686492,48.1133215],[16.8685712,48.1132985],[16.8684861,48.1134272],[16.8684197,48.1134054],[16.8685049,48.1133156],[16.868441,48.1132885]]]},"properties":{"site":"carnuntum","name":null,"category":"other","osm_id":945721702}},{"type":"Feature","geometry":{"type":"Polygon","coordinates":[[[16.8680716,48.1129989],[16.8682175,48.1127864],[16.8681438,48.1127638],[16.8681126,48.1128093],[16.8680718,48.1128688],[16.8680515,48.1128983],[16.867998,48.1129764],[16.8680716,48.1129989]]]},"properties":{"site":"carnuntum","name":null,"category":"other","osm_id":945721703}},{"type":"Feature","geometry":{"type":"Polygon","coordinates":[[[16.8684,48.112846],[16.868474,48.1127583],[16.868418,48.1127372],[16.868345,48.1128277],[16.8684,48.112846]]]},"properties":{"site":"carnuntum","name":null,"category":"other","osm_id":945721704}},{"type":"Feature","geometry":{"type":"Polygon","coordinates":[[[16.8682923,48.1129141],[16.8681071,48.1131707],[16.8680535,48.1132541],[16.8680933,48.1132678],[16.8683299,48.1129704],[16.8683558,48.1129345],[16.8682923,48.1129141]]]},"properties":{"site":"carnuntum","name":null,"category":"other","osm_id":945721705}},{"type":"Feature","geometry":{"type":"Polygon","coordinates":[[[16.8680535,48.1132541],[16.8680085,48.1133125],[16.8681705,48.1133682],[16.8683312,48.1131596],[16.8683429,48.1131444],[16.8682582,48.1131153],[16.8681308,48.1132807],[16.8680933,48.1132678],[16.8680535,48.1132541]]]},"properties":{"site":"carnuntum","name":null,"category":"other","osm_id":945721706}},{"type":"Feature","geometry":{"type":"Polygon","coordinates":[[[16.8679793,48.1139183],[16.868147,48.11395],[16.8682952,48.1139878],[16.868332,48.1139281],[16.8681177,48.1138693],[16.8681538,48.1138107],[16.8680611,48.1137853],[16.8679793,48.1139183]]]},"properties":{"site":"carnuntum","name":null,"category":"other","osm_id":945721707}},{"type":"Feature","geometry":{"type":"Polygon","coordinates":[[[16.8681309,48.1140111],[16.8683897,48.1140902],[16.868385,48.1141399],[16.8688671,48.1141869],[16.8689483,48.1140852],[16.8684105,48.1140172],[16.8682952,48.1139878],[16.868147,48.11395],[16.8681309,48.1140111]]]},"properties":{"site":"carnuntum","name":null,"category":"other","osm_id":945721724}},{"type":"Feature","geometry":{"type":"Polygon","coordinates":[[[16.8734188,48.1135928],[16.8735148,48.1136455],[16.8736141,48.1135649],[16.8735181,48.1135122],[16.8734188,48.1135928]]]},"properties":{"site":"carnuntum","name":null,"category":"other","osm_id":945721733}},{"type":"Feature","geometry":{"type":"Polygon","coordinates":[[[16.8738353,48.1133947],[16.873861,48.1133729],[16.8738492,48.1133668],[16.873973,48.1132617],[16.873855,48.1131997],[16.8737926,48.1132527],[16.8737708,48.1132413],[16.8736838,48.1133152],[16.8738353,48.1133947]]]},"properties":{"site":"carnuntum","name":null,"category":"other","osm_id":945721734}},{"type":"Feature","geometry":{"type":"Polygon","coordinates":[[[16.8783581,48.1139071],[16.8784506,48.1139642],[16.8784976,48.1139303],[16.8784051,48.1138732],[16.8783581,48.1139071]]]},"properties":{"site":"carnuntum","name":null,"category":"other","osm_id":945721760}}]}