{"type":"FeatureCollection","features":[{"type":"Feature","geometry":{"type":"Polygon","coordinates":[[[22.8809687,37.9057014],[22.8812189,37.9057526],[22.8813153,37.90546],[22.8810651,37.9054087],[22.8809687,37.9057014]]]},"properties":{"site":"corinth","name":"Ιουλία βασιλική","category":"archaeological","osm_id":146857047}},{"type":"Feature","geometry":{"type":"Polygon","coordinates":[[[22.8809727,37.905322],[22.8793563,37.9048324],[22.8793858,37.9047716],[22.8810023,37.9052613],[22.8809727,37.905322]]]},"properties":{"site":"corinth","name":"Κεντρικά καταστήματα","category":"archaeological","osm_id":146857048}},{"type":"Feature","geometry":{"type":"Polygon","coordinates":[[[22.8810681,37.9052025],[22.8793958,37.9046884],[22.8794828,37.9045367],[22.8811564,37.905036],[22.8810681,37.9052025]]]},"properties":{"site":"corinth","name":"Νότια στοά","category":"archaeological","osm_id":146857056}},{"type":"Feature","geometry":{"type":"Polygon","coordinates":[[[22.8810517,37.9053715],[22.8811156,37.9053872],[22.881127,37.9053585],[22.8812957,37.9054],[22.881354,37.9052524],[22.8811911,37.9052123],[22.8812168,37.9051472],[22.8811471,37.90513],[22.8810517,37.9053715]]]},"properties":{"site":"corinth","name":null,"category":"archaeological","osm_id":146857119}},{"type":"Feature","geometry":{"type":"Polygon","coordinates":[[[22.8791162,37.9054403],[22.880027,37.9056663],[22.8800198,37.9057799],[22.8802093,37.9057912],[22.8802383,37.9054914],[22.8809242,37.9057045],[22.8810117,37.90539],[22.8802976,37.9052027],[22.8793472,37.9049161],[22.8792391,37.9051168],[22.8791162,37.9054403]]]},"properties":{"site":"corinth","name":"Αγορά αρχαίας Κορίνθου","category":"archaeological","osm_id":146857122}},{"type":"Feature","geometry":{"type":"Polygon","coordinates":[[[22.8804465,37.9048038],[22.8811948,37.9050328],[22.881238,37.9048965],[22.8812524,37.9046581],[22.8810053,37.904624],[22.8809214,37.9048019],[22.8804897,37.9046884],[22.8804465,37.9048038]]]},"properties":{"site":"corinth","name":null,"category":"archaeological","osm_id":146857123}},{"type":"Feature","geometry":{"type":"Polygon","coordinates":[[[22.8771311,37.9049974],[22.8772391,37.9049954],[22.8776547,37.9045558],[22.8780086,37.9042163],[22.8785189,37.9042315],[22.8785189,37.903742],[22.8788122,37.9034574],[22.8788926,37.9041619],[22.8793873,37.9043017],[22.8795403,37.9042906],[22.8795541,37.9042303],[22.8800387,37.9042245],[22.8800478,37.9041246],[22.8805562,37.9041057],[22.8805617,37.9042042],[22.8806543,37.9045087],[22.8809014,37.9045692],[22.8813213,37.9046351],[22.8812875,37.9048402],[22.8812848,37.9049046],[22.8811979,37.9050885],[22.8813386,37.9051943],[22.8813786,37.9052385],[22.881385,37.9053067],[22.8813503,37.9054572],[22.8813478,37.9055967],[22.881304,37.9057612],[22.8812146,37.9057916],[22.8809585,37.9057502],[22.8809045,37.905794],[22.8807828,37.9062448],[22.8806176,37.9065793],[22.8804103,37.9065388],[22.8803424,37.9067632],[22.8799294,37.9067169],[22.8794082,37.9066358],[22.8787952,37.9064852],[22.878329,37.9063462],[22.8781712,37.9063954],[22.8781455,37.9073396],[22.8772462,37.9074699],[22.8760349,37.9073946],[22.8760716,37.9072179],[22.8761891,37.9070065],[22.8763065,37.9066619],[22.876347,37.9064097],[22.8762903,37.9062193],[22.8763421,37.9061781],[22.876609,37.9062289],[22.876848,37.9062554],[22.8768523,37.9060436],[22.8769486,37.9058305],[22.8771812,37.9056934],[22.8772713,37.9055186],[22.8766504,37.9052271],[22.8767426,37.9049444],[22.8771311,37.9049974]]]},"properties":{"site":"corinth","name":"Αρχαία Κόρινθος","category":"archaeological","osm_id":224709706}},{"type":"Feature","geometry":{"type":"Polygon","coordinates":[[[22.8809508,37.9068729],[22.8809582,37.9069866],[22.8811933,37.9069771],[22.8811859,37.9068634],[22.8809508,37.9068729]]]},"properties":{"site":"corinth","name":"Ιερός Ναός Κοιμήσεως της Υπεραγίας Θεοτόκου","category":"other","osm_id":234738579}},{"type":"Feature","geometry":{"type":"Polygon","coordinates":[[[22.8843906,37.9106836],[22.8844537,37.9106834],[22.8844535,37.9106582],[22.8845593,37.9106579],[22.8845591,37.9106041],[22.8844545,37.9106044],[22.8844543,37.9105728],[22.8843901,37.9105729],[22.8843906,37.9106836]]]},"properties":{"site":"corinth","name":null,"category":"other","osm_id":234738587}},{"type":"Feature","geometry":{"type":"Polygon","coordinates":[[[22.8904089,37.9093901],[22.8905644,37.909381],[22.8905551,37.9091832],[22.8903996,37.9091905],[22.8904089,37.9093901]]]},"properties":{"site":"corinth","name":null,"category":"other","osm_id":521521306}},{"type":"Feature","geometry":{"type":"Polygon","coordinates":[[[22.8899482,37.9094037],[22.8901084,37.9094019],[22.8901049,37.9092143],[22.8899447,37.9092161],[22.8899482,37.9094037]]]},"properties":{"site":"corinth","name":null,"category":"other","osm_id":521521307}},{"type":"Feature","geometry":{"type":"Polygon","coordinates":[[[22.8905263,37.9096491],[22.8907405,37.9096404],[22.8907275,37.9094412],[22.8906743,37.9094433],[22.8906786,37.9095098],[22.8905177,37.9095163],[22.8905263,37.9096491]]]},"properties":{"site":"corinth","name":null,"category":"other","osm_id":521521308}},{"type":"Feature","geometry":{"type":"Polygon","coordinates":[[[22.8925409,37.9098846],[22.892482,37.9099734],[22.8923901,37.9100426],[22.8923365,37.9100667],[22.8922749,37.9100848],[22.8922214,37.9100934],[22.8921486,37.9100957],[22.8920926,37.91009],[22.8920377,37.9100779],[22.8919936,37.9100629],[22.8919379,37.9100357],[22.8919161,37.9100221],[22.8918576,37.9099728],[22.8918035,37.9098943],[22.8917803,37.909807],[22.8917813,37.9095744],[22.8918017,37.9094742],[22.8918168,37.9094282],[22.8918469,37.9093759],[22.8918842,37.9093336],[22.8919301,37.9092968],[22.8919832,37.9092668],[22.8920421,37.9092443],[22.8921178,37.9092283],[22.8921844,37.9092245],[22.8922508,37.9092299],[22.892315,37.9092443],[22.8923577,37.9092595],[22.8924003,37.9092803],[22.8924472,37.9093113],[22.8924873,37.9093479],[22.8925428,37.9094337],[22.8925613,37.9095289],[22.8925606,37.9097856],[22.8925409,37.9098846]]]},"properties":{"site":"corinth","name":"Corinth amphitheater","category":"theater","osm_id":881338586}},{"type":"Feature","geometry":{"type":"Polygon","coordinates":[[[22.8944016,37.9050346],[22.8942115,37.9045299],[22.8943007,37.904494],[22.8943872,37.9044302],[22.8949809,37.9043071],[22.8952032,37.90442],[22.895237,37.904493],[22.8952207,37.9045662],[22.8951548,37.9046692],[22.8950791,37.9047309],[22.8949831,37.9047918],[22.8948514,37.9048567],[22.8947463,37.9049045],[22.8944016,37.9050346]]]},"properties":{"site":"corinth","name":"Παλαιοχριστιανική Βασιλική Κρανείου","category":"archaeological","osm_id":942755566}},{"type":"Feature","geometry":{"type":"Polygon","coordinates":[[[22.8940992,37.9105816],[22.8940805,37.9104983],[22.8940323,37.910505],[22.8940197,37.9104485],[22.8941596,37.910429],[22.8941909,37.9105689],[22.8940992,37.9105816]]]},"properties":{"site":"corinth","name":null,"category":"other","osm_id":942756511}},{"type":"Feature","geometry":{"type":"Polygon","coordinates":[[[22.8934705,37.910619],[22.8933864,37.9105853],[22.8934153,37.9105442],[22.8933604,37.9105191],[22.8933857,37.9104749],[22.8933397,37.9104456],[22.893401,37.9104127],[22.8934761,37.9104135],[22.8934729,37.9104262],[22.8935026,37.9104306],[22.8935814,37.9104051],[22.8936145,37.910458],[22.8936341,37.9105203],[22.8935348,37.9105208],[22.893521,37.910548],[22.8934705,37.910619]]]},"properties":{"site":"corinth","name":null,"category":"other","osm_id":942756512}},{"type":"Feature","geometry":{"type":"Polygon","coordinates":[[[22.8942688,37.9111744],[22.8942508,37.9112098],[22.8941385,37.9111742],[22.8941067,37.9112367],[22.8939144,37.9111758],[22.8939707,37.9110651],[22.8941626,37.9111259],[22.8941561,37.9111387],[22.8942688,37.9111744]]]},"properties":{"site":"corinth","name":null,"category":"other","osm_id":942756515}},{"type":"Feature","geometry":{"type":"Polygon","coordinates":[[[22.8817663,37.9119981],[22.8815873,37.9120292],[22.8814022,37.9119598],[22.8812869,37.9118736],[22.8811988,37.9117946],[22.8810835,37.9117898],[22.8809439,37.9118425],[22.8807922,37.9118496],[22.8805859,37.9117946],[22.8804888,37.9117371],[22.8804129,37.9116342],[22.8804008,37.9115432],[22.8804554,37.9113947],[22.8805707,37.9112511],[22.8806375,37.91122],[22.8806648,37.9111936],[22.88112,37.911299],[22.881472,37.911378],[22.8816024,37.9114067],[22.8817481,37.9115659],[22.8817603,37.9118377],[22.8817663,37.9119981]]]},"properties":{"site":"corinth","name":"Οικοδομικό Συγκρότημα Κιαμήλ Μπέη","category":"archaeological","osm_id":1042715037}},{"type":"Feature","geometry":{"type":"Polygon","coordinates":[[[22.8823874,37.9075727],[22.8824713,37.9075866],[22.8824844,37.9075375],[22.8824004,37.9075236],[22.8823874,37.9075727]]]},"properties":{"site":"corinth","name":null,"category":"other","osm_id":1117392420}},{"type":"Feature","geometry":{"type":"Polygon","coordinates":[[[22.8944009,37.9047362],[22.8943572,37.9045364],[22.8950499,37.9044421],[22.8950627,37.9045004],[22.8950843,37.9044907],[22.8951062,37.9044917],[22.8951317,37.904502],[22.8951435,37.9045126],[22.8951468,37.9045308],[22.8951407,37.9045486],[22.8951291,37.9045692],[22.8951079,37.9045813],[22.8950812,37.9045853],[22.8950936,37.904642],[22.8944009,37.9047362]]]},"properties":{"site":"corinth","name":null,"category":"archaeological","osm_id":1376354713}}]}