{"type":"FeatureCollection","features":[{"type":"Feature","geometry":{"type":"LineString","coordinates":[[22.8802188,37.9054571],[22.8804616,37.9055014],[22.8807875,37.9055994],[22.8808911,37.9055911],[22.8809131,37.9054911],[22.8810416,37.9054332],[22.881017,37.9053634],[22.8810507,37.9052539],[22.8810141,37.9052007],[22.8810685,37.905066],[22.8808544,37.9049785],[22.880414,37.9048163],[22.8803552,37.9047946],[22.8801662,37.9047236],[22.8799753,37.9047106],[22.879744,37.9046425],[22.879546,37.9046154],[22.8793693,37.9047561],[22.8792071,37.9048322],[22.8790943,37.9048875],[22.8790225,37.9050528]]},"properties":{"site":"corinth","name":"","highway":"footway"}},{"type":"Feature","geometry":{"type":"LineString","coordinates":[[22.8810988,37.9074098],[22.8805375,37.9070244]]},"properties":{"site":"corinth","name":"Απόλλωνος","highway":"pedestrian"}},{"type":"Feature","geometry":{"type":"LineString","coordinates":[[22.8839351,37.9114443],[22.8839125,37.9114615],[22.8838268,37.9115646],[22.8837301,37.9116859],[22.8836255,37.9118446],[22.8835881,37.9120217],[22.883655,37.9121535],[22.8838161,37.9122693],[22.8839502,37.9123603],[22.8840226,37.9124491],[22.8839985,37.9124999],[22.8838857,37.9124561],[22.8837382,37.9124117],[22.8836042,37.912373],[22.8834915,37.9124089],[22.8833975,37.9125323],[22.8833841,37.9126339]]},"properties":{"site":"corinth","name":"","highway":"track"}},{"type":"Feature","geometry":{"type":"LineString","coordinates":[[22.894708,37.9110972],[22.8947829,37.9110482],[22.8949962,37.9109017],[22.8952125,37.910723],[22.8954378,37.9105918],[22.8955934,37.9104267],[22.8957627,37.9102208],[22.895867,37.9101643],[22.8962747,37.9102067],[22.8963849,37.9101785],[22.8963981,37.910067],[22.8963444,37.9098554],[22.8963444,37.9097961],[22.8966502,37.9097242],[22.8968838,37.9096791],[22.8969804,37.909641],[22.8970472,37.9094744],[22.8971223,37.909284],[22.8970793,37.9090978],[22.8968219,37.9081158],[22.8966824,37.9075995],[22.8965536,37.9071212],[22.8964893,37.9070704],[22.8963927,37.9070831],[22.8961889,37.9071127],[22.8961298,37.9071085],[22.8961084,37.9070662],[22.8960011,37.9067318],[22.8959582,37.9067106],[22.8956685,37.9067487],[22.8955105,37.9058825],[22.8955344,37.9058218],[22.8953842,37.9055043],[22.8952018,37.9050768],[22.8950981,37.9047481]]},"properties":{"site":"corinth","name":"","highway":"track"}},{"type":"Feature","geometry":{"type":"LineString","coordinates":[[22.8945466,37.911063],[22.8945527,37.910995],[22.894561,37.9109155],[22.894546,37.9108087],[22.8943542,37.9102405],[22.8942308,37.9096734],[22.8942308,37.909593],[22.8940592,37.9090978],[22.8937534,37.9081539],[22.8934959,37.9071762],[22.8932223,37.90619],[22.8930929,37.9056522]]},"properties":{"site":"corinth","name":"","highway":"track"}},{"type":"Feature","geometry":{"type":"LineString","coordinates":[[22.881232,37.906833],[22.88091,37.9068254]]},"properties":{"site":"corinth","name":"","highway":"footway"}},{"type":"Feature","geometry":{"type":"LineString","coordinates":[[22.884809,37.9082425],[22.8848212,37.9081445],[22.8848389,37.9080407],[22.884844,37.9079371],[22.8848559,37.9077831],[22.8848754,37.9076922],[22.8849357,37.9075955],[22.8850202,37.9075307]]},"properties":{"site":"corinth","name":"","highway":"service"}},{"type":"Feature","geometry":{"type":"LineString","coordinates":[[22.8823155,37.9076064],[22.8823411,37.9074966],[22.8823511,37.9074539]]},"properties":{"site":"corinth","name":"","highway":"footway"}}]}