{"type":"FeatureCollection","features":[{"type":"Feature","geometry":{"type":"LineString","coordinates":[[14.0514968,40.849285],[14.0511816,40.8493002],[14.0511106,40.8493621],[14.0510046,40.8494037],[14.0509832,40.8495173],[14.050833,40.8494686],[14.0507471,40.8494767],[14.0508222,40.8496228],[14.0511119,40.849704],[14.0512943,40.8498176],[14.0515733,40.8499312],[14.0517771,40.8500124],[14.0520775,40.8499556],[14.0523779,40.8497851],[14.0526783,40.8495904],[14.0529144,40.8494605],[14.0531405,40.8493367],[14.0532684,40.8491765],[14.0532792,40.848933],[14.0532792,40.8487058],[14.0532041,40.8484542],[14.0531182,40.8482675],[14.0530667,40.8481428],[14.0530628,40.8480576],[14.0531981,40.8479449],[14.0532773,40.847875],[14.053304,40.8478339],[14.0533114,40.8477918],[14.0533063,40.8476997]]},"properties":{"site":"cumae","name":"","highway":"footway"}},{"type":"Feature","geometry":{"type":"LineString","coordinates":[[14.0532773,40.847875],[14.0532994,40.8478861],[14.0532655,40.8479378],[14.0533832,40.8480079],[14.053413,40.847982]]},"properties":{"site":"cumae","name":"","highway":"steps"}},{"type":"Feature","geometry":{"type":"LineString","coordinates":[[14.0532792,40.848933],[14.0535656,40.8488935],[14.0534394,40.8486984]]},"properties":{"site":"cumae","name":"","highway":"footway"}},{"type":"Feature","geometry":{"type":"LineString","coordinates":[[14.0533063,40.8476997],[14.0533058,40.8475872],[14.0532678,40.8475006],[14.0532217,40.8474569],[14.0531123,40.8474628],[14.0530923,40.8475121],[14.0530243,40.847725]]},"properties":{"site":"cumae","name":"","highway":"steps"}},{"type":"Feature","geometry":{"type":"LineString","coordinates":[[14.0536547,40.8476783],[14.053793,40.847736],[14.0540945,40.8478374],[14.0543132,40.8480291],[14.0545612,40.8481975],[14.0547462,40.8483291],[14.0548154,40.8483097],[14.0549065,40.8482825]]},"properties":{"site":"cumae","name":"","highway":"footway"}},{"type":"Feature","geometry":{"type":"LineString","coordinates":[[14.0528847,40.8471576],[14.0530182,40.8471411]]},"properties":{"site":"cumae","name":"","highway":"footway"}},{"type":"Feature","geometry":{"type":"LineString","coordinates":[[14.0532371,40.8477661],[14.0531027,40.8477695],[14.0530243,40.847725],[14.0529141,40.8474771],[14.0528847,40.8471576],[14.0528811,40.8465131]]},"properties":{"site":"cumae","name":"","highway":"footway"}},{"type":"Feature","geometry":{"type":"LineString","coordinates":[[14.0532371,40.8477661],[14.0533228,40.8477571],[14.0536547,40.8476783]]},"properties":{"site":"cumae","name":"","highway":"footway"}},{"type":"Feature","geometry":{"type":"LineString","coordinates":[[14.0531027,40.8477695],[14.0530815,40.8476994]]},"properties":{"site":"cumae","name":"","highway":"footway"}},{"type":"Feature","geometry":{"type":"LineString","coordinates":[[14.0530815,40.8476994],[14.0530182,40.8471411],[14.0529582,40.8466122]]},"properties":{"site":"cumae","name":"Antro della Sibilla (Dromos)","highway":"footway"}},{"type":"Feature","geometry":{"type":"LineString","coordinates":[[14.0621109,40.8453424],[14.0708143,40.8402065]]},"properties":{"site":"cumae","name":"Grotta di Cocceio","highway":"track"}},{"type":"Feature","geometry":{"type":"LineString","coordinates":[[14.0616182,40.8456349],[14.0621109,40.8453424]]},"properties":{"site":"cumae","name":"","highway":"track"}},{"type":"Feature","geometry":{"type":"LineString","coordinates":[[14.0585939,40.8470529],[14.058635,40.8472141],[14.0586797,40.84741],[14.0587602,40.8475074],[14.058948,40.8476129],[14.0590821,40.8477306],[14.0591024,40.8478445],[14.0590982,40.8479862],[14.0588767,40.8480929],[14.0587725,40.8481963],[14.0587775,40.8483475],[14.058154,40.8484448],[14.0579126,40.8485097],[14.0578536,40.8486355],[14.0578483,40.8487166],[14.0575103,40.8487897],[14.057226,40.8488221],[14.0574196,40.8494546]]},"properties":{"site":"cumae","name":"","highway":"footway"}},{"type":"Feature","geometry":{"type":"LineString","coordinates":[[14.057226,40.8488221],[14.0571509,40.848668],[14.0567164,40.8487532],[14.0565872,40.8487596]]},"properties":{"site":"cumae","name":"","highway":"footway"}},{"type":"Feature","geometry":{"type":"LineString","coordinates":[[14.0529239,40.8478559],[14.0532196,40.8478405],[14.0535815,40.8478519],[14.0540226,40.8481165],[14.0543826,40.8482771],[14.0548559,40.8484369],[14.0553638,40.8484883]]},"properties":{"site":"cumae","name":"","highway":"footway"}},{"type":"Feature","geometry":{"type":"LineString","coordinates":[[14.0553638,40.8484883],[14.0554592,40.8485531],[14.0556086,40.8486625],[14.0557926,40.8487359],[14.0559297,40.8487773],[14.0560337,40.8487927],[14.0561362,40.8488006],[14.0563483,40.8487709],[14.0565872,40.8487596],[14.0565651,40.848673],[14.0564219,40.8485116],[14.0563193,40.8484056],[14.0562717,40.8481788],[14.0562066,40.847958],[14.056134,40.8476656]]},"properties":{"site":"cumae","name":"","highway":"footway"}},{"type":"Feature","geometry":{"type":"LineString","coordinates":[[14.0530628,40.8480576],[14.0530068,40.8479822],[14.0528714,40.8479822]]},"properties":{"site":"cumae","name":"","highway":"steps"}},{"type":"Feature","geometry":{"type":"LineString","coordinates":[[14.0528714,40.8479822],[14.0528654,40.8480505]]},"properties":{"site":"cumae","name":"","highway":"footway"}},{"type":"Feature","geometry":{"type":"LineString","coordinates":[[14.0686788,40.8527726],[14.068586,40.8527578],[14.0681827,40.8527123],[14.0680039,40.8527251],[14.0678798,40.8527538],[14.0670344,40.8529754],[14.0668171,40.8530363],[14.0662512,40.8531834],[14.0660888,40.8531906],[14.0659897,40.8531824],[14.065873,40.8531307],[14.0657161,40.8530211],[14.0655793,40.8528832],[14.0654935,40.8527046],[14.0654291,40.852518],[14.0654238,40.8523678],[14.0653487,40.8522907],[14.0651287,40.8522299],[14.0649758,40.8521366],[14.0647554,40.8519423],[14.0646097,40.8518094],[14.0644314,40.8518201],[14.0643643,40.8518038]]},"properties":{"site":"cumae","name":"","highway":"track"}},{"type":"Feature","geometry":{"type":"LineString","coordinates":[[14.0525883,40.85773],[14.0520449,40.8577237],[14.051872,40.8577137],[14.051766,40.8577075],[14.0513624,40.857654],[14.0504779,40.8576638],[14.0490945,40.8576791]]},"properties":{"site":"cumae","name":"","highway":"track"}},{"type":"Feature","geometry":{"type":"LineString","coordinates":[[14.0483955,40.8667818],[14.0483709,40.866557],[14.0483055,40.8664519],[14.04815,40.8656743],[14.0481475,40.8654647],[14.0481235,40.865349],[14.0482441,40.8647284],[14.0483246,40.864278],[14.0484372,40.8636776],[14.0485043,40.8631117],[14.0485928,40.8621705],[14.0486518,40.8614666],[14.0486759,40.8611765],[14.0486863,40.86112],[14.0487054,40.8610162],[14.0487886,40.860152],[14.0488798,40.8591154],[14.0489897,40.8579835],[14.0490461,40.8577279],[14.0490945,40.8576791],[14.0490943,40.8569509],[14.0491051,40.856462],[14.0490032,40.8553908],[14.0488798,40.853995],[14.0487725,40.8526824],[14.0487349,40.8521651],[14.0487537,40.8513698],[14.0486466,40.8510775],[14.0486169,40.8509741],[14.0486545,40.8508707],[14.0487859,40.8507652],[14.0490462,40.8507366],[14.0491587,40.8507266],[14.0488664,40.8505643],[14.0486223,40.8504689],[14.0485535,40.8504578]]},"properties":{"site":"cumae","name":"","highway":"track"}},{"type":"Feature","geometry":{"type":"LineString","coordinates":[[14.0565267,40.85237],[14.0566045,40.8521225],[14.0566206,40.852019],[14.056567,40.8518526],[14.0565589,40.8517816],[14.0565697,40.8517207],[14.0568137,40.8516619],[14.0570392,40.8516273],[14.0573073,40.8514935],[14.0573582,40.8513596],[14.0573502,40.8512338],[14.0573851,40.8510634],[14.0572994,40.8507062],[14.0572323,40.8505358],[14.0571197,40.8504993],[14.0568622,40.8505419],[14.0567736,40.850477],[14.0566181,40.8501625],[14.0564732,40.8499373],[14.0562292,40.8496248],[14.0557759,40.8494138]]},"properties":{"site":"cumae","name":"","highway":"footway"}},{"type":"Feature","geometry":{"type":"LineString","coordinates":[[14.0567341,40.8526284],[14.0567149,40.8526044],[14.0565267,40.85237],[14.0564303,40.8523719],[14.0563336,40.8523821],[14.0557517,40.8526255],[14.0556203,40.8526275],[14.0555504,40.852654],[14.055285,40.852802],[14.0550006,40.8528853],[14.0548075,40.8528833],[14.0544696,40.8527858],[14.0529058,40.8523213],[14.0525921,40.8522218],[14.0523721,40.852098],[14.0522783,40.8519864],[14.052203,40.8518567],[14.0521898,40.851605],[14.0521924,40.8514549],[14.0520287,40.8513738],[14.051857,40.8513271],[14.0513985,40.8512905],[14.0510497,40.8512379],[14.0501335,40.8511877],[14.0494619,40.8508584],[14.0491587,40.8507266],[14.0491454,40.8506758],[14.0491025,40.8506149],[14.0487994,40.8503917],[14.0487351,40.8503106],[14.0487458,40.8500712],[14.0488424,40.8497831],[14.0490301,40.8495071],[14.0494539,40.849008],[14.0494914,40.8488985],[14.049647,40.8486022]]},"properties":{"site":"cumae","name":"","highway":"service"}},{"type":"Feature","geometry":{"type":"LineString","coordinates":[[14.0485535,40.8504578],[14.0484815,40.8504489]]},"properties":{"site":"cumae","name":"","highway":"track"}},{"type":"Feature","geometry":{"type":"LineString","coordinates":[[14.0484815,40.8504489],[14.0484289,40.8504489],[14.0479517,40.8505643],[14.0478181,40.8505614],[14.0476755,40.8505379],[14.0475266,40.850448],[14.0474068,40.8503766]]},"properties":{"site":"cumae","name":"","highway":"track"}},{"type":"Feature","geometry":{"type":"LineString","coordinates":[[14.049647,40.8486022],[14.0497382,40.8485211],[14.0501566,40.8483588],[14.0503068,40.8482736],[14.0503712,40.8481559]]},"properties":{"site":"cumae","name":"","highway":"track"}},{"type":"Feature","geometry":{"type":"LineString","coordinates":[[14.0609868,40.8537326],[14.0610724,40.8540522]]},"properties":{"site":"cumae","name":"","highway":"service"}},{"type":"Feature","geometry":{"type":"LineString","coordinates":[[14.0599512,40.8620287],[14.0603148,40.8617031],[14.060411,40.8615672],[14.0603775,40.8612163],[14.0600808,40.8608623],[14.0600013,40.8607074],[14.0600097,40.8601984],[14.0597798,40.8596263],[14.0596085,40.858934],[14.0594956,40.8584092],[14.0592908,40.8578054],[14.0594496,40.8576947],[14.0595583,40.8576125],[14.0595792,40.8574323],[14.0595872,40.8568874],[14.0596476,40.8567908],[14.059746,40.8567506],[14.0609215,40.8567338]]},"properties":{"site":"cumae","name":"","highway":"track"}},{"type":"Feature","geometry":{"type":"LineString","coordinates":[[14.0571612,40.8559901],[14.0575854,40.8571952],[14.0577234,40.8576174]]},"properties":{"site":"cumae","name":"","highway":"track"}},{"type":"Feature","geometry":{"type":"LineString","coordinates":[[14.0570253,40.8560159],[14.0572311,40.8565091]]},"properties":{"site":"cumae","name":"","highway":"service"}},{"type":"Feature","geometry":{"type":"LineString","coordinates":[[14.0577518,40.8538628],[14.057676,40.8538764],[14.0574377,40.853933]]},"properties":{"site":"cumae","name":"","highway":"service"}},{"type":"Feature","geometry":{"type":"LineString","coordinates":[[14.0496997,40.8442274],[14.0496645,40.844436],[14.049596,40.8446431],[14.0493516,40.8449167],[14.049072,40.8450351],[14.048992,40.8450866],[14.0489536,40.8452359],[14.0488973,40.8453002],[14.048751,40.8453675],[14.0487112,40.8454607],[14.0487139,40.845578],[14.0487338,40.845609],[14.0486887,40.8456351],[14.0486781,40.8457694],[14.0486489,40.8458406],[14.0486741,40.8459328],[14.0486529,40.8460691],[14.0486291,40.8461032],[14.0486662,40.8462425],[14.0486436,40.8463488],[14.0484807,40.8464049],[14.04838,40.8464811],[14.0484025,40.8465713],[14.0484926,40.8466816],[14.0484542,40.8468139],[14.0484555,40.8469362],[14.0483813,40.8470514],[14.0483826,40.8470905],[14.0483283,40.8474554],[14.0483031,40.8475105],[14.0483018,40.8476098],[14.0481467,40.8478714],[14.0481202,40.8478964],[14.0480884,40.8479486],[14.0481163,40.8480027],[14.0481043,40.8480919],[14.0481679,40.8482883],[14.04816,40.8483685],[14.0481891,40.8484788],[14.0481971,40.8486071],[14.0479785,40.8488777],[14.0480116,40.8491343],[14.0479891,40.8492937],[14.0480195,40.8496174],[14.0479798,40.8499983],[14.047948,40.8501126],[14.0479652,40.8501627]]},"properties":{"site":"cumae","name":"","highway":"path"}},{"type":"Feature","geometry":{"type":"LineString","coordinates":[[14.0479652,40.8501627],[14.0479908,40.8502364],[14.0478544,40.8503566],[14.0478181,40.8505614]]},"properties":{"site":"cumae","name":"","highway":"path"}},{"type":"Feature","geometry":{"type":"LineString","coordinates":[[14.0478544,40.8503566],[14.0476953,40.8503897],[14.047588,40.8504007],[14.0475266,40.850448]]},"properties":{"site":"cumae","name":"","highway":"path"}},{"type":"Feature","geometry":{"type":"LineString","coordinates":[[14.0574219,40.8420816],[14.0571616,40.8411038],[14.0570745,40.8405881],[14.0571084,40.8405561],[14.0571612,40.8405436],[14.0577494,40.8405839],[14.0580694,40.8405809],[14.0583411,40.8406078],[14.058501,40.8404997],[14.0588304,40.8403931],[14.0590311,40.8403383],[14.0591567,40.8403255],[14.0592278,40.8403401]]},"properties":{"site":"cumae","name":"","highway":"track"}},{"type":"Feature","geometry":{"type":"LineString","coordinates":[[14.0574219,40.8420816],[14.0575783,40.8419857],[14.0576734,40.841928],[14.0577611,40.8418393],[14.0577919,40.8417391],[14.0578511,40.8413765],[14.0578726,40.8413087],[14.0579501,40.8412439],[14.058025,40.8411896],[14.0580963,40.8411931],[14.0581779,40.8412388],[14.0582592,40.8412757],[14.0583842,40.8412899],[14.0584505,40.8414528],[14.0599654,40.8414766]]},"properties":{"site":"cumae","name":"","highway":"track"}},{"type":"Feature","geometry":{"type":"LineString","coordinates":[[14.0623369,40.8419923],[14.0622948,40.8419874],[14.061648,40.8419116],[14.0616279,40.8412498]]},"properties":{"site":"cumae","name":"","highway":"service"}},{"type":"Feature","geometry":{"type":"LineString","coordinates":[[14.0537035,40.840677],[14.0532028,40.8402492],[14.0531727,40.8401686]]},"properties":{"site":"cumae","name":"","highway":"track"}},{"type":"Feature","geometry":{"type":"LineString","coordinates":[[14.0537035,40.840677],[14.05309,40.8407588],[14.052141,40.8408654]]},"properties":{"site":"cumae","name":"","highway":"track"}},{"type":"Feature","geometry":{"type":"LineString","coordinates":[[14.057044,40.8432727],[14.0569119,40.8432879],[14.055412,40.8428423],[14.0553688,40.8428398],[14.0549753,40.842817],[14.0543977,40.8429534],[14.0531199,40.8428968],[14.0527341,40.8428548],[14.0525689,40.8428714],[14.0524037,40.8429115],[14.0523091,40.8429987],[14.051989,40.8435395],[14.0519252,40.8437042],[14.051407,40.8446514]]},"properties":{"site":"cumae","name":"","highway":"track"}},{"type":"Feature","geometry":{"type":"LineString","coordinates":[[14.0553688,40.8428398],[14.0558511,40.8436394],[14.0558706,40.843692],[14.0558571,40.843728],[14.0558011,40.8437593],[14.0553124,40.8438676],[14.055159,40.8439039],[14.0549106,40.8439439],[14.0547474,40.8439297],[14.054211,40.8438305],[14.0539735,40.8437929]]},"properties":{"site":"cumae","name":"","highway":"track"}},{"type":"Feature","geometry":{"type":"LineString","coordinates":[[14.0583842,40.8412899],[14.0584185,40.8411987],[14.0584164,40.8410808],[14.0584076,40.840993],[14.0584122,40.8409134],[14.0584321,40.8407771]]},"properties":{"site":"cumae","name":"","highway":"track"}},{"type":"Feature","geometry":{"type":"LineString","coordinates":[[14.0558663,40.8477715],[14.0553716,40.8469629],[14.0553612,40.8469437],[14.0553567,40.8469233],[14.0553577,40.8469019],[14.055362,40.8468884],[14.0553818,40.846866],[14.0554209,40.8468553],[14.0554847,40.8468442],[14.055551,40.8468344],[14.0555971,40.8468242],[14.0556115,40.8468173]]},"properties":{"site":"cumae","name":"","highway":"service"}},{"type":"Feature","geometry":{"type":"LineString","coordinates":[[14.0591419,40.84723],[14.0593649,40.8472106],[14.059885,40.8471394],[14.0599844,40.8471217]]},"properties":{"site":"cumae","name":"","highway":"service"}},{"type":"Feature","geometry":{"type":"LineString","coordinates":[[14.0584621,40.8459204],[14.0586715,40.8458505],[14.0588051,40.8458024],[14.0588497,40.8457274],[14.0588531,40.845633],[14.0588427,40.8454619],[14.0588201,40.8452829],[14.0588169,40.8452082],[14.0588339,40.8451475],[14.0588749,40.845107],[14.0589482,40.8450771]]},"properties":{"site":"cumae","name":"","highway":"service"}},{"type":"Feature","geometry":{"type":"LineString","coordinates":[[14.0616714,40.8454582],[14.0616981,40.8454312],[14.0617241,40.8453571],[14.0617565,40.8452407],[14.0617885,40.8450845],[14.0618156,40.8449356],[14.0618316,40.8447759],[14.0618174,40.8447127],[14.061652,40.8444492],[14.0615371,40.8443],[14.0614415,40.844205],[14.0614964,40.8442014],[14.0616188,40.8442192],[14.0626875,40.8444108],[14.0627425,40.8444321],[14.0627514,40.8444603]]},"properties":{"site":"cumae","name":"","highway":"track"}},{"type":"Feature","geometry":{"type":"LineString","coordinates":[[14.0636258,40.843014],[14.063398,40.843026],[14.063184,40.8430301],[14.0632188,40.843413],[14.0632304,40.8436317],[14.0632311,40.8437551]]},"properties":{"site":"cumae","name":"","highway":"track"}},{"type":"Feature","geometry":{"type":"LineString","coordinates":[[14.0634715,40.8511691],[14.0633577,40.850995],[14.0632178,40.8508075],[14.0629655,40.8505548],[14.0624633,40.8500994],[14.0623089,40.8499633]]},"properties":{"site":"cumae","name":"","highway":"service"}},{"type":"Feature","geometry":{"type":"LineString","coordinates":[[14.0606626,40.8498893],[14.0607996,40.8498625],[14.0609039,40.8498193],[14.0609724,40.8497435],[14.0610159,40.8496899],[14.06106,40.8496513],[14.0611499,40.8496083],[14.0613153,40.84956],[14.0614451,40.8495331],[14.0615864,40.8495132],[14.061681,40.8495136],[14.0617698,40.8495214],[14.0618567,40.8495566]]},"properties":{"site":"cumae","name":"","highway":"service"}},{"type":"Feature","geometry":{"type":"LineString","coordinates":[[14.0601389,40.8496087],[14.0601908,40.8496935],[14.0602319,40.849765],[14.0602611,40.8498119],[14.06026,40.8498383],[14.0602386,40.8498561],[14.0601293,40.8498936],[14.0599033,40.8499558],[14.0598516,40.8499868],[14.0598389,40.8500197],[14.0598586,40.8500804],[14.0599311,40.850248],[14.0599478,40.8502744],[14.0599705,40.8502862],[14.0600075,40.8502901],[14.0602669,40.8502208]]},"properties":{"site":"cumae","name":"","highway":"service"}},{"type":"Feature","geometry":{"type":"LineString","coordinates":[[14.0608624,40.8503732],[14.0606037,40.8503975],[14.0603791,40.8504371],[14.0600902,40.8504848],[14.059961,40.8505411],[14.0587251,40.8508475]]},"properties":{"site":"cumae","name":"","highway":"service"}},{"type":"Feature","geometry":{"type":"LineString","coordinates":[[14.0556203,40.8526275],[14.0556062,40.8526083],[14.0556002,40.8525809],[14.0556034,40.8525472],[14.0556176,40.8524938],[14.0556457,40.8524186],[14.0556628,40.8523606],[14.0556826,40.8522958],[14.0556889,40.8522393],[14.0556831,40.8521627],[14.055666,40.8520921],[14.0556416,40.8520321],[14.0556074,40.8519667],[14.0555584,40.8519024],[14.0555233,40.8518599],[14.0554687,40.851809],[14.0554296,40.8517563],[14.0553923,40.8517074],[14.0553805,40.8516656],[14.0553804,40.8515931],[14.0553944,40.8514934]]},"properties":{"site":"cumae","name":"","highway":"track"}},{"type":"Feature","geometry":{"type":"LineString","coordinates":[[14.0549065,40.8482825],[14.0550437,40.8485013]]},"properties":{"site":"cumae","name":"","highway":"service"}},{"type":"Feature","geometry":{"type":"LineString","coordinates":[[14.048992,40.8450866],[14.0489684,40.8450143],[14.048893,40.845096]]},"properties":{"site":"cumae","name":"","highway":"footway"}},{"type":"Feature","geometry":{"type":"LineString","coordinates":[[14.0491587,40.8507266],[14.0491243,40.8508059],[14.0491266,40.8508329],[14.0492941,40.8508447],[14.0493745,40.8508616],[14.0494393,40.8509191],[14.0495509,40.8511759],[14.0496381,40.8512384],[14.0498034,40.8513111],[14.0498145,40.8513769],[14.0498972,40.8513905],[14.0500044,40.8514766],[14.0501831,40.8515966],[14.050402,40.8519024],[14.0504735,40.8519615],[14.0505628,40.8522606],[14.0506052,40.852683],[14.0506857,40.8531358],[14.050641,40.8535886],[14.0507348,40.8538116],[14.0506745,40.8541478],[14.0506946,40.8543336],[14.050708,40.8545279],[14.050641,40.8548388],[14.0505963,40.8552848],[14.0505427,40.8556007],[14.0505695,40.8558069],[14.0505561,40.8559859],[14.0505829,40.8562867],[14.0505516,40.8569456],[14.0504824,40.8572007],[14.0504802,40.8574541],[14.0504779,40.8576638],[14.0504891,40.85777],[14.0502881,40.8584795],[14.0502769,40.858662],[14.0501451,40.8591316],[14.0501429,40.8596131],[14.0500826,40.8599256],[14.0499888,40.8603463],[14.049982,40.8605389],[14.0498838,40.8609612],[14.049913,40.8611789],[14.0499307,40.8613092],[14.0498302,40.861816],[14.0498145,40.8621268],[14.0497564,40.862311],[14.0496961,40.8627992],[14.0496336,40.8632418],[14.049618,40.8636506],[14.0496314,40.8637823],[14.0495979,40.8639225],[14.0495912,40.8641016],[14.0495465,40.8642418],[14.0495219,40.8647452],[14.0494661,40.8650763],[14.0493812,40.8659699],[14.0492874,40.8663685],[14.0492851,40.8666726],[14.0492181,40.8669429]]},"properties":{"site":"cumae","name":"","highway":"path"}},{"type":"Feature","geometry":{"type":"LineString","coordinates":[[14.050641,40.8535886],[14.0512762,40.853802]]},"properties":{"site":"cumae","name":"","highway":"path"}},{"type":"Feature","geometry":{"type":"LineString","coordinates":[[14.049647,40.8486022],[14.0496698,40.8484971],[14.0496434,40.8484579],[14.0496483,40.8481237],[14.0496532,40.8479262],[14.0496454,40.8475054],[14.0496454,40.8472488],[14.0496835,40.8466364],[14.0496874,40.8461609],[14.049708,40.84599],[14.0498527,40.8454257],[14.0499177,40.84506],[14.0499193,40.8446545],[14.049921,40.8443447],[14.0499443,40.8441709]]},"properties":{"site":"cumae","name":"","highway":"path"}},{"type":"Feature","geometry":{"type":"LineString","coordinates":[[14.0496835,40.8466364],[14.0508411,40.8466622]]},"properties":{"site":"cumae","name":"","highway":"path"}},{"type":"Feature","geometry":{"type":"LineString","coordinates":[[14.0496997,40.8442274],[14.049815,40.8441902],[14.0499443,40.8441709]]},"properties":{"site":"cumae","name":"","highway":"path"}},{"type":"Feature","geometry":{"type":"LineString","coordinates":[[14.0496434,40.8484579],[14.0495604,40.8484991],[14.0490447,40.8485381],[14.048918,40.8485177],[14.0487611,40.8485082],[14.0483006,40.848547],[14.0481971,40.8486071]]},"properties":{"site":"cumae","name":"","highway":"footway"}},{"type":"Feature","geometry":{"type":"LineString","coordinates":[[14.0473865,40.8578774],[14.0473154,40.8577159]]},"properties":{"site":"cumae","name":"","highway":"path"}},{"type":"Feature","geometry":{"type":"LineString","coordinates":[[14.0611587,40.8451457],[14.0611164,40.8451746],[14.0610678,40.8452713],[14.0610883,40.8452963],[14.0613791,40.845617]]},"properties":{"site":"cumae","name":"","highway":"service"}},{"type":"Feature","geometry":{"type":"LineString","coordinates":[[14.0608854,40.8540976],[14.0609031,40.8541371],[14.0609205,40.8541747],[14.0613637,40.8541509],[14.0614885,40.8541475]]},"properties":{"site":"cumae","name":"","highway":"service"}},{"type":"Feature","geometry":{"type":"LineString","coordinates":[[14.0604826,40.8541953],[14.0604929,40.8542221],[14.0605149,40.8542786],[14.0605411,40.8543461],[14.0603262,40.854398],[14.0602977,40.8543368],[14.0605149,40.8542786]]},"properties":{"site":"cumae","name":"","highway":"service"}},{"type":"Feature","geometry":{"type":"LineString","coordinates":[[14.0622948,40.8419874],[14.0622622,40.8419386],[14.0622054,40.8418986],[14.0621639,40.8411124]]},"properties":{"site":"cumae","name":"","highway":"service"}},{"type":"Feature","geometry":{"type":"LineString","coordinates":[[14.0660894,40.8425604],[14.0660308,40.8425698],[14.0651329,40.8427436],[14.0650433,40.8427331],[14.0649951,40.8426888],[14.0650927,40.8422693]]},"properties":{"site":"cumae","name":"","highway":"service"}},{"type":"Feature","geometry":{"type":"LineString","coordinates":[[14.0503712,40.8481559],[14.0508411,40.8466622]]},"properties":{"site":"cumae","name":"","highway":"path"}},{"type":"Feature","geometry":{"type":"LineString","coordinates":[[14.0638374,40.8419297],[14.0640421,40.8419182],[14.0640515,40.8419198],[14.0640587,40.8419271],[14.0640614,40.8419358],[14.0640866,40.8420247]]},"properties":{"site":"cumae","name":"","highway":"service"}},{"type":"Feature","geometry":{"type":"LineString","coordinates":[[14.0519706,40.8565569],[14.0516718,40.8565623]]},"properties":{"site":"cumae","name":"","highway":"service"}},{"type":"Feature","geometry":{"type":"LineString","coordinates":[[14.0534571,40.85771],[14.0525883,40.85773]]},"properties":{"site":"cumae","name":"","highway":"track"}},{"type":"Feature","geometry":{"type":"LineString","coordinates":[[14.0606329,40.8577787],[14.0607152,40.8577995],[14.0619441,40.8578061],[14.0619992,40.8578282],[14.0620187,40.8578527],[14.0620263,40.8578985],[14.0620306,40.8579623],[14.0620479,40.8579779],[14.062089,40.8579828],[14.0623854,40.8579877],[14.0624849,40.8580384],[14.0625228,40.8580515],[14.063743,40.8582135]]},"properties":{"site":"cumae","name":"","highway":"service"}},{"type":"Feature","geometry":{"type":"LineString","coordinates":[[14.0557759,40.8494138],[14.055828,40.8493561],[14.0558872,40.849284],[14.0559476,40.8491438],[14.0559905,40.8489501],[14.055986,40.8488239]]},"properties":{"site":"cumae","name":"","highway":"service"}},{"type":"Feature","geometry":{"type":"LineString","coordinates":[[14.0559719,40.8487503],[14.0558,40.8479631],[14.0558044,40.8478763],[14.0558322,40.8478166],[14.0558397,40.8477768]]},"properties":{"site":"cumae","name":"","highway":"service"}},{"type":"Feature","geometry":{"type":"LineString","coordinates":[[14.055986,40.8488239],[14.0559719,40.8487503]]},"properties":{"site":"cumae","name":"","highway":"service"}}]}