{"type":"FeatureCollection","features":[{"type":"Feature","geometry":{"type":"LineString","coordinates":[[22.5028688,38.4818677],[22.5027383,38.4818572],[22.5026118,38.4818003],[22.5025668,38.4818436],[22.5025406,38.481908],[22.5024894,38.4819555]]},"properties":{"site":"delphi","name":"","highway":"steps"}},{"type":"Feature","geometry":{"type":"LineString","coordinates":[[22.4999185,38.4820785],[22.4998,38.481997],[22.4997129,38.4818962],[22.4995118,38.4818452],[22.4992978,38.4817693],[22.499154,38.4816358],[22.4990136,38.4816489],[22.4988564,38.4815992],[22.4986825,38.4815416],[22.4985755,38.481429],[22.4986687,38.4809803],[22.4986424,38.4809396],[22.4985488,38.4806516],[22.4985101,38.4805224],[22.4985545,38.4802994],[22.498487,38.480202],[22.4984195,38.4801466],[22.4983893,38.4801055],[22.4982677,38.4799604],[22.4981692,38.4797823],[22.49807,38.4794897],[22.4980778,38.4792607],[22.4980798,38.4791484]]},"properties":{"site":"delphi","name":"","highway":"track"}},{"type":"Feature","geometry":{"type":"LineString","coordinates":[[22.5008733,38.4820744],[22.5009947,38.4819836],[22.501064,38.4820283],[22.5012776,38.4821789],[22.5015446,38.4823705],[22.501552,38.4824293],[22.5016684,38.482534]]},"properties":{"site":"delphi","name":"","highway":"footway"}},{"type":"Feature","geometry":{"type":"LineString","coordinates":[[22.4999216,38.4802175],[22.5000938,38.480334],[22.5001486,38.4803711],[22.5005388,38.4805284],[22.5007081,38.4806334],[22.5008981,38.4807672],[22.5011189,38.4809318],[22.5013024,38.4810485],[22.5015352,38.4811751],[22.501702,38.481241],[22.5019312,38.4813069],[22.5022033,38.4813854],[22.5023845,38.4814373],[22.5025485,38.4815353],[22.5028827,38.4817487],[22.5029291,38.4817889],[22.503203,38.4819541],[22.5032509,38.4819814],[22.5033969,38.4820596],[22.5035286,38.4821395],[22.5036762,38.4822405],[22.5038248,38.4823517],[22.504022,38.4824527],[22.5041713,38.4825192],[22.5042729,38.4824945]]},"properties":{"site":"delphi","name":"","highway":"footway"}},{"type":"Feature","geometry":{"type":"LineString","coordinates":[[22.5028688,38.4818677],[22.5031334,38.4820203],[22.5031261,38.4820883],[22.5030482,38.4820989],[22.5029237,38.4821046],[22.5027806,38.4820904],[22.5024894,38.4819555]]},"properties":{"site":"delphi","name":"","highway":"footway"}},{"type":"Feature","geometry":{"type":"LineString","coordinates":[[22.5014018,38.4816575],[22.501245,38.4815792],[22.50101,38.481461],[22.5007958,38.481272],[22.5003444,38.4810652],[22.5001237,38.4810024],[22.4999599,38.4809239],[22.4997291,38.4808401],[22.499675,38.4807929],[22.4996314,38.4807548],[22.4993639,38.4805794]]},"properties":{"site":"delphi","name":"","highway":"footway"}},{"type":"Feature","geometry":{"type":"LineString","coordinates":[[22.5007122,38.4818583],[22.5006947,38.4816186],[22.5006445,38.4815689],[22.5003302,38.4814301],[22.499715,38.4811972],[22.4994308,38.4810611],[22.4993171,38.4809537],[22.4990964,38.4807496],[22.499047,38.4806887],[22.4989626,38.4805847],[22.4988489,38.4803884]]},"properties":{"site":"delphi","name":"","highway":"footway"}},{"type":"Feature","geometry":{"type":"LineString","coordinates":[[22.5007505,38.4819808],[22.500769,38.4819421],[22.5007221,38.4819085],[22.5007122,38.4818583],[22.5004781,38.4817091],[22.5002374,38.4816175],[22.4998896,38.4815259],[22.4995753,38.4814369],[22.4991507,38.4813322],[22.4987795,38.4811516],[22.4986687,38.4809803]]},"properties":{"site":"delphi","name":"","highway":"footway"}},{"type":"Feature","geometry":{"type":"LineString","coordinates":[[22.5000712,38.4827931],[22.4999739,38.4825394],[22.4997799,38.48244],[22.4995358,38.4823614],[22.4993352,38.4823745],[22.4989373,38.4822724],[22.4985862,38.4821547],[22.4984056,38.4821128],[22.4981801,38.4820519],[22.4979025,38.4816956],[22.4977876,38.4814302],[22.4976885,38.4810789],[22.4976792,38.4808776],[22.4976707,38.4808305],[22.4977271,38.4807237],[22.497639,38.480546],[22.4975,38.4803331]]},"properties":{"site":"delphi","name":"","highway":"track"}},{"type":"Feature","geometry":{"type":"LineString","coordinates":[[22.5004163,38.4822623],[22.5005267,38.4823373],[22.5008175,38.4825372],[22.5008884,38.4825557],[22.5009661,38.482603],[22.5010212,38.4826297],[22.5010185,38.4825567],[22.5011171,38.4825919],[22.5012308,38.4826849],[22.5013495,38.482739],[22.5013613,38.4826853],[22.5014323,38.4827168],[22.5015316,38.4827408],[22.5015883,38.4827223],[22.5016046,38.4826986],[22.5016159,38.4826818],[22.501616,38.4826691],[22.5016028,38.482655],[22.5015707,38.4826401]]},"properties":{"site":"delphi","name":"","highway":"footway"}},{"type":"Feature","geometry":{"type":"LineString","coordinates":[[22.499047,38.4806887],[22.4993639,38.4805794]]},"properties":{"site":"delphi","name":"","highway":"footway"}},{"type":"Feature","geometry":{"type":"LineString","coordinates":[[22.4997129,38.4818962],[22.4995661,38.4817467],[22.4993698,38.481569]]},"properties":{"site":"delphi","name":"","highway":"footway"}},{"type":"Feature","geometry":{"type":"LineString","coordinates":[[22.4971244,38.4799498],[22.4967538,38.4798063],[22.4964596,38.4797199]]},"properties":{"site":"delphi","name":"","highway":"service"}},{"type":"Feature","geometry":{"type":"LineString","coordinates":[[22.5024894,38.4819555],[22.5023075,38.4818717],[22.5021467,38.4817995],[22.50199,38.4817498],[22.5019164,38.4817308],[22.5018039,38.4817206],[22.501728,38.4817083],[22.5016116,38.4816929],[22.5014886,38.4816643],[22.5014018,38.4816575],[22.5013886,38.481675]]},"properties":{"site":"delphi","name":"Ιερά οδός","highway":"pedestrian"}},{"type":"Feature","geometry":{"type":"LineString","coordinates":[[22.5007062,38.4819545],[22.5006932,38.4819468],[22.5005728,38.4820808],[22.5005055,38.4820737],[22.5004421,38.48211],[22.5004578,38.4821684],[22.5004163,38.4822623],[22.5003216,38.4823273]]},"properties":{"site":"delphi","name":"","highway":"footway"}},{"type":"Feature","geometry":{"type":"LineString","coordinates":[[22.500774,38.4822025],[22.5005728,38.4820808]]},"properties":{"site":"delphi","name":"","highway":"footway"}},{"type":"Feature","geometry":{"type":"LineString","coordinates":[[22.5003444,38.4810652],[22.5002562,38.4808776],[22.4998898,38.4807813],[22.499675,38.4807929]]},"properties":{"site":"delphi","name":"","highway":"footway"}},{"type":"Feature","geometry":{"type":"LineString","coordinates":[[22.5000938,38.480334],[22.5001475,38.480318],[22.5002029,38.4803075],[22.5004109,38.4803059],[22.5004203,38.4803045],[22.5004437,38.4802943]]},"properties":{"site":"delphi","name":"","highway":"service"}},{"type":"Feature","geometry":{"type":"LineString","coordinates":[[22.4976707,38.4808305],[22.4976138,38.4808762],[22.4975245,38.4809348],[22.4974399,38.4811164],[22.4974686,38.4814033],[22.4975035,38.4817271],[22.4975443,38.4818974],[22.4976679,38.4821591],[22.4977251,38.4822784]]},"properties":{"site":"delphi","name":"","highway":"track"}},{"type":"Feature","geometry":{"type":"LineString","coordinates":[[22.4978523,38.4788449],[22.4979412,38.4789589],[22.4980014,38.4790395],[22.4980798,38.4791484],[22.4982164,38.4792937]]},"properties":{"site":"delphi","name":"","highway":"service"}},{"type":"Feature","geometry":{"type":"LineString","coordinates":[[22.5008342,38.4780432],[22.5009475,38.4781179],[22.501176,38.47827],[22.5013379,38.4784685],[22.5014316,38.4785873],[22.5014568,38.4787112],[22.5015432,38.4788802],[22.5016151,38.4790014],[22.5016727,38.4792098],[22.5016619,38.4792802],[22.5016115,38.4793562],[22.5015684,38.4794323],[22.501536,38.4794717],[22.5015144,38.4795703],[22.5015144,38.4796604],[22.5015259,38.4797179],[22.5015565,38.4797736]]},"properties":{"site":"delphi","name":"","highway":"track"}},{"type":"Feature","geometry":{"type":"LineString","coordinates":[[22.4958993,38.4833147],[22.4959524,38.483288],[22.495981,38.4832176],[22.4959915,38.4831354],[22.4960519,38.4829794],[22.4960689,38.4827556],[22.4960873,38.4826682],[22.4960891,38.4825586],[22.4961046,38.4824597],[22.4961196,38.4823552],[22.4961648,38.482289],[22.496185,38.4820913],[22.4962475,38.4819651],[22.4962987,38.4818319],[22.4963215,38.4817802],[22.4963349,38.4817499],[22.4963595,38.4817018],[22.4963425,38.4815799],[22.4963552,38.481511],[22.4963256,38.4813882],[22.4965337,38.4811886],[22.4965608,38.4811172],[22.4965458,38.4810743],[22.4965715,38.4810488],[22.4965357,38.4810014],[22.4965163,38.4809875],[22.4964922,38.4809649],[22.4964658,38.4809369],[22.4965108,38.4809269],[22.4965376,38.4808651],[22.4965024,38.4808198],[22.4964849,38.4807422],[22.4965137,38.480719],[22.4965019,38.4806334],[22.4965687,38.4805859],[22.4966615,38.480534],[22.4967186,38.4805276],[22.4967777,38.4804733],[22.4968184,38.4804652],[22.4968022,38.4803999],[22.496843,38.4803932],[22.4968302,38.4803417],[22.496933,38.480284],[22.4969337,38.4802631],[22.4969694,38.4802449],[22.4969626,38.480214],[22.4970179,38.4802002],[22.4970449,38.4801494],[22.4970399,38.4800659],[22.4970891,38.4800327],[22.4971244,38.4799498]]},"properties":{"site":"delphi","name":"Ε4","highway":"path"}},{"type":"Feature","geometry":{"type":"LineString","coordinates":[[22.5057885,38.4791155],[22.5056328,38.4791466],[22.5055039,38.4792125],[22.504817,38.4796183],[22.504667,38.4796946],[22.504717,38.4797584],[22.5047591,38.4798635],[22.504746,38.4799232],[22.5046802,38.479948],[22.5045565,38.479915],[22.5042697,38.4797852],[22.5040907,38.4797543],[22.5040197,38.4797461],[22.503996,38.4796781],[22.5038354,38.4796101],[22.5034907,38.4794885],[22.503296,38.4794824],[22.5031583,38.4795059],[22.5031275,38.4795112],[22.503046,38.4794906],[22.5030186,38.479356],[22.5030558,38.4792482],[22.5030893,38.4791521],[22.503093,38.4789481],[22.5031366,38.4787754],[22.5031813,38.4786497],[22.5031629,38.4785282],[22.5031208,38.4784437],[22.5030734,38.4784149],[22.5028603,38.4784087],[22.5027603,38.4783737],[22.5026339,38.4782727],[22.5023866,38.4780049],[22.5022997,38.4779637],[22.5019366,38.4778669],[22.5018445,38.4778195],[22.5015444,38.4776773],[22.5012444,38.477564],[22.5010897,38.4774912],[22.5009673,38.4774095],[22.500899,38.4773278],[22.5008342,38.4772659],[22.5007766,38.4772546],[22.5007371,38.4772856],[22.5007766,38.4773757],[22.5008954,38.4776348],[22.5010141,38.4778461],[22.5011256,38.4779503],[22.5012947,38.478108],[22.5013019,38.4781559],[22.5012624,38.4781897],[22.5012084,38.4781728],[22.5011041,38.4781052],[22.5009565,38.4780517],[22.5008342,38.4780432],[22.5005824,38.4779193],[22.4999347,38.4775954],[22.4993555,38.4774151],[22.4991432,38.4773673],[22.4989201,38.4773278],[22.4987187,38.4773306],[22.4985819,38.4773673],[22.4985819,38.4774179],[22.4986755,38.477463],[22.4988194,38.4775222],[22.4989309,38.4776038],[22.4990964,38.477801],[22.4992152,38.4779672],[22.4992907,38.4780517],[22.499431,38.4781277],[22.499557,38.4782094],[22.4996613,38.4782967],[22.4996973,38.4783446],[22.4997045,38.4783897],[22.4996578,38.4784384]]},"properties":{"site":"delphi","name":"","highway":"track"}},{"type":"Feature","geometry":{"type":"LineString","coordinates":[[22.4963425,38.4815799],[22.4965976,38.4815528],[22.4966964,38.4815837],[22.4968051,38.4815411],[22.4968397,38.4814793],[22.4968545,38.4814406],[22.496894,38.4813942],[22.4969434,38.4813284],[22.4969434,38.4812781],[22.4969434,38.4811853],[22.4970077,38.4811041],[22.4970225,38.4810461],[22.4970422,38.4809146],[22.4971559,38.4808682],[22.4971608,38.4807715],[22.4972843,38.4807444],[22.497393,38.4807096],[22.4975017,38.4807251],[22.4977271,38.4807237]]},"properties":{"site":"delphi","name":"","highway":"path"}},{"type":"Feature","geometry":{"type":"LineString","coordinates":[[22.5004109,38.4803059],[22.5003675,38.4803694],[22.5001486,38.4803711]]},"properties":{"site":"delphi","name":"","highway":"footway"}},{"type":"Feature","geometry":{"type":"LineString","coordinates":[[22.5015707,38.4826401],[22.5016684,38.482534],[22.5018261,38.4823669]]},"properties":{"site":"delphi","name":"Ιερά οδός","highway":"steps"}},{"type":"Feature","geometry":{"type":"LineString","coordinates":[[22.5016046,38.4826986],[22.5018125,38.4827625],[22.5018957,38.4826407],[22.5017642,38.4825987],[22.5017039,38.4826848],[22.5016028,38.482655],[22.501616,38.4826691],[22.5016159,38.4826818],[22.5016046,38.4826986]]},"properties":{"site":"delphi","name":"","highway":"pedestrian"}},{"type":"Feature","geometry":{"type":"LineString","coordinates":[[22.5031261,38.4820883],[22.5033358,38.4822506]]},"properties":{"site":"delphi","name":"","highway":"footway"}},{"type":"Feature","geometry":{"type":"LineString","coordinates":[[22.4999764,38.4822696],[22.5000822,38.4823304],[22.5001573,38.4825088]]},"properties":{"site":"delphi","name":"","highway":"footway"}},{"type":"Feature","geometry":{"type":"LineString","coordinates":[[22.5015707,38.4826401],[22.5013048,38.4825588],[22.500774,38.4822025]]},"properties":{"site":"delphi","name":"Ιερά οδός","highway":"pedestrian"}},{"type":"Feature","geometry":{"type":"LineString","coordinates":[[22.4978248,38.4789648],[22.4976978,38.4789086],[22.4976398,38.4788951],[22.4975926,38.478922],[22.4975454,38.4789489],[22.4974424,38.4789438],[22.4973802,38.4789573],[22.4973073,38.4789757],[22.4971978,38.4790228]]},"properties":{"site":"delphi","name":"","highway":"service"}},{"type":"Feature","geometry":{"type":"LineString","coordinates":[[22.503203,38.4819541],[22.5032599,38.481913],[22.5033475,38.4819547],[22.5034294,38.48198],[22.5034831,38.4819323]]},"properties":{"site":"delphi","name":"","highway":"footway"}},{"type":"Feature","geometry":{"type":"LineString","coordinates":[[22.5031583,38.4795059],[22.5031413,38.4793727],[22.5033114,38.4792491],[22.5035886,38.4790551],[22.5040304,38.4787026],[22.5042569,38.4784778],[22.504582,38.4781762],[22.5045028,38.4775511]]},"properties":{"site":"delphi","name":"","highway":"path"}},{"type":"Feature","geometry":{"type":"LineString","coordinates":[[22.5015565,38.4797736],[22.5016889,38.4799098],[22.5017026,38.4800944],[22.5022787,38.4806187],[22.5029473,38.4808753],[22.5031649,38.4810505],[22.5035988,38.4811881],[22.503926,38.4813453],[22.5040751,38.4815184],[22.5043956,38.4817698],[22.5047227,38.4821545],[22.5050199,38.4823262]]},"properties":{"site":"delphi","name":"","highway":"path"}},{"type":"Feature","geometry":{"type":"LineString","coordinates":[[22.5014568,38.4787112],[22.5017034,38.478913],[22.5019267,38.4792088],[22.5020463,38.4795048],[22.5021935,38.4797721],[22.502316,38.4799343],[22.5025641,38.4800633],[22.5029077,38.4800495],[22.5034374,38.4803628],[22.5035687,38.4805066],[22.5039395,38.4805769],[22.5045033,38.4807552]]},"properties":{"site":"delphi","name":"","highway":"path"}},{"type":"Feature","geometry":{"type":"LineString","coordinates":[[22.4991038,38.4829191],[22.4989995,38.4828994],[22.4988452,38.4828292],[22.4979122,38.4823673],[22.4977251,38.4822784],[22.4972572,38.4820439],[22.4971571,38.4820174]]},"properties":{"site":"delphi","name":"","highway":"footway"}},{"type":"Feature","geometry":{"type":"LineString","coordinates":[[22.4993908,38.482982],[22.4993088,38.483001],[22.499142,38.4829263],[22.4991038,38.4829191]]},"properties":{"site":"delphi","name":"","highway":"steps"}},{"type":"Feature","geometry":{"type":"LineString","coordinates":[[22.4993159,38.482816],[22.4993908,38.482982]]},"properties":{"site":"delphi","name":"","highway":"steps"}},{"type":"Feature","geometry":{"type":"LineString","coordinates":[[22.5005464,38.4833233],[22.5001325,38.4831528],[22.4998696,38.4829919],[22.4994653,38.4827217],[22.4994204,38.4827587],[22.4997899,38.4830484],[22.4998424,38.4831437],[22.4993159,38.482816]]},"properties":{"site":"delphi","name":"","highway":"footway"}},{"type":"Feature","geometry":{"type":"LineString","coordinates":[[22.5006357,38.483301],[22.5005464,38.4833233]]},"properties":{"site":"delphi","name":"","highway":"steps"}},{"type":"Feature","geometry":{"type":"LineString","coordinates":[[22.5000869,38.4828102],[22.5002797,38.4830195],[22.5004571,38.4832009],[22.5006357,38.483301]]},"properties":{"site":"delphi","name":"","highway":"footway"}},{"type":"Feature","geometry":{"type":"LineString","coordinates":[[22.4999185,38.4820785],[22.4999764,38.4822696],[22.5000712,38.4827931],[22.5000869,38.4828102]]},"properties":{"site":"delphi","name":"","highway":"steps"}},{"type":"Feature","geometry":{"type":"LineString","coordinates":[[22.5003216,38.4823273],[22.5001456,38.4822187]]},"properties":{"site":"delphi","name":"","highway":"steps"}},{"type":"Feature","geometry":{"type":"LineString","coordinates":[[22.5001456,38.4822187],[22.4999185,38.4820785]]},"properties":{"site":"delphi","name":"","highway":"footway"}},{"type":"Feature","geometry":{"type":"LineString","coordinates":[[22.500774,38.4822025],[22.5008733,38.4820744],[22.5008002,38.4820215],[22.5007505,38.4819808],[22.5007062,38.4819545]]},"properties":{"site":"delphi","name":"","highway":"footway"}},{"type":"Feature","geometry":{"type":"LineString","coordinates":[[22.5016665,38.4821259],[22.5017136,38.4822009],[22.5017751,38.482289],[22.5018261,38.4823669]]},"properties":{"site":"delphi","name":"Ιερά οδός","highway":"pedestrian"}},{"type":"Feature","geometry":{"type":"LineString","coordinates":[[22.5013886,38.481675],[22.50136,38.4817129],[22.5013878,38.4817728],[22.5014912,38.4818814],[22.5015985,38.4820176],[22.5016665,38.4821259]]},"properties":{"site":"delphi","name":"Ιερά οδός","highway":"pedestrian"}},{"type":"Feature","geometry":{"type":"LineString","coordinates":[[22.5030291,38.4816828],[22.5029291,38.4817889],[22.5029006,38.4818261],[22.5028688,38.4818677]]},"properties":{"site":"delphi","name":"","highway":"footway"}},{"type":"Feature","geometry":{"type":"LineString","coordinates":[[22.4975,38.4803331],[22.4973242,38.4801182],[22.4971244,38.4799498]]},"properties":{"site":"delphi","name":"","highway":"service"}},{"type":"Feature","geometry":{"type":"LineString","coordinates":[[22.4971244,38.4799498],[22.4972027,38.4798736],[22.4972694,38.4797069],[22.4973351,38.4796108],[22.4973979,38.4794871]]},"properties":{"site":"delphi","name":"Ε4","highway":"path"}}]}