{"type":"FeatureCollection","features":[{"type":"Feature","geometry":{"type":"Polygon","coordinates":[[[22.5022325,38.4817733],[22.50241,38.4818547],[22.5023983,38.4818705],[22.5022207,38.481789],[22.5022325,38.4817733]]]},"properties":{"site":"delphi","name":"Αναθηματική προσφορά Αθηναίων (Νίκη Μαραθώνος)","category":"archaeological","historic":"ruins","building":"yes","osm_id":145690037}},{"type":"Feature","geometry":{"type":"Polygon","coordinates":[[[22.5019496,38.481703],[22.5019614,38.4816893],[22.5019712,38.4816827],[22.5019826,38.4816777],[22.5019942,38.4816747],[22.5020063,38.4816735],[22.5020229,38.4816747],[22.5020386,38.4816792],[22.5020547,38.4816885],[22.5020622,38.4816957],[22.5020679,38.4817037],[22.5020719,38.4817131],[22.5020734,38.4817229],[22.5020702,38.4817401],[22.5020651,38.4817492],[22.5020578,38.4817573],[22.501944,38.4817184],[22.5019496,38.481703]]]},"properties":{"site":"delphi","name":"Αναθηματική προσφορά Αργείων (απογόνων)","category":"archaeological","historic":"ruins","building":"yes","osm_id":145690038}},{"type":"Feature","geometry":{"type":"Polygon","coordinates":[[[22.5019139,38.4817541],[22.5020566,38.4818033],[22.5020517,38.4818148],[22.5020391,38.4818302],[22.5020277,38.4818386],[22.5020144,38.4818451],[22.5019992,38.4818495],[22.5019832,38.4818514],[22.5019674,38.4818508],[22.5019522,38.4818477],[22.5019379,38.4818423],[22.5019252,38.4818348],[22.5019135,38.481824],[22.5019051,38.4818115],[22.5019008,38.4817985],[22.5019001,38.481785],[22.5019063,38.481765],[22.5019139,38.4817541]]]},"properties":{"site":"delphi","name":"Αναθηματική προσφορά Αργείων (βασιλείς τού Άργους)","category":"archaeological","historic":"ruins","building":"yes","osm_id":145690039}},{"type":"Feature","geometry":{"type":"Polygon","coordinates":[[[22.5022942,38.4819428],[22.5023139,38.4819193],[22.5023597,38.4819429],[22.50234,38.4819664],[22.5022942,38.4819428]]]},"properties":{"site":"delphi","name":"Αναθηματική προσφορά Κερκυραίων (ταύρος)","category":"archaeological","historic":"ruins","building":"yes","osm_id":145690040}},{"type":"Feature","geometry":{"type":"Polygon","coordinates":[[[22.5021136,38.4818251],[22.5022876,38.4819248],[22.5022513,38.4819636],[22.5020772,38.4818639],[22.5021136,38.4818251]]]},"properties":{"site":"delphi","name":"Αναθηματική προσφορά Λακεδαιμονίων","category":"archaeological","historic":"ruins","building":"yes","osm_id":145690041}},{"type":"Feature","geometry":{"type":"Polygon","coordinates":[[[22.5018482,38.48249],[22.5018607,38.4824978],[22.5018967,38.4824627],[22.5019472,38.4824943],[22.5018738,38.4825662],[22.5018107,38.4825267],[22.5018482,38.48249]]]},"properties":{"site":"delphi","name":"Αναθηματική προσφορά Ροδίων","category":"archaeological","historic":"ruins","building":"yes","osm_id":145690042}},{"type":"Feature","geometry":{"type":"Polygon","coordinates":[[[22.5018072,38.481652],[22.5019143,38.4816706],[22.5019051,38.4817031],[22.501798,38.4816845],[22.5018072,38.481652]]]},"properties":{"site":"delphi","name":"Αναθηματική προσφορά Τάραντα","category":"archaeological","historic":"ruins","building":"yes","osm_id":145690043}},{"type":"Feature","geometry":{"type":"Polygon","coordinates":[[[22.4969375,38.4825443],[22.4966432,38.4823702],[22.4966365,38.4821111],[22.4968589,38.48192],[22.4972986,38.4819095],[22.4976931,38.4820757],[22.498061,38.4822197],[22.4983101,38.4821497],[22.4989433,38.481237],[22.4991925,38.4813044],[22.4994365,38.4810311],[22.4993629,38.480701],[22.4993144,38.4804624],[22.4993115,38.4802415],[22.4993144,38.4800898],[22.4993372,38.4799181],[22.4994199,38.4797039],[22.4995929,38.4795259],[22.4996598,38.4792779],[22.4996866,38.4791277],[22.4997892,38.4791102],[22.4997892,38.4790019],[22.4997892,38.4788972],[22.4998517,38.4788797],[22.4998963,38.4790089],[22.4999097,38.4792429],[22.4999231,38.4795224],[22.4999231,38.4797424],[22.4999454,38.4798926],[22.499981,38.4799435],[22.5000524,38.4800483],[22.5001461,38.4801566],[22.5002711,38.4802264],[22.5004228,38.4803172],[22.5005254,38.4804011],[22.5007172,38.4804954],[22.5008645,38.4805687],[22.5010117,38.4806875],[22.5011009,38.4807713],[22.5012794,38.4809075],[22.5013597,38.4809739],[22.5016185,38.4810927],[22.5019219,38.4812149],[22.5023815,38.4813686],[22.5025733,38.4814734],[22.5027111,38.4815457],[22.5029122,38.4816462],[22.5031688,38.4817557],[22.5032883,38.481815],[22.5034137,38.4818926],[22.5034831,38.4819323],[22.5035653,38.4819794],[22.5037723,38.4821186],[22.5039559,38.4822434],[22.5040958,38.482305],[22.5042212,38.4823849],[22.5044574,38.4825241],[22.5046236,38.4826199],[22.5050913,38.4828999],[22.5052172,38.4828211],[22.5053102,38.4827884],[22.5052518,38.4825508],[22.5051268,38.4824006],[22.5050784,38.4822913],[22.5051192,38.4821931],[22.5051804,38.482111],[22.5052752,38.4820019],[22.5054894,38.4817539],[22.5055509,38.4815961],[22.5055491,38.4814969],[22.5054831,38.4813928],[22.5056009,38.4812719],[22.5058195,38.4810484],[22.505998,38.4809471],[22.506346,38.4808527],[22.5066717,38.4806641],[22.5069082,38.4804371],[22.5071893,38.4802904],[22.5073142,38.4801297],[22.5074971,38.4800354],[22.5078228,38.4799865],[22.5082021,38.4798817],[22.5086126,38.4799096],[22.5089383,38.4800039],[22.5091123,38.4801715],[22.5091436,38.4803252],[22.508742,38.4804824],[22.5078571,38.4807159],[22.5072235,38.480971],[22.5066524,38.4812504],[22.5061572,38.4818617],[22.5055126,38.4826427],[22.5054991,38.4829424],[22.5055107,38.4832042],[22.5054318,38.4833146],[22.5052411,38.4833107],[22.5051154,38.4831624],[22.504629,38.4829913],[22.5038517,38.4828795],[22.502704,38.4829918],[22.5021849,38.4832852],[22.5014679,38.4834078],[22.4998638,38.483413],[22.498872,38.4833301],[22.4985488,38.4832155],[22.4971269,38.4826224],[22.4969375,38.4825443]]]},"properties":{"site":"delphi","name":"Δελφοί","category":"archaeological","historic":"archaeological_site","building":null,"osm_id":145690044}},{"type":"Feature","geometry":{"type":"Polygon","coordinates":[[[22.5010747,38.481768],[22.5011669,38.4818111],[22.5011259,38.4818648],[22.5010337,38.4818217],[22.5010747,38.481768]]]},"properties":{"site":"delphi","name":"Ασκληπιείον","category":"archaeological","historic":"ruins","building":"yes","osm_id":145690049}},{"type":"Feature","geometry":{"type":"Polygon","coordinates":[[[22.501314,38.4819431],[22.5013143,38.4818907],[22.501452,38.4818912],[22.5014517,38.4819436],[22.501314,38.4819431]]]},"properties":{"site":"delphi","name":"Βουλευτήριον","category":"archaeological","historic":"ruins","building":"yes","osm_id":145690050}},{"type":"Feature","geometry":{"type":"Polygon","coordinates":[[[22.5014439,38.4827861],[22.5015409,38.4828445],[22.5014897,38.4828966],[22.5013927,38.4828382],[22.5014439,38.4827861]]]},"properties":{"site":"delphi","name":"Ηρώον Νεοπτόλεμου","category":"archaeological","historic":"ruins","building":"yes","osm_id":145690057}},{"type":"Feature","geometry":{"type":"Polygon","coordinates":[[[22.5008163,38.4825673],[22.5007235,38.4826591],[22.5006956,38.4826909],[22.500657,38.482719],[22.5006058,38.4827561],[22.5005377,38.4827716],[22.5004654,38.4827622],[22.5004051,38.4827428],[22.5003625,38.4827307],[22.5002442,38.4826465],[22.500239,38.4826339],[22.5002017,38.4825331],[22.5004259,38.4822945],[22.5005424,38.4823728],[22.5007024,38.4824765],[22.5008163,38.4825673]]]},"properties":{"site":"delphi","name":"Θέατρο Δελφών","category":"archaeological","historic":"ruins","building":"theatre","osm_id":145690058}},{"type":"Feature","geometry":{"type":"Polygon","coordinates":[[[22.5011922,38.4816332],[22.5012246,38.4816011],[22.5012895,38.4816414],[22.5012571,38.4816734],[22.5011922,38.4816332]]]},"properties":{"site":"delphi","name":"Θησαυρός Βοιωτών","category":"archaeological","historic":"ruins","building":"yes","osm_id":145690061}},{"type":"Feature","geometry":{"type":"Polygon","coordinates":[[[22.5021314,38.4821845],[22.5021827,38.4822049],[22.5021428,38.4822663],[22.5020915,38.4822459],[22.5021314,38.4821845]]]},"properties":{"site":"delphi","name":"Θησαυρός Κυρηναίων","category":"archaeological","historic":"ruins","building":"yes","osm_id":145690062}},{"type":"Feature","geometry":{"type":"Polygon","coordinates":[[[22.5014114,38.481727],[22.5014315,38.4816867],[22.5015183,38.4817132],[22.5014983,38.4817535],[22.5014114,38.481727]]]},"properties":{"site":"delphi","name":"Θησαυρός Μεγαρέων","category":"archaeological","historic":"ruins","building":"yes","osm_id":145690063}},{"type":"Feature","geometry":{"type":"Polygon","coordinates":[[[22.5012024,38.4818279],[22.5012932,38.4818603],[22.5013233,38.4818086],[22.5012325,38.4817762],[22.5012024,38.4818279]]]},"properties":{"site":"delphi","name":"Θησαυρός Αθηναίων","category":"archaeological","historic":"ruins","building":"yes","osm_id":145690064}},{"type":"Feature","geometry":{"type":"Polygon","coordinates":[[[22.5016055,38.4827219],[22.5016424,38.4827485],[22.5015856,38.482797],[22.5015486,38.4827704],[22.5016055,38.4827219]]]},"properties":{"site":"delphi","name":"Θησαυρός Ακάνθου","category":"archaeological","historic":"ruins","building":"yes","osm_id":145690065}},{"type":"Feature","geometry":{"type":"Polygon","coordinates":[[[22.5011661,38.4814486],[22.5012813,38.4814977],[22.501245,38.481549],[22.501131,38.4815005],[22.5011661,38.4814486]]]},"properties":{"site":"delphi","name":"Θησαυρός Θηβαίων","category":"archaeological","historic":"ruins","building":"yes","osm_id":145690066}},{"type":"Feature","geometry":{"type":"Polygon","coordinates":[[[22.5016732,38.481768],[22.5017422,38.4817902],[22.5017108,38.4818502],[22.5016417,38.481828],[22.5016732,38.481768]]]},"properties":{"site":"delphi","name":"Θησαυρός Κνιδίων","category":"archaeological","historic":"ruins","building":"yes","osm_id":145690067}},{"type":"Feature","geometry":{"type":"Polygon","coordinates":[[[22.5018818,38.4821957],[22.5019244,38.4822156],[22.501856,38.4823056],[22.5018133,38.4822858],[22.5018818,38.4821957]]]},"properties":{"site":"delphi","name":"Θησαυρός Κορινθίων","category":"archaeological","historic":"ruins","building":"yes","osm_id":145690068}},{"type":"Feature","geometry":{"type":"Polygon","coordinates":[[[22.5011671,38.4816778],[22.5012344,38.4817154],[22.5011952,38.4817584],[22.5011279,38.4817208],[22.5011671,38.4816778]]]},"properties":{"site":"delphi","name":"Θησαυρός Ποτίδαιας","category":"archaeological","historic":"ruins","building":"yes","osm_id":145690069}},{"type":"Feature","geometry":{"type":"Polygon","coordinates":[[[22.5014638,38.4815899],[22.5015463,38.4816089],[22.5015306,38.4816506],[22.5014481,38.4816316],[22.5014638,38.4815899]]]},"properties":{"site":"delphi","name":"Θησαυρός Σιφνίων","category":"archaeological","historic":"ruins","building":"yes","osm_id":145690070}},{"type":"Feature","geometry":{"type":"Polygon","coordinates":[[[22.502438,38.4819113],[22.5023945,38.4818921],[22.5023562,38.4818722],[22.5022643,38.4818285],[22.5021346,38.4817753],[22.5020048,38.4817347],[22.5018851,38.4817113],[22.5017856,38.481696],[22.5016495,38.4816847],[22.5015198,38.4816597],[22.50141,38.4816332],[22.501359,38.4816499],[22.5013237,38.4817052],[22.5013281,38.4817363],[22.5014739,38.4818925],[22.5015683,38.4820099],[22.5016257,38.4821035],[22.5018039,38.482371],[22.5015631,38.4826209],[22.5013655,38.4825519],[22.5013341,38.4825534],[22.5013132,38.4825522],[22.5008228,38.4822097],[22.5007552,38.4821566],[22.5007253,38.4821894],[22.5013022,38.4825895],[22.5013644,38.4825822],[22.501409,38.482594],[22.5015749,38.4826577],[22.5018578,38.4823754],[22.5018615,38.4823454],[22.5018196,38.4822993],[22.5017673,38.4822301],[22.5017228,38.4821743],[22.5016855,38.4821222],[22.5016415,38.4820504],[22.5015996,38.4819879],[22.5015557,38.4819254],[22.5015278,38.4818957],[22.5014838,38.4818472],[22.5014319,38.4817894],[22.501398,38.4817597],[22.50139,38.4817222],[22.5014319,38.48168],[22.5014898,38.4816816],[22.5015577,38.4817003],[22.5016142,38.4817124],[22.5017306,38.4817226],[22.5018751,38.4817457],[22.5019489,38.4817582],[22.5020348,38.4817863],[22.5021625,38.4818285],[22.5023262,38.4819035],[22.5024121,38.4819441],[22.502438,38.4819113]]]},"properties":{"site":"delphi","name":"Ιερά οδός","category":"archaeological","historic":"ruins","building":null,"osm_id":145690073}},{"type":"Feature","geometry":{"type":"Polygon","coordinates":[[[22.5014344,38.4820514],[22.5014596,38.4820684],[22.5014324,38.4820932],[22.5014072,38.4820762],[22.5014344,38.4820514]]]},"properties":{"site":"delphi","name":"Κολώνα Ναξίων","category":"archaeological","historic":"ruins","building":"yes","osm_id":145690074}},{"type":"Feature","geometry":{"type":"Polygon","coordinates":[[[22.5009232,38.4830462],[22.5009727,38.4829967],[22.5011222,38.4830884],[22.5010726,38.4831379],[22.5009232,38.4830462]]]},"properties":{"site":"delphi","name":"Λέσχη Κνιδίων","category":"archaeological","historic":"ruins","building":"yes","osm_id":145690075}},{"type":"Feature","geometry":{"type":"Polygon","coordinates":[[[22.5015482,38.4825822],[22.5015204,38.4825633],[22.5015601,38.4825273],[22.501588,38.4825462],[22.5015482,38.4825822]]]},"properties":{"site":"delphi","name":"Μέγας Βωμός","category":"archaeological","historic":"ruins","building":"yes","osm_id":145690076}},{"type":"Feature","geometry":{"type":"Polygon","coordinates":[[[22.5012334,38.4827533],[22.5012656,38.4827217],[22.501365,38.482784],[22.5013328,38.4828155],[22.5012334,38.4827533]]]},"properties":{"site":"delphi","name":"Μνημείον Δαόχου","category":"archaeological","historic":"ruins","building":"yes","osm_id":145690077}},{"type":"Feature","geometry":{"type":"Polygon","coordinates":[[[22.4995083,38.4798221],[22.499538,38.4797968],[22.4995353,38.4797207],[22.4996641,38.4797173],[22.499669,38.4798025],[22.4997054,38.4798158],[22.4998415,38.4803484],[22.4999302,38.4803701],[22.5002832,38.4804922],[22.5002535,38.4805978],[22.50009,38.4805645],[22.499781,38.4805598],[22.4997459,38.4804541],[22.4995191,38.4804541],[22.4995191,38.4805069],[22.4994307,38.4805108],[22.4994084,38.4803294],[22.4993989,38.4800723],[22.4994597,38.4799891],[22.4994559,38.4799183],[22.4994975,38.479913],[22.4995083,38.4798221]]]},"properties":{"site":"delphi","name":"Μουσείο Δελφών","category":"other","historic":null,"building":"yes","osm_id":145690078}},{"type":"Feature","geometry":{"type":"Polygon","coordinates":[[[22.5010056,38.4820187],[22.501518,38.4823682],[22.5013244,38.4825421],[22.500812,38.4821926],[22.5010056,38.4820187]]]},"properties":{"site":"delphi","name":"Ναός Απόλλωνος","category":"archaeological","historic":"ruins","building":"yes","osm_id":145690079}},{"type":"Feature","geometry":{"type":"Polygon","coordinates":[[[22.5008491,38.4827973],[22.500851,38.4827832],[22.500861,38.482766],[22.500877,38.4827707],[22.500901,38.4827864],[22.5009229,38.4827973],[22.5009209,38.4828161],[22.5009249,38.4828379],[22.5009249,38.4828614],[22.5009169,38.4828739],[22.500897,38.4828692],[22.500877,38.4828536],[22.500857,38.4828332],[22.500851,38.4828114],[22.5008491,38.4827973]]]},"properties":{"site":"delphi","name":"Πηγή Κασσότις","category":"archaeological","historic":"ruins","building":"yes","osm_id":145690080}},{"type":"Feature","geometry":{"type":"Polygon","coordinates":[[[22.5020685,38.482294],[22.5021577,38.4823339],[22.5021212,38.482384],[22.502032,38.4823441],[22.5020685,38.482294]]]},"properties":{"site":"delphi","name":"Πρυτανείον","category":"archaeological","historic":"ruins","building":"yes","osm_id":145690081}},{"type":"Feature","geometry":{"type":"Polygon","coordinates":[[[22.501615,38.4816693],[22.5017067,38.4816806],[22.5017158,38.481635],[22.5016241,38.4816238],[22.501615,38.4816693]]]},"properties":{"site":"delphi","name":"Σικυώνιος θησαυρός","category":"archaeological","historic":"ruins","building":"yes","osm_id":145690082}},{"type":"Feature","geometry":{"type":"Polygon","coordinates":[[[22.5009908,38.4829051],[22.5010227,38.4829239],[22.5009878,38.4829562],[22.5009548,38.4829348],[22.5009908,38.4829051]]]},"properties":{"site":"delphi","name":"Σκαλοπάτια","category":"archaeological","historic":"ruins","building":"yes","osm_id":145690083}},{"type":"Feature","geometry":{"type":"Polygon","coordinates":[[[22.4987413,38.4831395],[22.4970745,38.4823285],[22.4970113,38.4822977],[22.4969558,38.4822707],[22.4969492,38.4822066],[22.4969843,38.4821516],[22.4970495,38.4821215],[22.497118,38.4821176],[22.4971771,38.4821462],[22.4988892,38.4829735],[22.4987413,38.4831395]]]},"properties":{"site":"delphi","name":"Στάδιον","category":"archaeological","historic":"ruins","building":null,"osm_id":145690084}},{"type":"Feature","geometry":{"type":"Polygon","coordinates":[[[22.5015418,38.4822231],[22.5015666,38.4822005],[22.5017444,38.4823168],[22.5017192,38.48234],[22.5015418,38.4822231]]]},"properties":{"site":"delphi","name":"Στοά Αθηναίων","category":"archaeological","historic":"ruins","building":"yes","osm_id":145690085}},{"type":"Feature","geometry":{"type":"Polygon","coordinates":[[[22.5015548,38.4829414],[22.5015973,38.4828525],[22.5019162,38.4829458],[22.5018737,38.4830347],[22.5015548,38.4829414]]]},"properties":{"site":"delphi","name":"Στοά Αττάλου","category":"archaeological","historic":"ruins","building":"yes","osm_id":145690086}},{"type":"Feature","geometry":{"type":"Polygon","coordinates":[[[22.4987413,38.4831395],[22.4986667,38.4832333],[22.4968305,38.4823401],[22.4968004,38.4822851],[22.4967903,38.4821726],[22.4968254,38.482115],[22.4968906,38.4820626],[22.4969876,38.4820168],[22.4971063,38.4820129],[22.4989456,38.4829021],[22.4988892,38.4829735],[22.4971771,38.4821462],[22.497118,38.4821176],[22.4970495,38.4821215],[22.4969843,38.4821516],[22.4969492,38.4822066],[22.4969558,38.4822707],[22.4970113,38.4822977],[22.4970745,38.4823285],[22.4987413,38.4831395]]]},"properties":{"site":"delphi","name":"Στἀδιον","category":"archaeological","historic":"ruins","building":"yes","osm_id":145690087}},{"type":"Feature","geometry":{"type":"Polygon","coordinates":[[[22.5009825,38.4825383],[22.5009431,38.482514],[22.5009628,38.4824944],[22.5010022,38.4825188],[22.5009825,38.4825383]]]},"properties":{"site":"delphi","name":"Τέμενος Ποσειδώνος","category":"archaeological","historic":"ruins","building":"yes","osm_id":145690088}},{"type":"Feature","geometry":{"type":"Polygon","coordinates":[[[22.5009372,38.4818811],[22.501077,38.4817342],[22.5009372,38.4818811]]]},"properties":{"site":"delphi","name":null,"category":"archaeological","historic":"ruins","building":null,"osm_id":145690101}},{"type":"Feature","geometry":{"type":"Polygon","coordinates":[[[22.5006434,38.4827413],[22.5007512,38.4827942],[22.5006434,38.4827413]]]},"properties":{"site":"delphi","name":null,"category":"archaeological","historic":"ruins","building":null,"osm_id":145690103}},{"type":"Feature","geometry":{"type":"Polygon","coordinates":[[[22.5006267,38.4823749],[22.5006484,38.482355],[22.5006267,38.4823749]]]},"properties":{"site":"delphi","name":null,"category":"archaeological","historic":"ruins","building":null,"osm_id":145690104}},{"type":"Feature","geometry":{"type":"Polygon","coordinates":[[[22.500693,38.4819697],[22.5007768,38.4820178],[22.500693,38.4819697]]]},"properties":{"site":"delphi","name":null,"category":"archaeological","historic":"ruins","building":null,"osm_id":145690105}},{"type":"Feature","geometry":{"type":"Polygon","coordinates":[[[22.5006508,38.4820152],[22.5006854,38.4820369],[22.5006508,38.4820152]]]},"properties":{"site":"delphi","name":null,"category":"archaeological","historic":"ruins","building":null,"osm_id":145690106}},{"type":"Feature","geometry":{"type":"Polygon","coordinates":[[[22.5007109,38.4820491],[22.5007333,38.4820627],[22.5007109,38.4820491]]]},"properties":{"site":"delphi","name":null,"category":"archaeological","historic":"ruins","building":null,"osm_id":145690107}},{"type":"Feature","geometry":{"type":"Polygon","coordinates":[[[22.5006651,38.4823396],[22.5006878,38.4823192],[22.5006651,38.4823396]]]},"properties":{"site":"delphi","name":null,"category":"archaeological","historic":"ruins","building":null,"osm_id":145690108}},{"type":"Feature","geometry":{"type":"Polygon","coordinates":[[[22.500774,38.4824388],[22.5008099,38.4824061],[22.500774,38.4824388]]]},"properties":{"site":"delphi","name":null,"category":"archaeological","historic":"ruins","building":null,"osm_id":145690109}},{"type":"Feature","geometry":{"type":"Polygon","coordinates":[[[22.5007719,38.4823807],[22.500742,38.4823594],[22.5007719,38.4823807]]]},"properties":{"site":"delphi","name":null,"category":"archaeological","historic":"ruins","building":null,"osm_id":145690110}},{"type":"Feature","geometry":{"type":"Polygon","coordinates":[[[22.5013052,38.4821646],[22.5015188,38.4823318],[22.5013052,38.4821646]]]},"properties":{"site":"delphi","name":null,"category":"archaeological","historic":"ruins","building":null,"osm_id":145690111}},{"type":"Feature","geometry":{"type":"Polygon","coordinates":[[[22.5008325,38.4823399],[22.5008033,38.4823662],[22.5008325,38.4823399]]]},"properties":{"site":"delphi","name":null,"category":"archaeological","historic":"ruins","building":null,"osm_id":145690112}},{"type":"Feature","geometry":{"type":"Polygon","coordinates":[[[22.5019864,38.4819573],[22.5019972,38.4819621],[22.5021433,38.4820221],[22.5019864,38.4819573]]]},"properties":{"site":"delphi","name":null,"category":"archaeological","historic":"ruins","building":null,"osm_id":145690113}},{"type":"Feature","geometry":{"type":"Polygon","coordinates":[[[22.5007393,38.4818946],[22.500858,38.4819617],[22.500838,38.4819852],[22.5007393,38.4818946]]]},"properties":{"site":"delphi","name":null,"category":"archaeological","historic":"ruins","building":null,"osm_id":145690114}},{"type":"Feature","geometry":{"type":"Polygon","coordinates":[[[22.5008062,38.4826067],[22.5009149,38.482677],[22.5009608,38.4826395],[22.5008062,38.4826067]]]},"properties":{"site":"delphi","name":null,"category":"archaeological","historic":"ruins","building":null,"osm_id":145690115}},{"type":"Feature","geometry":{"type":"Polygon","coordinates":[[[22.5021725,38.4821082],[22.5021466,38.4820988],[22.5021625,38.4820707],[22.5021725,38.4821082]]]},"properties":{"site":"delphi","name":null,"category":"archaeological","historic":"ruins","building":null,"osm_id":145690117}},{"type":"Feature","geometry":{"type":"Polygon","coordinates":[[[22.5007167,38.4823072],[22.5007459,38.4822808],[22.5007879,38.4822431],[22.5007167,38.4823072]]]},"properties":{"site":"delphi","name":null,"category":"archaeological","historic":"ruins","building":null,"osm_id":145690118}},{"type":"Feature","geometry":{"type":"Polygon","coordinates":[[[22.5009646,38.4816578],[22.5010624,38.4817155],[22.5010855,38.4816948],[22.5009646,38.4816578]]]},"properties":{"site":"delphi","name":null,"category":"archaeological","historic":"ruins","building":null,"osm_id":145690119}},{"type":"Feature","geometry":{"type":"Polygon","coordinates":[[[22.5007189,38.4820756],[22.5007333,38.4820627],[22.5007468,38.4820506],[22.5007189,38.4820756]]]},"properties":{"site":"delphi","name":null,"category":"archaeological","historic":"ruins","building":null,"osm_id":145690120}},{"type":"Feature","geometry":{"type":"Polygon","coordinates":[[[22.5007023,38.4822511],[22.5007459,38.4822808],[22.5008325,38.4823399],[22.5007023,38.4822511]]]},"properties":{"site":"delphi","name":null,"category":"archaeological","historic":"ruins","building":null,"osm_id":145690121}},{"type":"Feature","geometry":{"type":"Polygon","coordinates":[[[22.5006474,38.4827754],[22.5006175,38.4827973],[22.5007013,38.4828395],[22.5006474,38.4827754]]]},"properties":{"site":"delphi","name":null,"category":"archaeological","historic":"ruins","building":null,"osm_id":145690122}},{"type":"Feature","geometry":{"type":"Polygon","coordinates":[[[22.5010676,38.4815496],[22.5011855,38.481623],[22.5012174,38.4815933],[22.5010676,38.4815496]]]},"properties":{"site":"delphi","name":null,"category":"archaeological","historic":"ruins","building":null,"osm_id":145690123}},{"type":"Feature","geometry":{"type":"Polygon","coordinates":[[[22.5004172,38.4822787],[22.5005023,38.4823351],[22.5005453,38.4823663],[22.5004172,38.4822787]]]},"properties":{"site":"delphi","name":null,"category":"archaeological","historic":"ruins","building":null,"osm_id":145690124}},{"type":"Feature","geometry":{"type":"Polygon","coordinates":[[[22.5021752,38.4823142],[22.502059,38.4822621],[22.5021227,38.4821799],[22.5021752,38.4823142]]]},"properties":{"site":"delphi","name":null,"category":"archaeological","historic":"ruins","building":null,"osm_id":145690125}},{"type":"Feature","geometry":{"type":"Polygon","coordinates":[[[22.5006044,38.4820651],[22.5006869,38.4821131],[22.5007009,38.4820975],[22.5006044,38.4820651]]]},"properties":{"site":"delphi","name":null,"category":"archaeological","historic":"ruins","building":null,"osm_id":145690126}},{"type":"Feature","geometry":{"type":"Polygon","coordinates":[[[22.5009878,38.4829562],[22.5011445,38.4830583],[22.5011265,38.4830786],[22.5009878,38.4829562]]]},"properties":{"site":"delphi","name":null,"category":"archaeological","historic":"ruins","building":null,"osm_id":145690127}},{"type":"Feature","geometry":{"type":"Polygon","coordinates":[[[22.5019197,38.4820455],[22.5019286,38.4820315],[22.502272,38.4821915],[22.5019197,38.4820455]]]},"properties":{"site":"delphi","name":null,"category":"archaeological","historic":"ruins","building":null,"osm_id":145690129}},{"type":"Feature","geometry":{"type":"Polygon","coordinates":[[[22.5011868,38.4832185],[22.5012363,38.4831661],[22.5013553,38.4832319],[22.5013066,38.4832861],[22.5011868,38.4832185]]]},"properties":{"site":"delphi","name":null,"category":"archaeological","historic":"ruins","building":"yes","osm_id":145690131}},{"type":"Feature","geometry":{"type":"Polygon","coordinates":[[[22.5009091,38.4826076],[22.500883,38.4826301],[22.5009229,38.4826551],[22.5009489,38.4826323],[22.5009091,38.4826076]]]},"properties":{"site":"delphi","name":null,"category":"archaeological","historic":"ruins","building":null,"osm_id":145690136}},{"type":"Feature","geometry":{"type":"Polygon","coordinates":[[[22.5018039,38.4820924],[22.5018331,38.4821054],[22.5018646,38.4821193],[22.5019097,38.4821393],[22.5018039,38.4820924]]]},"properties":{"site":"delphi","name":null,"category":"archaeological","historic":"ruins","building":null,"osm_id":145690138}},{"type":"Feature","geometry":{"type":"Polygon","coordinates":[[[22.5018319,38.4821658],[22.5018646,38.4821193],[22.5019077,38.482058],[22.5020794,38.4821346],[22.5018319,38.4821658]]]},"properties":{"site":"delphi","name":null,"category":"archaeological","historic":"ruins","building":null,"osm_id":145690146}},{"type":"Feature","geometry":{"type":"Polygon","coordinates":[[[22.5017999,38.4821533],[22.5018331,38.4821054],[22.501856,38.4820722],[22.5018778,38.4820408],[22.5017999,38.4821533]]]},"properties":{"site":"delphi","name":null,"category":"archaeological","historic":"ruins","building":null,"osm_id":145690148}},{"type":"Feature","geometry":{"type":"Polygon","coordinates":[[[22.5004824,38.4820023],[22.5005583,38.4820384],[22.5006341,38.4819462],[22.5005622,38.4819118],[22.5004824,38.4820023]]]},"properties":{"site":"delphi","name":null,"category":"archaeological","historic":"ruins","building":null,"osm_id":145690151}},{"type":"Feature","geometry":{"type":"Polygon","coordinates":[[[22.501784,38.4819971],[22.5018538,38.4820315],[22.5018339,38.4820627],[22.501856,38.4820722],[22.501784,38.4819971]]]},"properties":{"site":"delphi","name":null,"category":"archaeological","historic":"ruins","building":null,"osm_id":145690153}},{"type":"Feature","geometry":{"type":"Polygon","coordinates":[[[22.5018978,38.4819143],[22.5018818,38.4819393],[22.5019704,38.4819778],[22.5019864,38.4819573],[22.5020115,38.4819252],[22.5018978,38.4819143]]]},"properties":{"site":"delphi","name":null,"category":"archaeological","historic":"ruins","building":null,"osm_id":145690156}},{"type":"Feature","geometry":{"type":"Polygon","coordinates":[[[22.500871,38.4830098],[22.500873,38.4829973],[22.5009309,38.4829348],[22.5009469,38.4829411],[22.5009542,38.4829344],[22.500871,38.4830098]]]},"properties":{"site":"delphi","name":null,"category":"archaeological","historic":"ruins","building":null,"osm_id":145690157}},{"type":"Feature","geometry":{"type":"Polygon","coordinates":[[[22.5007126,38.4824322],[22.5007359,38.4824134],[22.5007719,38.4823807],[22.5008099,38.4824061],[22.5008679,38.4824449],[22.5007126,38.4824322]]]},"properties":{"site":"delphi","name":null,"category":"archaeological","historic":"ruins","building":null,"osm_id":145690159}},{"type":"Feature","geometry":{"type":"Polygon","coordinates":[[[22.5006434,38.4827413],[22.5007333,38.4826676],[22.5007652,38.4826535],[22.5008062,38.4826067],[22.5008391,38.4825692],[22.5007113,38.4824817],[22.5006434,38.4827413]]]},"properties":{"site":"delphi","name":null,"category":"archaeological","historic":"ruins","building":null,"osm_id":145690164}},{"type":"Feature","geometry":{"type":"Polygon","coordinates":[[[22.5007193,38.4829598],[22.5007472,38.4829333],[22.5007772,38.4828911],[22.5008031,38.4828661],[22.5008271,38.4828286],[22.5008471,38.4828129],[22.5007193,38.4829598]]]},"properties":{"site":"delphi","name":null,"category":"archaeological","historic":"ruins","building":null,"osm_id":145690166}},{"type":"Feature","geometry":{"type":"Polygon","coordinates":[[[22.5008344,38.4824791],[22.500774,38.4824388],[22.5007359,38.4824134],[22.5006484,38.482355],[22.5006651,38.4823396],[22.5006287,38.4823153],[22.5008344,38.4824791]]]},"properties":{"site":"delphi","name":null,"category":"archaeological","historic":"ruins","building":null,"osm_id":145690169}},{"type":"Feature","geometry":{"type":"Polygon","coordinates":[[[22.5017264,38.4818573],[22.5018658,38.4819143],[22.5018459,38.4819424],[22.5019816,38.4820049],[22.5020005,38.4819815],[22.5021493,38.4820486],[22.5021613,38.482033],[22.5017264,38.4818573]]]},"properties":{"site":"delphi","name":null,"category":"archaeological","historic":"ruins","building":null,"osm_id":145690172}},{"type":"Feature","geometry":{"type":"Polygon","coordinates":[[[22.5008097,38.482497],[22.5007126,38.4824322],[22.5006267,38.4823749],[22.5005893,38.4823499],[22.5006501,38.4822941],[22.5006878,38.4823192],[22.5007197,38.4823406],[22.5008097,38.482497]]]},"properties":{"site":"delphi","name":null,"category":"archaeological","historic":"ruins","building":null,"osm_id":145690173}},{"type":"Feature","geometry":{"type":"Polygon","coordinates":[[[22.5009489,38.4819988],[22.5010347,38.4819175],[22.5011664,38.4819738],[22.5013721,38.4821113],[22.5015418,38.4822231],[22.5017192,38.48234],[22.5017613,38.4823676],[22.5016535,38.482477],[22.5009489,38.4819988]]]},"properties":{"site":"delphi","name":null,"category":"archaeological","historic":"ruins","building":null,"osm_id":145690174}},{"type":"Feature","geometry":{"type":"Polygon","coordinates":[[[22.5008895,38.4824249],[22.5008033,38.4823662],[22.5007167,38.4823072],[22.500673,38.4822774],[22.5007023,38.4822511],[22.5007442,38.4822134],[22.5007879,38.4822431],[22.5008745,38.4823022],[22.5008325,38.4823399],[22.5008895,38.4824249]]]},"properties":{"site":"delphi","name":null,"category":"archaeological","historic":"ruins","building":null,"osm_id":145690178}},{"type":"Feature","geometry":{"type":"Polygon","coordinates":[[[22.4993156,38.481458],[22.4997329,38.4818619],[22.5003616,38.4821469],[22.5011512,38.4813537],[22.5016063,38.481542],[22.5020171,38.4815855],[22.5025426,38.4817651],[22.5026351,38.4816376],[22.5022799,38.4814464],[22.5016026,38.481261],[22.5009809,38.4808931],[22.5006405,38.4807019],[22.5002667,38.4807773],[22.4998004,38.4807193],[22.4995525,38.4809105],[22.4993156,38.481458]]]},"properties":{"site":"delphi","name":null,"category":"archaeological","historic":"ruins","building":null,"osm_id":145706408}},{"type":"Feature","geometry":{"type":"Polygon","coordinates":[[[22.5018136,38.4828442],[22.5020467,38.4829326],[22.5022965,38.4829499],[22.5031403,38.4826704],[22.5031699,38.4820142],[22.5026314,38.4817912],[22.5018136,38.4828442]]]},"properties":{"site":"delphi","name":null,"category":"archaeological","historic":"ruins","building":null,"osm_id":145706410}},{"type":"Feature","geometry":{"type":"Polygon","coordinates":[[[22.5025467,38.4826126],[22.5026122,38.4826335],[22.5026605,38.4825404],[22.5025949,38.4825196],[22.5025467,38.4826126]]]},"properties":{"site":"delphi","name":null,"category":"archaeological","historic":"ruins","building":"yes","osm_id":564805977}},{"type":"Feature","geometry":{"type":"Polygon","coordinates":[[[22.4997162,38.4818282],[22.5003686,38.4821172],[22.5004571,38.4819948],[22.4998046,38.4817059],[22.4997162,38.4818282]]]},"properties":{"site":"delphi","name":"Στοά των Αιτωλών","category":"archaeological","historic":null,"building":"ruins","osm_id":565319331}},{"type":"Feature","geometry":{"type":"Polygon","coordinates":[[[22.5017106,38.4826302],[22.5017334,38.4825955],[22.5016878,38.4825766],[22.5016636,38.4826113],[22.5017106,38.4826302]]]},"properties":{"site":"delphi","name":null,"category":"archaeological","historic":null,"building":"ruins","osm_id":566204528}},{"type":"Feature","geometry":{"type":"Polygon","coordinates":[[[22.4970771,38.4790548],[22.4971254,38.4791275],[22.4970508,38.4791579],[22.4970024,38.4790853],[22.4970771,38.4790548]]]},"properties":{"site":"delphi","name":null,"category":"other","historic":null,"building":"yes","osm_id":1332466414}},{"type":"Feature","geometry":{"type":"Polygon","coordinates":[[[22.4991961,38.4809692],[22.4993359,38.4810236],[22.4992864,38.4811017],[22.4991465,38.4810473],[22.4991961,38.4809692]]]},"properties":{"site":"delphi","name":null,"category":"other","historic":null,"building":"yes","osm_id":1332467009}},{"type":"Feature","geometry":{"type":"Polygon","coordinates":[[[22.4990733,38.4809593],[22.4991111,38.481026],[22.4990707,38.48104],[22.4990588,38.4810189],[22.4990095,38.4810361],[22.4990492,38.4811062],[22.4989708,38.4811335],[22.4989052,38.4810177],[22.4990733,38.4809593]]]},"properties":{"site":"delphi","name":null,"category":"other","historic":null,"building":"yes","osm_id":1332467010}},{"type":"Feature","geometry":{"type":"Polygon","coordinates":[[[22.4989877,38.4817457],[22.4990127,38.481692],[22.4990601,38.4817055],[22.499035,38.4817593],[22.4989877,38.4817457]]]},"properties":{"site":"delphi","name":null,"category":"other","historic":null,"building":"yes","osm_id":1332467011}},{"type":"Feature","geometry":{"type":"Polygon","coordinates":[[[22.4988397,38.4816434],[22.4988049,38.4817183],[22.4987623,38.4817061],[22.4987971,38.4816312],[22.4988397,38.4816434]]]},"properties":{"site":"delphi","name":null,"category":"other","historic":null,"building":"yes","osm_id":1332467012}},{"type":"Feature","geometry":{"type":"Polygon","coordinates":[[[22.5018936,38.4827869],[22.502038,38.4825877],[22.5022646,38.4826883],[22.5021203,38.4828875],[22.5018936,38.4827869]]]},"properties":{"site":"delphi","name":null,"category":"archaeological","historic":"ruins","building":"yes","osm_id":1333196390}},{"type":"Feature","geometry":{"type":"Polygon","coordinates":[[[22.5023549,38.4820996],[22.5024169,38.4820126],[22.502713,38.4821418],[22.5026511,38.4822288],[22.5023549,38.4820996]]]},"properties":{"site":"delphi","name":null,"category":"archaeological","historic":"ruins","building":"yes","osm_id":1333196391}}]}