{"type":"FeatureCollection","features":[{"type":"Feature","geometry":{"type":"Polygon","coordinates":[[[5.7362725,36.319587],[5.7356851,36.3193795],[5.7357039,36.3193428],[5.7357468,36.3191958],[5.7357065,36.3190791],[5.7357092,36.3190035],[5.7357924,36.3188825],[5.7358058,36.3188501],[5.735846,36.3187895],[5.7360338,36.3188609],[5.7363637,36.3189927],[5.7363905,36.3190532],[5.7364468,36.3190727],[5.7365273,36.3191094],[5.7365729,36.3191224],[5.7362725,36.319587]]]},"properties":{"site":"djemila","name":"Thermes romains","category":"bath","osm_id":209622853}},{"type":"Feature","geometry":{"type":"Polygon","coordinates":[[[5.7355404,36.3204713],[5.7355568,36.3204839],[5.7355936,36.3204527],[5.7355771,36.3204402],[5.7355404,36.3204713]]]},"properties":{"site":"djemila","name":"Arc de Caracalla","category":"archaeological","osm_id":209622856}},{"type":"Feature","geometry":{"type":"Polygon","coordinates":[[[5.7363602,36.3209539],[5.736311,36.3208935],[5.7362542,36.3209236],[5.7361543,36.320801],[5.7362073,36.320773],[5.7361482,36.3207004],[5.7365177,36.320505],[5.7367259,36.3207605],[5.7363602,36.3209539]]]},"properties":{"site":"djemila","name":"Temple de la famille des Sévères","category":"temple","osm_id":209622858}},{"type":"Feature","geometry":{"type":"Polygon","coordinates":[[[5.7346456,36.3223108],[5.7351624,36.3226016],[5.7355471,36.3221579],[5.735275,36.3220048],[5.7350303,36.3218671],[5.7346456,36.3223108]]]},"properties":{"site":"djemila","name":"Roman Forum","category":"forum","osm_id":209622860}},{"type":"Feature","geometry":{"type":"Polygon","coordinates":[[[5.7380762,36.3186919],[5.7380669,36.3187254],[5.7380575,36.318747],[5.7381099,36.3187543],[5.7381005,36.318803],[5.7380422,36.3188008],[5.7380295,36.3188836],[5.7380499,36.3188903],[5.7380663,36.3189022],[5.7380744,36.3189182],[5.7380719,36.31893],[5.738069,36.3189433],[5.7380469,36.3189606],[5.7380342,36.3189676],[5.7380201,36.3189703],[5.7380073,36.318973],[5.738002,36.3190524],[5.7380691,36.3190562],[5.7380623,36.3191011],[5.7379979,36.3190992],[5.7379999,36.3191295],[5.7380241,36.3191343],[5.7380402,36.3191441],[5.7380476,36.3191608],[5.7380449,36.3191781],[5.7380375,36.3191857],[5.7380315,36.3191938],[5.7380107,36.3192019],[5.7379926,36.3192084],[5.7379939,36.3192365],[5.7380451,36.3192409],[5.7380382,36.3192889],[5.7379725,36.3192867],[5.7379671,36.319358],[5.7380771,36.319371],[5.7380696,36.3194449],[5.7374822,36.3193628],[5.7375974,36.3190371],[5.7376121,36.318937],[5.7376525,36.3186723],[5.7380762,36.3186919]]]},"properties":{"site":"djemila","name":"Basilica of Cresconius","category":"basilica","osm_id":209623231}},{"type":"Feature","geometry":{"type":"Polygon","coordinates":[[[5.7353498,36.3242015],[5.735325,36.3242095],[5.7352975,36.3242153],[5.7352372,36.3242107],[5.7351607,36.3241975],[5.7350758,36.3241709],[5.7350501,36.3241629],[5.7348992,36.3241056],[5.7346699,36.324097],[5.7343078,36.3241834],[5.7342407,36.3242534],[5.7341951,36.3243039],[5.7341388,36.3243444],[5.7338974,36.3244141],[5.7338397,36.3244381],[5.7336935,36.324486],[5.7335232,36.3245],[5.7332778,36.3246005],[5.7332282,36.3246848],[5.7331598,36.3247734],[5.7331053,36.3248177],[5.7330401,36.324849],[5.7329776,36.3248706],[5.7329043,36.3248879],[5.7326891,36.3249138],[5.7325864,36.3249506],[5.7323725,36.3249722],[5.7323102,36.3249566],[5.7322384,36.3250209],[5.7320894,36.3252266],[5.7320464,36.32528],[5.7319576,36.3253177],[5.7318981,36.3252915],[5.7318891,36.3252152],[5.7319005,36.3251103],[5.7318482,36.3250019],[5.7318428,36.3249625],[5.7318462,36.324909],[5.7318361,36.3248393],[5.7318837,36.3245686],[5.7319729,36.3244265],[5.7320053,36.3243849],[5.7321248,36.3242734],[5.7323114,36.3241251],[5.7323658,36.3240927],[5.7324121,36.3240619],[5.7327437,36.3239244],[5.732807,36.323882],[5.7328915,36.3237566],[5.733052,36.3233193],[5.7330807,36.3232434],[5.7331216,36.323175],[5.7331743,36.3231197],[5.733243,36.3230618],[5.7333196,36.3230147],[5.7334999,36.3228849],[5.7336425,36.3227723],[5.7336776,36.3225651],[5.7336934,36.3225671],[5.7337118,36.3225636],[5.7337287,36.3225524],[5.7337264,36.3225205],[5.7337163,36.3224719],[5.7337123,36.3224395],[5.7337349,36.322378],[5.7337548,36.322323],[5.7337545,36.3222647],[5.7336855,36.3222645],[5.7336608,36.3221454],[5.7336602,36.322022],[5.7336724,36.3219892],[5.7336915,36.3219559],[5.7337164,36.3219284],[5.7337355,36.3219137],[5.7337628,36.3219012],[5.7339983,36.3218147],[5.7340563,36.3217841],[5.7341079,36.3217404],[5.7342715,36.3215253],[5.7343684,36.3213552],[5.7344801,36.3212087],[5.7346363,36.3210326],[5.7346538,36.3209613],[5.7346671,36.3208241],[5.7345548,36.3206046],[5.734531,36.3205288],[5.7345102,36.3204443],[5.7344955,36.3204178],[5.7343587,36.3202698],[5.734124,36.3200418],[5.7340957,36.3200031],[5.7340822,36.3199461],[5.7340846,36.3198883],[5.7340422,36.3196873],[5.7340509,36.3196452],[5.7341647,36.3194719],[5.7341723,36.3194604],[5.734185,36.3194361],[5.7341924,36.3194075],[5.7341978,36.3193642],[5.7340995,36.3189007],[5.7333869,36.3183686],[5.7341191,36.317899],[5.7343403,36.3177378],[5.7346742,36.317479],[5.7351338,36.3172757],[5.7356372,36.317053],[5.7357287,36.3164817],[5.736793,36.3164821],[5.7374702,36.3168103],[5.7374926,36.3168522],[5.7377971,36.3174693],[5.7381408,36.3176144],[5.7382193,36.3176949],[5.738447,36.3182425],[5.7384668,36.318318],[5.7385076,36.318504],[5.7385296,36.3186403],[5.7385588,36.3188189],[5.7386147,36.318988],[5.7388281,36.3194503],[5.7388577,36.3194728],[5.7389929,36.3199672],[5.7390248,36.3202221],[5.739026,36.3202312],[5.7390267,36.3203679],[5.7389882,36.3206406],[5.7389616,36.3208173],[5.738932,36.3208817],[5.7389092,36.3209172],[5.7388729,36.3209462],[5.7380951,36.3214227],[5.7377967,36.3218252],[5.7375787,36.3222147],[5.7375794,36.3222228],[5.7375563,36.3222928],[5.7375438,36.3223822],[5.7375499,36.3224346],[5.7375532,36.3224849],[5.737549,36.3226201],[5.7375421,36.3227423],[5.7375552,36.322909],[5.7374339,36.3230068],[5.7372035,36.3231197],[5.7371408,36.3231365],[5.7369618,36.3231224],[5.736813,36.3231311],[5.7365475,36.3231532],[5.7363382,36.3232056],[5.7362521,36.3232945],[5.7361739,36.3234039],[5.7361276,36.3234476],[5.7360586,36.3235243],[5.7359587,36.3236637],[5.7357253,36.3238856],[5.7354008,36.3241646],[5.735378,36.3241841],[5.7353498,36.3242015]]]},"properties":{"site":"djemila","name":"Djémila","category":"archaeological","osm_id":257564804}},{"type":"Feature","geometry":{"type":"Polygon","coordinates":[[[5.7348802,36.3159551],[5.7348984,36.3161683],[5.734909,36.3162913],[5.7354624,36.3162605],[5.7354336,36.3159243],[5.7348802,36.3159551]]]},"properties":{"site":"djemila","name":null,"category":"other","osm_id":310196632}},{"type":"Feature","geometry":{"type":"Polygon","coordinates":[[[5.7350949,36.3167136],[5.7351599,36.3167113],[5.735166,36.3168262],[5.7355109,36.3168142],[5.7354871,36.3163663],[5.7350772,36.3163805],[5.7350949,36.3167136]]]},"properties":{"site":"djemila","name":null,"category":"other","osm_id":315837161}},{"type":"Feature","geometry":{"type":"Polygon","coordinates":[[[5.7363291,36.315895],[5.7363125,36.3156772],[5.7366248,36.3156661],[5.7366361,36.3158722],[5.7366059,36.3158746],[5.7366027,36.3159031],[5.7363291,36.315895]]]},"properties":{"site":"djemila","name":"Centre de santé","category":"other","osm_id":315837534}},{"type":"Feature","geometry":{"type":"Polygon","coordinates":[[[5.7377983,36.3156683],[5.7377234,36.3154703],[5.7378487,36.3154395],[5.7379236,36.3156376],[5.7377983,36.3156683]]]},"properties":{"site":"djemila","name":"Maison de jeunes","category":"other","osm_id":315837628}},{"type":"Feature","geometry":{"type":"Polygon","coordinates":[[[5.7341565,36.3173868],[5.734156,36.3172516],[5.7343851,36.317251],[5.7343853,36.3172981],[5.7344816,36.3172978],[5.734482,36.317386],[5.7341565,36.3173868]]]},"properties":{"site":"djemila","name":"Auberge Djemila","category":"other","osm_id":315837651}},{"type":"Feature","geometry":{"type":"Polygon","coordinates":[[[5.7377587,36.3170411],[5.7378219,36.3170276],[5.7377909,36.316933],[5.7377277,36.3169465],[5.7377587,36.3170411]]]},"properties":{"site":"djemila","name":null,"category":"other","osm_id":654945256}},{"type":"Feature","geometry":{"type":"Polygon","coordinates":[[[5.7378834,36.3174042],[5.7379348,36.3173932],[5.7378235,36.3170539],[5.7377721,36.3170648],[5.7378834,36.3174042]]]},"properties":{"site":"djemila","name":null,"category":"other","osm_id":654945257}},{"type":"Feature","geometry":{"type":"Polygon","coordinates":[[[5.7379719,36.3167504],[5.7379704,36.3168692],[5.738236,36.3168713],[5.7382375,36.3167526],[5.7379719,36.3167504]]]},"properties":{"site":"djemila","name":null,"category":"other","osm_id":654945258}},{"type":"Feature","geometry":{"type":"Polygon","coordinates":[[[5.7376997,36.3168639],[5.7379666,36.3168714],[5.7379719,36.3167504],[5.737705,36.3167428],[5.7376997,36.3168639]]]},"properties":{"site":"djemila","name":null,"category":"other","osm_id":654945259}},{"type":"Feature","geometry":{"type":"Polygon","coordinates":[[[5.7371271,36.316464],[5.7370573,36.3165256],[5.7371078,36.3165627],[5.7371775,36.3165011],[5.7371271,36.316464]]]},"properties":{"site":"djemila","name":null,"category":"other","osm_id":654945260}},{"type":"Feature","geometry":{"type":"Polygon","coordinates":[[[5.7374342,36.3162187],[5.7375472,36.3162491],[5.7375793,36.3161716],[5.7374984,36.3161467],[5.7374342,36.3162187]]]},"properties":{"site":"djemila","name":null,"category":"other","osm_id":654945261}},{"type":"Feature","geometry":{"type":"Polygon","coordinates":[[[5.7380236,36.3164051],[5.738037,36.3163727],[5.7379505,36.3163495],[5.7379371,36.3163819],[5.7379894,36.316396],[5.7380236,36.3164051]]]},"properties":{"site":"djemila","name":null,"category":"other","osm_id":654945262}},{"type":"Feature","geometry":{"type":"Polygon","coordinates":[[[5.7380681,36.3164456],[5.7380787,36.3164199],[5.7381416,36.3162679],[5.7380833,36.3162522],[5.7380098,36.3164299],[5.7380681,36.3164456]]]},"properties":{"site":"djemila","name":null,"category":"other","osm_id":654945263}},{"type":"Feature","geometry":{"type":"Polygon","coordinates":[[[5.7380497,36.31649],[5.7380681,36.3164456],[5.7380787,36.3164199],[5.7380236,36.3164051],[5.7379894,36.316396],[5.7379604,36.316466],[5.7380497,36.31649]]]},"properties":{"site":"djemila","name":null,"category":"other","osm_id":654945264}},{"type":"Feature","geometry":{"type":"Polygon","coordinates":[[[5.7376997,36.3164338],[5.7377939,36.3164591],[5.7378151,36.3164078],[5.7377209,36.3163826],[5.7376997,36.3164338]]]},"properties":{"site":"djemila","name":null,"category":"other","osm_id":654945265}},{"type":"Feature","geometry":{"type":"Polygon","coordinates":[[[5.7375321,36.3164478],[5.7376302,36.3164742],[5.7376461,36.3164359],[5.7375479,36.3164096],[5.7375321,36.3164478]]]},"properties":{"site":"djemila","name":null,"category":"other","osm_id":654945267}},{"type":"Feature","geometry":{"type":"Polygon","coordinates":[[[5.7375187,36.3163819],[5.7374955,36.316438],[5.7375321,36.3164478],[5.7375479,36.3164096],[5.7375553,36.3163917],[5.7375187,36.3163819]]]},"properties":{"site":"djemila","name":null,"category":"other","osm_id":654945269}},{"type":"Feature","geometry":{"type":"Polygon","coordinates":[[[5.7375806,36.3163737],[5.7375702,36.316399],[5.7376233,36.3164132],[5.7376337,36.316388],[5.7375806,36.3163737]]]},"properties":{"site":"djemila","name":null,"category":"other","osm_id":654945271}},{"type":"Feature","geometry":{"type":"Polygon","coordinates":[[[5.7377118,36.3164089],[5.7377869,36.3162274],[5.7375793,36.3161716],[5.7375472,36.3162491],[5.7375042,36.3163532],[5.7375806,36.3163737],[5.7376337,36.316388],[5.7377118,36.3164089]]]},"properties":{"site":"djemila","name":null,"category":"other","osm_id":654945273}},{"type":"Feature","geometry":{"type":"Polygon","coordinates":[[[5.7339272,36.3152548],[5.7336848,36.3152916],[5.7338253,36.3158924],[5.7340677,36.3158556],[5.7339272,36.3152548]]]},"properties":{"site":"djemila","name":null,"category":"other","osm_id":654945280}},{"type":"Feature","geometry":{"type":"Polygon","coordinates":[[[5.7341579,36.3152397],[5.7340293,36.3152592],[5.7341632,36.3158319],[5.7342918,36.3158124],[5.7341579,36.3152397]]]},"properties":{"site":"djemila","name":null,"category":"other","osm_id":654945282}},{"type":"Feature","geometry":{"type":"Polygon","coordinates":[[[5.7343993,36.315793],[5.7345411,36.3157714],[5.7344097,36.3152095],[5.7342678,36.3152311],[5.7343993,36.315793]]]},"properties":{"site":"djemila","name":null,"category":"other","osm_id":654945283}},{"type":"Feature","geometry":{"type":"Polygon","coordinates":[[[5.7340291,36.3149566],[5.7341337,36.3151684],[5.73441,36.3150798],[5.7343054,36.314868],[5.7340291,36.3149566]]]},"properties":{"site":"djemila","name":null,"category":"other","osm_id":654945383}},{"type":"Feature","geometry":{"type":"Polygon","coordinates":[[[5.7345039,36.3150322],[5.7347659,36.3149482],[5.7346559,36.3147256],[5.7343939,36.3148096],[5.7345039,36.3150322]]]},"properties":{"site":"djemila","name":null,"category":"other","osm_id":654945393}},{"type":"Feature","geometry":{"type":"Polygon","coordinates":[[[5.7348615,36.3152354],[5.7348903,36.3153621],[5.7349801,36.3153489],[5.7349513,36.3152221],[5.7348615,36.3152354]]]},"properties":{"site":"djemila","name":null,"category":"other","osm_id":654945396}},{"type":"Feature","geometry":{"type":"Polygon","coordinates":[[[5.7347813,36.3153518],[5.7347399,36.3153579],[5.7347533,36.3154169],[5.7347947,36.3154108],[5.7347813,36.3153518]]]},"properties":{"site":"djemila","name":null,"category":"other","osm_id":654945398}},{"type":"Feature","geometry":{"type":"Polygon","coordinates":[[[5.7346932,36.3153648],[5.7347399,36.3153579],[5.7347813,36.3153518],[5.7347426,36.3151813],[5.7346544,36.3151943],[5.7346932,36.3153648]]]},"properties":{"site":"djemila","name":null,"category":"other","osm_id":654945399}},{"type":"Feature","geometry":{"type":"Polygon","coordinates":[[[5.7345334,36.3154407],[5.7347047,36.3154154],[5.7346932,36.3153648],[5.7346544,36.3151943],[5.7346361,36.3151137],[5.7344648,36.315139],[5.7345334,36.3154407]]]},"properties":{"site":"djemila","name":null,"category":"other","osm_id":654945401}},{"type":"Feature","geometry":{"type":"Polygon","coordinates":[[[5.7355177,36.3155747],[5.7354872,36.3154405],[5.7353541,36.3154601],[5.7353846,36.3155943],[5.7355177,36.3155747]]]},"properties":{"site":"djemila","name":null,"category":"other","osm_id":654945403}},{"type":"Feature","geometry":{"type":"Polygon","coordinates":[[[5.7355204,36.3154364],[5.7354496,36.3154468],[5.735456,36.3154753],[5.7355269,36.3154648],[5.7355204,36.3154364]]]},"properties":{"site":"djemila","name":null,"category":"other","osm_id":654945405}},{"type":"Feature","geometry":{"type":"Polygon","coordinates":[[[5.735617,36.3151878],[5.7356612,36.3153823],[5.7357226,36.3153732],[5.7356784,36.3151788],[5.735617,36.3151878]]]},"properties":{"site":"djemila","name":null,"category":"other","osm_id":654945406}},{"type":"Feature","geometry":{"type":"Polygon","coordinates":[[[5.73533,36.3150344],[5.7353137,36.3149626],[5.7351932,36.3149803],[5.7352095,36.3150522],[5.73533,36.3150344]]]},"properties":{"site":"djemila","name":null,"category":"other","osm_id":654945408}},{"type":"Feature","geometry":{"type":"Polygon","coordinates":[[[5.7353538,36.3150025],[5.7353684,36.3150669],[5.7354131,36.3150603],[5.7353985,36.3149959],[5.7353538,36.3150025]]]},"properties":{"site":"djemila","name":null,"category":"other","osm_id":654945410}},{"type":"Feature","geometry":{"type":"Polygon","coordinates":[[[5.7355723,36.3149703],[5.7355561,36.314899],[5.7352978,36.3149371],[5.735314,36.3150084],[5.7353538,36.3150025],[5.7353985,36.3149959],[5.7355434,36.3149745],[5.7355723,36.3149703]]]},"properties":{"site":"djemila","name":null,"category":"other","osm_id":654945412}},{"type":"Feature","geometry":{"type":"Polygon","coordinates":[[[5.7355875,36.3151684],[5.7357093,36.3151504],[5.7356653,36.3149566],[5.7355723,36.3149703],[5.7355434,36.3149745],[5.7355875,36.3151684]]]},"properties":{"site":"djemila","name":null,"category":"other","osm_id":654945414}},{"type":"Feature","geometry":{"type":"Polygon","coordinates":[[[5.7354864,36.3152615],[5.7354943,36.3152961],[5.7355028,36.3153336],[5.7356411,36.3153132],[5.7356247,36.3152411],[5.7354864,36.3152615]]]},"properties":{"site":"djemila","name":null,"category":"other","osm_id":654945415}},{"type":"Feature","geometry":{"type":"Polygon","coordinates":[[[5.7354943,36.3152961],[5.7354864,36.3152615],[5.7353997,36.3152743],[5.7354076,36.3153089],[5.7354943,36.3152961]]]},"properties":{"site":"djemila","name":null,"category":"other","osm_id":654945417}},{"type":"Feature","geometry":{"type":"Polygon","coordinates":[[[5.7352763,36.3153283],[5.735289,36.3153842],[5.735507,36.3153521],[5.7355028,36.3153336],[5.7354943,36.3152961],[5.7354076,36.3153089],[5.7352763,36.3153283]]]},"properties":{"site":"djemila","name":null,"category":"other","osm_id":654945419}},{"type":"Feature","geometry":{"type":"Polygon","coordinates":[[[5.7352737,36.3152224],[5.7352018,36.315233],[5.7352201,36.3153135],[5.7352919,36.3153029],[5.7352737,36.3152224]]]},"properties":{"site":"djemila","name":null,"category":"other","osm_id":654945421}},{"type":"Feature","geometry":{"type":"Polygon","coordinates":[[[5.7351315,36.315069],[5.7351698,36.3152377],[5.7352018,36.315233],[5.7352737,36.3152224],[5.7352353,36.3150536],[5.7351315,36.315069]]]},"properties":{"site":"djemila","name":null,"category":"other","osm_id":654945422}},{"type":"Feature","geometry":{"type":"Polygon","coordinates":[[[5.7349572,36.3150668],[5.7349877,36.3152014],[5.7351235,36.3151813],[5.7350929,36.3150468],[5.7349572,36.3150668]]]},"properties":{"site":"djemila","name":null,"category":"other","osm_id":654945424}},{"type":"Feature","geometry":{"type":"Polygon","coordinates":[[[5.7347882,36.3152462],[5.7348615,36.3152354],[5.7349513,36.3152221],[5.7349911,36.3152162],[5.7349877,36.3152014],[5.7349572,36.3150668],[5.7347542,36.3150967],[5.7347882,36.3152462]]]},"properties":{"site":"djemila","name":null,"category":"other","osm_id":654945426}},{"type":"Feature","geometry":{"type":"Polygon","coordinates":[[[5.7348686,36.315499],[5.7352495,36.3154429],[5.7352201,36.3153135],[5.7349801,36.3153489],[5.7348903,36.3153621],[5.7348392,36.3153697],[5.7348686,36.315499]]]},"properties":{"site":"djemila","name":null,"category":"other","osm_id":654945428}},{"type":"Feature","geometry":{"type":"Polygon","coordinates":[[[5.7359335,36.315043],[5.7358852,36.3148572],[5.7357642,36.3148776],[5.7358125,36.3150634],[5.7359335,36.315043]]]},"properties":{"site":"djemila","name":null,"category":"other","osm_id":654945431}},{"type":"Feature","geometry":{"type":"Polygon","coordinates":[[[5.735853,36.3153586],[5.7360873,36.3153672],[5.7361007,36.3151316],[5.7358664,36.315123],[5.735853,36.3153586]]]},"properties":{"site":"djemila","name":null,"category":"other","osm_id":654945433}},{"type":"Feature","geometry":{"type":"Polygon","coordinates":[[[5.7359737,36.3155228],[5.7358811,36.3155258],[5.7358825,36.3155552],[5.7359752,36.3155523],[5.7359737,36.3155228]]]},"properties":{"site":"djemila","name":null,"category":"other","osm_id":654945435}},{"type":"Feature","geometry":{"type":"Polygon","coordinates":[[[5.7359683,36.3153931],[5.735973,36.315489],[5.736132,36.3154839],[5.7361273,36.3153881],[5.7359683,36.3153931]]]},"properties":{"site":"djemila","name":null,"category":"other","osm_id":654945436}},{"type":"Feature","geometry":{"type":"Polygon","coordinates":[[[5.7358798,36.3154926],[5.7359731,36.3154896],[5.735973,36.315489],[5.7359683,36.3153931],[5.7358751,36.3153961],[5.7358798,36.3154926]]]},"properties":{"site":"djemila","name":null,"category":"other","osm_id":654945438}},{"type":"Feature","geometry":{"type":"Polygon","coordinates":[[[5.7360143,36.3156116],[5.7358841,36.3156157],[5.7358879,36.3156936],[5.7360182,36.3156894],[5.7360172,36.3156707],[5.7360143,36.3156116]]]},"properties":{"site":"djemila","name":null,"category":"other","osm_id":654945440}},{"type":"Feature","geometry":{"type":"Polygon","coordinates":[[[5.7360113,36.3155488],[5.7360143,36.3156116],[5.7360172,36.3156707],[5.7361132,36.3156676],[5.7361072,36.3155457],[5.7360113,36.3155488]]]},"properties":{"site":"djemila","name":null,"category":"other","osm_id":654945442}},{"type":"Feature","geometry":{"type":"Polygon","coordinates":[[[5.737125,36.3157828],[5.7371286,36.3158553],[5.7372531,36.3158513],[5.7372496,36.3157788],[5.737125,36.3157828]]]},"properties":{"site":"djemila","name":null,"category":"other","osm_id":654945443}},{"type":"Feature","geometry":{"type":"Polygon","coordinates":[[[5.737009,36.3157865],[5.7370138,36.3158831],[5.7371297,36.3158794],[5.7371286,36.3158553],[5.737125,36.3157828],[5.737009,36.3157865]]]},"properties":{"site":"djemila","name":null,"category":"other","osm_id":654945445}},{"type":"Feature","geometry":{"type":"Polygon","coordinates":[[[5.7368669,36.3158816],[5.7369581,36.3158787],[5.7369554,36.3158232],[5.7368642,36.3158261],[5.7368669,36.3158816]]]},"properties":{"site":"djemila","name":null,"category":"other","osm_id":654945447}},{"type":"Feature","geometry":{"type":"Polygon","coordinates":[[[5.7367507,36.3157006],[5.7367598,36.315885],[5.7368669,36.3158816],[5.7368642,36.3158261],[5.7368579,36.3156972],[5.7367507,36.3157006]]]},"properties":{"site":"djemila","name":null,"category":"other","osm_id":654945451}},{"type":"Feature","geometry":{"type":"Polygon","coordinates":[[[5.7372987,36.315713],[5.7373027,36.3157943],[5.7375482,36.3157865],[5.7375442,36.3157052],[5.7372987,36.315713]]]},"properties":{"site":"djemila","name":null,"category":"other","osm_id":654945453}},{"type":"Feature","geometry":{"type":"Polygon","coordinates":[[[5.7372075,36.3156244],[5.737212,36.3157158],[5.7372987,36.315713],[5.7372942,36.3156216],[5.7372075,36.3156244]]]},"properties":{"site":"djemila","name":null,"category":"other","osm_id":654945456}},{"type":"Feature","geometry":{"type":"Polygon","coordinates":[[[5.7369983,36.3156244],[5.7370021,36.3157009],[5.7371646,36.3156957],[5.7371609,36.3156192],[5.7369983,36.3156244]]]},"properties":{"site":"djemila","name":null,"category":"other","osm_id":654945460}},{"type":"Feature","geometry":{"type":"Polygon","coordinates":[[[5.7367301,36.3156374],[5.7367332,36.3157011],[5.7367507,36.3157006],[5.7368579,36.3156972],[5.7369715,36.3156936],[5.7369684,36.3156298],[5.7367301,36.3156374]]]},"properties":{"site":"djemila","name":null,"category":"other","osm_id":654945462}},{"type":"Feature","geometry":{"type":"Polygon","coordinates":[[[5.7365262,36.3152916],[5.7365296,36.3153595],[5.7366282,36.3153564],[5.7366248,36.3152884],[5.7365262,36.3152916]]]},"properties":{"site":"djemila","name":null,"category":"other","osm_id":654945464}},{"type":"Feature","geometry":{"type":"Polygon","coordinates":[[[5.7363197,36.315391],[5.7365236,36.3153845],[5.7365308,36.3153843],[5.7365296,36.3153595],[5.7365262,36.3152916],[5.7363152,36.3152983],[5.7363197,36.315391]]]},"properties":{"site":"djemila","name":null,"category":"other","osm_id":654945465}},{"type":"Feature","geometry":{"type":"Polygon","coordinates":[[[5.7365068,36.3154823],[5.7363288,36.315488],[5.7363331,36.3155768],[5.7365111,36.3155712],[5.7365068,36.3154823]]]},"properties":{"site":"djemila","name":null,"category":"other","osm_id":654945467}},{"type":"Feature","geometry":{"type":"Polygon","coordinates":[[[5.7365283,36.3154816],[5.7365335,36.3155869],[5.736714,36.3155812],[5.7367088,36.3154759],[5.7365283,36.3154816]]]},"properties":{"site":"djemila","name":null,"category":"other","osm_id":654945469}},{"type":"Feature","geometry":{"type":"Polygon","coordinates":[[[5.7363197,36.315391],[5.7363245,36.3154881],[5.7363288,36.315488],[5.7365068,36.3154823],[5.7365283,36.3154816],[5.7365236,36.3153845],[5.7363197,36.315391]]]},"properties":{"site":"djemila","name":null,"category":"other","osm_id":654945471}},{"type":"Feature","geometry":{"type":"Polygon","coordinates":[[[5.7363251,36.3149522],[5.7363975,36.315177],[5.7365443,36.3151463],[5.7364719,36.3149215],[5.7363251,36.3149522]]]},"properties":{"site":"djemila","name":null,"category":"other","osm_id":654945472}},{"type":"Feature","geometry":{"type":"Polygon","coordinates":[[[5.7374918,36.3149631],[5.7375812,36.3151228],[5.7376876,36.3150841],[5.7375983,36.3149244],[5.7374918,36.3149631]]]},"properties":{"site":"djemila","name":null,"category":"other","osm_id":654945514}},{"type":"Feature","geometry":{"type":"Polygon","coordinates":[[[5.7368079,36.3151727],[5.7373577,36.3149717],[5.7373143,36.3148945],[5.7367644,36.3150955],[5.7368079,36.3151727]]]},"properties":{"site":"djemila","name":null,"category":"other","osm_id":654945520}},{"type":"Feature","geometry":{"type":"Polygon","coordinates":[[[5.7381731,36.3153434],[5.7382321,36.3147815],[5.7381227,36.314774],[5.7380637,36.315336],[5.7381731,36.3153434]]]},"properties":{"site":"djemila","name":null,"category":"other","osm_id":654945539}},{"type":"Feature","geometry":{"type":"Polygon","coordinates":[[[5.737064,36.3153229],[5.7372169,36.315271],[5.7371564,36.3151552],[5.7370035,36.3152071],[5.737064,36.3153229]]]},"properties":{"site":"djemila","name":null,"category":"other","osm_id":654945540}},{"type":"Feature","geometry":{"type":"Polygon","coordinates":[[[5.7374154,36.3151403],[5.737363,36.3150675],[5.737178,36.3151539],[5.7372303,36.3152267],[5.7374154,36.3151403]]]},"properties":{"site":"djemila","name":null,"category":"other","osm_id":654945541}},{"type":"Feature","geometry":{"type":"Polygon","coordinates":[[[5.7372116,36.3154126],[5.7375107,36.3151986],[5.7374583,36.3151511],[5.7371592,36.3153651],[5.7372116,36.3154126]]]},"properties":{"site":"djemila","name":null,"category":"other","osm_id":654945543}},{"type":"Feature","geometry":{"type":"Polygon","coordinates":[[[5.7372612,36.3160739],[5.7375482,36.3158686],[5.7374759,36.315803],[5.7371889,36.3160083],[5.7372612,36.3160739]]]},"properties":{"site":"djemila","name":null,"category":"other","osm_id":654945545}},{"type":"Feature","geometry":{"type":"Polygon","coordinates":[[[5.735051,36.3218503],[5.735266,36.3219656],[5.7354316,36.3217652],[5.7352166,36.3216499],[5.735051,36.3218503]]]},"properties":{"site":"djemila","name":"Roman Forum Courtyard","category":"forum","osm_id":1123877539}},{"type":"Feature","geometry":{"type":"Polygon","coordinates":[[[5.7299438,36.3186737],[5.7300104,36.3186253],[5.7300798,36.3186874],[5.7300131,36.3187357],[5.7299438,36.3186737]]]},"properties":{"site":"djemila","name":null,"category":"other","osm_id":1174408975}},{"type":"Feature","geometry":{"type":"Polygon","coordinates":[[[5.7291157,36.3171744],[5.7291258,36.317225],[5.7290619,36.3172332],[5.729072,36.3172838],[5.7289842,36.3172951],[5.728975,36.3172488],[5.7289085,36.3172574],[5.7288976,36.3172026],[5.7291157,36.3171744]]]},"properties":{"site":"djemila","name":null,"category":"other","osm_id":1174409026}},{"type":"Feature","geometry":{"type":"Polygon","coordinates":[[[5.7300986,36.3245978],[5.7301098,36.3245658],[5.730157,36.3245766],[5.7301457,36.3246086],[5.7300986,36.3245978]]]},"properties":{"site":"djemila","name":null,"category":"other","osm_id":1174409081}},{"type":"Feature","geometry":{"type":"Polygon","coordinates":[[[5.729597,36.3165693],[5.7296585,36.3165664],[5.7296636,36.3166397],[5.7296022,36.3166425],[5.729597,36.3165693]]]},"properties":{"site":"djemila","name":null,"category":"other","osm_id":1174409113}},{"type":"Feature","geometry":{"type":"Polygon","coordinates":[[[5.729467,36.3184094],[5.7294971,36.3184548],[5.7294367,36.3184809],[5.7294065,36.3184355],[5.729467,36.3184094]]]},"properties":{"site":"djemila","name":null,"category":"other","osm_id":1174409180}},{"type":"Feature","geometry":{"type":"Polygon","coordinates":[[[5.7291962,36.3183362],[5.7291055,36.3183828],[5.7289767,36.3182197],[5.7291141,36.3181492],[5.7292198,36.318283],[5.7291731,36.318307],[5.7291962,36.3183362]]]},"properties":{"site":"djemila","name":null,"category":"other","osm_id":1174409199}},{"type":"Feature","geometry":{"type":"Polygon","coordinates":[[[5.729156,36.3157855],[5.729221,36.3158998],[5.7291115,36.3159402],[5.7290466,36.3158259],[5.729156,36.3157855]]]},"properties":{"site":"djemila","name":null,"category":"other","osm_id":1174409229}},{"type":"Feature","geometry":{"type":"Polygon","coordinates":[[[5.7293163,36.3183381],[5.7293406,36.3183768],[5.7293086,36.3183898],[5.7292843,36.3183511],[5.7293163,36.3183381]]]},"properties":{"site":"djemila","name":null,"category":"other","osm_id":1174409304}},{"type":"Feature","geometry":{"type":"Polygon","coordinates":[[[5.7297396,36.3184664],[5.7298286,36.3184193],[5.7299283,36.3185416],[5.7299058,36.3185535],[5.7298781,36.3185195],[5.7298116,36.3185547],[5.7297396,36.3184664]]]},"properties":{"site":"djemila","name":null,"category":"other","osm_id":1174409315}},{"type":"Feature","geometry":{"type":"Polygon","coordinates":[[[5.7293735,36.3164817],[5.7294111,36.3166062],[5.7293276,36.3166226],[5.72929,36.3164981],[5.7293735,36.3164817]]]},"properties":{"site":"djemila","name":null,"category":"other","osm_id":1174409341}},{"type":"Feature","geometry":{"type":"Polygon","coordinates":[[[5.7304574,36.3244146],[5.7304036,36.324424],[5.7303934,36.3243857],[5.7304472,36.3243763],[5.7304574,36.3244146]]]},"properties":{"site":"djemila","name":null,"category":"other","osm_id":1174409347}},{"type":"Feature","geometry":{"type":"Polygon","coordinates":[[[5.7304193,36.3245449],[5.7305179,36.3245149],[5.7305383,36.3245584],[5.7304397,36.3245884],[5.7304193,36.3245449]]]},"properties":{"site":"djemila","name":null,"category":"other","osm_id":1174409404}},{"type":"Feature","geometry":{"type":"Polygon","coordinates":[[[5.7302438,36.3246008],[5.7302331,36.3246376],[5.7301721,36.3246261],[5.7301828,36.3245892],[5.7302438,36.3246008]]]},"properties":{"site":"djemila","name":null,"category":"other","osm_id":1174409461}},{"type":"Feature","geometry":{"type":"Polygon","coordinates":[[[5.7289689,36.3179576],[5.7290177,36.3179302],[5.7289926,36.3179011],[5.7290884,36.3178474],[5.7291361,36.3179027],[5.7291596,36.3178895],[5.7291873,36.3179216],[5.7291313,36.317953],[5.7291527,36.3179777],[5.7291862,36.317959],[5.7292428,36.3180245],[5.7291604,36.3180706],[5.7291944,36.31811],[5.7291311,36.3181454],[5.7289689,36.3179576]]]},"properties":{"site":"djemila","name":null,"category":"other","osm_id":1174409473}},{"type":"Feature","geometry":{"type":"Polygon","coordinates":[[[5.730049,36.3246483],[5.7303148,36.3247101],[5.7302809,36.3248048],[5.730015,36.324743],[5.730049,36.3246483]]]},"properties":{"site":"djemila","name":null,"category":"other","osm_id":1174409501}},{"type":"Feature","geometry":{"type":"Polygon","coordinates":[[[5.7300853,36.3188363],[5.7301261,36.3188653],[5.7300636,36.3189225],[5.7300228,36.3188936],[5.7300853,36.3188363]]]},"properties":{"site":"djemila","name":null,"category":"other","osm_id":1174409585}},{"type":"Feature","geometry":{"type":"Polygon","coordinates":[[[5.7293682,36.3163825],[5.7294261,36.3163651],[5.7294533,36.316424],[5.7293953,36.3164413],[5.7293682,36.3163825]]]},"properties":{"site":"djemila","name":null,"category":"other","osm_id":1174409588}},{"type":"Feature","geometry":{"type":"Polygon","coordinates":[[[5.7304105,36.3186552],[5.7303366,36.3186998],[5.7303154,36.3186769],[5.7302611,36.3187096],[5.7302116,36.3186562],[5.7303398,36.318579],[5.7304105,36.3186552]]]},"properties":{"site":"djemila","name":null,"category":"other","osm_id":1174409610}},{"type":"Feature","geometry":{"type":"Polygon","coordinates":[[[5.7306034,36.318577],[5.7307182,36.3186632],[5.7305904,36.3187737],[5.7304756,36.3186874],[5.7306034,36.318577]]]},"properties":{"site":"djemila","name":null,"category":"other","osm_id":1174409678}},{"type":"Feature","geometry":{"type":"Polygon","coordinates":[[[5.7292558,36.3162404],[5.7293427,36.3162141],[5.7293564,36.3162434],[5.7294128,36.3162263],[5.729446,36.3162973],[5.729421,36.3163049],[5.7294432,36.3163522],[5.7293248,36.3163881],[5.7292558,36.3162404]]]},"properties":{"site":"djemila","name":null,"category":"other","osm_id":1174409684}},{"type":"Feature","geometry":{"type":"Polygon","coordinates":[[[5.7302583,36.3186159],[5.7302128,36.3186599],[5.7301622,36.3186258],[5.7302078,36.3185819],[5.7302583,36.3186159]]]},"properties":{"site":"djemila","name":null,"category":"other","osm_id":1174409713}},{"type":"Feature","geometry":{"type":"Polygon","coordinates":[[[5.729534,36.3165084],[5.7294047,36.3165399],[5.7293862,36.3164904],[5.7295154,36.3164589],[5.729534,36.3165084]]]},"properties":{"site":"djemila","name":null,"category":"other","osm_id":1174409720}},{"type":"Feature","geometry":{"type":"Polygon","coordinates":[[[5.7289964,36.3187874],[5.7291724,36.3187451],[5.7292316,36.3189049],[5.7290555,36.3189471],[5.7289964,36.3187874]]]},"properties":{"site":"djemila","name":null,"category":"other","osm_id":1174409726}},{"type":"Feature","geometry":{"type":"Polygon","coordinates":[[[5.7304685,36.3243849],[5.7306022,36.324366],[5.7306326,36.3245054],[5.7304989,36.3245243],[5.7304685,36.3243849]]]},"properties":{"site":"djemila","name":null,"category":"other","osm_id":1174409835}},{"type":"Feature","geometry":{"type":"Polygon","coordinates":[[[5.7295968,36.3163173],[5.7296306,36.316425],[5.72956,36.3164394],[5.7295262,36.3163317],[5.7295968,36.3163173]]]},"properties":{"site":"djemila","name":null,"category":"other","osm_id":1174409846}},{"type":"Feature","geometry":{"type":"Polygon","coordinates":[[[5.7290772,36.31815],[5.7290083,36.3181816],[5.7289645,36.3181195],[5.7290334,36.3180879],[5.7290772,36.31815]]]},"properties":{"site":"djemila","name":null,"category":"other","osm_id":1174409888}},{"type":"Feature","geometry":{"type":"Polygon","coordinates":[[[5.7304403,36.3243644],[5.7303855,36.3243766],[5.7303517,36.3242783],[5.7304066,36.324266],[5.7304403,36.3243644]]]},"properties":{"site":"djemila","name":null,"category":"other","osm_id":1174409910}},{"type":"Feature","geometry":{"type":"Polygon","coordinates":[[[5.7294705,36.3165837],[5.7294377,36.3165976],[5.7294167,36.3165654],[5.7294495,36.3165515],[5.7294705,36.3165837]]]},"properties":{"site":"djemila","name":null,"category":"other","osm_id":1174409929}},{"type":"Feature","geometry":{"type":"Polygon","coordinates":[[[5.7296688,36.3183239],[5.7297877,36.3184139],[5.7297235,36.318469],[5.7296045,36.318379],[5.7296688,36.3183239]]]},"properties":{"site":"djemila","name":null,"category":"other","osm_id":1174409941}},{"type":"Feature","geometry":{"type":"Polygon","coordinates":[[[5.7295487,36.31666],[5.7295398,36.3167893],[5.7294408,36.3167849],[5.7294497,36.3166556],[5.7295487,36.31666]]]},"properties":{"site":"djemila","name":null,"category":"other","osm_id":1174410040}},{"type":"Feature","geometry":{"type":"Polygon","coordinates":[[[5.7357016,36.3157954],[5.7358174,36.3157824],[5.7358658,36.3160637],[5.7359352,36.3160559],[5.7359463,36.3161203],[5.7357611,36.316141],[5.7357016,36.3157954]]]},"properties":{"site":"djemila","name":null,"category":"other","osm_id":1174410069}},{"type":"Feature","geometry":{"type":"Polygon","coordinates":[[[5.7333535,36.316416],[5.7332061,36.3165393],[5.7331282,36.3164788],[5.7330939,36.3165075],[5.7330308,36.3164584],[5.7331019,36.3163991],[5.7330532,36.3163613],[5.7331639,36.3162688],[5.7333535,36.316416]]]},"properties":{"site":"djemila","name":null,"category":"other","osm_id":1174410089}},{"type":"Feature","geometry":{"type":"Polygon","coordinates":[[[5.7339699,36.3161575],[5.7338233,36.3162026],[5.7337804,36.3161121],[5.7339269,36.316067],[5.7339699,36.3161575]]]},"properties":{"site":"djemila","name":null,"category":"other","osm_id":1174410121}},{"type":"Feature","geometry":{"type":"Polygon","coordinates":[[[5.7382362,36.316136],[5.7381351,36.3161129],[5.7382073,36.3159075],[5.7383084,36.3159306],[5.7382362,36.316136]]]},"properties":{"site":"djemila","name":null,"category":"other","osm_id":1174410131}},{"type":"Feature","geometry":{"type":"Polygon","coordinates":[[[5.7402967,36.3230688],[5.7403463,36.3230262],[5.7403706,36.3230445],[5.7404308,36.3229926],[5.7404708,36.3230228],[5.7404093,36.3230758],[5.7404479,36.3231049],[5.7403194,36.3232156],[5.7402193,36.3231401],[5.7402655,36.3231003],[5.7403247,36.323145],[5.7403588,36.3231156],[5.7402967,36.3230688]]]},"properties":{"site":"djemila","name":null,"category":"other","osm_id":1174410145}},{"type":"Feature","geometry":{"type":"Polygon","coordinates":[[[5.7331677,36.3158789],[5.7330472,36.3158832],[5.7330423,36.3157939],[5.7331628,36.3157896],[5.7331677,36.3158789]]]},"properties":{"site":"djemila","name":null,"category":"other","osm_id":1174410163}},{"type":"Feature","geometry":{"type":"Polygon","coordinates":[[[5.738631,36.3169495],[5.7387577,36.3169983],[5.7387055,36.3170862],[5.7385789,36.3170375],[5.738631,36.3169495]]]},"properties":{"site":"djemila","name":null,"category":"other","osm_id":1174410177}},{"type":"Feature","geometry":{"type":"Polygon","coordinates":[[[5.7334869,36.3161436],[5.7333914,36.3162158],[5.7333164,36.3161515],[5.7334119,36.3160793],[5.7334869,36.3161436]]]},"properties":{"site":"djemila","name":null,"category":"other","osm_id":1174410191}},{"type":"Feature","geometry":{"type":"Polygon","coordinates":[[[5.7370681,36.3160813],[5.737222,36.3160831],[5.7372205,36.3161661],[5.7370666,36.3161643],[5.7370681,36.3160813]]]},"properties":{"site":"djemila","name":null,"category":"other","osm_id":1174410210}},{"type":"Feature","geometry":{"type":"Polygon","coordinates":[[[5.7379485,36.3150977],[5.7378493,36.3150954],[5.7378599,36.3147974],[5.7379591,36.3147997],[5.7379485,36.3150977]]]},"properties":{"site":"djemila","name":null,"category":"other","osm_id":1174410232}},{"type":"Feature","geometry":{"type":"Polygon","coordinates":[[[5.733485,36.3149603],[5.7335028,36.3150272],[5.7334464,36.315037],[5.7334371,36.3150019],[5.7334114,36.3150063],[5.7334029,36.3149745],[5.733485,36.3149603]]]},"properties":{"site":"djemila","name":null,"category":"other","osm_id":1174410234}},{"type":"Feature","geometry":{"type":"Polygon","coordinates":[[[5.7338934,36.3163374],[5.7338886,36.3162109],[5.734043,36.316207],[5.7340478,36.3163336],[5.7338934,36.3163374]]]},"properties":{"site":"djemila","name":null,"category":"other","osm_id":1174410238}},{"type":"Feature","geometry":{"type":"Polygon","coordinates":[[[5.7383165,36.3156635],[5.7382133,36.3156977],[5.7381898,36.3156515],[5.738293,36.3156173],[5.7383165,36.3156635]]]},"properties":{"site":"djemila","name":null,"category":"other","osm_id":1174410239}},{"type":"Feature","geometry":{"type":"Polygon","coordinates":[[[5.7332017,36.3210998],[5.733261,36.3211403],[5.7332173,36.3211818],[5.733158,36.3211413],[5.7332017,36.3210998]]]},"properties":{"site":"djemila","name":null,"category":"other","osm_id":1174410244}},{"type":"Feature","geometry":{"type":"Polygon","coordinates":[[[5.7339379,36.3151251],[5.7338548,36.3151251],[5.7338548,36.3151035],[5.7339379,36.3151035],[5.7339379,36.3151251]]]},"properties":{"site":"djemila","name":null,"category":"other","osm_id":1174410261}},{"type":"Feature","geometry":{"type":"Polygon","coordinates":[[[5.7333317,36.3210648],[5.7334012,36.3210896],[5.7333723,36.321142],[5.7333029,36.3211172],[5.7333317,36.3210648]]]},"properties":{"site":"djemila","name":null,"category":"other","osm_id":1174410268}},{"type":"Feature","geometry":{"type":"Polygon","coordinates":[[[5.7328868,36.315378],[5.7329592,36.3153505],[5.7330224,36.3154583],[5.732882,36.3155117],[5.7328619,36.3154774],[5.7329299,36.3154515],[5.7328868,36.315378]]]},"properties":{"site":"djemila","name":null,"category":"other","osm_id":1174410292}},{"type":"Feature","geometry":{"type":"Polygon","coordinates":[[[5.7399402,36.32383],[5.7399896,36.323843],[5.7399362,36.3239748],[5.7398513,36.3239526],[5.7398585,36.323935],[5.7398197,36.3239248],[5.7398702,36.3237998],[5.7399445,36.3238193],[5.7399402,36.32383]]]},"properties":{"site":"djemila","name":null,"category":"other","osm_id":1174410319}},{"type":"Feature","geometry":{"type":"Polygon","coordinates":[[[5.7323353,36.3170283],[5.7323874,36.317032],[5.7323775,36.3171221],[5.7323254,36.3171183],[5.7323353,36.3170283]]]},"properties":{"site":"djemila","name":null,"category":"other","osm_id":1174410322}},{"type":"Feature","geometry":{"type":"Polygon","coordinates":[[[5.7349923,36.3169265],[5.735055,36.3169252],[5.7350571,36.3169848],[5.7349943,36.3169862],[5.7349923,36.3169265]]]},"properties":{"site":"djemila","name":null,"category":"other","osm_id":1174410368}},{"type":"Feature","geometry":{"type":"Polygon","coordinates":[[[5.7368235,36.3160079],[5.7369428,36.3160052],[5.7369453,36.3160763],[5.736826,36.316079],[5.7368235,36.3160079]]]},"properties":{"site":"djemila","name":null,"category":"other","osm_id":1174410378}},{"type":"Feature","geometry":{"type":"Polygon","coordinates":[[[5.7339045,36.3151341],[5.7339181,36.3151904],[5.7338741,36.3151973],[5.7338606,36.315141],[5.7339045,36.3151341]]]},"properties":{"site":"djemila","name":null,"category":"other","osm_id":1174410383}},{"type":"Feature","geometry":{"type":"Polygon","coordinates":[[[5.7318249,36.3221467],[5.7318465,36.3222353],[5.7317355,36.3222529],[5.7317294,36.3222279],[5.7316297,36.3222437],[5.7316053,36.3221438],[5.7318558,36.3221042],[5.7318647,36.3221404],[5.7318249,36.3221467]]]},"properties":{"site":"djemila","name":null,"category":"other","osm_id":1174410398}},{"type":"Feature","geometry":{"type":"Polygon","coordinates":[[[5.7324073,36.3217701],[5.732313,36.3218046],[5.7322625,36.321715],[5.7323569,36.3216805],[5.7324073,36.3217701]]]},"properties":{"site":"djemila","name":null,"category":"other","osm_id":1174410401}},{"type":"Feature","geometry":{"type":"Polygon","coordinates":[[[5.7333038,36.3211153],[5.7333542,36.3211512],[5.733285,36.3212144],[5.7332346,36.3211785],[5.7333038,36.3211153]]]},"properties":{"site":"djemila","name":null,"category":"other","osm_id":1174410415}},{"type":"Feature","geometry":{"type":"Polygon","coordinates":[[[5.7400793,36.3207123],[5.7400761,36.3206151],[5.7401875,36.3206127],[5.7401889,36.320657],[5.7402572,36.3206555],[5.7402589,36.3207084],[5.7400793,36.3207123]]]},"properties":{"site":"djemila","name":null,"category":"other","osm_id":1174410418}},{"type":"Feature","geometry":{"type":"Polygon","coordinates":[[[5.7345388,36.3172269],[5.7345909,36.3172259],[5.7345937,36.317331],[5.7346179,36.3173306],[5.7346188,36.3173638],[5.7345946,36.3173642],[5.7345962,36.3174225],[5.7345453,36.3174234],[5.7345432,36.3173478],[5.7345421,36.3173478],[5.7345388,36.3172269]]]},"properties":{"site":"djemila","name":null,"category":"other","osm_id":1174410419}},{"type":"Feature","geometry":{"type":"Polygon","coordinates":[[[5.7381857,36.3154995],[5.7379575,36.3155389],[5.7379306,36.3154378],[5.7380254,36.3154214],[5.738016,36.3153862],[5.7380725,36.3153764],[5.7380846,36.3154219],[5.7381615,36.3154085],[5.7381857,36.3154995]]]},"properties":{"site":"djemila","name":null,"category":"other","osm_id":1174410424}},{"type":"Feature","geometry":{"type":"Polygon","coordinates":[[[5.738341,36.3158364],[5.7380272,36.3158324],[5.7380301,36.3156842],[5.7381679,36.315686],[5.7381672,36.3157196],[5.7383432,36.3157218],[5.738341,36.3158364]]]},"properties":{"site":"djemila","name":null,"category":"other","osm_id":1174410425}},{"type":"Feature","geometry":{"type":"Polygon","coordinates":[[[5.7327112,36.3153625],[5.7328365,36.31532],[5.7329094,36.3154596],[5.7328569,36.3154773],[5.7328732,36.3155086],[5.7328322,36.3155225],[5.7328188,36.3154967],[5.7327869,36.3155076],[5.7327112,36.3153625]]]},"properties":{"site":"djemila","name":null,"category":"other","osm_id":1174410430}},{"type":"Feature","geometry":{"type":"Polygon","coordinates":[[[5.7388465,36.316306],[5.7388918,36.3162199],[5.738945,36.3162381],[5.7388997,36.3163242],[5.7388465,36.316306]]]},"properties":{"site":"djemila","name":null,"category":"other","osm_id":1174410439}},{"type":"Feature","geometry":{"type":"Polygon","coordinates":[[[5.7336772,36.316198],[5.7337289,36.3162425],[5.7336946,36.3162683],[5.7336812,36.3162568],[5.7336575,36.3162747],[5.7335625,36.316193],[5.7336533,36.3161244],[5.7337101,36.3161732],[5.7336772,36.316198]]]},"properties":{"site":"djemila","name":null,"category":"other","osm_id":1174410476}},{"type":"Feature","geometry":{"type":"Polygon","coordinates":[[[5.741098,36.316499],[5.741091,36.3165981],[5.7408761,36.3165883],[5.7408818,36.3165064],[5.7409433,36.3165092],[5.7409445,36.316492],[5.741098,36.316499]]]},"properties":{"site":"djemila","name":null,"category":"other","osm_id":1174410500}},{"type":"Feature","geometry":{"type":"Polygon","coordinates":[[[5.7324276,36.3154445],[5.7324302,36.3153049],[5.7325187,36.315306],[5.7325161,36.3154455],[5.7324276,36.3154445]]]},"properties":{"site":"djemila","name":null,"category":"other","osm_id":1174410509}},{"type":"Feature","geometry":{"type":"Polygon","coordinates":[[[5.736984,36.3152228],[5.7370028,36.3152571],[5.736949,36.3152763],[5.7369302,36.3152419],[5.736984,36.3152228]]]},"properties":{"site":"djemila","name":null,"category":"other","osm_id":1174410516}},{"type":"Feature","geometry":{"type":"Polygon","coordinates":[[[5.7335355,36.3161159],[5.7335015,36.3160817],[5.7335618,36.3160427],[5.733529,36.3160099],[5.7335812,36.3159761],[5.7336872,36.3160824],[5.7335667,36.3161605],[5.7335274,36.3161211],[5.7335355,36.3161159]]]},"properties":{"site":"djemila","name":null,"category":"other","osm_id":1174410519}},{"type":"Feature","geometry":{"type":"Polygon","coordinates":[[[5.734037,36.3151242],[5.7339824,36.3151257],[5.7339807,36.3150847],[5.7338986,36.315087],[5.7338963,36.315033],[5.734033,36.3150292],[5.734037,36.3151242]]]},"properties":{"site":"djemila","name":null,"category":"other","osm_id":1174410526}},{"type":"Feature","geometry":{"type":"Polygon","coordinates":[[[5.7367018,36.3207646],[5.7365571,36.320832],[5.7365153,36.3207738],[5.7364559,36.3208015],[5.7364175,36.320748],[5.7364638,36.3207264],[5.7364696,36.3207346],[5.7366274,36.320661],[5.7367018,36.3207646]]]},"properties":{"site":"djemila","name":null,"category":"other","osm_id":1174410534}},{"type":"Feature","geometry":{"type":"Polygon","coordinates":[[[5.7325402,36.3153468],[5.7326714,36.3153512],[5.7326651,36.3154699],[5.7325339,36.3154654],[5.7325402,36.3153468]]]},"properties":{"site":"djemila","name":null,"category":"other","osm_id":1174410549}},{"type":"Feature","geometry":{"type":"Polygon","coordinates":[[[5.7333891,36.3161006],[5.7333141,36.3161272],[5.7332976,36.3160972],[5.7333726,36.3160705],[5.7333891,36.3161006]]]},"properties":{"site":"djemila","name":null,"category":"other","osm_id":1174410556}},{"type":"Feature","geometry":{"type":"Polygon","coordinates":[[[5.7325546,36.3205552],[5.7326119,36.3206834],[5.7324836,36.3207206],[5.7324264,36.3205924],[5.7325546,36.3205552]]]},"properties":{"site":"djemila","name":null,"category":"other","osm_id":1174410583}},{"type":"Feature","geometry":{"type":"Polygon","coordinates":[[[5.7401718,36.3202886],[5.7404453,36.3202288],[5.740467,36.3202932],[5.7401936,36.320353],[5.7401718,36.3202886]]]},"properties":{"site":"djemila","name":null,"category":"other","osm_id":1174410620}},{"type":"Feature","geometry":{"type":"Polygon","coordinates":[[[5.737983,36.3159081],[5.7380957,36.315928],[5.7380458,36.3161116],[5.7379332,36.3160917],[5.737983,36.3159081]]]},"properties":{"site":"djemila","name":null,"category":"other","osm_id":1174410621}},{"type":"Feature","geometry":{"type":"Polygon","coordinates":[[[5.732882,36.3216262],[5.7328787,36.3217342],[5.7328182,36.321733],[5.7328215,36.321625],[5.732882,36.3216262]]]},"properties":{"site":"djemila","name":null,"category":"other","osm_id":1174410625}},{"type":"Feature","geometry":{"type":"Polygon","coordinates":[[[5.7337855,36.3151268],[5.7337873,36.3151743],[5.7337445,36.3151754],[5.7337464,36.3152251],[5.7336687,36.315227],[5.7336649,36.3151299],[5.7337855,36.3151268]]]},"properties":{"site":"djemila","name":null,"category":"other","osm_id":1174410631}},{"type":"Feature","geometry":{"type":"Polygon","coordinates":[[[5.738833,36.316572],[5.7387935,36.3166497],[5.7386832,36.3166133],[5.7387688,36.3164449],[5.7389388,36.316501],[5.7388927,36.3165917],[5.738833,36.316572]]]},"properties":{"site":"djemila","name":null,"category":"other","osm_id":1174410640}},{"type":"Feature","geometry":{"type":"Polygon","coordinates":[[[5.7328366,36.3152013],[5.732853,36.3151601],[5.732943,36.3151834],[5.7329266,36.3152245],[5.7328366,36.3152013]]]},"properties":{"site":"djemila","name":null,"category":"other","osm_id":1174410649}},{"type":"Feature","geometry":{"type":"Polygon","coordinates":[[[5.7337339,36.3159467],[5.7337989,36.3159375],[5.7338273,36.3160674],[5.7337622,36.3160767],[5.7337339,36.3159467]]]},"properties":{"site":"djemila","name":null,"category":"other","osm_id":1174410656}},{"type":"Feature","geometry":{"type":"Polygon","coordinates":[[[5.7321976,36.3205605],[5.7322097,36.3208108],[5.732033,36.3208163],[5.7320209,36.320566],[5.7321976,36.3205605]]]},"properties":{"site":"djemila","name":null,"category":"other","osm_id":1174410657}},{"type":"Feature","geometry":{"type":"Polygon","coordinates":[[[5.7328514,36.3206826],[5.732859,36.3206865],[5.7328054,36.3207539],[5.7327389,36.3207196],[5.7328668,36.3205587],[5.7329257,36.3205892],[5.7328514,36.3206826]]]},"properties":{"site":"djemila","name":null,"category":"other","osm_id":1174410666}},{"type":"Feature","geometry":{"type":"Polygon","coordinates":[[[5.7360275,36.3150709],[5.7360325,36.3151102],[5.7359847,36.3151142],[5.7359797,36.3150748],[5.7360275,36.3150709]]]},"properties":{"site":"djemila","name":null,"category":"other","osm_id":1174410670}},{"type":"Feature","geometry":{"type":"Polygon","coordinates":[[[5.7320891,36.321912],[5.7320965,36.3219544],[5.7320387,36.321961],[5.7320312,36.3219186],[5.7320891,36.321912]]]},"properties":{"site":"djemila","name":null,"category":"other","osm_id":1174410698}},{"type":"Feature","geometry":{"type":"Polygon","coordinates":[[[5.7341064,36.3160347],[5.7340395,36.3160487],[5.7340566,36.3161021],[5.7339913,36.3161158],[5.733945,36.315972],[5.7340773,36.3159444],[5.7341064,36.3160347]]]},"properties":{"site":"djemila","name":null,"category":"other","osm_id":1174410708}},{"type":"Feature","geometry":{"type":"Polygon","coordinates":[[[5.7375413,36.3152763],[5.7375489,36.3152831],[5.7376478,36.3152115],[5.7377284,36.3152838],[5.7373853,36.3155321],[5.7372972,36.315453],[5.7375413,36.3152763]]]},"properties":{"site":"djemila","name":null,"category":"other","osm_id":1174410718}},{"type":"Feature","geometry":{"type":"Polygon","coordinates":[[[5.7336568,36.315094],[5.7337238,36.3150928],[5.7337247,36.3151252],[5.7336577,36.3151264],[5.7336568,36.315094]]]},"properties":{"site":"djemila","name":null,"category":"other","osm_id":1174410725}},{"type":"Feature","geometry":{"type":"Polygon","coordinates":[[[5.7333089,36.3157004],[5.7333053,36.3157846],[5.7331804,36.3157811],[5.7331852,36.3156689],[5.7332548,36.3156708],[5.7332536,36.3156989],[5.7333089,36.3157004]]]},"properties":{"site":"djemila","name":null,"category":"other","osm_id":1174410733}},{"type":"Feature","geometry":{"type":"Polygon","coordinates":[[[5.7334348,36.3158463],[5.7335906,36.3157641],[5.7336787,36.3158724],[5.7335228,36.3159546],[5.7334348,36.3158463]]]},"properties":{"site":"djemila","name":null,"category":"other","osm_id":1174410780}},{"type":"Feature","geometry":{"type":"Polygon","coordinates":[[[5.7386763,36.3168224],[5.7387871,36.3167338],[5.7388549,36.3167889],[5.738744,36.3168775],[5.7386763,36.3168224]]]},"properties":{"site":"djemila","name":null,"category":"other","osm_id":1174410805}},{"type":"Feature","geometry":{"type":"Polygon","coordinates":[[[5.7409023,36.3163247],[5.7409329,36.3161775],[5.7410138,36.3161884],[5.7410277,36.3161211],[5.7410643,36.316126],[5.7410965,36.3159704],[5.7412687,36.3159936],[5.741192,36.3163637],[5.7409023,36.3163247]]]},"properties":{"site":"djemila","name":null,"category":"other","osm_id":1174410814}},{"type":"Feature","geometry":{"type":"Polygon","coordinates":[[[5.7397271,36.3152408],[5.7399458,36.3151525],[5.7400016,36.3152424],[5.7397829,36.3153306],[5.7397271,36.3152408]]]},"properties":{"site":"djemila","name":null,"category":"other","osm_id":1174410841}},{"type":"Feature","geometry":{"type":"Polygon","coordinates":[[[5.7323246,36.3209209],[5.7323818,36.3209018],[5.7324116,36.3209598],[5.7323544,36.3209789],[5.7323246,36.3209209]]]},"properties":{"site":"djemila","name":null,"category":"other","osm_id":1174410851}},{"type":"Feature","geometry":{"type":"Polygon","coordinates":[[[5.7402073,36.3204466],[5.7402267,36.3205513],[5.7401113,36.3205652],[5.7400919,36.3204605],[5.7402073,36.3204466]]]},"properties":{"site":"djemila","name":null,"category":"other","osm_id":1174410860}},{"type":"Feature","geometry":{"type":"Polygon","coordinates":[[[5.7327819,36.3224295],[5.7329003,36.3223388],[5.732944,36.3223758],[5.7328256,36.3224665],[5.7327819,36.3224295]]]},"properties":{"site":"djemila","name":null,"category":"other","osm_id":1174410880}},{"type":"Feature","geometry":{"type":"Polygon","coordinates":[[[5.7395227,36.3237185],[5.739419,36.3238215],[5.7393268,36.3237612],[5.7394305,36.3236583],[5.7395227,36.3237185]]]},"properties":{"site":"djemila","name":null,"category":"other","osm_id":1174410890}},{"type":"Feature","geometry":{"type":"Polygon","coordinates":[[[5.7342495,36.3158655],[5.7342676,36.3159129],[5.7341329,36.3159464],[5.7341147,36.315899],[5.7342495,36.3158655]]]},"properties":{"site":"djemila","name":null,"category":"other","osm_id":1174410907}},{"type":"Feature","geometry":{"type":"Polygon","coordinates":[[[5.7408688,36.3231747],[5.7407788,36.3231979],[5.7407507,36.3231274],[5.7408407,36.3231041],[5.7408688,36.3231747]]]},"properties":{"site":"djemila","name":null,"category":"other","osm_id":1174410920}},{"type":"Feature","geometry":{"type":"Polygon","coordinates":[[[5.7334115,36.3159837],[5.7334326,36.3160105],[5.7333925,36.3160311],[5.7333531,36.3159812],[5.7333723,36.3159714],[5.7333322,36.3159206],[5.7334258,36.3158727],[5.7334841,36.3159466],[5.7334115,36.3159837]]]},"properties":{"site":"djemila","name":null,"category":"other","osm_id":1174410944}},{"type":"Feature","geometry":{"type":"Polygon","coordinates":[[[5.7317445,36.3217517],[5.7318922,36.3217996],[5.731815,36.3219539],[5.7316674,36.321906],[5.7317445,36.3217517]]]},"properties":{"site":"djemila","name":null,"category":"other","osm_id":1174410958}},{"type":"Feature","geometry":{"type":"Polygon","coordinates":[[[5.7318344,36.3221882],[5.7318715,36.3221674],[5.731891,36.3221898],[5.7318538,36.3222107],[5.7318344,36.3221882]]]},"properties":{"site":"djemila","name":null,"category":"other","osm_id":1174410986}},{"type":"Feature","geometry":{"type":"Polygon","coordinates":[[[5.7331801,36.3162346],[5.7331081,36.3162496],[5.7330737,36.3161422],[5.7331456,36.3161273],[5.7331801,36.3162346]]]},"properties":{"site":"djemila","name":null,"category":"other","osm_id":1174411016}},{"type":"Feature","geometry":{"type":"Polygon","coordinates":[[[5.7378463,36.3151033],[5.7379347,36.3151055],[5.7379264,36.3153279],[5.737838,36.3153257],[5.7378463,36.3151033]]]},"properties":{"site":"djemila","name":null,"category":"other","osm_id":1174411017}},{"type":"Feature","geometry":{"type":"Polygon","coordinates":[[[5.731886,36.3215766],[5.7319376,36.3213824],[5.7320119,36.3213952],[5.7319966,36.321453],[5.7320479,36.3214619],[5.7320117,36.3215983],[5.731886,36.3215766]]]},"properties":{"site":"djemila","name":null,"category":"other","osm_id":1174411022}},{"type":"Feature","geometry":{"type":"Polygon","coordinates":[[[5.7336399,36.3149844],[5.7336601,36.3150721],[5.7335236,36.3150926],[5.7335034,36.3150048],[5.7336399,36.3149844]]]},"properties":{"site":"djemila","name":null,"category":"other","osm_id":1174411030}},{"type":"Feature","geometry":{"type":"Polygon","coordinates":[[[5.7323157,36.3209807],[5.7323644,36.3209651],[5.7324011,36.3210399],[5.7323583,36.3210535],[5.7323423,36.321021],[5.7323364,36.3210229],[5.7323157,36.3209807]]]},"properties":{"site":"djemila","name":null,"category":"other","osm_id":1174411033}},{"type":"Feature","geometry":{"type":"Polygon","coordinates":[[[5.7326149,36.3151673],[5.7326497,36.3152508],[5.7325412,36.3152802],[5.7325064,36.3151967],[5.7326149,36.3151673]]]},"properties":{"site":"djemila","name":null,"category":"other","osm_id":1174411050}},{"type":"Feature","geometry":{"type":"Polygon","coordinates":[[[5.7362326,36.31508],[5.7361762,36.3150793],[5.7361791,36.3149324],[5.7362354,36.3149331],[5.7362326,36.31508]]]},"properties":{"site":"djemila","name":null,"category":"other","osm_id":1174411064}},{"type":"Feature","geometry":{"type":"Polygon","coordinates":[[[5.7358161,36.3163293],[5.7358064,36.3161415],[5.7359724,36.316136],[5.7359858,36.3163949],[5.7357823,36.3164017],[5.7357786,36.3163305],[5.7358161,36.3163293]]]},"properties":{"site":"djemila","name":null,"category":"other","osm_id":1174411074}},{"type":"Feature","geometry":{"type":"Polygon","coordinates":[[[5.7360355,36.3159933],[5.7359556,36.3160175],[5.7359382,36.3159804],[5.7360181,36.3159562],[5.7360355,36.3159933]]]},"properties":{"site":"djemila","name":null,"category":"other","osm_id":1174411078}},{"type":"Feature","geometry":{"type":"Polygon","coordinates":[[[5.7318545,36.3228708],[5.7319073,36.3228598],[5.7318799,36.3227747],[5.7319477,36.3227605],[5.731993,36.3229011],[5.7318724,36.3229263],[5.7318545,36.3228708]]]},"properties":{"site":"djemila","name":null,"category":"other","osm_id":1174411081}},{"type":"Feature","geometry":{"type":"Polygon","coordinates":[[[5.7321525,36.3210784],[5.7322623,36.321018],[5.7323235,36.3210902],[5.7322138,36.3211506],[5.7321525,36.3210784]]]},"properties":{"site":"djemila","name":null,"category":"other","osm_id":1174411097}},{"type":"Feature","geometry":{"type":"Polygon","coordinates":[[[5.733402,36.3162273],[5.7334715,36.3161668],[5.7335886,36.316254],[5.7335191,36.3163146],[5.733402,36.3162273]]]},"properties":{"site":"djemila","name":null,"category":"other","osm_id":1174411123}},{"type":"Feature","geometry":{"type":"Polygon","coordinates":[[[5.7317882,36.3227793],[5.7317897,36.3227878],[5.7318307,36.3227832],[5.7318489,36.322887],[5.7317841,36.3228943],[5.7317904,36.3229304],[5.7317142,36.322939],[5.7316883,36.3227907],[5.7317882,36.3227793]]]},"properties":{"site":"djemila","name":null,"category":"other","osm_id":1174411124}},{"type":"Feature","geometry":{"type":"Polygon","coordinates":[[[5.7361664,36.3160349],[5.7361696,36.3161052],[5.7361079,36.3161039],[5.7361101,36.3160348],[5.7361664,36.3160349]]]},"properties":{"site":"djemila","name":null,"category":"other","osm_id":1174411145}},{"type":"Feature","geometry":{"type":"Polygon","coordinates":[[[5.7348599,36.3159307],[5.7348633,36.3160084],[5.7347518,36.3160116],[5.7347485,36.3159339],[5.7348599,36.3159307]]]},"properties":{"site":"djemila","name":null,"category":"other","osm_id":1174411151}},{"type":"Feature","geometry":{"type":"Polygon","coordinates":[[[5.7396311,36.323427],[5.7396905,36.3233878],[5.7397221,36.3234189],[5.7396627,36.323458],[5.7396311,36.323427]]]},"properties":{"site":"djemila","name":null,"category":"other","osm_id":1174411160}},{"type":"Feature","geometry":{"type":"Polygon","coordinates":[[[5.7346117,36.3160989],[5.7344831,36.3161034],[5.7344806,36.3160545],[5.734352,36.316059],[5.7343553,36.3161194],[5.7342294,36.3161237],[5.7342217,36.3159792],[5.7343021,36.3159764],[5.7342989,36.3159173],[5.7344141,36.3159134],[5.7344162,36.3159544],[5.7345581,36.3159495],[5.7345569,36.3159258],[5.7346024,36.3159242],[5.7346117,36.3160989]]]},"properties":{"site":"djemila","name":null,"category":"other","osm_id":1174411165}},{"type":"Feature","geometry":{"type":"Polygon","coordinates":[[[5.7324918,36.3155779],[5.7323429,36.315572],[5.7323496,36.315463],[5.7324985,36.3154689],[5.7324918,36.3155779]]]},"properties":{"site":"djemila","name":null,"category":"other","osm_id":1174411167}},{"type":"Feature","geometry":{"type":"Polygon","coordinates":[[[5.7319616,36.3221552],[5.7319065,36.322178],[5.7318497,36.3220893],[5.7319048,36.3220664],[5.7319616,36.3221552]]]},"properties":{"site":"djemila","name":null,"category":"other","osm_id":1174411194}},{"type":"Feature","geometry":{"type":"Polygon","coordinates":[[[5.7360786,36.3160149],[5.7360793,36.3158994],[5.7362139,36.3159186],[5.7362138,36.3160137],[5.7360786,36.3160149]]]},"properties":{"site":"djemila","name":null,"category":"other","osm_id":1174411203}},{"type":"Feature","geometry":{"type":"Polygon","coordinates":[[[5.7377304,36.3160414],[5.7377616,36.315935],[5.7377835,36.3159392],[5.7378003,36.3158818],[5.7379121,36.3159031],[5.7378911,36.3159747],[5.737948,36.3159856],[5.737921,36.3160777],[5.7377304,36.3160414]]]},"properties":{"site":"djemila","name":null,"category":"other","osm_id":1174411213}},{"type":"Feature","geometry":{"type":"Polygon","coordinates":[[[5.7358841,36.316538],[5.7359477,36.3165434],[5.7359421,36.3165861],[5.7358785,36.3165807],[5.7358841,36.316538]]]},"properties":{"site":"djemila","name":null,"category":"other","osm_id":1174411237}},{"type":"Feature","geometry":{"type":"Polygon","coordinates":[[[5.7329826,36.3154865],[5.7330299,36.3155654],[5.7330524,36.3155566],[5.7330772,36.3155979],[5.7329489,36.3156479],[5.7328768,36.3155277],[5.7329826,36.3154865]]]},"properties":{"site":"djemila","name":null,"category":"other","osm_id":1174411242}},{"type":"Feature","geometry":{"type":"Polygon","coordinates":[[[5.7321396,36.3218253],[5.7322546,36.3217886],[5.7323046,36.3218902],[5.7321897,36.3219269],[5.7321396,36.3218253]]]},"properties":{"site":"djemila","name":null,"category":"other","osm_id":1174411248}},{"type":"Feature","geometry":{"type":"Polygon","coordinates":[[[5.7389244,36.3166336],[5.7390176,36.3165647],[5.7391478,36.3166791],[5.7390546,36.316748],[5.7389244,36.3166336]]]},"properties":{"site":"djemila","name":null,"category":"other","osm_id":1174411255}},{"type":"Feature","geometry":{"type":"Polygon","coordinates":[[[5.7338648,36.3149799],[5.7338765,36.3150544],[5.7337761,36.3150646],[5.7337848,36.3151199],[5.7337346,36.315125],[5.7337143,36.3149952],[5.7338648,36.3149799]]]},"properties":{"site":"djemila","name":null,"category":"other","osm_id":1174411266}},{"type":"Feature","geometry":{"type":"Polygon","coordinates":[[[5.7326033,36.3156375],[5.7326088,36.315498],[5.7326849,36.3155],[5.7326825,36.3155604],[5.7327066,36.3155611],[5.7327035,36.3156401],[5.7326033,36.3156375]]]},"properties":{"site":"djemila","name":null,"category":"other","osm_id":1174411274}},{"type":"Feature","geometry":{"type":"Polygon","coordinates":[[[5.7404034,36.320514],[5.7404822,36.3204445],[5.7405188,36.3204714],[5.7405388,36.3204538],[5.7405987,36.3204979],[5.7404999,36.3205851],[5.7404034,36.320514]]]},"properties":{"site":"djemila","name":null,"category":"other","osm_id":1174411292}},{"type":"Feature","geometry":{"type":"Polygon","coordinates":[[[5.7399156,36.3235095],[5.7399922,36.3234404],[5.7400354,36.3234715],[5.7400454,36.3234625],[5.7401006,36.3235022],[5.739982,36.3236092],[5.7399194,36.3235641],[5.7399513,36.3235352],[5.7399156,36.3235095]]]},"properties":{"site":"djemila","name":null,"category":"other","osm_id":1174411315}},{"type":"Feature","geometry":{"type":"Polygon","coordinates":[[[5.7406161,36.3203472],[5.7406252,36.3203086],[5.7405902,36.3203033],[5.7406054,36.3202386],[5.7407388,36.320259],[5.7407145,36.3203623],[5.7406161,36.3203472]]]},"properties":{"site":"djemila","name":null,"category":"other","osm_id":1174411323}},{"type":"Feature","geometry":{"type":"Polygon","coordinates":[[[5.7393874,36.3235811],[5.7394361,36.3235457],[5.7395275,36.323627],[5.7395991,36.3235747],[5.739513,36.3234981],[5.7395637,36.3234612],[5.7396905,36.3235739],[5.739552,36.323675],[5.7395193,36.3236459],[5.7394869,36.3236696],[5.7393874,36.3235811]]]},"properties":{"site":"djemila","name":null,"category":"other","osm_id":1174411358}},{"type":"Feature","geometry":{"type":"Polygon","coordinates":[[[5.7334259,36.3166751],[5.7334636,36.3166637],[5.7334839,36.3167073],[5.7334462,36.3167187],[5.7334259,36.3166751]]]},"properties":{"site":"djemila","name":null,"category":"other","osm_id":1174411374}},{"type":"Feature","geometry":{"type":"Polygon","coordinates":[[[5.7362458,36.3163068],[5.7362485,36.3163651],[5.7361735,36.3163673],[5.7361777,36.3164601],[5.736092,36.3164627],[5.7360879,36.316372],[5.7359968,36.3163747],[5.735994,36.3163143],[5.7362458,36.3163068]]]},"properties":{"site":"djemila","name":null,"category":"other","osm_id":1174411377}},{"type":"Feature","geometry":{"type":"Polygon","coordinates":[[[5.7313974,36.3150879],[5.7312751,36.3150854],[5.7312774,36.3150162],[5.7313997,36.3150188],[5.7313974,36.3150879]]]},"properties":{"site":"djemila","name":null,"category":"other","osm_id":1174416775}},{"type":"Feature","geometry":{"type":"Polygon","coordinates":[[[5.7313582,36.3150886],[5.7314198,36.3150903],[5.7314186,36.3151184],[5.731357,36.3151167],[5.7313582,36.3150886]]]},"properties":{"site":"djemila","name":null,"category":"other","osm_id":1174416784}},{"type":"Feature","geometry":{"type":"Polygon","coordinates":[[[5.7315506,36.3153557],[5.7314024,36.3153611],[5.7313944,36.3152176],[5.7315426,36.3152122],[5.7315506,36.3153557]]]},"properties":{"site":"djemila","name":null,"category":"other","osm_id":1174416788}},{"type":"Feature","geometry":{"type":"Polygon","coordinates":[[[5.7362862,36.3173117],[5.7361467,36.3173117],[5.7361467,36.3171485],[5.7362888,36.3171452],[5.7362862,36.3173117]]]},"properties":{"site":"djemila","name":null,"category":"other","osm_id":1296445988}},{"type":"Feature","geometry":{"type":"Polygon","coordinates":[[[5.7362901,36.3171128],[5.7361474,36.3171128],[5.7360555,36.3171128],[5.7360542,36.3170372],[5.7362915,36.317035],[5.7362901,36.3171128]]]},"properties":{"site":"djemila","name":null,"category":"other","osm_id":1296445989}},{"type":"Feature","geometry":{"type":"Polygon","coordinates":[[[5.7362915,36.3169961],[5.7360542,36.3169951],[5.7360538,36.3167192],[5.7362637,36.3167171],[5.7362657,36.3167495],[5.7362955,36.3167506],[5.7362915,36.3169961]]]},"properties":{"site":"djemila","name":null,"category":"other","osm_id":1296445990}},{"type":"Feature","geometry":{"type":"Polygon","coordinates":[[[5.7375388,36.3207694],[5.7374884,36.3207502],[5.7374718,36.3207442],[5.7373658,36.3206944],[5.7373913,36.3206424],[5.7374067,36.3206143],[5.7374302,36.3205862],[5.7374618,36.3205584],[5.7374731,36.3205484],[5.7375268,36.3205143],[5.7375687,36.3204976],[5.7375878,36.32049],[5.7376321,36.3204792],[5.7376864,36.320476],[5.7377002,36.3204772],[5.7377682,36.320483],[5.7378197,36.3204952],[5.7377794,36.320577],[5.7378138,36.3205876],[5.7378098,36.3205948],[5.7378849,36.3206413],[5.7380367,36.3205889],[5.7380045,36.3206397],[5.7378312,36.3207029],[5.7377792,36.3207218],[5.7377682,36.3207151],[5.7375851,36.3207766],[5.7375834,36.3207845],[5.7374569,36.3208207],[5.7374475,36.3207937],[5.7375388,36.3207694]]]},"properties":{"site":"djemila","name":null,"category":"other","osm_id":1296595197}},{"type":"Feature","geometry":{"type":"Polygon","coordinates":[[[5.7353478,36.3204828],[5.7354879,36.320521],[5.7354064,36.3207344],[5.735395,36.3207308],[5.7353792,36.3207467],[5.7353634,36.3207608],[5.7353453,36.320766],[5.7353239,36.3207629],[5.7352997,36.3207499],[5.7352935,36.3207336],[5.7353002,36.3207009],[5.7352725,36.320699],[5.7353478,36.3204828]]]},"properties":{"site":"djemila","name":null,"category":"archaeological","osm_id":1323027820}},{"type":"Feature","geometry":{"type":"Polygon","coordinates":[[[5.7410242,36.3190295],[5.7410452,36.3190977],[5.7409934,36.3191081],[5.7409723,36.3190399],[5.7410242,36.3190295]]]},"properties":{"site":"djemila","name":null,"category":"other","osm_id":1421100387}},{"type":"Feature","geometry":{"type":"Polygon","coordinates":[[[5.7407223,36.3163024],[5.7406792,36.3164027],[5.7405977,36.31638],[5.7406408,36.3162797],[5.7407223,36.3163024]]]},"properties":{"site":"djemila","name":null,"category":"other","osm_id":1421100417}},{"type":"Feature","geometry":{"type":"Polygon","coordinates":[[[5.7409381,36.3189562],[5.7410072,36.3189469],[5.7410177,36.3189973],[5.7409486,36.3190067],[5.7409381,36.3189562]]]},"properties":{"site":"djemila","name":null,"category":"other","osm_id":1421100495}},{"type":"Feature","geometry":{"type":"Polygon","coordinates":[[[5.7409517,36.3151348],[5.7410956,36.3151591],[5.7410859,36.3151964],[5.7409883,36.3151799],[5.7409805,36.3152099],[5.7409342,36.3152021],[5.7409517,36.3151348]]]},"properties":{"site":"djemila","name":null,"category":"other","osm_id":1421100556}}]}