{"type":"FeatureCollection","features":[{"type":"Feature","geometry":{"type":"LineString","coordinates":[[5.7372286,36.31696],[5.7372877,36.3171536],[5.7373051,36.3172226],[5.7373293,36.3173155],[5.7374248,36.3176192],[5.7374462,36.3177208],[5.7374634,36.3178299],[5.7375377,36.3186223]]},"properties":{"site":"djemila","name":"","highway":"service"}},{"type":"Feature","geometry":{"type":"LineString","coordinates":[[5.7332637,36.3238311],[5.7339064,36.3231218],[5.7340843,36.3229211],[5.7345036,36.3224286],[5.7349495,36.3219186],[5.7350001,36.321855],[5.7350443,36.3217858],[5.7350782,36.3217325],[5.7352837,36.3213689],[5.7356164,36.3208124],[5.7356348,36.3207799],[5.7356545,36.320741],[5.73568,36.3206848],[5.735713,36.3205763],[5.7358064,36.3202886],[5.7358376,36.3202277],[5.7358769,36.3201706],[5.7359489,36.320098],[5.7359811,36.320064],[5.7360042,36.3200354],[5.7361162,36.3198612],[5.7363712,36.3194821],[5.7368003,36.3188569],[5.7368226,36.3188284],[5.7368468,36.3188035],[5.7369742,36.3187003],[5.7369997,36.3186798],[5.7370325,36.3186468],[5.7371155,36.3185258],[5.737129,36.3185117],[5.737147,36.3185042],[5.7371675,36.3185031],[5.7371872,36.3185091],[5.7375377,36.3186223],[5.7376444,36.3186582]]},"properties":{"site":"djemila","name":"","highway":"service"}},{"type":"Feature","geometry":{"type":"LineString","coordinates":[[5.7379042,36.3205062],[5.7378572,36.3204911],[5.7378264,36.3204823],[5.7377939,36.3204754],[5.7377476,36.3204711],[5.7377001,36.3204677],[5.7376427,36.3204695],[5.7376011,36.3204765],[5.7375633,36.3204883],[5.737523,36.3205057],[5.737481,36.3205316],[5.7374535,36.3205533],[5.7374248,36.3205808],[5.7373952,36.3206116],[5.7373763,36.3206363],[5.7373664,36.3206608],[5.7373557,36.3207061],[5.7373463,36.3207288],[5.7373342,36.3207602],[5.7373068,36.3207853],[5.7372712,36.3208045],[5.7372287,36.320826],[5.7372028,36.3208447],[5.7371924,36.3208574],[5.7371871,36.3208722],[5.7371931,36.3208909],[5.7372052,36.3209036],[5.737226,36.3209109],[5.7372414,36.3209136],[5.7372638,36.3209152],[5.7373095,36.3209201],[5.7373224,36.3209247],[5.7373314,36.3209326],[5.737336,36.3209432],[5.7373351,36.3209534],[5.7373272,36.320965],[5.7371784,36.321101],[5.7371341,36.3211333],[5.7370691,36.3211668],[5.7369879,36.3211913],[5.7369091,36.3212029],[5.7367324,36.3212172],[5.7366456,36.3212133],[5.7365603,36.3211926],[5.736487,36.321159],[5.7364276,36.3211226],[5.7363143,36.3210221],[5.7358736,36.321351],[5.7357385,36.3214824],[5.7357305,36.3214919],[5.7356663,36.3215685],[5.7353407,36.3219605]]},"properties":{"site":"djemila","name":"","highway":"footway"}},{"type":"Feature","geometry":{"type":"LineString","coordinates":[[5.7356663,36.3215685],[5.7352837,36.3213689]]},"properties":{"site":"djemila","name":"","highway":"footway"}},{"type":"Feature","geometry":{"type":"LineString","coordinates":[[5.7375432,36.3168302],[5.7374926,36.3168522],[5.7372947,36.3169381],[5.7372599,36.3169505],[5.7372286,36.31696],[5.736973,36.317016],[5.7367086,36.3170553],[5.7366048,36.3170805],[5.7365381,36.3171104],[5.7364914,36.3171448],[5.7364634,36.3171749],[5.7364201,36.3172302],[5.736374,36.3172791],[5.7363195,36.3173206],[5.7362806,36.3173411],[5.7362391,36.3173551],[5.7361918,36.3173597],[5.7361004,36.3173556],[5.7360038,36.3173448],[5.7359276,36.3173098],[5.7358862,36.3172792],[5.7358538,36.3172127],[5.7358376,36.3171513],[5.7358321,36.3170857],[5.7358355,36.3169895],[5.7358428,36.3169401],[5.7358947,36.3167655],[5.7359118,36.31674],[5.7359447,36.3167151],[5.735979,36.3166983],[5.7360046,36.3166904],[5.736042,36.3166836],[5.7363169,36.3166663],[5.7365712,36.3166292],[5.7366842,36.3166078],[5.7368137,36.3165787]]},"properties":{"site":"djemila","name":"","highway":"service"}},{"type":"Feature","geometry":{"type":"LineString","coordinates":[[5.7360219,36.3189102],[5.7358845,36.3188526],[5.7357525,36.3190499],[5.7358701,36.3190916],[5.7358228,36.3191936],[5.7359011,36.3192253]]},"properties":{"site":"djemila","name":"","highway":"footway"}},{"type":"Feature","geometry":{"type":"LineString","coordinates":[[5.7358064,36.3202886],[5.7356223,36.3202136],[5.7355828,36.3201801],[5.7355607,36.3201402],[5.7355479,36.3200937],[5.7355446,36.3197847],[5.7355513,36.3197242],[5.735562,36.3196734],[5.7355781,36.3196161],[5.7357196,36.3192557],[5.7357347,36.3192434],[5.7357523,36.3192364],[5.7357732,36.319239],[5.7358444,36.3192646],[5.7358567,36.3192668],[5.7358689,36.3192642],[5.7358764,36.3192595],[5.7359011,36.3192253]]},"properties":{"site":"djemila","name":"","highway":"footway"}},{"type":"Feature","geometry":{"type":"LineString","coordinates":[[5.7363195,36.3173206],[5.7363251,36.3169404],[5.7363272,36.3167935],[5.7363275,36.3167741]]},"properties":{"site":"djemila","name":"","highway":"footway"}},{"type":"Feature","geometry":{"type":"LineString","coordinates":[[5.7363275,36.3167741],[5.7363169,36.3166663]]},"properties":{"site":"djemila","name":"","highway":"steps"}},{"type":"Feature","geometry":{"type":"LineString","coordinates":[[5.736973,36.317016],[5.736716,36.3168655],[5.7366248,36.316825],[5.736575,36.316813],[5.7363272,36.3167935]]},"properties":{"site":"djemila","name":"","highway":"footway"}},{"type":"Feature","geometry":{"type":"LineString","coordinates":[[5.736575,36.316813],[5.7363251,36.3169404]]},"properties":{"site":"djemila","name":"","highway":"footway"}},{"type":"Feature","geometry":{"type":"LineString","coordinates":[[5.7359118,36.31674],[5.7359137,36.3167024],[5.7359232,36.3166704],[5.735939,36.316637],[5.7359601,36.3166055]]},"properties":{"site":"djemila","name":"","highway":"footway"}},{"type":"Feature","geometry":{"type":"LineString","coordinates":[[5.7372877,36.3171536],[5.7372167,36.3171278],[5.7371471,36.3170997],[5.737079,36.3170694],[5.736973,36.317016]]},"properties":{"site":"djemila","name":"","highway":"service"}},{"type":"Feature","geometry":{"type":"LineString","coordinates":[[5.737079,36.3170694],[5.7370437,36.3170939],[5.7370356,36.3171285],[5.7370437,36.3171739],[5.7370839,36.3172668],[5.7371349,36.3173835],[5.7371536,36.3174527],[5.7371671,36.3176126],[5.7371864,36.3184263],[5.737147,36.3185042]]},"properties":{"site":"djemila","name":"","highway":"track"}},{"type":"Feature","geometry":{"type":"LineString","coordinates":[[5.7343403,36.3177378],[5.7344419,36.3177963],[5.7344929,36.3178309],[5.734517,36.3178547],[5.7345331,36.3178849],[5.7345412,36.3179303],[5.734568,36.3182113],[5.7345841,36.3185462],[5.7345948,36.3186024],[5.7346243,36.3186759],[5.734678,36.3187732],[5.7348899,36.3191038],[5.7349408,36.3191622],[5.7350776,36.3193178],[5.7350937,36.3193502],[5.7351044,36.3193977],[5.7351688,36.3199942],[5.7351822,36.3200612],[5.7352037,36.3201347],[5.7352332,36.320193],[5.7352734,36.3202471],[5.7353271,36.3203162],[5.7353512,36.3203573],[5.7353646,36.3203897],[5.7353831,36.3204104],[5.7354113,36.3204298],[5.735713,36.3205763]]},"properties":{"site":"djemila","name":"","highway":"track"}},{"type":"Feature","geometry":{"type":"LineString","coordinates":[[5.7353646,36.3203897],[5.7353431,36.3204135],[5.7353217,36.3204351],[5.7352654,36.3204632],[5.7351581,36.3204956],[5.7349596,36.320582],[5.7348872,36.3206252],[5.7348282,36.3206771],[5.7347933,36.3207333],[5.7347933,36.3207679],[5.7348174,36.3208154],[5.7348121,36.3208392],[5.7347852,36.3208543],[5.7347343,36.3208608],[5.734686,36.320863]]},"properties":{"site":"djemila","name":"","highway":"track"}},{"type":"Feature","geometry":{"type":"LineString","coordinates":[[5.7343403,36.3177378],[5.7343104,36.3177099]]},"properties":{"site":"djemila","name":"","highway":"track"}},{"type":"Feature","geometry":{"type":"LineString","coordinates":[[5.7370437,36.3170939],[5.7369552,36.3171372],[5.7368505,36.317189],[5.7366789,36.3173036],[5.7366038,36.3173619],[5.7365475,36.3174203],[5.7364992,36.3174527],[5.7364294,36.3174808],[5.7363356,36.3175154],[5.7362685,36.3175391],[5.7362041,36.3175651],[5.7361371,36.3176213],[5.7360754,36.3177055],[5.7359498,36.317921],[5.7359306,36.3179541],[5.7357374,36.3182999],[5.7357079,36.3184166],[5.7355685,36.3191427],[5.7355336,36.3194388],[5.7355765,36.319495]]},"properties":{"site":"djemila","name":"","highway":"track"}},{"type":"Feature","geometry":{"type":"LineString","coordinates":[[5.7357884,36.3187083],[5.7358045,36.318449],[5.7358474,36.3182912],[5.7359279,36.3181032],[5.7359498,36.317921]]},"properties":{"site":"djemila","name":"","highway":"track"}},{"type":"Feature","geometry":{"type":"LineString","coordinates":[[5.7363356,36.3175154],[5.7361344,36.3175456],[5.7359922,36.3175564],[5.7358501,36.3175564],[5.7356918,36.317537],[5.7354478,36.3174721],[5.7352922,36.3174203],[5.7352332,36.3173835],[5.7351338,36.3172757]]},"properties":{"site":"djemila","name":"","highway":"track"}},{"type":"Feature","geometry":{"type":"LineString","coordinates":[[5.7372947,36.3169381],[5.7374675,36.317377],[5.7375305,36.3174883],[5.7375989,36.3175824],[5.7377518,36.3177228],[5.7378859,36.3178395],[5.7379985,36.3179757],[5.7382077,36.3181875]]},"properties":{"site":"djemila","name":"","highway":"track"}},{"type":"Feature","geometry":{"type":"LineString","coordinates":[[5.7361162,36.3198612],[5.7363928,36.3199715],[5.7364485,36.3199954],[5.7365035,36.320011],[5.7365523,36.320018],[5.7369359,36.3200115]]},"properties":{"site":"djemila","name":"","highway":"footway"}},{"type":"Feature","geometry":{"type":"LineString","coordinates":[[5.7353407,36.3219605],[5.7356244,36.3221201],[5.7358791,36.3222633]]},"properties":{"site":"djemila","name":"","highway":"footway"}},{"type":"Feature","geometry":{"type":"LineString","coordinates":[[5.7356244,36.3221201],[5.7360111,36.3216694],[5.7360763,36.3215934]]},"properties":{"site":"djemila","name":"","highway":"footway"}},{"type":"Feature","geometry":{"type":"LineString","coordinates":[[5.7360111,36.3216694],[5.7357305,36.3214919]]},"properties":{"site":"djemila","name":"","highway":"footway"}},{"type":"Feature","geometry":{"type":"LineString","coordinates":[[5.7345036,36.3224286],[5.7347527,36.3225757],[5.7347618,36.3225929],[5.7347636,36.3226167],[5.7347579,36.3226334],[5.7342376,36.3232164]]},"properties":{"site":"djemila","name":"","highway":"service"}},{"type":"Feature","geometry":{"type":"LineString","coordinates":[[5.737438,36.318999],[5.7375895,36.3190206],[5.7376444,36.3186582]]},"properties":{"site":"djemila","name":"","highway":"footway"}},{"type":"Feature","geometry":{"type":"LineString","coordinates":[[5.737438,36.318999],[5.7373181,36.3194636],[5.7372846,36.3196441]]},"properties":{"site":"djemila","name":"","highway":"footway"}},{"type":"Feature","geometry":{"type":"LineString","coordinates":[[5.7377449,36.3206477],[5.7377699,36.3205948]]},"properties":{"site":"djemila","name":"","highway":"steps"}},{"type":"Feature","geometry":{"type":"LineString","coordinates":[[5.7376873,36.3206445],[5.7376934,36.3205817]]},"properties":{"site":"djemila","name":"","highway":"steps"}},{"type":"Feature","geometry":{"type":"LineString","coordinates":[[5.7376345,36.3206572],[5.7376122,36.3205945]]},"properties":{"site":"djemila","name":"","highway":"steps"}},{"type":"Feature","geometry":{"type":"LineString","coordinates":[[5.7375974,36.3206782],[5.7375439,36.3206289]]},"properties":{"site":"djemila","name":"","highway":"steps"}},{"type":"Feature","geometry":{"type":"LineString","coordinates":[[5.7375663,36.3207112],[5.7374986,36.3206853]]},"properties":{"site":"djemila","name":"","highway":"steps"}},{"type":"Feature","geometry":{"type":"LineString","coordinates":[[5.7374884,36.3207502],[5.7374902,36.3207283],[5.7374929,36.3207056],[5.7374986,36.3206853],[5.7375003,36.3206807],[5.7375137,36.3206597],[5.7375352,36.3206375],[5.7375439,36.3206289],[5.7375593,36.3206181],[5.7375968,36.3205997],[5.7376122,36.3205945],[5.7376257,36.32059],[5.7376666,36.3205835],[5.7376934,36.3205817],[5.7377068,36.3205824],[5.737737,36.3205851],[5.7377699,36.3205948],[5.7378054,36.3206105],[5.7378463,36.3206348],[5.7378606,36.3206462]]},"properties":{"site":"djemila","name":"","highway":"footway"}},{"type":"Feature","geometry":{"type":"LineString","coordinates":[[5.7374986,36.3206853],[5.7373913,36.3206424]]},"properties":{"site":"djemila","name":"","highway":"steps"}},{"type":"Feature","geometry":{"type":"LineString","coordinates":[[5.7375439,36.3206289],[5.7374618,36.3205584]]},"properties":{"site":"djemila","name":"","highway":"steps"}},{"type":"Feature","geometry":{"type":"LineString","coordinates":[[5.7376122,36.3205945],[5.7375687,36.3204976]]},"properties":{"site":"djemila","name":"","highway":"steps"}},{"type":"Feature","geometry":{"type":"LineString","coordinates":[[5.7376934,36.3205817],[5.7377002,36.3204772]]},"properties":{"site":"djemila","name":"","highway":"steps"}},{"type":"Feature","geometry":{"type":"LineString","coordinates":[[5.7377002,36.3204772],[5.7377001,36.3204677]]},"properties":{"site":"djemila","name":"","highway":"footway"}},{"type":"Feature","geometry":{"type":"LineString","coordinates":[[5.7375687,36.3204976],[5.7375633,36.3204883]]},"properties":{"site":"djemila","name":"","highway":"footway"}},{"type":"Feature","geometry":{"type":"LineString","coordinates":[[5.7374618,36.3205584],[5.7374535,36.3205533]]},"properties":{"site":"djemila","name":"","highway":"footway"}},{"type":"Feature","geometry":{"type":"LineString","coordinates":[[5.7373913,36.3206424],[5.7373763,36.3206363]]},"properties":{"site":"djemila","name":"","highway":"footway"}},{"type":"Feature","geometry":{"type":"LineString","coordinates":[[5.7375663,36.3207112],[5.7375974,36.3206782],[5.7376345,36.3206572],[5.7376602,36.320649],[5.7376873,36.3206445],[5.7377163,36.3206439],[5.7377449,36.3206477]]},"properties":{"site":"djemila","name":"","highway":"footway"}}]}