{"type":"FeatureCollection","features":[{"type":"Feature","geometry":{"type":"Polygon","coordinates":[[[27.3407698,37.9393299],[27.3407086,37.9391373],[27.3408006,37.9391192],[27.3408884,37.9391018],[27.3409496,37.9392943],[27.3407698,37.9393299]]]},"properties":{"site":"ephesus","name":"Celsus Kütüphanesi","category":"library","historic":"ruins","building":"yes","osm_id":15782868}},{"type":"Feature","geometry":{"type":"Polygon","coordinates":[[[27.3418576,37.9385048],[27.3419356,37.9384439],[27.3419781,37.9384777],[27.3420156,37.9385075],[27.3419376,37.9385685],[27.3419001,37.9385386],[27.3418576,37.9385048]]]},"properties":{"site":"ephesus","name":"Hadrian Tapınağı","category":"archaeological","historic":"ruins","building":"yes","osm_id":15784366}},{"type":"Feature","geometry":{"type":"Polygon","coordinates":[[[27.3385531,37.9453035],[27.338462,37.9450223],[27.3402633,37.9446594],[27.3403536,37.9449383],[27.3389051,37.94523],[27.3389571,37.9453906],[27.3387748,37.9454273],[27.3387236,37.9452692],[27.3385531,37.9453035]]]},"properties":{"site":"ephesus","name":"Meryem Kilisesi","category":"archaeological","historic":"ruins","building":null,"osm_id":58942085}},{"type":"Feature","geometry":{"type":"Polygon","coordinates":[[[27.3414926,37.9377993],[27.3412871,37.9378468],[27.3408798,37.9379368],[27.3411784,37.9387119],[27.341212,37.9387037],[27.3412349,37.9387621],[27.3414109,37.9386599],[27.3414651,37.93865],[27.3415693,37.9385762],[27.3417324,37.9384415],[27.3417163,37.9383984],[27.3414926,37.9377993]]]},"properties":{"site":"ephesus","name":"Yamaç Ev 2","category":"archaeological","historic":"ruins","building":"yes","osm_id":183304708}},{"type":"Feature","geometry":{"type":"Polygon","coordinates":[[[27.3540027,37.943219],[27.3536788,37.9432282],[27.3535493,37.9433165],[27.3531194,37.9433722],[27.3532313,37.9437298],[27.353667,37.9439202],[27.3538025,37.9442452],[27.3540616,37.9441802],[27.3539968,37.9438319],[27.354144,37.9436741],[27.3540027,37.943219]]]},"properties":{"site":"ephesus","name":"Yedi Uyurlar Mağarası","category":"archaeological","historic":"ruins","building":null,"osm_id":183304721}},{"type":"Feature","geometry":{"type":"Polygon","coordinates":[[[27.3425704,37.9445564],[27.3422057,37.9446165],[27.3423503,37.9451625],[27.342715,37.9451025],[27.3425704,37.9445564]]]},"properties":{"site":"ephesus","name":"Bizans Sarayı","category":"archaeological","historic":"palace","building":"ruins","osm_id":183304723}},{"type":"Feature","geometry":{"type":"Polygon","coordinates":[[[27.340621,37.9467781],[27.3404077,37.9461602],[27.3400015,37.9462475],[27.3402149,37.9468653],[27.340621,37.9467781]]]},"properties":{"site":"ephesus","name":"Olympieion","category":"archaeological","historic":"ruins","building":null,"osm_id":183304724}},{"type":"Feature","geometry":{"type":"Polygon","coordinates":[[[27.3415567,37.9403846],[27.3416213,37.9403718],[27.3413227,37.9394323],[27.3412603,37.9394447],[27.3412033,37.9392651],[27.341147,37.9392763],[27.3411407,37.9392566],[27.341085,37.9392676],[27.3410923,37.9392905],[27.3410529,37.9392982],[27.3410035,37.939308],[27.3409962,37.9392851],[27.3409496,37.9392943],[27.3407698,37.9393299],[27.3396415,37.9395529],[27.3400345,37.9407896],[27.3401864,37.9407595],[27.3412327,37.9405528],[27.3412693,37.9405455],[27.3413137,37.9405367],[27.3415006,37.9404998],[27.3415878,37.9404826],[27.3415567,37.9403846]]]},"properties":{"site":"ephesus","name":"Commercial Market (Tetragonos Agora)","category":"forum","historic":"archaeological_site","building":null,"osm_id":183304725}},{"type":"Feature","geometry":{"type":"Polygon","coordinates":[[[27.3420337,37.9376686],[27.3414926,37.9377993],[27.3417163,37.9383984],[27.3418432,37.9383156],[27.3418703,37.9382979],[27.3419027,37.9382767],[27.3419362,37.9382548],[27.3419768,37.9382283],[27.3420118,37.9382054],[27.3420493,37.9381809],[27.3420852,37.9381574],[27.3421386,37.9381226],[27.3421263,37.9380685],[27.3420337,37.9376686]]]},"properties":{"site":"ephesus","name":"Yamaç Ev 1","category":"archaeological","historic":"ruins","building":"yes","osm_id":183304726}},{"type":"Feature","geometry":{"type":"Polygon","coordinates":[[[27.3461555,37.9470411],[27.3447208,37.9472625],[27.3448911,37.9479488],[27.3463258,37.9477274],[27.3461555,37.9470411]]]},"properties":{"site":"ephesus","name":"Vedius Gymnasium","category":"archaeological","historic":"ruins","building":"yes","osm_id":183304727}},{"type":"Feature","geometry":{"type":"Polygon","coordinates":[[[27.3395144,37.9397596],[27.3393465,37.9393394],[27.3388997,37.9394505],[27.3390677,37.9398707],[27.3395144,37.9397596]]]},"properties":{"site":"ephesus","name":"Serapeion","category":"archaeological","historic":"ruins","building":"yes","osm_id":183304728}},{"type":"Feature","geometry":{"type":"Polygon","coordinates":[[[27.3420171,37.9390763],[27.3421866,37.9390473],[27.3421701,37.9389941],[27.3421904,37.9389901],[27.3424223,37.9389445],[27.3423761,37.9387984],[27.342331,37.9386559],[27.3423042,37.938571],[27.3422917,37.9385315],[27.3422774,37.9384862],[27.3422657,37.9384493],[27.3422507,37.9384018],[27.342195,37.9382631],[27.3420412,37.9383835],[27.3420969,37.9385636],[27.3421109,37.9386091],[27.3419424,37.9386422],[27.3418875,37.9386564],[27.3419075,37.9387118],[27.3419548,37.9388692],[27.3420171,37.9390763]]]},"properties":{"site":"ephesus","name":"Varius Hamamı","category":"archaeological","historic":"ruins","building":"yes","osm_id":183304739}},{"type":"Feature","geometry":{"type":"Polygon","coordinates":[[[27.3509878,37.9359232],[27.3509878,37.9355377],[27.3508111,37.9349804],[27.3500633,37.9347575],[27.3495039,37.9348689],[27.3497629,37.9359603],[27.3502929,37.9360718],[27.3509878,37.9359232]]]},"properties":{"site":"ephesus","name":"East Gymnasium","category":"archaeological","historic":"ruins","building":"yes","osm_id":183304740}},{"type":"Feature","geometry":{"type":"Polygon","coordinates":[[[27.3470088,37.9456222],[27.3443469,37.9461888],[27.3445648,37.9468437],[27.3471325,37.9462956],[27.3472974,37.9461842],[27.3473916,37.9459984],[27.3473681,37.9457987],[27.3472326,37.9456594],[27.3470088,37.9456222]]]},"properties":{"site":"ephesus","name":"Stadyum","category":"archaeological","historic":"ruins","building":"yes","osm_id":183304743}},{"type":"Feature","geometry":{"type":"Polygon","coordinates":[[[27.3415703,37.9438955],[27.3415541,37.9437797],[27.3417402,37.9437635],[27.3417564,37.9438793],[27.3415703,37.9438955]]]},"properties":{"site":"ephesus","name":null,"category":"other","historic":null,"building":"yes","osm_id":186410349}},{"type":"Feature","geometry":{"type":"Polygon","coordinates":[[[27.3425005,37.9366438],[27.3427389,37.9366016],[27.3427053,37.9364836],[27.3424669,37.9365259],[27.3425005,37.9366438]]]},"properties":{"site":"ephesus","name":"Domitian Tapınağı","category":"archaeological","historic":"ruins","building":"yes","osm_id":244582407}},{"type":"Feature","geometry":{"type":"Polygon","coordinates":[[[27.3476131,37.9459515],[27.3476882,37.9470177],[27.3471897,37.9474862],[27.3464864,37.94782],[27.3444105,37.9480893],[27.3437208,37.9482454],[27.3427239,37.9480408],[27.341645,37.948407],[27.3407368,37.948267],[27.3405387,37.94782],[27.3397603,37.9480247],[27.3396032,37.9482508],[27.3392072,37.9479708],[27.3386814,37.9471469],[27.3381556,37.94628],[27.337623,37.9462046],[27.3368513,37.9458653],[27.3361958,37.9453538],[27.3360251,37.9451922],[27.3352944,37.9452838],[27.3357246,37.9447507],[27.3353832,37.9447399],[27.3351852,37.9445676],[27.3354037,37.9442768],[27.335431,37.9437706],[27.3349803,37.9435767],[27.3347823,37.9432967],[27.3345092,37.9426236],[27.3346662,37.9423274],[27.334557,37.9420366],[27.334277,37.9417889],[27.3335044,37.9374172],[27.3354551,37.9350257],[27.3381784,37.9343707],[27.3419639,37.9340812],[27.3436636,37.9348581],[27.3501986,37.9339991],[27.3509429,37.9335036],[27.35138,37.9335898],[27.351537,37.9348231],[27.3510044,37.9351678],[27.3511137,37.9355771],[27.3510795,37.9360187],[27.3502738,37.9362557],[27.3478565,37.9363418],[27.3452616,37.9375698],[27.3439779,37.9392285],[27.3452207,37.9416626],[27.3452207,37.9434505],[27.3469278,37.9448829],[27.3474741,37.945066],[27.3476131,37.9459515]]]},"properties":{"site":"ephesus","name":"Efes","category":"archaeological","historic":"archaeological_site","building":null,"osm_id":244582409}},{"type":"Feature","geometry":{"type":"Polygon","coordinates":[[[27.3501572,37.9345873],[27.3507888,37.9347758],[27.3505908,37.9343045],[27.3503791,37.9343638],[27.3503757,37.9344499],[27.3501811,37.9345038],[27.3501572,37.9345873]]]},"properties":{"site":"ephesus","name":"Gate of Magnesia","category":"gate","historic":"ruins","building":"yes","osm_id":244582411}},{"type":"Feature","geometry":{"type":"Polygon","coordinates":[[[27.3433168,37.9362104],[27.343435,37.9361848],[27.3433935,37.9360654],[27.3432752,37.936091],[27.3433168,37.9362104]]]},"properties":{"site":"ephesus","name":"Hydrekdocheion (Water reservoir)","category":"archaeological","historic":"ruins","building":"yes","osm_id":244582414}},{"type":"Feature","geometry":{"type":"Polygon","coordinates":[[[27.3434432,37.9471445],[27.3440874,37.9470006],[27.343915,37.9465205],[27.3435287,37.9466068],[27.3432707,37.9466644],[27.3434432,37.9471445]]]},"properties":{"site":"ephesus","name":"Market","category":"archaeological","historic":"ruins","building":"yes","osm_id":244582416}},{"type":"Feature","geometry":{"type":"Polygon","coordinates":[[[27.3414432,37.9387124],[27.3414598,37.9387224],[27.3414806,37.9387203],[27.3414933,37.9387072],[27.3414906,37.9386908],[27.3414739,37.9386808],[27.3414532,37.9386829],[27.3414405,37.938696],[27.3414432,37.9387124]]]},"properties":{"site":"ephesus","name":"Oktogon","category":"other","historic":"monument","building":"yes","osm_id":244582419}},{"type":"Feature","geometry":{"type":"Polygon","coordinates":[[[27.3446139,37.9368602],[27.3447271,37.9371986],[27.3443858,37.9372696],[27.3443458,37.9371501],[27.3443425,37.9371402],[27.3442726,37.9369313],[27.3446139,37.9368602]]]},"properties":{"site":"ephesus","name":"Prytaneion","category":"archaeological","historic":"ruins","building":"yes","osm_id":244582420}},{"type":"Feature","geometry":{"type":"Polygon","coordinates":[[[27.3416451,37.9388705],[27.341696,37.9388594],[27.3418058,37.9388355],[27.3417743,37.9387457],[27.3417567,37.9386966],[27.3416806,37.938763],[27.3416245,37.9388121],[27.3416451,37.9388705]]]},"properties":{"site":"ephesus","name":"Public Latrines","category":"archaeological","historic":"ruins","building":"yes","osm_id":244582421}},{"type":"Feature","geometry":{"type":"Polygon","coordinates":[[[27.3438878,37.9365872],[27.3441178,37.9365438],[27.3440737,37.9363984],[27.3438437,37.9364418],[27.3438878,37.9365872]]]},"properties":{"site":"ephesus","name":"İsis Tapınağı","category":"archaeological","historic":"ruins","building":"yes","osm_id":244582426}},{"type":"Feature","geometry":{"type":"Polygon","coordinates":[[[27.3415835,37.9429522],[27.3424026,37.9427662],[27.3419889,37.941633],[27.3411698,37.941819],[27.3415835,37.9429522]]]},"properties":{"site":"ephesus","name":"Theatre Gymnasium","category":"theater","historic":"ruins","building":"ruins","osm_id":244582427}},{"type":"Feature","geometry":{"type":"Polygon","coordinates":[[[27.3461222,37.9360713],[27.3462364,37.9364435],[27.3454483,37.936594],[27.3453341,37.9362217],[27.3461222,37.9360713]]]},"properties":{"site":"ephesus","name":"Thermes and Gymnasium","category":"bath","historic":"ruins","building":"yes","osm_id":244582429}},{"type":"Feature","geometry":{"type":"Polygon","coordinates":[[[27.3463363,37.9346123],[27.3463046,37.9346251],[27.3462801,37.9346455],[27.3462657,37.9346712],[27.3462629,37.9346992],[27.3462721,37.9347264],[27.3462909,37.9347485],[27.3463176,37.9347647],[27.3463494,37.9347735],[27.3463831,37.934774],[27.3464152,37.934766],[27.3464425,37.9347504],[27.3464622,37.9347289],[27.3464723,37.9347035],[27.3464717,37.9346769],[27.3464596,37.9346505],[27.346437,37.9346288],[27.3464065,37.9346142],[27.3463716,37.9346085],[27.3463363,37.9346123]]]},"properties":{"site":"ephesus","name":"Tomb of Saint Luke (misleading)","category":"tomb","historic":"ruins","building":"yes","osm_id":244582430}},{"type":"Feature","geometry":{"type":"Polygon","coordinates":[[[27.3434098,37.9368157],[27.3435187,37.9367923],[27.3434636,37.9366325],[27.3433547,37.9366558],[27.3434098,37.9368157]]]},"properties":{"site":"ephesus","name":"Fountain of Pollio","category":"fountain","historic":"ruins","building":"yes","osm_id":244582459}},{"type":"Feature","geometry":{"type":"Polygon","coordinates":[[[27.3441751,37.9357838],[27.3446268,37.9356954],[27.3445769,37.9355367],[27.3441252,37.935625],[27.3441751,37.9357838]]]},"properties":{"site":"ephesus","name":"Aqueduct","category":"aqueduct","historic":"ruins","building":"yes","osm_id":244602723}},{"type":"Feature","geometry":{"type":"Polygon","coordinates":[[[27.3423896,37.9380985],[27.342497,37.9380171],[27.3425407,37.9380531],[27.3425596,37.9380685],[27.3424521,37.9381499],[27.3424333,37.9381345],[27.3423896,37.9380985]]]},"properties":{"site":"ephesus","name":"Traian Çeşmesi","category":"archaeological","historic":"ruins","building":"yes","osm_id":244757523}},{"type":"Feature","geometry":{"type":"Polygon","coordinates":[[[27.3432731,37.9373425],[27.3434187,37.9373144],[27.3433769,37.9371796],[27.3432313,37.9372077],[27.3432406,37.9372376],[27.3432731,37.9373425]]]},"properties":{"site":"ephesus","name":"Memmius Anıtı","category":"other","historic":"monument","building":"yes","osm_id":244757524}},{"type":"Feature","geometry":{"type":"Polygon","coordinates":[[[27.3410035,37.939308],[27.3410529,37.9392982],[27.3410923,37.9392905],[27.341085,37.9392676],[27.3410457,37.9392754],[27.3409962,37.9392851],[27.3410035,37.939308]]]},"properties":{"site":"ephesus","name":"South Gate (Gate of Mazeus and Mithridates)","category":"gate","historic":"ruins","building":"ruins","osm_id":244757527}},{"type":"Feature","geometry":{"type":"Polygon","coordinates":[[[27.3433719,37.9370741],[27.3434986,37.9370473],[27.34357,37.9370322],[27.3435273,37.936907],[27.3435066,37.936846],[27.3433856,37.9368717],[27.3433085,37.936888],[27.3433293,37.9369489],[27.3433472,37.9370014],[27.3433584,37.9370344],[27.3433719,37.9370741]]]},"properties":{"site":"ephesus","name":null,"category":"archaeological","historic":"ruins","building":"yes","osm_id":244757529}},{"type":"Feature","geometry":{"type":"Polygon","coordinates":[[[27.3423514,37.9367947],[27.3432039,37.9366],[27.3430669,37.936227],[27.3422145,37.9364217],[27.3423514,37.9367947]]]},"properties":{"site":"ephesus","name":"Domitian Meydanı","category":"archaeological","historic":"ruins","building":null,"osm_id":244758790}},{"type":"Feature","geometry":{"type":"Polygon","coordinates":[[[27.3433719,37.9370741],[27.3434986,37.9370473],[27.34357,37.9370322],[27.3440256,37.9369356],[27.3453617,37.9366525],[27.3450279,37.9356726],[27.3431152,37.9360779],[27.3433856,37.9368717],[27.3433085,37.936888],[27.3433293,37.9369489],[27.3433472,37.9370014],[27.3433584,37.9370344],[27.3433719,37.9370741]]]},"properties":{"site":"ephesus","name":"State Agora","category":"forum","historic":"archaeological_site","building":null,"osm_id":244758793}},{"type":"Feature","geometry":{"type":"Polygon","coordinates":[[[27.3372291,37.9440575],[27.3370676,37.9436408],[27.3374404,37.9435483],[27.3372668,37.9430841],[27.3377855,37.9429536],[27.3378309,37.9430763],[27.3382573,37.9442292],[27.3383033,37.9443538],[27.3378102,37.9444718],[27.3375989,37.943958],[27.3372291,37.9440575]]]},"properties":{"site":"ephesus","name":"Harbour Thermae, Ephesos","category":"bath","historic":"ruins","building":null,"osm_id":303403887}},{"type":"Feature","geometry":{"type":"Polygon","coordinates":[[[27.3382573,37.9442292],[27.3393512,37.9439881],[27.3393392,37.9439907],[27.3389301,37.9428143],[27.3378413,37.9430738],[27.3382677,37.9442267],[27.3382573,37.9442292]]]},"properties":{"site":"ephesus","name":null,"category":"archaeological","historic":"ruins","building":null,"osm_id":303403889}},{"type":"Feature","geometry":{"type":"Polygon","coordinates":[[[27.3592961,37.9412923],[27.3595352,37.9413775],[27.3596006,37.9412633],[27.3593615,37.9411781],[27.3592961,37.9412923]]]},"properties":{"site":"ephesus","name":null,"category":"other","historic":null,"building":"yes","osm_id":303598249}},{"type":"Feature","geometry":{"type":"Polygon","coordinates":[[[27.3393512,37.9439881],[27.3387777,37.9423421],[27.3411054,37.9418358],[27.341812,37.9439376],[27.3417179,37.944146],[27.3412478,37.9442387],[27.3395759,37.9446444],[27.3393512,37.9439881]]]},"properties":{"site":"ephesus","name":"Great Hall","category":"archaeological","historic":"ruins","building":null,"osm_id":481031539}},{"type":"Feature","geometry":{"type":"Polygon","coordinates":[[[27.3446482,37.9368689],[27.3446573,37.9368951],[27.3446626,37.9369095],[27.3446693,37.9369235],[27.3446773,37.9369371],[27.3446866,37.9369502],[27.3446971,37.9369627],[27.3447087,37.9369745],[27.3447215,37.9369857],[27.3447352,37.936996],[27.3447499,37.9370055],[27.3447655,37.9370141],[27.3447818,37.9370218],[27.3447988,37.9370285],[27.3448164,37.9370342],[27.3448345,37.9370388],[27.344853,37.9370423],[27.3448717,37.9370447],[27.3448907,37.9370461],[27.3449097,37.9370463],[27.3449287,37.9370453],[27.3449475,37.9370433],[27.3449661,37.9370402],[27.3449843,37.9370359],[27.3450021,37.9370306],[27.3450193,37.9370243],[27.3450359,37.937017],[27.3450518,37.9370087],[27.3450668,37.9369995],[27.3450809,37.9369895],[27.345094,37.9369786],[27.345106,37.936967],[27.3451169,37.9369547],[27.3451267,37.9369418],[27.3451351,37.9369284],[27.3451423,37.9369145],[27.3451481,37.9369003],[27.3451526,37.9368857],[27.3451557,37.9368709],[27.3451573,37.936856],[27.3451576,37.936841],[27.3451564,37.936826],[27.3451538,37.9368112],[27.3451498,37.9367965],[27.3451413,37.9367646],[27.3446482,37.9368689]]]},"properties":{"site":"ephesus","name":"Odeon (Konser Salonu)","category":"theater","historic":"archaeological_site","building":null,"osm_id":506466127}},{"type":"Feature","geometry":{"type":"Polygon","coordinates":[[[27.3571479,37.9398131],[27.3572076,37.939776],[27.3572485,37.9398173],[27.3571821,37.9398495],[27.3571479,37.9398131]]]},"properties":{"site":"ephesus","name":null,"category":"other","historic":null,"building":"yes","osm_id":577865362}},{"type":"Feature","geometry":{"type":"Polygon","coordinates":[[[27.3589155,37.9293253],[27.3592668,37.9294055],[27.3596273,37.9293957],[27.3598861,37.9292232],[27.3599939,37.9289826],[27.3597628,37.9289073],[27.3592637,37.9288975],[27.3590696,37.928917],[27.3588395,37.9290075],[27.3588816,37.9292013],[27.3589155,37.9293253]]]},"properties":{"site":"ephesus","name":"Çukuriçi Höyük","category":"archaeological","historic":"archaeological_site","building":null,"osm_id":620408965}},{"type":"Feature","geometry":{"type":"Polygon","coordinates":[[[27.3376765,37.949534],[27.3380424,37.9495372],[27.3380424,37.9493224],[27.3376846,37.9493224],[27.3376765,37.949534]]]},"properties":{"site":"ephesus","name":"Efes/Selçuk Havaalanı Terminali","category":"other","historic":null,"building":"yes","osm_id":744422001}},{"type":"Feature","geometry":{"type":"Polygon","coordinates":[[[27.3336307,37.9489356],[27.3337568,37.9488841],[27.3336961,37.948781],[27.3335677,37.948827],[27.3336307,37.9489356]]]},"properties":{"site":"ephesus","name":null,"category":"other","historic":null,"building":"yes","osm_id":744422008}},{"type":"Feature","geometry":{"type":"Polygon","coordinates":[[[27.3352155,37.9497253],[27.3353308,37.9497286],[27.3353347,37.9496441],[27.3352194,37.9496408],[27.3352155,37.9497253]]]},"properties":{"site":"ephesus","name":null,"category":"other","historic":null,"building":"yes","osm_id":744422009}},{"type":"Feature","geometry":{"type":"Polygon","coordinates":[[[27.3435979,37.9373357],[27.3441032,37.9372306],[27.3440938,37.9372025],[27.344074,37.9371432],[27.3440206,37.9369837],[27.3435153,37.9370889],[27.3435979,37.9373357]]]},"properties":{"site":"ephesus","name":"Banqueting House by the Prytaneion","category":"archaeological","historic":null,"building":"ruins","osm_id":760820503}},{"type":"Feature","geometry":{"type":"Polygon","coordinates":[[[27.3426251,37.9380189],[27.3425625,37.9379675],[27.342497,37.9380171],[27.3425407,37.9380531],[27.3425596,37.9380685],[27.3426251,37.9380189]]]},"properties":{"site":"ephesus","name":"Trajan's Gatehouse","category":"gate","historic":null,"building":"ruins","osm_id":760905821}},{"type":"Feature","geometry":{"type":"Polygon","coordinates":[[[27.3421789,37.9381491],[27.3421386,37.9381226],[27.3420852,37.9381574],[27.3420493,37.9381809],[27.3420118,37.9382054],[27.3419768,37.9382283],[27.3419362,37.9382548],[27.3419027,37.9382767],[27.3418703,37.9382979],[27.3418432,37.9383156],[27.3417163,37.9383984],[27.3417324,37.9384415],[27.3421789,37.9381491]]]},"properties":{"site":"ephesus","name":"Alytarch's Stoa","category":"archaeological","historic":null,"building":"ruins","osm_id":760906290}},{"type":"Feature","geometry":{"type":"Polygon","coordinates":[[[27.3415571,37.9394222],[27.3415263,37.9394255],[27.3413978,37.9390173],[27.3414976,37.9389942],[27.341582,37.9389747],[27.341726,37.9389414],[27.341836,37.938916],[27.3418546,37.9389957],[27.3418686,37.9390556],[27.3418788,37.9390989],[27.3417758,37.9391186],[27.3418103,37.9392497],[27.3416577,37.9392786],[27.3417057,37.9394391],[27.3415699,37.9394609],[27.3415571,37.9394222]]]},"properties":{"site":"ephesus","name":"House of Pleasure","category":"domus","historic":"ruins","building":"yes","osm_id":760909135}},{"type":"Feature","geometry":{"type":"Polygon","coordinates":[[[27.3441583,37.9373952],[27.3441221,37.937287],[27.3441032,37.9372306],[27.3440938,37.9372025],[27.344074,37.9371432],[27.3440206,37.9369837],[27.3442726,37.9369313],[27.3443425,37.9371402],[27.3443458,37.9371501],[27.3443858,37.9372696],[27.3443907,37.9372842],[27.3444103,37.9373428],[27.344332,37.9373591],[27.344243,37.9373776],[27.3442032,37.9373859],[27.3441583,37.9373952]]]},"properties":{"site":"ephesus","name":"Temenos with Double Monument","category":"archaeological","historic":"ruins","building":"ruins","osm_id":760909489}},{"type":"Feature","geometry":{"type":"Polygon","coordinates":[[[27.3562081,37.9463238],[27.3562677,37.9462585],[27.3562166,37.9462295],[27.3562675,37.9461737],[27.3563806,37.9462379],[27.3562701,37.946359],[27.3562081,37.9463238]]]},"properties":{"site":"ephesus","name":null,"category":"other","historic":null,"building":"yes","osm_id":1134733978}},{"type":"Feature","geometry":{"type":"Polygon","coordinates":[[[27.3543584,37.9478303],[27.3544256,37.9478547],[27.354498,37.947731],[27.3544309,37.9477066],[27.3543584,37.9478303]]]},"properties":{"site":"ephesus","name":null,"category":"other","historic":null,"building":"yes","osm_id":1134733979}},{"type":"Feature","geometry":{"type":"Polygon","coordinates":[[[27.3543678,37.9482924],[27.3544781,37.9483291],[27.3545398,37.9482139],[27.3544295,37.9481772],[27.3543678,37.9482924]]]},"properties":{"site":"ephesus","name":null,"category":"other","historic":null,"building":"yes","osm_id":1134733980}},{"type":"Feature","geometry":{"type":"Polygon","coordinates":[[[27.3540755,37.948376],[27.3541596,37.948407],[27.3542186,37.9483076],[27.3541345,37.9482766],[27.3540755,37.948376]]]},"properties":{"site":"ephesus","name":null,"category":"other","historic":null,"building":"yes","osm_id":1134733981}},{"type":"Feature","geometry":{"type":"Polygon","coordinates":[[[27.3533902,37.9489513],[27.3534867,37.9489746],[27.3535132,37.9489062],[27.3534166,37.9488829],[27.3533902,37.9489513]]]},"properties":{"site":"ephesus","name":null,"category":"other","historic":null,"building":"yes","osm_id":1134733982}},{"type":"Feature","geometry":{"type":"Polygon","coordinates":[[[27.3521359,37.9511392],[27.3522506,37.9511399],[27.3522512,37.9510775],[27.3522516,37.9510347],[27.3521929,37.9510343],[27.3521925,37.951077],[27.3521365,37.9510766],[27.3521359,37.9511392]]]},"properties":{"site":"ephesus","name":null,"category":"other","historic":null,"building":"yes","osm_id":1134733983}},{"type":"Feature","geometry":{"type":"Polygon","coordinates":[[[27.3522549,37.951161],[27.3523114,37.9511627],[27.352314,37.9511072],[27.3522576,37.9511055],[27.3522549,37.951161]]]},"properties":{"site":"ephesus","name":null,"category":"other","historic":null,"building":"yes","osm_id":1134733984}},{"type":"Feature","geometry":{"type":"Polygon","coordinates":[[[27.3524098,37.951188],[27.352481,37.9511887],[27.352483,37.9510634],[27.3524118,37.9510626],[27.3524098,37.951188]]]},"properties":{"site":"ephesus","name":null,"category":"other","historic":null,"building":"yes","osm_id":1134733985}},{"type":"Feature","geometry":{"type":"Polygon","coordinates":[[[27.3523582,37.9519235],[27.3524588,37.9519023],[27.352443,37.9518558],[27.3523424,37.9518769],[27.3523582,37.9519235]]]},"properties":{"site":"ephesus","name":null,"category":"other","historic":null,"building":"yes","osm_id":1134733986}},{"type":"Feature","geometry":{"type":"Polygon","coordinates":[[[27.3523119,37.9520763],[27.3523656,37.9520765],[27.3523662,37.951984],[27.3523126,37.9519837],[27.3523119,37.9520763]]]},"properties":{"site":"ephesus","name":null,"category":"other","historic":null,"building":"yes","osm_id":1134733987}},{"type":"Feature","geometry":{"type":"Polygon","coordinates":[[[27.3521765,37.9521894],[27.3522214,37.9521886],[27.3522201,37.9521442],[27.3521751,37.952145],[27.3521765,37.9521894]]]},"properties":{"site":"ephesus","name":null,"category":"other","historic":null,"building":"yes","osm_id":1134733988}},{"type":"Feature","geometry":{"type":"Polygon","coordinates":[[[27.352104,37.9522143],[27.3521653,37.9522124],[27.3521626,37.9521574],[27.3521014,37.9521593],[27.352104,37.9522143]]]},"properties":{"site":"ephesus","name":null,"category":"other","historic":null,"building":"yes","osm_id":1134733989}},{"type":"Feature","geometry":{"type":"Polygon","coordinates":[[[27.3520464,37.9522233],[27.3520907,37.9522226],[27.3520894,37.9521676],[27.352045,37.9521683],[27.3520464,37.9522233]]]},"properties":{"site":"ephesus","name":null,"category":"other","historic":null,"building":"yes","osm_id":1134733990}},{"type":"Feature","geometry":{"type":"Polygon","coordinates":[[[27.3520316,37.951961],[27.3520395,37.9520174],[27.3522473,37.9519995],[27.3522395,37.951943],[27.3520316,37.951961]]]},"properties":{"site":"ephesus","name":null,"category":"other","historic":null,"building":"yes","osm_id":1134733991}},{"type":"Feature","geometry":{"type":"Polygon","coordinates":[[[27.3518345,37.9521619],[27.3519418,37.9521357],[27.3518775,37.9519718],[27.3517701,37.951998],[27.3518345,37.9521619]]]},"properties":{"site":"ephesus","name":null,"category":"other","historic":null,"building":"yes","osm_id":1134733992}},{"type":"Feature","geometry":{"type":"Polygon","coordinates":[[[27.3514107,37.9514693],[27.351539,37.9514899],[27.3516007,37.9512509],[27.3514724,37.9512303],[27.3514107,37.9514693]]]},"properties":{"site":"ephesus","name":null,"category":"other","historic":null,"building":"yes","osm_id":1134733993}},{"type":"Feature","geometry":{"type":"Polygon","coordinates":[[[27.3519017,37.9533622],[27.3520295,37.9533643],[27.3520277,37.9534287],[27.3520021,37.9534283],[27.3520014,37.9534534],[27.351929,37.9534523],[27.3519297,37.953428],[27.3519,37.9534275],[27.3519017,37.9533622]]]},"properties":{"site":"ephesus","name":null,"category":"other","historic":null,"building":"yes","osm_id":1134733994}},{"type":"Feature","geometry":{"type":"Polygon","coordinates":[[[27.3511237,37.9523428],[27.3512471,37.9523607],[27.3512676,37.9522729],[27.3511443,37.952255],[27.3511237,37.9523428]]]},"properties":{"site":"ephesus","name":null,"category":"other","historic":null,"building":"yes","osm_id":1134733995}},{"type":"Feature","geometry":{"type":"Polygon","coordinates":[[[27.3512954,37.9526061],[27.3514025,37.9526069],[27.3514039,37.9525022],[27.3512967,37.9525014],[27.3512954,37.9526061]]]},"properties":{"site":"ephesus","name":null,"category":"other","historic":null,"building":"yes","osm_id":1134733996}},{"type":"Feature","geometry":{"type":"Polygon","coordinates":[[[27.3513611,37.952863],[27.3514361,37.9528603],[27.351428,37.9527218],[27.351353,37.9527245],[27.3513611,37.952863]]]},"properties":{"site":"ephesus","name":null,"category":"other","historic":null,"building":"yes","osm_id":1134733997}},{"type":"Feature","geometry":{"type":"Polygon","coordinates":[[[27.351009,37.9529122],[27.3511036,37.9529127],[27.351105,37.9527435],[27.3510104,37.952743],[27.351009,37.9529122]]]},"properties":{"site":"ephesus","name":null,"category":"other","historic":null,"building":"yes","osm_id":1134733998}},{"type":"Feature","geometry":{"type":"Polygon","coordinates":[[[27.3481089,37.9527108],[27.3481402,37.9529379],[27.3486579,37.9528935],[27.3486266,37.9526663],[27.3481089,37.9527108]]]},"properties":{"site":"ephesus","name":null,"category":"other","historic":null,"building":"yes","osm_id":1134733999}},{"type":"Feature","geometry":{"type":"Polygon","coordinates":[[[27.3444396,37.9530677],[27.3445006,37.9530597],[27.3444903,37.9530102],[27.3444293,37.9530181],[27.3444396,37.9530677]]]},"properties":{"site":"ephesus","name":null,"category":"other","historic":null,"building":"yes","osm_id":1134734000}},{"type":"Feature","geometry":{"type":"Polygon","coordinates":[[[27.3446006,37.9531903],[27.3446843,37.9531781],[27.3446602,37.953075],[27.3445764,37.9530872],[27.3446006,37.9531903]]]},"properties":{"site":"ephesus","name":null,"category":"other","historic":null,"building":"yes","osm_id":1134734001}},{"type":"Feature","geometry":{"type":"Polygon","coordinates":[[[27.3447119,37.953506],[27.3447662,37.9534956],[27.3447266,37.9533666],[27.3446723,37.953377],[27.3447119,37.953506]]]},"properties":{"site":"ephesus","name":null,"category":"other","historic":null,"building":"yes","osm_id":1134734002}},{"type":"Feature","geometry":{"type":"Polygon","coordinates":[[[27.3445858,37.9533801],[27.3447186,37.9533624],[27.344681,37.9531879],[27.3445483,37.9532057],[27.3445858,37.9533801]]]},"properties":{"site":"ephesus","name":null,"category":"other","historic":null,"building":"yes","osm_id":1134734003}},{"type":"Feature","geometry":{"type":"Polygon","coordinates":[[[27.3443873,37.9532744],[27.3445051,37.9532556],[27.344481,37.9531615],[27.3443632,37.9531803],[27.3443873,37.9532744]]]},"properties":{"site":"ephesus","name":null,"category":"other","historic":null,"building":"yes","osm_id":1134734004}},{"type":"Feature","geometry":{"type":"Polygon","coordinates":[[[27.3444343,37.9536033],[27.3445838,37.9535808],[27.3445087,37.9532699],[27.3443592,37.9532924],[27.3444343,37.9536033]]]},"properties":{"site":"ephesus","name":null,"category":"other","historic":null,"building":"yes","osm_id":1134734005}},{"type":"Feature","geometry":{"type":"Polygon","coordinates":[[[27.340647,37.9492464],[27.3408656,37.9492485],[27.3408669,37.9491628],[27.3406483,37.9491607],[27.340647,37.9492464]]]},"properties":{"site":"ephesus","name":null,"category":"other","historic":null,"building":"yes","osm_id":1134734006}},{"type":"Feature","geometry":{"type":"Polygon","coordinates":[[[27.3403412,37.9493109],[27.3405732,37.9493161],[27.3405777,37.9491946],[27.3403457,37.9491893],[27.3403412,37.9493109]]]},"properties":{"site":"ephesus","name":null,"category":"other","historic":null,"building":"yes","osm_id":1134734007}},{"type":"Feature","geometry":{"type":"Polygon","coordinates":[[[27.3400998,37.9492929],[27.3403278,37.9492992],[27.3403328,37.9491881],[27.3401048,37.9491818],[27.3400998,37.9492929]]]},"properties":{"site":"ephesus","name":null,"category":"other","historic":null,"building":"yes","osm_id":1134734008}},{"type":"Feature","geometry":{"type":"Polygon","coordinates":[[[27.3342499,37.9468753],[27.3343189,37.9468594],[27.3342934,37.9467907],[27.3342244,37.9468066],[27.3342499,37.9468753]]]},"properties":{"site":"ephesus","name":null,"category":"other","historic":null,"building":"yes","osm_id":1134734009}},{"type":"Feature","geometry":{"type":"Polygon","coordinates":[[[27.334329,37.9468288],[27.3344215,37.9467977],[27.3343746,37.9467109],[27.3342821,37.9467421],[27.334329,37.9468288]]]},"properties":{"site":"ephesus","name":null,"category":"other","historic":null,"building":"yes","osm_id":1134734010}},{"type":"Feature","geometry":{"type":"Polygon","coordinates":[[[27.3339884,37.9468076],[27.3341047,37.9467951],[27.3340806,37.9466555],[27.3339643,37.946668],[27.3339884,37.9468076]]]},"properties":{"site":"ephesus","name":null,"category":"other","historic":null,"building":"yes","osm_id":1134734011}},{"type":"Feature","geometry":{"type":"Polygon","coordinates":[[[27.3588915,37.9535958],[27.3588912,37.9535758],[27.3588215,37.9535766],[27.3588186,37.9534199],[27.3588899,37.9534191],[27.3588913,37.9534954],[27.3589465,37.9534948],[27.3589484,37.9535951],[27.3588915,37.9535958]]]},"properties":{"site":"ephesus","name":null,"category":"other","historic":null,"building":"yes","osm_id":1207744254}},{"type":"Feature","geometry":{"type":"Polygon","coordinates":[[[27.3410996,37.943247],[27.3410942,37.9430928],[27.3412138,37.9430903],[27.3412163,37.9431639],[27.3412191,37.9432444],[27.3410996,37.943247]]]},"properties":{"site":"ephesus","name":null,"category":"other","historic":null,"building":"yes","osm_id":1273164588}},{"type":"Feature","geometry":{"type":"Polygon","coordinates":[[[27.3591199,37.9533868],[27.359385,37.953384],[27.3593841,37.9533311],[27.359119,37.953334],[27.3591199,37.9533868]]]},"properties":{"site":"ephesus","name":null,"category":"other","historic":null,"building":"yes","osm_id":1378957095}},{"type":"Feature","geometry":{"type":"Polygon","coordinates":[[[27.3594051,37.9533724],[27.3596517,37.9533696],[27.3596507,37.9533119],[27.3595905,37.9533125],[27.3595897,37.9532687],[27.3594033,37.9532708],[27.3594051,37.9533724]]]},"properties":{"site":"ephesus","name":null,"category":"other","historic":null,"building":"yes","osm_id":1378957096}},{"type":"Feature","geometry":{"type":"Polygon","coordinates":[[[27.3402725,37.9408452],[27.3409449,37.9407169],[27.3410334,37.9409848],[27.3403539,37.9411048],[27.3402725,37.9408452]]]},"properties":{"site":"ephesus","name":"Efes Deneyimi Müzesi","category":"other","historic":null,"building":"yes","osm_id":1411430425}},{"type":"Feature","geometry":{"type":"Polygon","coordinates":[[[27.3456497,37.9357774],[27.3456684,37.9357151],[27.3455856,37.9356997],[27.3455669,37.935762],[27.3456497,37.9357774]]]},"properties":{"site":"ephesus","name":null,"category":"other","historic":null,"building":"yes","osm_id":1411443041}},{"type":"Feature","geometry":{"type":"Polygon","coordinates":[[[27.3432731,37.9373425],[27.34321,37.9373547],[27.3431774,37.9372498],[27.3432406,37.9372376],[27.3432731,37.9373425]]]},"properties":{"site":"ephesus","name":"Hydreion","category":"archaeological","historic":"ruins","building":null,"osm_id":1411590456}},{"type":"Feature","geometry":{"type":"Polygon","coordinates":[[[27.3411819,37.9389145],[27.3412523,37.9388688],[27.3412637,37.9388797],[27.3411932,37.9389254],[27.3411819,37.9389145]]]},"properties":{"site":"ephesus","name":"Hadrian's Gate","category":"gate","historic":"ruins","building":"triumphal_arch","osm_id":1411857008}},{"type":"Feature","geometry":{"type":"Polygon","coordinates":[[[27.3415006,37.9404998],[27.3415323,37.9405995],[27.3417693,37.9405527],[27.3413311,37.9391738],[27.3411272,37.9392142],[27.3411407,37.9392566],[27.341147,37.9392763],[27.3412033,37.9392651],[27.3412603,37.9394447],[27.3413227,37.9394323],[27.3416213,37.9403718],[27.3415567,37.9403846],[27.3415878,37.9404826],[27.3415006,37.9404998]]]},"properties":{"site":"ephesus","name":null,"category":"archaeological","historic":null,"building":"ruins","osm_id":1411881058}},{"type":"Feature","geometry":{"type":"Polygon","coordinates":[[[27.342115,37.9413853],[27.3421933,37.9413681],[27.3422161,37.9414327],[27.3421378,37.9414499],[27.342115,37.9413853]]]},"properties":{"site":"ephesus","name":"Çeşme","category":"archaeological","historic":"ruins","building":"yes","osm_id":1411925992}},{"type":"Feature","geometry":{"type":"Polygon","coordinates":[[[27.3389628,37.94115],[27.3389026,37.9409685],[27.3392707,37.9408792],[27.339345,37.9410662],[27.3389628,37.94115]]]},"properties":{"site":"ephesus","name":null,"category":"other","historic":null,"building":"yes","osm_id":1448028726}}]}