{"type":"FeatureCollection","features":[{"type":"Feature","geometry":{"type":"LineString","coordinates":[[27.3420887,37.941483],[27.3419728,37.9411683],[27.341864,37.9408591],[27.3418048,37.9405519],[27.3413146,37.9390087],[27.3412912,37.9389343]]},"properties":{"site":"ephesus","name":"Marble Street","highway":"pedestrian"}},{"type":"Feature","geometry":{"type":"LineString","coordinates":[[27.3412912,37.9389343],[27.341335,37.9388744],[27.3416983,37.9385644],[27.3419657,37.9383617],[27.3420281,37.938318],[27.3421619,37.9382195],[27.3427029,37.9377828],[27.3431362,37.9373241],[27.3431693,37.9372246],[27.3432075,37.9371355]]},"properties":{"site":"ephesus","name":"Curetes Street","highway":"pedestrian"}},{"type":"Feature","geometry":{"type":"LineString","coordinates":[[27.3372553,37.942558],[27.3409332,37.9417563],[27.3411053,37.9417188],[27.3413758,37.9416598],[27.3418517,37.9415561],[27.3420887,37.941483]]},"properties":{"site":"ephesus","name":"Arkadiane","highway":"pedestrian"}},{"type":"Feature","geometry":{"type":"LineString","coordinates":[[27.3404321,37.9449735],[27.3403713,37.9448036],[27.3403577,37.9447214],[27.3403826,37.9445389],[27.3403933,37.9444606],[27.3403891,37.9443217],[27.3402564,37.9439862],[27.3402437,37.9438789],[27.3403112,37.9437278],[27.3403992,37.943497],[27.3405297,37.9430985],[27.3406051,37.9427579],[27.3406776,37.9424277],[27.3408195,37.9422716],[27.3411416,37.9421773]]},"properties":{"site":"ephesus","name":"","highway":"pedestrian"}},{"type":"Feature","geometry":{"type":"LineString","coordinates":[[27.3413146,37.9390087],[27.3411472,37.939096],[27.3410933,37.9391074]]},"properties":{"site":"ephesus","name":"","highway":"footway"}},{"type":"Feature","geometry":{"type":"LineString","coordinates":[[27.3403992,37.943497],[27.3412718,37.9433829],[27.3414191,37.9433314]]},"properties":{"site":"ephesus","name":"","highway":"pedestrian"}},{"type":"Feature","geometry":{"type":"LineString","coordinates":[[27.355577,37.9434891],[27.3552814,37.9434568],[27.3548954,37.9434002],[27.3548335,37.9434091],[27.3547776,37.9435262],[27.3547469,37.9437341]]},"properties":{"site":"ephesus","name":"","highway":"track"}},{"type":"Feature","geometry":{"type":"LineString","coordinates":[[27.3420851,37.9452753],[27.342358,37.9453935],[27.3427361,37.9455005],[27.3429311,37.9456054],[27.3430991,37.9457186],[27.3435949,37.9460527],[27.3441807,37.9464474],[27.3442927,37.9465776],[27.3443876,37.9467554],[27.3445857,37.9472112],[27.3447608,37.9479515],[27.3447764,37.9480687]]},"properties":{"site":"ephesus","name":"","highway":"service"}},{"type":"Feature","geometry":{"type":"LineString","coordinates":[[27.3414004,37.9434647],[27.3414191,37.9433314],[27.3414453,37.9431286],[27.3411416,37.9421773],[27.341173,37.9419395],[27.3411053,37.9417188]]},"properties":{"site":"ephesus","name":"","highway":"pedestrian"}},{"type":"Feature","geometry":{"type":"LineString","coordinates":[[27.3447764,37.9480687],[27.3447199,37.9480193],[27.3446305,37.9479834],[27.3444503,37.9479871],[27.3443712,37.9479825],[27.3440742,37.9479811],[27.3436435,37.9479378],[27.3433266,37.9478786],[27.3431289,37.9478043],[27.3428342,37.9476583],[27.3427002,37.9476119],[27.3424964,37.9475898],[27.3421283,37.9475624],[27.3417754,37.9474933],[27.3415275,37.9474182],[27.3414126,37.9473476],[27.3413439,37.9472185],[27.3412728,37.9468697],[27.3411976,37.9466539],[27.3411249,37.946461],[27.3411224,37.9463623],[27.3411549,37.9462709],[27.3412441,37.94619],[27.3413908,37.9461339],[27.3418658,37.9460536],[27.3419974,37.946005],[27.3420622,37.9459436],[27.3420806,37.9458896],[27.34209,37.9458241],[27.3420858,37.9457712],[27.3420391,37.9456444],[27.3419565,37.9455104]]},"properties":{"site":"ephesus","name":"","highway":"service"}},{"type":"Feature","geometry":{"type":"LineString","coordinates":[[27.341429,37.9442883],[27.3413941,37.9443881],[27.341697,37.9450911],[27.3419565,37.9455104],[27.3420851,37.9452753],[27.3419381,37.9450359],[27.341766,37.9445742],[27.3417199,37.9444503],[27.3416412,37.9442392],[27.341429,37.9442883]]},"properties":{"site":"ephesus","name":"","highway":"service"}},{"type":"Feature","geometry":{"type":"LineString","coordinates":[[27.3402256,37.9412557],[27.3398516,37.9410313],[27.3393788,37.940819],[27.3392576,37.940756],[27.3390706,37.9405918],[27.3388096,37.9402526],[27.3386546,37.9400824],[27.3385736,37.9398782],[27.3385602,37.9396518],[27.3386138,37.9395164],[27.3390857,37.9392681],[27.3407381,37.9379716],[27.3408052,37.9378516],[27.3410097,37.937719],[27.341444,37.9375603],[27.3416496,37.9374408],[27.3417217,37.9373792],[27.3418011,37.9371853],[27.3419302,37.9370032],[27.3420779,37.9366765],[27.3421517,37.936447],[27.3422141,37.9363793],[27.3423144,37.9363043],[27.3427167,37.9361709],[27.3430267,37.9359721],[27.3434018,37.9358513],[27.3437113,37.935678],[27.3443115,37.9354409],[27.3443797,37.9354238],[27.3445083,37.9354423],[27.3449555,37.9355956],[27.3452711,37.9356685],[27.3457507,37.9356981]]},"properties":{"site":"ephesus","name":"","highway":"track"}},{"type":"Feature","geometry":{"type":"LineString","coordinates":[[27.3440697,37.9369515],[27.3440754,37.9368326],[27.3440779,37.9367645],[27.3443019,37.9367188],[27.3451986,37.936536],[27.345254,37.9364714],[27.3451656,37.9362033],[27.3451991,37.9361959],[27.3456158,37.9361033],[27.3456809,37.9359079]]},"properties":{"site":"ephesus","name":"","highway":"pedestrian"}},{"type":"Feature","geometry":{"type":"LineString","coordinates":[[27.3421619,37.9382195],[27.3422579,37.9383123],[27.342438,37.9389237]]},"properties":{"site":"ephesus","name":"Bath Street","highway":"footway"}},{"type":"Feature","geometry":{"type":"LineString","coordinates":[[27.3410457,37.9392754],[27.3410529,37.9392982]]},"properties":{"site":"ephesus","name":"","highway":"footway"}},{"type":"Feature","geometry":{"type":"LineString","coordinates":[[27.3410529,37.9392982],[27.3410751,37.939368],[27.3411028,37.9394551],[27.3412341,37.9398685],[27.3412957,37.9400621],[27.3414159,37.9404406],[27.3412466,37.940474],[27.3412693,37.9405455]]},"properties":{"site":"ephesus","name":"","highway":"footway"}},{"type":"Feature","geometry":{"type":"LineString","coordinates":[[27.346968,37.9351046],[27.3465389,37.9350249],[27.3462067,37.9351226],[27.3461851,37.9354049]]},"properties":{"site":"ephesus","name":"","highway":"service"}},{"type":"Feature","geometry":{"type":"LineString","coordinates":[[27.3410457,37.9392754],[27.3409962,37.9392851],[27.3409496,37.9392943],[27.3408884,37.9391018],[27.3409082,37.9390979],[27.3410795,37.939064],[27.341089,37.939094],[27.3410933,37.9391074],[27.3410999,37.9391283],[27.3411272,37.9392142],[27.3411407,37.9392566],[27.341085,37.9392676],[27.3410457,37.9392754]]},"properties":{"site":"ephesus","name":"Triodos Square","highway":"footway"}},{"type":"Feature","geometry":{"type":"LineString","coordinates":[[27.3432075,37.9371355],[27.3432506,37.9369333],[27.3432901,37.936836],[27.3433589,37.9367478],[27.3432233,37.9363454],[27.3431375,37.9360906],[27.3450301,37.935694],[27.3451991,37.9361959]]},"properties":{"site":"ephesus","name":"","highway":"pedestrian"}},{"type":"Feature","geometry":{"type":"LineString","coordinates":[[27.3403826,37.9445389],[27.3401273,37.9445901],[27.3398843,37.9445921],[27.3397473,37.944533],[27.3394681,37.9443679],[27.3393027,37.9443231],[27.3391347,37.9443027],[27.3384135,37.9444515],[27.3381447,37.9445636],[27.3379638,37.9445881],[27.3378113,37.9445656],[27.3376609,37.9445087],[27.3370239,37.9439679],[27.3367125,37.9435476],[27.3364346,37.9433795],[27.3362841,37.9432427],[27.3361838,37.9430449],[27.3361901,37.9428587],[27.3361566,37.9426395],[27.3361901,37.942506],[27.3363155,37.9423461],[27.336468,37.9422143],[27.3365077,37.9420429],[27.3365454,37.9415732],[27.3365182,37.9414413],[27.3365917,37.9412631]]},"properties":{"site":"ephesus","name":"","highway":"path"}},{"type":"Feature","geometry":{"type":"LineString","coordinates":[[27.3375234,37.9410425],[27.3377215,37.9409017],[27.3378789,37.9406997],[27.3379404,37.9404853],[27.3380269,37.9401309],[27.3381325,37.9399627],[27.3382494,37.9398571],[27.3384002,37.9397159],[27.3385602,37.9396518]]},"properties":{"site":"ephesus","name":"","highway":"footway"}},{"type":"Feature","geometry":{"type":"LineString","coordinates":[[27.3415275,37.9474182],[27.3411745,37.9477039],[27.3410498,37.9477497],[27.3407348,37.9476975],[27.3405675,37.947709],[27.3398324,37.9478553],[27.3396307,37.9479438],[27.3395447,37.9479322],[27.3394636,37.9478976],[27.3390494,37.9471471],[27.3390168,37.9468794],[27.3389046,37.9466074],[27.3389124,37.9463791],[27.3388331,37.9461148],[27.3387488,37.945967],[27.3385481,37.9455212],[27.3383036,37.9453112],[27.3382164,37.9452669],[27.3381261,37.9452554],[27.3377856,37.9453299],[27.3376989,37.9452979],[27.3376267,37.9452108],[27.3375278,37.9449816],[27.3373939,37.9449229],[27.337251,37.9449168],[27.3362924,37.945172],[27.336181,37.9451711],[27.3360917,37.9450605],[27.3360588,37.9449491],[27.336051,37.9447988],[27.3360157,37.9446904],[27.3358409,37.9443381],[27.3357454,37.9442416],[27.3357354,37.9441397],[27.3358348,37.9438556],[27.3358438,37.943743],[27.3357912,37.9436319],[27.3355392,37.9431607],[27.335446,37.9428421],[27.3352369,37.9424179],[27.3352286,37.9423188],[27.3352981,37.9422406],[27.3355696,37.9420938],[27.3356786,37.9420213],[27.3357077,37.9419667]]},"properties":{"site":"ephesus","name":"","highway":"footway"}},{"type":"Feature","geometry":{"type":"LineString","coordinates":[[27.3384889,37.9537639],[27.3397812,37.9536564],[27.340434,37.9534338],[27.3407928,37.9533225],[27.3408398,37.9532159],[27.3408222,37.953086],[27.3406458,37.9527614],[27.3404223,37.9523023],[27.3404693,37.9519823],[27.340417,37.9519206]]},"properties":{"site":"ephesus","name":"","highway":"track"}},{"type":"Feature","geometry":{"type":"LineString","coordinates":[[27.3517407,37.9350743],[27.3517474,37.9351397],[27.3518583,37.9352553],[27.3523987,37.9355512],[27.352483,37.9356085],[27.353048,37.9361693],[27.3537238,37.9367354],[27.3540311,37.9369084],[27.3544234,37.9371587],[27.3548049,37.937262],[27.3550964,37.9374825],[27.3553179,37.9375545],[27.3555964,37.9375657],[27.3559719,37.9376219],[27.3564857,37.9376394]]},"properties":{"site":"ephesus","name":"","highway":"track"}},{"type":"Feature","geometry":{"type":"LineString","coordinates":[[27.3597229,37.9412627],[27.3598247,37.9412362],[27.3599239,37.9412001],[27.3600768,37.9411029],[27.3602109,37.9410098],[27.3602577,37.9408997],[27.360278,37.9407792],[27.360286,37.9405064],[27.3603263,37.9400664],[27.3602753,37.9398591],[27.3602497,37.9398018],[27.3601278,37.9396539],[27.3601305,37.9395121],[27.3601063,37.9394381],[27.3600661,37.9393704],[27.3600795,37.9393239],[27.3601397,37.9392497],[27.3602029,37.9391822],[27.3602416,37.939127],[27.3603048,37.9390002],[27.3603102,37.9389008],[27.3603665,37.938776],[27.3604336,37.9386512],[27.3604926,37.9384164],[27.360573,37.9382979],[27.3605864,37.9382493],[27.3605501,37.9381751],[27.3604899,37.9380695],[27.3604443,37.937987],[27.360455,37.9379256],[27.3604926,37.9378283],[27.3605382,37.9375745],[27.3605301,37.9372254],[27.3605462,37.937107],[27.3605891,37.9370371],[27.360652,37.9370138],[27.3607581,37.937016],[27.3608064,37.9370054],[27.3608332,37.9369821],[27.3609378,37.9361931],[27.3610987,37.9351756],[27.3611631,37.9346403],[27.3611443,37.9344796],[27.3611487,37.9343271]]},"properties":{"site":"ephesus","name":"","highway":"track"}},{"type":"Feature","geometry":{"type":"LineString","coordinates":[[27.3597229,37.9412627],[27.3598045,37.9413108],[27.3598593,37.9413974],[27.3600477,37.9415536],[27.360272,37.941737],[27.3604107,37.9418624],[27.3605372,37.9420136],[27.3606473,37.9421584],[27.3607207,37.9422999],[27.3608023,37.9424093],[27.3608186,37.9424511]]},"properties":{"site":"ephesus","name":"1079. Sokak","highway":"track"}},{"type":"Feature","geometry":{"type":"LineString","coordinates":[[27.3592567,37.9436439],[27.3595417,37.9434167],[27.3601305,37.9429411],[27.3602229,37.9428542],[27.3606052,37.942592],[27.3606803,37.9425138],[27.3607205,37.9424884],[27.3608186,37.9424511]]},"properties":{"site":"ephesus","name":"","highway":"track"}},{"type":"Feature","geometry":{"type":"LineString","coordinates":[[27.3606563,37.9506994],[27.3602036,37.949789],[27.3598129,37.9488867],[27.3597714,37.9487851]]},"properties":{"site":"ephesus","name":"","highway":"track"}},{"type":"Feature","geometry":{"type":"LineString","coordinates":[[27.3421283,37.9475624],[27.3420881,37.9474437],[27.3420213,37.9473394],[27.3419325,37.947101],[27.3418172,37.9469741],[27.3417608,37.9468768],[27.3417367,37.9467668],[27.341844,37.9463057],[27.3418413,37.9462],[27.3418921,37.9461225],[27.3422229,37.9459679],[27.3423082,37.945904],[27.3424348,37.9458091],[27.3424716,37.9457156],[27.3423863,37.9455656],[27.342358,37.9453935]]},"properties":{"site":"ephesus","name":"","highway":"footway"}},{"type":"Feature","geometry":{"type":"LineString","coordinates":[[27.3420213,37.9473394],[27.3422264,37.9474445],[27.3424148,37.9474868],[27.3425586,37.9474975],[27.3429047,37.9475999],[27.3432387,37.9477492],[27.3434636,37.9478304],[27.344317,37.9478996],[27.3444503,37.9479871]]},"properties":{"site":"ephesus","name":"","highway":"footway"}},{"type":"Feature","geometry":{"type":"LineString","coordinates":[[27.3389338,37.9450832],[27.339666,37.944933],[27.3398136,37.9449859],[27.3401569,37.9449203],[27.3401389,37.944853],[27.3403713,37.9448036]]},"properties":{"site":"ephesus","name":"","highway":"footway"}},{"type":"Feature","geometry":{"type":"LineString","coordinates":[[27.3412466,37.940474],[27.3404099,37.9406414],[27.3402608,37.9403614],[27.3401475,37.9402942],[27.3399892,37.9397971],[27.3400617,37.9396734],[27.3404048,37.9396039],[27.3411028,37.9394551]]},"properties":{"site":"ephesus","name":"","highway":"footway"}},{"type":"Feature","geometry":{"type":"LineString","coordinates":[[27.3366459,37.9487254],[27.3380721,37.9492823],[27.338225,37.9492506],[27.3384718,37.9492443],[27.3387434,37.949269],[27.338966,37.9493134],[27.3391373,37.9493976]]},"properties":{"site":"ephesus","name":"Selçuk-Efes Havaalanı","highway":"service"}},{"type":"Feature","geometry":{"type":"LineString","coordinates":[[27.339666,37.944933],[27.3398726,37.9448843]]},"properties":{"site":"ephesus","name":"","highway":"footway"}},{"type":"Feature","geometry":{"type":"LineString","coordinates":[[27.3417136,37.9412379],[27.3419728,37.9411683]]},"properties":{"site":"ephesus","name":"","highway":"footway"}},{"type":"Feature","geometry":{"type":"LineString","coordinates":[[27.3546934,37.9292185],[27.354959,37.9287761],[27.3557125,37.9284403],[27.3563257,37.9280091],[27.3563654,37.92799],[27.3571414,37.9276166],[27.3578284,37.9274396],[27.3584995,37.927075],[27.3587355,37.9270031]]},"properties":{"site":"ephesus","name":"","highway":"track"}},{"type":"Feature","geometry":{"type":"LineString","coordinates":[[27.3227948,37.930923],[27.3227929,37.9312132],[27.3227352,37.9314247],[27.3227126,37.9319613],[27.3223975,37.9323178],[27.3223101,37.932656],[27.3221778,37.9329201],[27.322522,37.9330114],[27.3230906,37.9331203],[27.3235557,37.933088],[27.3246076,37.9329525],[27.3257664,37.9326055],[27.3266665,37.9321744],[27.3280945,37.9318101],[27.328985,37.9319116],[27.3301426,37.932369],[27.3313775,37.9327409],[27.3322026,37.9327413],[27.3324397,37.932614]]},"properties":{"site":"ephesus","name":"","highway":"track"}},{"type":"Feature","geometry":{"type":"LineString","coordinates":[[27.3602424,37.9300207],[27.3590091,37.9297662],[27.3588589,37.9293727],[27.3588395,37.9290075],[27.3588375,37.9289707],[27.3589608,37.9286491],[27.3593144,37.9281928],[27.3594061,37.927824],[27.3593256,37.9277055],[27.3589013,37.9274777],[27.3587082,37.9272449],[27.3587355,37.9270031],[27.3588053,37.926745],[27.3589984,37.9265884]]},"properties":{"site":"ephesus","name":"","highway":"track"}},{"type":"Feature","geometry":{"type":"LineString","coordinates":[[27.321581,37.9312604],[27.3227948,37.930923],[27.3232118,37.9311674],[27.3235659,37.9312774],[27.3241989,37.9311504],[27.3244027,37.9309896],[27.3250572,37.930355],[27.3257009,37.9301857],[27.3261623,37.9302365],[27.326409,37.9299741],[27.3264519,37.9296018],[27.3268918,37.9290517],[27.3268167,37.9281124],[27.3264734,37.9274015],[27.326527,37.9271899],[27.327321,37.9271138],[27.3277394,37.9268599],[27.3281793,37.9264113],[27.3285011,37.9251673],[27.3287801,37.9246764],[27.3290054,37.9242279],[27.3292736,37.9238047],[27.3291985,37.9229499],[27.329338,37.9229161],[27.3295311,37.923043],[27.3297564,37.9229838],[27.3300568,37.9226706],[27.3301963,37.9227299],[27.3300997,37.9230007],[27.3300783,37.9238047],[27.3302178,37.9240163],[27.3308293,37.9242363],[27.33084,37.9244564],[27.3310761,37.9247864],[27.3311082,37.925125],[27.3309312,37.9257089],[27.3303787,37.9265383],[27.329735,37.927393],[27.3294882,37.9277654],[27.3294667,37.9281039],[27.3297242,37.9282224],[27.3313335,37.9278923],[27.3317412,37.9280193],[27.3322026,37.9279177],[27.3323099,37.9280785],[27.3321919,37.9282393],[27.3311418,37.9289142],[27.3306884,37.9293712],[27.3304157,37.929948],[27.3303774,37.9301572],[27.3304522,37.9303778],[27.3307445,37.9305999],[27.33084,37.9308712],[27.3307338,37.93093],[27.3304227,37.9307015],[27.3293069,37.9306507],[27.3288123,37.9308035],[27.3280398,37.9308966],[27.3273864,37.9310654],[27.3269455,37.9313112],[27.3264745,37.9313362],[27.32554,37.9316159],[27.3250035,37.9318443],[27.324672,37.9321316],[27.3243598,37.9324705],[27.3238781,37.9326055],[27.3235455,37.9328425],[27.3235557,37.933088],[27.3235605,37.9332025],[27.3238609,37.9334775],[27.324215,37.9334902],[27.3242694,37.9335446],[27.3241568,37.9336208],[27.3236471,37.933735],[27.3230302,37.9338619],[27.3227406,37.9337646],[27.3222363,37.9338873],[27.3219842,37.9340439],[27.3217052,37.9346235],[27.3213396,37.9348103]]},"properties":{"site":"ephesus","name":"","highway":"track"}},{"type":"Feature","geometry":{"type":"LineString","coordinates":[[27.3552814,37.9434568],[27.3552372,37.9436302]]},"properties":{"site":"ephesus","name":"","highway":"track"}},{"type":"Feature","geometry":{"type":"LineString","coordinates":[[27.339658,37.9495715],[27.3396178,37.9494974],[27.3395024,37.9494467],[27.3391373,37.9493976],[27.3389204,37.9493684],[27.3388312,37.9493966],[27.3387755,37.9494594],[27.3387802,37.9495361],[27.3388312,37.949589],[27.338917,37.9496186],[27.3391665,37.9496593]]},"properties":{"site":"ephesus","name":"Selçuk-Efes Havaalanı","highway":"service"}},{"type":"Feature","geometry":{"type":"LineString","coordinates":[[27.3441097,37.9362904],[27.3443699,37.9362301],[27.3450351,37.936228],[27.3451656,37.9362033]]},"properties":{"site":"ephesus","name":"","highway":"footway"}},{"type":"Feature","geometry":{"type":"LineString","coordinates":[[27.3418048,37.9405519],[27.3418614,37.9405862],[27.3421279,37.9408868]]},"properties":{"site":"ephesus","name":"","highway":"footway"}},{"type":"Feature","geometry":{"type":"LineString","coordinates":[[27.344327,37.9367809],[27.3443019,37.9367188],[27.3441097,37.9362904],[27.3435956,37.9364215],[27.3434302,37.9363047],[27.3432233,37.9363454]]},"properties":{"site":"ephesus","name":"","highway":"footway"}},{"type":"Feature","geometry":{"type":"LineString","coordinates":[[27.3440697,37.9369515],[27.3446153,37.9368394],[27.3446314,37.9368711],[27.3446482,37.9368689],[27.3451413,37.9367646],[27.3451088,37.9366204]]},"properties":{"site":"ephesus","name":"","highway":"footway"}},{"type":"Feature","geometry":{"type":"LineString","coordinates":[[27.3436617,37.9369175],[27.3440754,37.9368326],[27.344327,37.9367809],[27.3451088,37.9366204],[27.3452931,37.9365826]]},"properties":{"site":"ephesus","name":"Βasilica Stoa","highway":"footway"}},{"type":"Feature","geometry":{"type":"LineString","coordinates":[[27.3358605,37.9498027],[27.3358402,37.9497386],[27.3356084,37.9494148],[27.3355475,37.9493026],[27.3355109,37.9491584],[27.3355271,37.9490109],[27.3355841,37.9488346],[27.335706,37.9487544],[27.3358605,37.9486647]]},"properties":{"site":"ephesus","name":"","highway":"service"}},{"type":"Feature","geometry":{"type":"LineString","coordinates":[[27.3358605,37.9486647],[27.3360231,37.9486166],[27.3361817,37.9486037],[27.3363321,37.9486198],[27.3364988,37.9486582],[27.3366459,37.9487254]]},"properties":{"site":"ephesus","name":"Selçuk-Efes Havaalanı","highway":"service"}},{"type":"Feature","geometry":{"type":"LineString","coordinates":[[27.3355841,37.9488346],[27.3355881,37.9487352],[27.3355597,37.9486358],[27.3354377,37.9483088],[27.3352629,37.9479786],[27.3351816,37.9478311],[27.3352019,37.9477349],[27.3352751,37.9476676],[27.3353848,37.9476131]]},"properties":{"site":"ephesus","name":"","highway":"service"}},{"type":"Feature","geometry":{"type":"LineString","coordinates":[[27.3353848,37.9476131],[27.3380518,37.9490718],[27.338125,37.949091],[27.3389137,37.9491359],[27.3397465,37.9493804],[27.3398042,37.949974],[27.3398639,37.9503534],[27.3399205,37.9505409],[27.3401661,37.9510087],[27.3403717,37.9514377],[27.3403936,37.9516327]]},"properties":{"site":"ephesus","name":"","highway":"track"}},{"type":"Feature","geometry":{"type":"LineString","coordinates":[[27.3353848,37.9476131],[27.3349498,37.9473759],[27.3344661,37.9467411],[27.3340595,37.9464686]]},"properties":{"site":"ephesus","name":"","highway":"track"}},{"type":"Feature","geometry":{"type":"LineString","coordinates":[[27.3416983,37.9385644],[27.341681,37.9384587],[27.3415844,37.9382281],[27.3413269,37.9383011],[27.3413417,37.9383307],[27.3412009,37.9383635],[27.3411566,37.9382398],[27.3411217,37.9382461],[27.3410225,37.9379637],[27.3413055,37.9378971],[27.3412871,37.9378468]]},"properties":{"site":"ephesus","name":"","highway":"steps"}},{"type":"Feature","geometry":{"type":"LineString","coordinates":[[27.3583075,37.9490075],[27.358287,37.9489284]]},"properties":{"site":"ephesus","name":"","highway":"service"}},{"type":"Feature","geometry":{"type":"LineString","coordinates":[[27.358287,37.9489284],[27.3582809,37.9488297],[27.3585704,37.9487712],[27.3588759,37.9487538],[27.3590092,37.9487685],[27.3592007,37.9487895]]},"properties":{"site":"ephesus","name":"","highway":"service"}},{"type":"Feature","geometry":{"type":"LineString","coordinates":[[27.3569833,37.9394561],[27.3571441,37.939604],[27.3573871,37.9398322],[27.3576358,37.9400512],[27.3578441,37.9402428],[27.3580466,37.9403843],[27.3582954,37.940512],[27.3586194,37.9406626],[27.358874,37.9408132],[27.3591459,37.940982],[27.3593354,37.9410892],[27.3594759,37.9411529],[27.3597229,37.9412627]]},"properties":{"site":"ephesus","name":"1079. Sokak","highway":"track"}},{"type":"Feature","geometry":{"type":"LineString","coordinates":[[27.3523528,37.9472982],[27.3523985,37.947357],[27.3524046,37.9474742],[27.3521891,37.9477039],[27.352092,37.9478116],[27.3521011,37.9478738],[27.352177,37.947948],[27.3526564,37.9480605],[27.3533119,37.9481323],[27.3541737,37.9484793],[27.3547108,37.9486157],[27.3552055,37.9486181],[27.3559793,37.9487545],[27.3561219,37.9488358],[27.3561583,37.9489267],[27.3561618,37.9492495]]},"properties":{"site":"ephesus","name":"","highway":"track"}},{"type":"Feature","geometry":{"type":"LineString","coordinates":[[27.3193763,37.9441672],[27.3202202,37.9437053],[27.3204263,37.9436713],[27.320654,37.9436713],[27.3210294,37.9437781],[27.3211802,37.9437902],[27.3212756,37.9437659],[27.3216448,37.9435669],[27.3218633,37.9435087],[27.3225217,37.9435111],[27.3227987,37.9435669],[27.3233987,37.9435767],[27.3235864,37.9435403],[27.3237279,37.9434505],[27.3237956,37.943448],[27.3238417,37.9434723],[27.3239033,37.943465],[27.3240202,37.9434116],[27.3240848,37.9434116],[27.3241956,37.9434747],[27.324571,37.9435524],[27.3247094,37.9435378],[27.3250141,37.9434019],[27.3251341,37.9433752],[27.3252817,37.943385],[27.3255833,37.943334],[27.3259248,37.9433704],[27.3262141,37.9433655],[27.3263248,37.9433461],[27.3266048,37.943368],[27.3271094,37.9432272],[27.3272356,37.9432297],[27.3273587,37.9432903]]},"properties":{"site":"ephesus","name":"","highway":"path"}},{"type":"Feature","geometry":{"type":"LineString","coordinates":[[27.3375234,37.9410425],[27.3378167,37.9410874],[27.3381844,37.9411668],[27.3384733,37.9409597],[27.3389067,37.9408768],[27.3392576,37.940756]]},"properties":{"site":"ephesus","name":"","highway":"path"}},{"type":"Feature","geometry":{"type":"LineString","coordinates":[[27.3365917,37.9412631],[27.3364207,37.9412514],[27.3362068,37.9413152],[27.3360593,37.9414612],[27.3359726,37.9416777],[27.3359524,37.9418761],[27.3358627,37.9419536],[27.3357558,37.9419718],[27.3357077,37.9419667]]},"properties":{"site":"ephesus","name":"","highway":"footway"}},{"type":"Feature","geometry":{"type":"LineString","coordinates":[[27.3365917,37.9412631],[27.3371681,37.9411216],[27.3375234,37.9410425]]},"properties":{"site":"ephesus","name":"","highway":"footway"}},{"type":"Feature","geometry":{"type":"LineString","coordinates":[[27.3357077,37.9419667],[27.3356981,37.9417856],[27.3354832,37.9411709],[27.3353732,37.9410934],[27.3350898,37.9411122],[27.3349219,37.9410884],[27.3345907,37.9409943],[27.3344199,37.9409884],[27.3329379,37.9413881],[27.3324962,37.9415816],[27.3322092,37.9417719],[27.3320267,37.9417798],[27.3315213,37.9416783],[27.3313421,37.9416973],[27.3311076,37.9417546],[27.3309151,37.9417734],[27.330683,37.941772],[27.3305232,37.9418127],[27.3294346,37.9421666],[27.3292616,37.9421867],[27.3290122,37.9421721],[27.3287935,37.9422253],[27.3284501,37.9423334],[27.3281946,37.9424817],[27.3279677,37.9427299],[27.3276999,37.9430991],[27.3275078,37.9432361],[27.3273587,37.9432903]]},"properties":{"site":"ephesus","name":"","highway":"path"}},{"type":"Feature","geometry":{"type":"LineString","coordinates":[[27.3437113,37.935678],[27.3439908,37.9351605],[27.3440342,37.9350337],[27.344089,37.9348735],[27.3441819,37.9348131],[27.3442572,37.9348208],[27.3443356,37.9348458]]},"properties":{"site":"ephesus","name":"","highway":"footway"}},{"type":"Feature","geometry":{"type":"LineString","coordinates":[[27.3546934,37.9292185],[27.3556393,37.9294781],[27.3564251,37.9297936],[27.356546,37.9299098],[27.3567516,37.9307702],[27.3569987,37.9312136],[27.3571239,37.9317891],[27.3570735,37.9319344],[27.35693,37.9322177],[27.3568137,37.9331729],[27.3563645,37.9344503],[27.3563223,37.9347188]]},"properties":{"site":"ephesus","name":"","highway":"track"}},{"type":"Feature","geometry":{"type":"LineString","coordinates":[[27.3546934,37.9292185],[27.3540003,37.9292093],[27.3538545,37.9292208],[27.3536552,37.9293972],[27.3533683,37.9295046],[27.3531252,37.9295314],[27.3524689,37.92975],[27.3522744,37.929796],[27.3520702,37.9299494],[27.3518466,37.9304364],[27.3516521,37.9307394],[27.3510395,37.9314412],[27.3510249,37.931583],[27.3505533,37.9318937],[27.3500234,37.9320355],[27.3497365,37.9321813],[27.3493525,37.9323998],[27.3487836,37.9326683],[27.348419,37.9327373],[27.3481564,37.9328677],[27.3479328,37.9330786],[27.3475925,37.9332856],[27.3473348,37.9335464],[27.3471403,37.9338072],[27.3468049,37.9340641],[27.3467137,37.9341902],[27.3466493,37.9343248],[27.3466162,37.934619],[27.3466368,37.9348033],[27.3465389,37.9350249]]},"properties":{"site":"ephesus","name":"","highway":"track"}},{"type":"Feature","geometry":{"type":"LineString","coordinates":[[27.3551033,37.9451223],[27.355412,37.9453092],[27.355889,37.9456536],[27.3563961,37.9462397],[27.3568078,37.9465762],[27.3572246,37.9469682],[27.3577568,37.9473879],[27.3580029,37.947087],[27.3581183,37.9467148]]},"properties":{"site":"ephesus","name":"","highway":"track"}},{"type":"Feature","geometry":{"type":"LineString","coordinates":[[27.3578414,37.9489957],[27.357833,37.9488921],[27.3578295,37.9488488],[27.3578266,37.9488129],[27.35784,37.9487898],[27.3579727,37.9485599],[27.3583439,37.9480254]]},"properties":{"site":"ephesus","name":"","highway":"track"}},{"type":"Feature","geometry":{"type":"LineString","coordinates":[[27.3412341,37.9398685],[27.3407978,37.939964],[27.3408627,37.9401516],[27.341138,37.9400935],[27.3412957,37.9400621]]},"properties":{"site":"ephesus","name":"","highway":"footway"}},{"type":"Feature","geometry":{"type":"LineString","coordinates":[[27.3410751,37.939368],[27.3403483,37.9395201],[27.339876,37.939619],[27.3398516,37.9396478],[27.3398719,37.9399075],[27.3399614,37.9402538],[27.3401179,37.9406097],[27.3401443,37.9407011]]},"properties":{"site":"ephesus","name":"","highway":"footway"}},{"type":"Feature","geometry":{"type":"LineString","coordinates":[[27.3406566,37.9403837],[27.3405456,37.9405155],[27.3405,37.9405696],[27.3404099,37.9406414],[27.3401443,37.9407011],[27.3400284,37.9407299],[27.3399532,37.940778],[27.3398922,37.9408646],[27.3398516,37.9410313]]},"properties":{"site":"ephesus","name":"","highway":"service"}},{"type":"Feature","geometry":{"type":"LineString","coordinates":[[27.3412466,37.940474],[27.3412481,37.9402811],[27.3412501,37.9402073],[27.3412957,37.9400621]]},"properties":{"site":"ephesus","name":"","highway":"path"}},{"type":"Feature","geometry":{"type":"LineString","coordinates":[[27.3403483,37.9395201],[27.3404048,37.9396039],[27.3404878,37.9397745],[27.3405752,37.940124],[27.3406566,37.9403837]]},"properties":{"site":"ephesus","name":"","highway":"path"}},{"type":"Feature","geometry":{"type":"LineString","coordinates":[[27.3405456,37.9405155],[27.3409228,37.9403981],[27.3410367,37.9403083],[27.341138,37.9400935]]},"properties":{"site":"ephesus","name":"","highway":"path"}},{"type":"Feature","geometry":{"type":"LineString","coordinates":[[27.3412871,37.9378468],[27.3412741,37.9378029],[27.3408134,37.9379074],[27.3408735,37.9380682],[27.3409149,37.9380778]]},"properties":{"site":"ephesus","name":"","highway":"footway"}},{"type":"Feature","geometry":{"type":"LineString","coordinates":[[27.3409149,37.9380778],[27.3411821,37.9387768]]},"properties":{"site":"ephesus","name":"","highway":"steps"}},{"type":"Feature","geometry":{"type":"LineString","coordinates":[[27.3411821,37.9387768],[27.3412285,37.9388292],[27.3412693,37.9388701],[27.3412912,37.9389343]]},"properties":{"site":"ephesus","name":"","highway":"footway"}},{"type":"Feature","geometry":{"type":"LineString","coordinates":[[27.3412693,37.9405455],[27.3413211,37.940688],[27.3417136,37.9412379],[27.3417295,37.9412745],[27.3418517,37.9415561]]},"properties":{"site":"ephesus","name":"","highway":"pedestrian"}},{"type":"Feature","geometry":{"type":"LineString","coordinates":[[27.3409661,37.9461524],[27.340849,37.9459853],[27.3407704,37.9457925],[27.3406849,37.9454952],[27.3406423,37.9452739],[27.3404968,37.9450329],[27.3404321,37.9449735]]},"properties":{"site":"ephesus","name":"","highway":"pedestrian"}},{"type":"Feature","geometry":{"type":"LineString","coordinates":[[27.3416412,37.9442392],[27.3415604,37.9440428],[27.3414388,37.9436755],[27.3414004,37.9434647]]},"properties":{"site":"ephesus","name":"","highway":"pedestrian"}},{"type":"Feature","geometry":{"type":"LineString","coordinates":[[27.3414453,37.9431286],[27.3412163,37.9431639]]},"properties":{"site":"ephesus","name":"","highway":"steps"}},{"type":"Feature","geometry":{"type":"LineString","coordinates":[[27.3607642,37.9461572],[27.359053,37.9456653]]},"properties":{"site":"ephesus","name":"","highway":"track"}},{"type":"Feature","geometry":{"type":"LineString","coordinates":[[27.3605747,37.9458181],[27.3603307,37.9452189],[27.3598843,37.9443321],[27.3597087,37.9435985],[27.3595417,37.9434167]]},"properties":{"site":"ephesus","name":"","highway":"track"}},{"type":"Feature","geometry":{"type":"LineString","coordinates":[[27.3390857,37.9392681],[27.339284,37.9392091],[27.3394751,37.9391365],[27.3396839,37.9390667],[27.3398609,37.9389802],[27.33996,37.9389634],[27.3400591,37.9389634],[27.3401617,37.9389802],[27.3402466,37.9390137],[27.3403493,37.9390639],[27.3404484,37.9391142],[27.3405581,37.9390667],[27.3407209,37.9389914],[27.3408518,37.9389327],[27.340997,37.9388853],[27.3412285,37.9388292]]},"properties":{"site":"ephesus","name":"","highway":"path"}},{"type":"Feature","geometry":{"type":"LineString","coordinates":[[27.3417217,37.9373792],[27.341811,37.9373752],[27.3419207,37.9373892],[27.3421083,37.9373696],[27.3423737,37.9372831],[27.3426781,37.9371686],[27.3428373,37.9370765],[27.3431028,37.9369565],[27.3432506,37.9369333]]},"properties":{"site":"ephesus","name":"","highway":"path"}},{"type":"Feature","geometry":{"type":"LineString","coordinates":[[27.3443115,37.9354409],[27.3441917,37.9352527],[27.3441208,37.9351457],[27.3440342,37.9350337]]},"properties":{"site":"ephesus","name":"","highway":"path"}},{"type":"Feature","geometry":{"type":"LineString","coordinates":[[27.3404968,37.9450329],[27.3406227,37.9451035],[27.3407894,37.9451035],[27.3409601,37.9451067],[27.3411146,37.9451228],[27.3413341,37.9451869],[27.3416106,37.9452125],[27.3416665,37.9452192]]},"properties":{"site":"ephesus","name":"","highway":"path"}},{"type":"Feature","geometry":{"type":"LineString","coordinates":[[27.3404321,37.9449735],[27.3404397,37.9450811],[27.3404113,37.9451933],[27.3403706,37.9452863],[27.3401389,37.9453632],[27.3396917,37.9454594],[27.3394681,37.9455075],[27.3392851,37.9455267],[27.339151,37.9455075],[27.3390656,37.9454337],[27.3390371,37.9453055],[27.3390209,37.9452478]]},"properties":{"site":"ephesus","name":"","highway":"path"}},{"type":"Feature","geometry":{"type":"LineString","coordinates":[[27.3403706,37.9452863],[27.340456,37.9452927],[27.3405454,37.9453568],[27.3406849,37.9454952]]},"properties":{"site":"ephesus","name":"","highway":"path"}},{"type":"Feature","geometry":{"type":"LineString","coordinates":[[27.3423082,37.945904],[27.3426839,37.9458313],[27.342818,37.945796],[27.3429481,37.9457319],[27.3430335,37.9457095],[27.3430991,37.9457186]]},"properties":{"site":"ephesus","name":"","highway":"path"}},{"type":"Feature","geometry":{"type":"LineString","coordinates":[[27.3429481,37.9457319],[27.3424716,37.9457156]]},"properties":{"site":"ephesus","name":"","highway":"path"}},{"type":"Feature","geometry":{"type":"LineString","coordinates":[[27.3435949,37.9460527],[27.3434441,37.9458441],[27.3432083,37.945655],[27.3430741,37.9455524],[27.3429928,37.9454017],[27.3429766,37.9452061],[27.3429969,37.9446418],[27.343005,37.9442379],[27.3429725,37.9438215],[27.3429684,37.9436612],[27.3429522,37.9432027],[27.3429034,37.9428789]]},"properties":{"site":"ephesus","name":"","highway":"service"}},{"type":"Feature","geometry":{"type":"LineString","coordinates":[[27.3419447,37.9433933],[27.3419398,37.9433209],[27.3419182,37.943214],[27.3418935,37.9431812],[27.3418566,37.9431605],[27.341815,37.9431411],[27.3417783,37.9431323],[27.3417225,37.9431362],[27.3416809,37.9431484],[27.3416471,37.9431787],[27.3416317,37.9432219],[27.3416332,37.9432783]]},"properties":{"site":"ephesus","name":"","highway":"service"}},{"type":"Feature","geometry":{"type":"LineString","coordinates":[[27.341766,37.9445742],[27.3421215,37.9445139],[27.3420167,37.9438596],[27.3419447,37.9433933]]},"properties":{"site":"ephesus","name":"","highway":"service"}},{"type":"Feature","geometry":{"type":"LineString","coordinates":[[27.3417199,37.9444503],[27.3418192,37.9441157],[27.3419087,37.9439482],[27.3420167,37.9438596],[27.3422238,37.9437052],[27.3422269,37.9434804]]},"properties":{"site":"ephesus","name":"","highway":"service"}},{"type":"Feature","geometry":{"type":"LineString","coordinates":[[27.3637242,37.9535672],[27.3635468,37.9537171],[27.3633188,37.9538458],[27.3629028,37.9539867],[27.3624992,37.9540985],[27.3620617,37.9541738],[27.3615194,37.9542102],[27.3607369,37.954254],[27.3603385,37.9543317],[27.3590291,37.9545261],[27.3575904,37.954803],[27.3570591,37.954984],[27.3570367,37.9549935],[27.3566141,37.9551732],[27.3562707,37.9553213],[27.3559435,37.9554164],[27.3555653,37.9556152],[27.3545514,37.9560031],[27.3538299,37.956259],[27.3534303,37.9564387],[27.3530408,37.9565995],[27.3520538,37.9569442],[27.3516139,37.9570838],[27.3511311,37.9571895],[27.3508521,37.9572424],[27.3505732,37.9572635],[27.3503452,37.9572466],[27.3501172,37.9572085],[27.3493474,37.9570499],[27.3490926,37.957033],[27.3486956,37.9570394],[27.3482611,37.9570669],[27.3477864,37.9571768],[27.3471185,37.9572868],[27.346692,37.9573164],[27.3459857,37.9573714],[27.3457577,37.9574412],[27.345645,37.957475],[27.3455646,37.9574814],[27.3455136,37.9574433],[27.3454707,37.9573904],[27.3452641,37.9572064],[27.3450791,37.9570457],[27.3448994,37.9569188],[27.3443085,37.9565832]]},"properties":{"site":"ephesus","name":"","highway":"track"}},{"type":"Feature","geometry":{"type":"LineString","coordinates":[[27.3590291,37.9545261],[27.358943,37.9543633],[27.3586595,37.9540159],[27.3585054,37.9537681],[27.3583976,37.9536831],[27.3576828,37.9534644],[27.3572915,37.9534061],[27.3568263,37.9533454],[27.3556493,37.953083],[27.3552303,37.9529858],[27.3549746,37.9529737],[27.3538284,37.9529931],[27.3528029,37.9530052],[27.35235,37.9530125],[27.3514688,37.9530538],[27.3502857,37.953117],[27.3494415,37.9531874],[27.3492389,37.9531632],[27.3490941,37.9531],[27.3489986,37.9529809],[27.3488908,37.9528109],[27.34886,37.9526603],[27.3488754,37.9525339],[27.3489031,37.9524076],[27.3488815,37.9523347],[27.348823,37.9522958],[27.3487306,37.9522861],[27.3476799,37.9523396],[27.347565,37.9522893]]},"properties":{"site":"ephesus","name":"","highway":"track"}},{"type":"Feature","geometry":{"type":"LineString","coordinates":[[27.3567878,37.9597643],[27.3567681,37.9596588],[27.3569132,37.9590337],[27.3569875,37.9587826],[27.3571751,37.9583194],[27.3573273,37.9580074],[27.3573803,37.9579097],[27.357391,37.9577478],[27.357391,37.9572288],[27.3574157,37.957067],[27.3574901,37.9565535],[27.357483,37.9563581],[27.3574087,37.9561126],[27.3570831,37.955228],[27.3570367,37.9549935]]},"properties":{"site":"ephesus","name":"","highway":"track"}},{"type":"Feature","geometry":{"type":"LineString","coordinates":[[27.3501877,37.9502576],[27.3502058,37.9503669],[27.3502027,37.950468],[27.3502411,37.9506099]]},"properties":{"site":"ephesus","name":"","highway":"service"}},{"type":"Feature","geometry":{"type":"LineString","coordinates":[[27.3592396,37.9502365],[27.3597492,37.9514568],[27.3598404,37.9517106],[27.3607899,37.9515393],[27.3607497,37.9514378],[27.3607712,37.9513172],[27.360739,37.9512115],[27.3606666,37.9511248]]},"properties":{"site":"ephesus","name":"","highway":"track"}},{"type":"Feature","geometry":{"type":"LineString","coordinates":[[27.3413758,37.9416598],[27.3413591,37.9415894],[27.341413,37.9414759],[27.3414785,37.9413366],[27.3414896,37.9412763],[27.3414691,37.9412213],[27.3413792,37.9411008],[27.3413068,37.941051],[27.3412387,37.9410295],[27.3411378,37.9410161],[27.3410091,37.9410236],[27.3405389,37.9411146]]},"properties":{"site":"ephesus","name":"","highway":"footway"}},{"type":"Feature","geometry":{"type":"LineString","coordinates":[[27.3456809,37.9359079],[27.3457507,37.9356981],[27.345762,37.9356825],[27.3458648,37.9355625],[27.3459342,37.9354815]]},"properties":{"site":"ephesus","name":"","highway":"pedestrian"}},{"type":"Feature","geometry":{"type":"LineString","coordinates":[[27.3432075,37.9371355],[27.3440697,37.9369515]]},"properties":{"site":"ephesus","name":"","highway":"pedestrian"}},{"type":"Feature","geometry":{"type":"LineString","coordinates":[[27.345254,37.9364714],[27.3452931,37.9365826]]},"properties":{"site":"ephesus","name":"","highway":"footway"}},{"type":"Feature","geometry":{"type":"LineString","coordinates":[[27.3420281,37.938318],[27.3421705,37.9384333],[27.3422851,37.9387919]]},"properties":{"site":"ephesus","name":"","highway":"footway"}},{"type":"Feature","geometry":{"type":"LineString","coordinates":[[27.3420115,37.9384003],[27.3419657,37.9383617]]},"properties":{"site":"ephesus","name":"","highway":"footway"}},{"type":"Feature","geometry":{"type":"LineString","coordinates":[[27.3420467,37.9385062],[27.3420115,37.9384003]]},"properties":{"site":"ephesus","name":"","highway":"steps"}},{"type":"Feature","geometry":{"type":"LineString","coordinates":[[27.3418456,37.9386397],[27.3420753,37.9385922],[27.3420467,37.9385062]]},"properties":{"site":"ephesus","name":"","highway":"footway"}},{"type":"Feature","geometry":{"type":"LineString","coordinates":[[27.3421279,37.9408868],[27.3422463,37.9409806]]},"properties":{"site":"ephesus","name":"","highway":"footway"}},{"type":"Feature","geometry":{"type":"LineString","coordinates":[[27.3420887,37.941483],[27.3422912,37.9414413]]},"properties":{"site":"ephesus","name":"","highway":"steps"}},{"type":"Feature","geometry":{"type":"LineString","coordinates":[[27.3423204,37.9412034],[27.3422463,37.9409806],[27.3422771,37.940972],[27.3423097,37.9409689],[27.3423422,37.9409715],[27.3423733,37.9409797],[27.3424014,37.940993],[27.342425,37.9410109],[27.3424432,37.9410324],[27.3424549,37.9410565],[27.3424597,37.941082],[27.3424573,37.9411078],[27.3424478,37.9411325],[27.3424316,37.941155],[27.3424096,37.9411741],[27.3423829,37.941189],[27.3423526,37.9411989],[27.3423204,37.9412034]]},"properties":{"site":"ephesus","name":"","highway":"footway"}},{"type":"Feature","geometry":{"type":"LineString","coordinates":[[27.3416983,37.9385644],[27.3418455,37.9387488],[27.3419577,37.9391087]]},"properties":{"site":"ephesus","name":"Academy Street","highway":"footway"}},{"type":"Feature","geometry":{"type":"LineString","coordinates":[[27.3414691,37.9412213],[27.3415911,37.9412488],[27.3417295,37.9412745]]},"properties":{"site":"ephesus","name":"","highway":"steps"}}]}