{"type":"FeatureCollection","features":[{"type":"Feature","geometry":{"type":"LineString","coordinates":[[14.3474327,40.8045733],[14.3477146,40.8042522],[14.3478406,40.804108],[14.3479683,40.8039621]]},"properties":{"site":"herculaneum","name":"","highway":"service"}},{"type":"Feature","geometry":{"type":"LineString","coordinates":[[14.3506682,40.8031376],[14.3504606,40.8029217],[14.350211,40.8027791],[14.350051,40.802656],[14.3498892,40.8025399],[14.349994,40.8023557],[14.3499618,40.8022672],[14.3498274,40.8021424],[14.3493098,40.8018111],[14.3488029,40.8014838],[14.3484718,40.8012506],[14.3484426,40.8011992],[14.3484233,40.8010858],[14.3483656,40.8010034],[14.348279,40.8009152]]},"properties":{"site":"herculaneum","name":"Prima Traversa Verzieri","highway":"service"}},{"type":"Feature","geometry":{"type":"LineString","coordinates":[[14.3506014,40.8044799],[14.3501024,40.8041561],[14.3500414,40.8039935],[14.3499129,40.8038101],[14.3499278,40.8037017],[14.3499932,40.8036261],[14.3500408,40.8035712],[14.350218,40.8034258],[14.3506682,40.8031376],[14.3509489,40.8029845],[14.3511398,40.8028664]]},"properties":{"site":"herculaneum","name":"Via Pignalver","highway":"service"}},{"type":"Feature","geometry":{"type":"LineString","coordinates":[[14.3437783,40.8035939],[14.3440665,40.8035829],[14.3448622,40.803534],[14.3467098,40.8031105],[14.3478564,40.802995],[14.3482801,40.8029626],[14.3485405,40.8029897],[14.3487344,40.8030812]]},"properties":{"site":"herculaneum","name":"Via Pignalver","highway":"service"}},{"type":"Feature","geometry":{"type":"LineString","coordinates":[[14.347642,40.8057243],[14.3485366,40.806144]]},"properties":{"site":"herculaneum","name":"Cardo V Superiore","highway":"footway"}},{"type":"Feature","geometry":{"type":"LineString","coordinates":[[14.347642,40.8057243],[14.3473888,40.8056002],[14.3469616,40.8053909]]},"properties":{"site":"herculaneum","name":"Cardo V Inferiore","highway":"footway"}},{"type":"Feature","geometry":{"type":"LineString","coordinates":[[14.3473161,40.8060824],[14.3482365,40.8064979]]},"properties":{"site":"herculaneum","name":"Cardo IV Superiore","highway":"footway"}},{"type":"Feature","geometry":{"type":"LineString","coordinates":[[14.3473161,40.8060824],[14.3465879,40.8057575],[14.3465776,40.8057529],[14.3464004,40.8056739]]},"properties":{"site":"herculaneum","name":"Cardo IV Inferiore","highway":"footway"}},{"type":"Feature","geometry":{"type":"LineString","coordinates":[[14.3469095,40.8065582],[14.3470052,40.8064404],[14.3473161,40.8060824],[14.347642,40.8057243]]},"properties":{"site":"herculaneum","name":"Decumano Inferiore","highway":"footway"}},{"type":"Feature","geometry":{"type":"LineString","coordinates":[[14.3525459,40.8058614],[14.3520767,40.805587],[14.3519592,40.8055877],[14.3516028,40.80587],[14.3516358,40.8059737]]},"properties":{"site":"herculaneum","name":"","highway":"service"}},{"type":"Feature","geometry":{"type":"LineString","coordinates":[[14.3455575,40.8058355],[14.3453133,40.8056228]]},"properties":{"site":"herculaneum","name":"","highway":"footway"}},{"type":"Feature","geometry":{"type":"LineString","coordinates":[[14.3470054,40.8048092],[14.3470212,40.8047392],[14.3471607,40.8046909]]},"properties":{"site":"herculaneum","name":"","highway":"footway"}},{"type":"Feature","geometry":{"type":"LineString","coordinates":[[14.3479683,40.8039621],[14.3480558,40.8038687],[14.3480996,40.8038184],[14.3485895,40.8032573],[14.3487344,40.8030812],[14.3488142,40.8030147],[14.3498274,40.8021424],[14.3499315,40.8020632],[14.3499527,40.8020488],[14.3500032,40.802011]]},"properties":{"site":"herculaneum","name":"Via dei Papiri Ercolanesi","highway":"service"}},{"type":"Feature","geometry":{"type":"LineString","coordinates":[[14.3482595,40.8042223],[14.3486642,40.8044367],[14.3487258,40.8045159],[14.3487178,40.8045981],[14.3485274,40.8048225],[14.3483718,40.8050042]]},"properties":{"site":"herculaneum","name":"","highway":"footway"}},{"type":"Feature","geometry":{"type":"LineString","coordinates":[[14.3453133,40.8056228],[14.3454125,40.8056261],[14.3454876,40.8056287],[14.3455567,40.805652]]},"properties":{"site":"herculaneum","name":"","highway":"pedestrian"}},{"type":"Feature","geometry":{"type":"LineString","coordinates":[[14.3454798,40.8055878],[14.3453869,40.8055072],[14.3454719,40.8054447]]},"properties":{"site":"herculaneum","name":"","highway":"steps"}},{"type":"Feature","geometry":{"type":"LineString","coordinates":[[14.3461067,40.8060162],[14.3462368,40.8060769],[14.3470052,40.8064404]]},"properties":{"site":"herculaneum","name":"Cardo III Inferiore","highway":"footway"}},{"type":"Feature","geometry":{"type":"LineString","coordinates":[[14.3489757,40.8035454],[14.3485748,40.8040201]]},"properties":{"site":"herculaneum","name":"","highway":"service"}},{"type":"Feature","geometry":{"type":"LineString","coordinates":[[14.3487127,40.8033157],[14.3488065,40.8034884],[14.3484074,40.80397],[14.3481341,40.8038354],[14.3480996,40.8038184]]},"properties":{"site":"herculaneum","name":"","highway":"service"}},{"type":"Feature","geometry":{"type":"LineString","coordinates":[[14.3485895,40.8032573],[14.348627,40.8032751],[14.3487127,40.8033157],[14.3488929,40.8033951],[14.3489573,40.8034299],[14.3490051,40.8034661],[14.3490051,40.8034953],[14.3489977,40.8035232],[14.3489757,40.8035454]]},"properties":{"site":"herculaneum","name":"","highway":"service"}},{"type":"Feature","geometry":{"type":"LineString","coordinates":[[14.3485748,40.8040201],[14.3485453,40.8040549],[14.3485196,40.8040689],[14.3484755,40.8040758],[14.3484332,40.8040661],[14.348275,40.8039812],[14.3481775,40.8039269],[14.3480903,40.8038852],[14.3480558,40.8038687]]},"properties":{"site":"herculaneum","name":"","highway":"service"}},{"type":"Feature","geometry":{"type":"LineString","coordinates":[[14.3471607,40.8046909],[14.3472061,40.8046698]]},"properties":{"site":"herculaneum","name":"","highway":"footway"}},{"type":"Feature","geometry":{"type":"LineString","coordinates":[[14.3475144,40.8047388],[14.3474419,40.8047021]]},"properties":{"site":"herculaneum","name":"","highway":"footway"}},{"type":"Feature","geometry":{"type":"LineString","coordinates":[[14.3476246,40.8046095],[14.3475144,40.8047388],[14.3474359,40.8048283],[14.3471607,40.8046909]]},"properties":{"site":"herculaneum","name":"","highway":"footway"}},{"type":"Feature","geometry":{"type":"LineString","coordinates":[[14.3472912,40.8045676],[14.3473292,40.8045241],[14.3474327,40.8045733],[14.3476246,40.8046095],[14.3483718,40.8050042],[14.3486386,40.8051461]]},"properties":{"site":"herculaneum","name":"","highway":"footway"}},{"type":"Feature","geometry":{"type":"LineString","coordinates":[[14.3456219,40.8057654],[14.3456577,40.8057267]]},"properties":{"site":"herculaneum","name":"","highway":"steps"}},{"type":"Feature","geometry":{"type":"LineString","coordinates":[[14.3455567,40.805652],[14.3456101,40.8056508]]},"properties":{"site":"herculaneum","name":"","highway":"pedestrian"}},{"type":"Feature","geometry":{"type":"LineString","coordinates":[[14.3456219,40.8057654],[14.3456025,40.8057901],[14.3457016,40.8058327]]},"properties":{"site":"herculaneum","name":"","highway":"footway"}},{"type":"Feature","geometry":{"type":"LineString","coordinates":[[14.3457867,40.8057534],[14.3457378,40.8057446],[14.3457008,40.8057992],[14.3456219,40.8057654]]},"properties":{"site":"herculaneum","name":"","highway":"footway"}},{"type":"Feature","geometry":{"type":"LineString","coordinates":[[14.3456577,40.8057267],[14.3456112,40.8057056],[14.3456626,40.8056498],[14.3456101,40.8056508]]},"properties":{"site":"herculaneum","name":"","highway":"steps"}},{"type":"Feature","geometry":{"type":"LineString","coordinates":[[14.3459467,40.8053508],[14.3459884,40.8053897],[14.3458437,40.8055373],[14.3456577,40.8057267],[14.3457378,40.8057446],[14.3457696,40.8056996]]},"properties":{"site":"herculaneum","name":"","highway":"pedestrian"}},{"type":"Feature","geometry":{"type":"LineString","coordinates":[[14.347749,40.8039189],[14.3476639,40.8040175],[14.3478406,40.804108],[14.3480152,40.8041961],[14.3480665,40.8041453],[14.3481859,40.8042128],[14.3480179,40.8043958]]},"properties":{"site":"herculaneum","name":"","highway":"service"}},{"type":"Feature","geometry":{"type":"LineString","coordinates":[[14.3454629,40.8057196],[14.3455771,40.8058216],[14.3455575,40.8058355],[14.3456606,40.8059168]]},"properties":{"site":"herculaneum","name":"","highway":"footway"}},{"type":"Feature","geometry":{"type":"LineString","coordinates":[[14.347642,40.8057243],[14.3478293,40.8055389]]},"properties":{"site":"herculaneum","name":"","highway":"footway"}},{"type":"Feature","geometry":{"type":"LineString","coordinates":[[14.3502305,40.8049043],[14.350474,40.8050642],[14.3505973,40.8051556]]},"properties":{"site":"herculaneum","name":"Vico Ferretti","highway":"service"}},{"type":"Feature","geometry":{"type":"LineString","coordinates":[[14.3501927,40.804955],[14.3498973,40.8048327],[14.3494252,40.8046033],[14.3491999,40.8048226]]},"properties":{"site":"herculaneum","name":"Vico Sacramento","highway":"service"}},{"type":"Feature","geometry":{"type":"LineString","coordinates":[[14.3502938,40.8048194],[14.3500636,40.8046703],[14.3497364,40.8043881]]},"properties":{"site":"herculaneum","name":"Vico Moscardino","highway":"service"}},{"type":"Feature","geometry":{"type":"LineString","coordinates":[[14.3489813,40.8058425],[14.348848,40.8057623]]},"properties":{"site":"herculaneum","name":"","highway":"pedestrian"}},{"type":"Feature","geometry":{"type":"LineString","coordinates":[[14.3481093,40.8078166],[14.3482008,40.8077139],[14.3482699,40.8076047],[14.3483146,40.8075108],[14.3483964,40.8075424]]},"properties":{"site":"herculaneum","name":"Rampe di via Mare","highway":"steps"}},{"type":"Feature","geometry":{"type":"LineString","coordinates":[[14.3454362,40.806023],[14.3451512,40.8061911],[14.3449876,40.8067331],[14.3444458,40.8075899]]},"properties":{"site":"herculaneum","name":"Rampa di accesso a villa dei Papiri","highway":"service"}},{"type":"Feature","geometry":{"type":"LineString","coordinates":[[14.349166,40.8060476],[14.3492268,40.805982],[14.3493102,40.8058898],[14.3492517,40.8058609],[14.349174,40.8058294],[14.3491035,40.8058439],[14.3490681,40.8058756],[14.3490534,40.8058875],[14.3490272,40.8059215],[14.3490218,40.8059306],[14.3490153,40.8059509],[14.3490225,40.8059788],[14.349166,40.8060476]]},"properties":{"site":"herculaneum","name":"Piazzale ingresso scavi","highway":"pedestrian"}},{"type":"Feature","geometry":{"type":"LineString","coordinates":[[14.3489524,40.8076227],[14.3489819,40.8076481],[14.348947,40.8076745],[14.3489899,40.8077181],[14.3489617,40.807736],[14.3489483,40.8077445],[14.3487257,40.8075598]]},"properties":{"site":"herculaneum","name":"Supportico dei vicoli","highway":"service"}},{"type":"Feature","geometry":{"type":"LineString","coordinates":[[14.3489617,40.807736],[14.3489808,40.8077515]]},"properties":{"site":"herculaneum","name":"Supportico dei vicoli","highway":"service"}},{"type":"Feature","geometry":{"type":"LineString","coordinates":[[14.3483718,40.8050042],[14.348122,40.8052758],[14.3480845,40.8053193]]},"properties":{"site":"herculaneum","name":"","highway":"footway"}},{"type":"Feature","geometry":{"type":"LineString","coordinates":[[14.3470052,40.8064404],[14.3478838,40.8068644],[14.3479112,40.8068775]]},"properties":{"site":"herculaneum","name":"Cardo III Superiore","highway":"footway"}},{"type":"Feature","geometry":{"type":"LineString","coordinates":[[14.3485366,40.806144],[14.3485161,40.8061682],[14.3482365,40.8064979],[14.3480767,40.8066843],[14.3480706,40.8066959],[14.34804,40.8067317],[14.3479881,40.8067906],[14.3479112,40.8068775]]},"properties":{"site":"herculaneum","name":"Decumano Massimo","highway":"footway"}},{"type":"Feature","geometry":{"type":"LineString","coordinates":[[14.346535,40.8054179],[14.3464676,40.8053677]]},"properties":{"site":"herculaneum","name":"","highway":"steps"}},{"type":"Feature","geometry":{"type":"LineString","coordinates":[[14.3466052,40.8054679],[14.3465449,40.805425],[14.346535,40.8054179]]},"properties":{"site":"herculaneum","name":"","highway":"footway"}},{"type":"Feature","geometry":{"type":"LineString","coordinates":[[14.3466052,40.8054679],[14.3468019,40.8053097],[14.3468275,40.805323]]},"properties":{"site":"herculaneum","name":"","highway":"path"}},{"type":"Feature","geometry":{"type":"LineString","coordinates":[[14.3463665,40.8052814],[14.3464676,40.8053677]]},"properties":{"site":"herculaneum","name":"","highway":"footway"}},{"type":"Feature","geometry":{"type":"LineString","coordinates":[[14.3457016,40.8058327],[14.3461067,40.8060162]]},"properties":{"site":"herculaneum","name":"","highway":"footway"}},{"type":"Feature","geometry":{"type":"LineString","coordinates":[[14.345601,40.8056988],[14.3454906,40.8056089],[14.3461177,40.8050614],[14.3463272,40.8052478]]},"properties":{"site":"herculaneum","name":"","highway":"steps"}},{"type":"Feature","geometry":{"type":"LineString","coordinates":[[14.3410603,40.8057347],[14.3415812,40.8061648],[14.3423563,40.8068368],[14.3428029,40.8072388],[14.343684,40.8080347],[14.3443358,40.8086148],[14.3443147,40.808629],[14.3446388,40.8089081]]},"properties":{"site":"herculaneum","name":"","highway":"service"}},{"type":"Feature","geometry":{"type":"LineString","coordinates":[[14.3490534,40.8058875],[14.3489813,40.8058425]]},"properties":{"site":"herculaneum","name":"","highway":"pedestrian"}},{"type":"Feature","geometry":{"type":"LineString","coordinates":[[14.3492888,40.8060203],[14.3492268,40.805982],[14.3490534,40.8058875]]},"properties":{"site":"herculaneum","name":"","highway":"pedestrian"}},{"type":"Feature","geometry":{"type":"LineString","coordinates":[[14.3490522,40.8078096],[14.3490833,40.8078348]]},"properties":{"site":"herculaneum","name":"Supportico dei vicoli","highway":"service"}},{"type":"Feature","geometry":{"type":"LineString","coordinates":[[14.3489808,40.8077515],[14.3490522,40.8078096]]},"properties":{"site":"herculaneum","name":"Supportico dei vicoli","highway":"service"}},{"type":"Feature","geometry":{"type":"LineString","coordinates":[[14.3459884,40.8053897],[14.3462579,40.8051386],[14.3464691,40.8049851]]},"properties":{"site":"herculaneum","name":"","highway":"path"}},{"type":"Feature","geometry":{"type":"LineString","coordinates":[[14.348848,40.8057623],[14.3484982,40.8055581]]},"properties":{"site":"herculaneum","name":"","highway":"pedestrian"}},{"type":"Feature","geometry":{"type":"LineString","coordinates":[[14.3480642,40.8053078],[14.3473849,40.8049236],[14.3472369,40.8048608],[14.3471256,40.8048283],[14.3470693,40.8048161],[14.3470054,40.8048092],[14.3468687,40.8048073],[14.3467275,40.8048215],[14.3465782,40.8048577],[14.3464519,40.8049097],[14.3463455,40.8049809],[14.3459467,40.8053508],[14.3458709,40.8054154],[14.3457523,40.8055166],[14.3457137,40.8055496],[14.3455567,40.805652]]},"properties":{"site":"herculaneum","name":"","highway":"pedestrian"}},{"type":"Feature","geometry":{"type":"LineString","coordinates":[[14.3452242,40.8056897],[14.3452809,40.8057555],[14.3452656,40.8057746],[14.3453653,40.805855],[14.3453925,40.8058496]]},"properties":{"site":"herculaneum","name":"","highway":"footway"}},{"type":"Feature","geometry":{"type":"LineString","coordinates":[[14.3453133,40.8056228],[14.3452242,40.8056897]]},"properties":{"site":"herculaneum","name":"","highway":"footway"}},{"type":"Feature","geometry":{"type":"LineString","coordinates":[[14.3496566,40.8062296],[14.3498511,40.8060334]]},"properties":{"site":"herculaneum","name":"","highway":"service"}},{"type":"Feature","geometry":{"type":"LineString","coordinates":[[14.3516088,40.8077481],[14.351332,40.8080156],[14.350939,40.8077763]]},"properties":{"site":"herculaneum","name":"","highway":"service"}},{"type":"Feature","geometry":{"type":"LineString","coordinates":[[14.3504824,40.8039567],[14.3499932,40.8036261]]},"properties":{"site":"herculaneum","name":"","highway":"service"}},{"type":"Feature","geometry":{"type":"LineString","coordinates":[[14.3439962,40.8032247],[14.3437282,40.8033762],[14.3434335,40.8030865],[14.3432344,40.8032198],[14.3432191,40.8032922],[14.3430328,40.8033907],[14.3429576,40.8033125],[14.3428593,40.8032951],[14.3426973,40.8031048],[14.3425756,40.8029038],[14.3428096,40.8028122],[14.3428925,40.8028537],[14.3432076,40.803158],[14.3432344,40.8032198]]},"properties":{"site":"herculaneum","name":"","highway":"service"}},{"type":"Feature","geometry":{"type":"LineString","coordinates":[[14.3445081,40.8068218],[14.3444931,40.806795],[14.3444984,40.8067625],[14.344816,40.8065823],[14.3448954,40.8065457],[14.3449061,40.806527],[14.344904,40.8065067],[14.3447216,40.806363],[14.344727,40.8063159],[14.3450628,40.8061348],[14.3453851,40.8059741]]},"properties":{"site":"herculaneum","name":"","highway":"service"}},{"type":"Feature","geometry":{"type":"LineString","coordinates":[[14.3465776,40.8057529],[14.3465607,40.805777],[14.3464747,40.8058905],[14.3464036,40.805859],[14.3462627,40.8060448],[14.3462513,40.8060591],[14.3462368,40.8060769]]},"properties":{"site":"herculaneum","name":"","highway":"footway"}},{"type":"Feature","geometry":{"type":"LineString","coordinates":[[14.3462627,40.8060448],[14.3465646,40.8061788],[14.3467081,40.8059951],[14.3464747,40.8058905]]},"properties":{"site":"herculaneum","name":"","highway":"footway"}},{"type":"Feature","geometry":{"type":"LineString","coordinates":[[14.3465449,40.805425],[14.3465544,40.8054169],[14.3467584,40.8052471]]},"properties":{"site":"herculaneum","name":"","highway":"footway"}},{"type":"Feature","geometry":{"type":"LineString","coordinates":[[14.3465449,40.805425],[14.3465382,40.8054311],[14.3464925,40.8054702],[14.3464871,40.8054666]]},"properties":{"site":"herculaneum","name":"","highway":"footway"}},{"type":"Feature","geometry":{"type":"LineString","coordinates":[[14.3464871,40.8054666],[14.3464751,40.8054641],[14.3463946,40.8055271],[14.3463342,40.8055317],[14.3461673,40.8056631]]},"properties":{"site":"herculaneum","name":"","highway":"footway"}},{"type":"Feature","geometry":{"type":"LineString","coordinates":[[14.3468275,40.805323],[14.3469616,40.8053909]]},"properties":{"site":"herculaneum","name":"","highway":"path"}},{"type":"Feature","geometry":{"type":"LineString","coordinates":[[14.3450685,40.8053334],[14.3451689,40.8054188],[14.3452735,40.8055078]]},"properties":{"site":"herculaneum","name":"","highway":"pedestrian"}},{"type":"Feature","geometry":{"type":"LineString","coordinates":[[14.3457696,40.8056996],[14.3459871,40.805504],[14.3461367,40.805374],[14.3462916,40.8052431],[14.346419,40.8051385],[14.346543,40.8050573],[14.3466537,40.8050116],[14.3467247,40.8050101]]},"properties":{"site":"herculaneum","name":"","highway":"pedestrian"}},{"type":"Feature","geometry":{"type":"LineString","coordinates":[[14.3463272,40.8052478],[14.3463496,40.805267],[14.3463665,40.8052814]]},"properties":{"site":"herculaneum","name":"","highway":"footway"}},{"type":"Feature","geometry":{"type":"LineString","coordinates":[[14.3463496,40.805267],[14.3465035,40.8051456],[14.3466289,40.8050741],[14.3467247,40.8050253],[14.3467247,40.8050101]]},"properties":{"site":"herculaneum","name":"","highway":"pedestrian"}},{"type":"Feature","geometry":{"type":"LineString","coordinates":[[14.3458709,40.8054154],[14.3458521,40.8053495],[14.3458229,40.8052472],[14.3457707,40.8051887]]},"properties":{"site":"herculaneum","name":"","highway":"footway"}},{"type":"Feature","geometry":{"type":"LineString","coordinates":[[14.3455909,40.8050833],[14.3455587,40.805105],[14.3458521,40.8053495]]},"properties":{"site":"herculaneum","name":"","highway":"footway"}},{"type":"Feature","geometry":{"type":"LineString","coordinates":[[14.3457523,40.8055166],[14.3456844,40.8054595]]},"properties":{"site":"herculaneum","name":"","highway":"footway"}},{"type":"Feature","geometry":{"type":"LineString","coordinates":[[14.3452006,40.8053975],[14.3451689,40.8054188]]},"properties":{"site":"herculaneum","name":"","highway":"footway"}},{"type":"Feature","geometry":{"type":"LineString","coordinates":[[14.3484982,40.8055581],[14.3480845,40.8053193],[14.3480642,40.8053078]]},"properties":{"site":"herculaneum","name":"","highway":"pedestrian"}},{"type":"Feature","geometry":{"type":"LineString","coordinates":[[14.3473888,40.8056002],[14.3476675,40.8052988],[14.3476561,40.8052896],[14.347632,40.8052964]]},"properties":{"site":"herculaneum","name":"","highway":"footway"}},{"type":"Feature","geometry":{"type":"LineString","coordinates":[[14.3456112,40.8057056],[14.345601,40.8056988]]},"properties":{"site":"herculaneum","name":"","highway":"footway"}},{"type":"Feature","geometry":{"type":"LineString","coordinates":[[14.3478065,40.8074968],[14.347835,40.807474]]},"properties":{"site":"herculaneum","name":"","highway":"footway"}},{"type":"Feature","geometry":{"type":"LineString","coordinates":[[14.3476639,40.8040175],[14.3475566,40.8041267]]},"properties":{"site":"herculaneum","name":"","highway":"service"}},{"type":"Feature","geometry":{"type":"LineString","coordinates":[[14.3480152,40.8041961],[14.3478797,40.8043356]]},"properties":{"site":"herculaneum","name":"","highway":"service"}},{"type":"Feature","geometry":{"type":"LineString","coordinates":[[14.3487344,40.8030812],[14.3488927,40.8031525],[14.3491363,40.8032606],[14.3492894,40.8032988],[14.3496183,40.803381],[14.3498865,40.8034757],[14.3500408,40.8035712]]},"properties":{"site":"herculaneum","name":"Via Pignalver","highway":"service"}},{"type":"Feature","geometry":{"type":"LineString","coordinates":[[14.3452735,40.8055078],[14.3454125,40.8056261]]},"properties":{"site":"herculaneum","name":"","highway":"pedestrian"}},{"type":"Feature","geometry":{"type":"LineString","coordinates":[[14.3453133,40.8056228],[14.3451353,40.8055225]]},"properties":{"site":"herculaneum","name":"","highway":"footway"}},{"type":"Feature","geometry":{"type":"LineString","coordinates":[[14.3455567,40.805652],[14.3454629,40.8057196]]},"properties":{"site":"herculaneum","name":"","highway":"pedestrian"}},{"type":"Feature","geometry":{"type":"LineString","coordinates":[[14.3454876,40.8056287],[14.3454798,40.8055878]]},"properties":{"site":"herculaneum","name":"","highway":"pedestrian"}},{"type":"Feature","geometry":{"type":"LineString","coordinates":[[14.3456844,40.8054595],[14.3456631,40.8054416]]},"properties":{"site":"herculaneum","name":"","highway":"steps"}},{"type":"Feature","geometry":{"type":"LineString","coordinates":[[14.3456631,40.8054416],[14.3454831,40.8052903]]},"properties":{"site":"herculaneum","name":"","highway":"footway"}},{"type":"Feature","geometry":{"type":"LineString","coordinates":[[14.3478293,40.8055389],[14.3478892,40.8054796]]},"properties":{"site":"herculaneum","name":"","highway":"footway"}},{"type":"Feature","geometry":{"type":"LineString","coordinates":[[14.3478892,40.8054796],[14.3489483,40.8061072]]},"properties":{"site":"herculaneum","name":"","highway":"footway"}},{"type":"Feature","geometry":{"type":"LineString","coordinates":[[14.3492894,40.8032988],[14.3490748,40.8035836],[14.3487939,40.8039655]]},"properties":{"site":"herculaneum","name":"","highway":"path"}}]}