{"type":"FeatureCollection","features":[{"type":"Feature","geometry":{"type":"LineString","coordinates":[[-6.0466966,37.4404541],[-6.0458509,37.4408564],[-6.0450883,37.4412551],[-6.0448064,37.4414025],[-6.0446676,37.4414751]]},"properties":{"site":"italica","name":"","highway":"footway"}},{"type":"Feature","geometry":{"type":"LineString","coordinates":[[-6.0459375,37.4431984],[-6.0459832,37.4432209],[-6.046054,37.4432452],[-6.0461673,37.4432134],[-6.0463785,37.4430235],[-6.0467004,37.4429553],[-6.0474643,37.4430239],[-6.0477325,37.4430864],[-6.0479837,37.4431613],[-6.0480706,37.4432244],[-6.0481692,37.4434412],[-6.0483276,37.4442318],[-6.0483491,37.4444597],[-6.0483202,37.4447794],[-6.0479292,37.4454646],[-6.0477943,37.445584],[-6.0476738,37.4456634],[-6.0472223,37.4458254],[-6.0470996,37.4458611],[-6.0469272,37.4459009],[-6.0467383,37.4459111],[-6.0465844,37.4458648],[-6.0464326,37.4457983],[-6.0462352,37.445634],[-6.0460248,37.4454161],[-6.0458443,37.4450799]]},"properties":{"site":"italica","name":"","highway":"footway"}},{"type":"Feature","geometry":{"type":"LineString","coordinates":[[-6.0472361,37.4427173],[-6.0481313,37.4422811],[-6.0487657,37.4419719],[-6.0489796,37.4418677]]},"properties":{"site":"italica","name":"","highway":"footway"}},{"type":"Feature","geometry":{"type":"LineString","coordinates":[[-6.0491599,37.4424406],[-6.0489796,37.4418677],[-6.0487685,37.4411751],[-6.0480522,37.4390198],[-6.0478806,37.4384746],[-6.0476127,37.4378619],[-6.0461214,37.4376191]]},"properties":{"site":"italica","name":"","highway":"footway"}},{"type":"Feature","geometry":{"type":"LineString","coordinates":[[-6.0483276,37.4442318],[-6.0479611,37.4441921],[-6.0478143,37.4442012],[-6.0476473,37.444298],[-6.0474038,37.4443389],[-6.047125,37.4444531],[-6.0469999,37.4444879],[-6.0468822,37.4444867],[-6.0464351,37.4444575],[-6.0462499,37.4444202],[-6.0461236,37.4443805],[-6.0458703,37.4442921],[-6.0456763,37.4442579],[-6.0452226,37.4442945],[-6.0452069,37.4442621],[-6.0452226,37.4442353],[-6.0454443,37.4441188],[-6.0454291,37.4440974],[-6.0454017,37.4440406],[-6.0453273,37.443886]]},"properties":{"site":"italica","name":"","highway":"footway"}},{"type":"Feature","geometry":{"type":"LineString","coordinates":[[-6.0474643,37.4430239],[-6.0474206,37.4429652],[-6.0472361,37.4427173],[-6.0468313,37.4421312],[-6.0464658,37.4416835],[-6.046291,37.4414477],[-6.0461054,37.4411983],[-6.0458509,37.4408564],[-6.0454724,37.4403479],[-6.045194,37.4399738],[-6.0448885,37.4395635]]},"properties":{"site":"italica","name":"","highway":"footway"}},{"type":"Feature","geometry":{"type":"LineString","coordinates":[[-6.0480093,37.4402294],[-6.04696,37.4407816],[-6.0461054,37.4411983],[-6.0449297,37.4417966]]},"properties":{"site":"italica","name":"","highway":"footway"}},{"type":"Feature","geometry":{"type":"LineString","coordinates":[[-6.0403553,37.4381472],[-6.0401574,37.4382292],[-6.040003,37.4383211],[-6.0396886,37.4385713],[-6.0394747,37.4387551],[-6.0393685,37.4388085]]},"properties":{"site":"italica","name":"Calle Murillo","highway":"pedestrian"}},{"type":"Feature","geometry":{"type":"LineString","coordinates":[[-6.0456287,37.4426746],[-6.0453137,37.4422759],[-6.0449297,37.4417966]]},"properties":{"site":"italica","name":"","highway":"footway"}},{"type":"Feature","geometry":{"type":"LineString","coordinates":[[-6.0450544,37.4429489],[-6.0456287,37.4426746],[-6.0468313,37.4421312],[-6.047675,37.4416973],[-6.0483468,37.4413765],[-6.0487685,37.4411751]]},"properties":{"site":"italica","name":"","highway":"footway"}},{"type":"Feature","geometry":{"type":"LineString","coordinates":[[-6.0443299,37.4441688],[-6.0444075,37.4441357],[-6.0447798,37.4440413],[-6.0450905,37.4439554],[-6.0452354,37.4438465],[-6.0453297,37.4437659],[-6.0454571,37.4436685],[-6.0456907,37.4434438],[-6.0458488,37.4432939],[-6.0459375,37.4431984],[-6.0459549,37.4431796],[-6.0459644,37.4431253],[-6.0459337,37.443056],[-6.0456287,37.4426746]]},"properties":{"site":"italica","name":"","highway":"footway"}},{"type":"Feature","geometry":{"type":"LineString","coordinates":[[-6.0449297,37.4417966],[-6.0437826,37.4424]]},"properties":{"site":"italica","name":"","highway":"footway"}},{"type":"Feature","geometry":{"type":"LineString","coordinates":[[-6.0473207,37.4412439],[-6.0464658,37.4416835],[-6.0453137,37.4422759],[-6.0441564,37.442871]]},"properties":{"site":"italica","name":"","highway":"footway"}},{"type":"Feature","geometry":{"type":"LineString","coordinates":[[-6.0483468,37.4413765],[-6.0487657,37.4419719],[-6.0491599,37.4424406],[-6.0493363,37.4425295],[-6.0498083,37.4425721],[-6.0500873,37.4429469],[-6.0500336,37.4431854],[-6.0499907,37.4437561],[-6.0483491,37.4444597]]},"properties":{"site":"italica","name":"","highway":"footway"}},{"type":"Feature","geometry":{"type":"LineString","coordinates":[[-6.0491599,37.4424406],[-6.0487991,37.4426063],[-6.0485055,37.4428183],[-6.0481943,37.4429096],[-6.0475732,37.4429253],[-6.0474206,37.4429652]]},"properties":{"site":"italica","name":"","highway":"footway"}},{"type":"Feature","geometry":{"type":"LineString","coordinates":[[-6.0480706,37.4432244],[-6.0482254,37.4432401],[-6.0486223,37.4432291],[-6.0486983,37.4431946]]},"properties":{"site":"italica","name":"","highway":"footway"}},{"type":"Feature","geometry":{"type":"LineString","coordinates":[[-6.0471154,37.4445139],[-6.0470408,37.4445929],[-6.0469634,37.4446455],[-6.0467893,37.4447399],[-6.0466868,37.4448232],[-6.0465899,37.4449759],[-6.0464773,37.4453598]]},"properties":{"site":"italica","name":"","highway":"footway"}},{"type":"Feature","geometry":{"type":"LineString","coordinates":[[-6.0476756,37.4437866],[-6.0471199,37.4438243],[-6.0470747,37.4438698],[-6.0470217,37.4439096],[-6.046962,37.4439428],[-6.0468968,37.4439688],[-6.0468276,37.443987],[-6.0467558,37.4439971],[-6.0466858,37.4439988],[-6.0466162,37.4439928],[-6.0465484,37.4439792],[-6.0464836,37.4439582],[-6.0464231,37.4439302],[-6.0463681,37.4438958],[-6.0459635,37.4439247],[-6.045861,37.4439311],[-6.0457614,37.4439106],[-6.0455735,37.443893],[-6.0453273,37.443886],[-6.0450905,37.4439554]]},"properties":{"site":"italica","name":"","highway":"footway"}},{"type":"Feature","geometry":{"type":"LineString","coordinates":[[-6.0469999,37.4444879],[-6.0468004,37.444549],[-6.0461649,37.4447135],[-6.0457733,37.4449503]]},"properties":{"site":"italica","name":"","highway":"footway"}},{"type":"Feature","geometry":{"type":"LineString","coordinates":[[-6.0458703,37.4442921],[-6.0458333,37.4443735],[-6.0457062,37.4444963],[-6.0456343,37.4445644],[-6.0456398,37.4446938],[-6.0456841,37.4447991],[-6.0457733,37.4449503],[-6.0458443,37.4450799]]},"properties":{"site":"italica","name":"","highway":"footway"}},{"type":"Feature","geometry":{"type":"LineString","coordinates":[[-6.0448029,37.4416412],[-6.0445662,37.44175]]},"properties":{"site":"italica","name":"","highway":"footway"}},{"type":"Feature","geometry":{"type":"LineString","coordinates":[[-6.046291,37.4414477],[-6.0460509,37.4415661],[-6.0460932,37.4416197],[-6.0459387,37.4416966],[-6.0458563,37.4415921],[-6.0460108,37.4415153],[-6.0460509,37.4415661]]},"properties":{"site":"italica","name":"","highway":"footway"}},{"type":"Feature","geometry":{"type":"LineString","coordinates":[[-6.0456763,37.4442579],[-6.0455441,37.4441661],[-6.0454443,37.4441188]]},"properties":{"site":"italica","name":"","highway":"footway"}},{"type":"Feature","geometry":{"type":"LineString","coordinates":[[-6.0466708,37.4436166],[-6.0466807,37.4436652]]},"properties":{"site":"italica","name":"","highway":"footway"}},{"type":"Feature","geometry":{"type":"LineString","coordinates":[[-6.0469932,37.4436465],[-6.0469689,37.4436872]]},"properties":{"site":"italica","name":"","highway":"footway"}},{"type":"Feature","geometry":{"type":"LineString","coordinates":[[-6.0471364,37.4437892],[-6.0471759,37.4437766],[-6.0471607,37.4437532],[-6.0471387,37.4437287],[-6.0471091,37.443704],[-6.0470714,37.4436801],[-6.0470258,37.4436581],[-6.0469932,37.4436465],[-6.0469727,37.4436391],[-6.0469134,37.4436243],[-6.0468492,37.4436145],[-6.0467819,37.4436102],[-6.0467133,37.4436119],[-6.0466708,37.4436166],[-6.0466453,37.4436195],[-6.0465798,37.4436327],[-6.0465186,37.443651],[-6.0464633,37.4436735],[-6.046415,37.4436993],[-6.0463747,37.4437271],[-6.0463426,37.4437557],[-6.0463187,37.443784],[-6.0463022,37.4438111],[-6.0462922,37.4438365],[-6.0462877,37.4438603],[-6.0462878,37.4438754],[-6.0463661,37.4438709]]},"properties":{"site":"italica","name":"","highway":"footway"}},{"type":"Feature","geometry":{"type":"LineString","coordinates":[[-6.0459635,37.4439247],[-6.0459673,37.4439831],[-6.0463254,37.443961],[-6.0463393,37.4439764],[-6.0463689,37.4440011],[-6.0464066,37.444025],[-6.0464522,37.444047],[-6.0465053,37.444066],[-6.0465646,37.4440808],[-6.0466288,37.4440906],[-6.0466961,37.4440948],[-6.0467648,37.4440932],[-6.0468328,37.4440856],[-6.0468982,37.4440724],[-6.0469594,37.4440541],[-6.0470148,37.4440316],[-6.047063,37.4440058],[-6.0471033,37.443978],[-6.0471354,37.4439494],[-6.0471593,37.4439211],[-6.0471758,37.443894],[-6.0471838,37.4438738],[-6.0471464,37.4438638]]},"properties":{"site":"italica","name":"","highway":"footway"}},{"type":"Feature","geometry":{"type":"LineString","coordinates":[[-6.056261,37.4409649],[-6.0561711,37.4412688],[-6.0543964,37.4423517],[-6.053858,37.4426296],[-6.0533299,37.442821],[-6.0525051,37.4430775],[-6.0520218,37.4432593],[-6.051943,37.4435009],[-6.0519298,37.4437428],[-6.0518361,37.444182],[-6.0513962,37.4451446],[-6.0510314,37.4458857],[-6.0507525,37.4468141],[-6.0499693,37.4477085],[-6.0494529,37.4481537],[-6.0494125,37.4482755]]},"properties":{"site":"italica","name":"","highway":"track"}},{"type":"Feature","geometry":{"type":"LineString","coordinates":[[-6.0481731,37.4371984],[-6.0484941,37.4372863],[-6.0487489,37.4373055],[-6.0492076,37.4374183],[-6.0497077,37.4374706],[-6.0498109,37.4375004],[-6.0499012,37.4375625],[-6.049924,37.4376991],[-6.0500528,37.4384153]]},"properties":{"site":"italica","name":"","highway":"path"}},{"type":"Feature","geometry":{"type":"LineString","coordinates":[[-6.0428436,37.4387153],[-6.0429507,37.4389341],[-6.0431485,37.4391423],[-6.0440601,37.4399475],[-6.0442812,37.4401536],[-6.0444596,37.4403405],[-6.0445743,37.4405049],[-6.0446751,37.4406824],[-6.0447269,37.4408129],[-6.0448074,37.4410064],[-6.0447366,37.4410502]]},"properties":{"site":"italica","name":"","highway":"service"}},{"type":"Feature","geometry":{"type":"LineString","coordinates":[[-6.04516,37.4441227],[-6.0451531,37.444106],[-6.0450905,37.4439554]]},"properties":{"site":"italica","name":"","highway":"footway"}},{"type":"Feature","geometry":{"type":"LineString","coordinates":[[-6.0483202,37.4447794],[-6.048229,37.4447596],[-6.0476681,37.4446017],[-6.0474359,37.4444569],[-6.047125,37.4444531],[-6.0471154,37.4445139],[-6.0475133,37.4448474],[-6.0476515,37.4450602],[-6.0476158,37.445108],[-6.047524,37.4451796],[-6.0474702,37.4452497],[-6.0474633,37.4453075],[-6.0475084,37.4454685],[-6.0474789,37.4455249],[-6.0473905,37.4455703],[-6.0472606,37.4456294],[-6.0471947,37.445657],[-6.0471791,37.4456927],[-6.0472223,37.4458254]]},"properties":{"site":"italica","name":"","highway":"footway"}},{"type":"Feature","geometry":{"type":"LineString","coordinates":[[-6.0480522,37.4390198],[-6.0471066,37.4390385],[-6.0464004,37.4388373],[-6.0460356,37.4385094],[-6.0453471,37.4381617],[-6.0447481,37.437781],[-6.0436228,37.4373982],[-6.0426869,37.4376581],[-6.0426532,37.4377067]]},"properties":{"site":"italica","name":"","highway":"footway"}},{"type":"Feature","geometry":{"type":"LineString","coordinates":[[-6.0441564,37.442871],[-6.0437826,37.4424],[-6.0434866,37.4420272],[-6.0431279,37.4415752],[-6.0427445,37.4410972]]},"properties":{"site":"italica","name":"","highway":"footway"}},{"type":"Feature","geometry":{"type":"LineString","coordinates":[[-6.0426532,37.4377067],[-6.0432595,37.4390931],[-6.0441379,37.4398926],[-6.0448885,37.4395635],[-6.0457161,37.4391909]]},"properties":{"site":"italica","name":"","highway":"footway"}},{"type":"Feature","geometry":{"type":"LineString","coordinates":[[-6.050321,37.4395816],[-6.0502912,37.4396544],[-6.0505755,37.4404551],[-6.0506676,37.4408513]]},"properties":{"site":"italica","name":"","highway":"track"}},{"type":"Feature","geometry":{"type":"LineString","coordinates":[[-6.039313,37.4488835],[-6.0393058,37.4484173],[-6.039205,37.4469982],[-6.0389857,37.4456086],[-6.0388811,37.444629],[-6.0388007,37.4442201],[-6.0380389,37.4425723],[-6.0376741,37.441844],[-6.0374647,37.4416565],[-6.0363321,37.4409341]]},"properties":{"site":"italica","name":"","highway":"track"}},{"type":"Feature","geometry":{"type":"LineString","coordinates":[[-6.0387246,37.4418511],[-6.0388167,37.4420399]]},"properties":{"site":"italica","name":"","highway":"service"}},{"type":"Feature","geometry":{"type":"LineString","coordinates":[[-6.038544,37.4419026],[-6.0386505,37.4421355]]},"properties":{"site":"italica","name":"","highway":"service"}},{"type":"Feature","geometry":{"type":"LineString","coordinates":[[-6.0390982,37.4417446],[-6.0391553,37.4418559]]},"properties":{"site":"italica","name":"","highway":"service"}},{"type":"Feature","geometry":{"type":"LineString","coordinates":[[-6.0389129,37.4417974],[-6.0389839,37.4419524]]},"properties":{"site":"italica","name":"","highway":"service"}},{"type":"Feature","geometry":{"type":"LineString","coordinates":[[-6.0450883,37.4412551],[-6.0448404,37.4407805],[-6.0448201,37.4407357],[-6.0448201,37.4407096],[-6.0448647,37.4406816],[-6.0454326,37.4403979],[-6.0454724,37.4403479],[-6.0455798,37.4402811],[-6.046293,37.4399291]]},"properties":{"site":"italica","name":"","highway":"footway"}},{"type":"Feature","geometry":{"type":"LineString","coordinates":[[-6.045194,37.4399738],[-6.0460144,37.4395726],[-6.0471066,37.4390385]]},"properties":{"site":"italica","name":"","highway":"footway"}},{"type":"Feature","geometry":{"type":"LineString","coordinates":[[-6.0487685,37.4411751],[-6.0480093,37.4402294],[-6.0471066,37.4390385]]},"properties":{"site":"italica","name":"","highway":"footway"}},{"type":"Feature","geometry":{"type":"LineString","coordinates":[[-6.0434866,37.4420272],[-6.0446676,37.4414751],[-6.0448029,37.4416412],[-6.0449297,37.4417966]]},"properties":{"site":"italica","name":"","highway":"footway"}},{"type":"Feature","geometry":{"type":"LineString","coordinates":[[-6.0445662,37.44175],[-6.0446102,37.4418092],[-6.044434,37.4418917],[-6.0443493,37.4417778],[-6.0445255,37.4416953],[-6.0445662,37.44175]]},"properties":{"site":"italica","name":"","highway":"footway"}},{"type":"Feature","geometry":{"type":"LineString","coordinates":[[-6.0395524,37.4417499],[-6.039489,37.4416743],[-6.0394142,37.4416545],[-6.0390982,37.4417446],[-6.0389129,37.4417974],[-6.0387246,37.4418511],[-6.038544,37.4419026],[-6.0383494,37.4419581]]},"properties":{"site":"italica","name":"","highway":"service"}},{"type":"Feature","geometry":{"type":"LineString","coordinates":[[-6.0457161,37.4391909],[-6.0460144,37.4395726],[-6.046293,37.4399291],[-6.0466966,37.4404541],[-6.04696,37.4407816],[-6.0473207,37.4412439],[-6.047675,37.4416973],[-6.0481313,37.4422811],[-6.0484359,37.4426887]]},"properties":{"site":"italica","name":"","highway":"footway"}},{"type":"Feature","geometry":{"type":"LineString","coordinates":[[-6.0404351,37.4380555],[-6.0405825,37.4383129],[-6.0406922,37.4384466],[-6.0407913,37.4386014],[-6.0408435,37.4387063],[-6.0409511,37.4390134],[-6.0410182,37.4392392],[-6.0410438,37.4393466],[-6.041047,37.4394482],[-6.0410481,37.4395505]]},"properties":{"site":"italica","name":"","highway":"service"}},{"type":"Feature","geometry":{"type":"LineString","coordinates":[[-6.0461673,37.4432134],[-6.0468187,37.4431878],[-6.0473603,37.4433221],[-6.0475761,37.4434548],[-6.0476478,37.4434161],[-6.0477602,37.4435811],[-6.0478134,37.443707],[-6.047829,37.4438239],[-6.0478134,37.443989],[-6.0477661,37.444091],[-6.04768,37.444219]]},"properties":{"site":"italica","name":"","highway":"footway"}},{"type":"Feature","geometry":{"type":"LineString","coordinates":[[-6.0431279,37.4415752],[-6.0436926,37.4413054]]},"properties":{"site":"italica","name":"","highway":"footway"}},{"type":"Feature","geometry":{"type":"LineString","coordinates":[[-6.037891,37.4409725],[-6.0391896,37.4406077],[-6.0396294,37.4405796]]},"properties":{"site":"italica","name":"Calle de la Feria","highway":"pedestrian"}},{"type":"Feature","geometry":{"type":"LineString","coordinates":[[-6.0465118,37.4475755],[-6.0424817,37.4472556],[-6.0405799,37.4471046],[-6.0410666,37.4468553],[-6.0429878,37.4458716]]},"properties":{"site":"italica","name":"","highway":"track"}},{"type":"Feature","geometry":{"type":"LineString","coordinates":[[-6.0410666,37.4468553],[-6.0407227,37.446908],[-6.0404059,37.4462899],[-6.0401711,37.4458368],[-6.0400945,37.4456889],[-6.0398743,37.4447511],[-6.0397455,37.4442481],[-6.0396542,37.4435617],[-6.0395857,37.4432319],[-6.0395683,37.4431483],[-6.0389992,37.442334],[-6.0388931,37.4420991]]},"properties":{"site":"italica","name":"","highway":"path"}},{"type":"Feature","geometry":{"type":"LineString","coordinates":[[-6.0405727,37.4459214],[-6.0403898,37.4459446],[-6.0401711,37.4458368]]},"properties":{"site":"italica","name":"","highway":"path"}},{"type":"Feature","geometry":{"type":"LineString","coordinates":[[-6.0401711,37.4458368],[-6.0415171,37.4450775]]},"properties":{"site":"italica","name":"","highway":"path"}},{"type":"Feature","geometry":{"type":"LineString","coordinates":[[-6.0478143,37.4442012],[-6.0478834,37.444139],[-6.0479143,37.4441007],[-6.047921,37.4439931],[-6.0479491,37.443909],[-6.0479819,37.4438466]]},"properties":{"site":"italica","name":"","highway":"path"}},{"type":"Feature","geometry":{"type":"LineString","coordinates":[[-6.0475978,37.4435843],[-6.0476434,37.443662],[-6.0476689,37.4437408],[-6.0476756,37.4437866],[-6.0476742,37.4438643],[-6.0476608,37.4439378],[-6.0476487,37.4439857]]},"properties":{"site":"italica","name":"","highway":"footway"}},{"type":"Feature","geometry":{"type":"LineString","coordinates":[[-6.0476487,37.4439857],[-6.0478134,37.443989]]},"properties":{"site":"italica","name":"","highway":"steps"}},{"type":"Feature","geometry":{"type":"LineString","coordinates":[[-6.0459832,37.4432209],[-6.0459355,37.4435743],[-6.0460334,37.4436189],[-6.0459878,37.4437041],[-6.0459636,37.443802]]},"properties":{"site":"italica","name":"","highway":"footway"}},{"type":"Feature","geometry":{"type":"LineString","coordinates":[[-6.0458602,37.4437999],[-6.0459636,37.443802]]},"properties":{"site":"italica","name":"","highway":"steps"}},{"type":"Feature","geometry":{"type":"LineString","coordinates":[[-6.0458602,37.4437999],[-6.0457614,37.4439106]]},"properties":{"site":"italica","name":"","highway":"footway"}},{"type":"Feature","geometry":{"type":"LineString","coordinates":[[-6.0454017,37.4440406],[-6.0451531,37.444106]]},"properties":{"site":"italica","name":"","highway":"footway"}},{"type":"Feature","geometry":{"type":"LineString","coordinates":[[-6.0471464,37.4438638],[-6.0471235,37.4438577],[-6.0471199,37.4438243],[-6.0471124,37.4437968],[-6.0471364,37.4437892]]},"properties":{"site":"italica","name":"","highway":"footway"}},{"type":"Feature","geometry":{"type":"LineString","coordinates":[[-6.0486983,37.4431946],[-6.0486824,37.4430247],[-6.0485055,37.4428183]]},"properties":{"site":"italica","name":"","highway":"path"}},{"type":"Feature","geometry":{"type":"LineString","coordinates":[[-6.0393492,37.4397324],[-6.0393034,37.4397222],[-6.0392078,37.4397009]]},"properties":{"site":"italica","name":"","highway":"footway"}},{"type":"Feature","geometry":{"type":"LineString","coordinates":[[-6.0406659,37.4391968],[-6.0406665,37.4392147],[-6.040664,37.4393133],[-6.0406562,37.43962],[-6.0405288,37.4396594],[-6.0403987,37.4394241],[-6.040664,37.4393133]]},"properties":{"site":"italica","name":"","highway":"service"}},{"type":"Feature","geometry":{"type":"LineString","coordinates":[[-6.0405324,37.4404531],[-6.0404737,37.4404623]]},"properties":{"site":"italica","name":"","highway":"steps"}},{"type":"Feature","geometry":{"type":"LineString","coordinates":[[-6.0405101,37.4402337],[-6.0405324,37.4404531],[-6.0405967,37.4406482],[-6.0407407,37.4409522],[-6.0408045,37.4410868]]},"properties":{"site":"italica","name":"","highway":"footway"}},{"type":"Feature","geometry":{"type":"LineString","coordinates":[[-6.0405138,37.4402009],[-6.0405357,37.4401333],[-6.0405733,37.4400177]]},"properties":{"site":"italica","name":"","highway":"footway"}},{"type":"Feature","geometry":{"type":"LineString","coordinates":[[-6.0405138,37.4402009],[-6.0405101,37.4402337]]},"properties":{"site":"italica","name":"","highway":"steps"}},{"type":"Feature","geometry":{"type":"LineString","coordinates":[[-6.0405357,37.4401333],[-6.0405463,37.4402093],[-6.0405486,37.4402839],[-6.0405664,37.4404028],[-6.0405964,37.4405276],[-6.0406407,37.4406324],[-6.0406913,37.4407475],[-6.0407407,37.4409522]]},"properties":{"site":"italica","name":"","highway":"footway"}},{"type":"Feature","geometry":{"type":"LineString","coordinates":[[-6.0536493,37.4404316],[-6.053109,37.4405644],[-6.0530393,37.4405805],[-6.0523948,37.4407346],[-6.0518055,37.440891],[-6.0516832,37.4409195],[-6.0515582,37.4409394],[-6.0514332,37.4409506],[-6.0513074,37.4409533],[-6.0511997,37.4409486],[-6.0510926,37.4409391],[-6.0509862,37.4409248],[-6.0508783,37.4409052],[-6.050772,37.4408807],[-6.0506676,37.4408513],[-6.0505697,37.4408194],[-6.0504742,37.4407832],[-6.0503814,37.4407428],[-6.0502731,37.4406884],[-6.0501698,37.4406283],[-6.0500718,37.4405628],[-6.0499797,37.4404921],[-6.0498938,37.4404166],[-6.0498102,37.4403214],[-6.0497349,37.4402219],[-6.0496685,37.4401185],[-6.049617,37.4400236],[-6.0495729,37.4399265],[-6.0495364,37.4398273],[-6.0495076,37.4397266],[-6.0494926,37.4396161],[-6.0494876,37.4395051],[-6.0494926,37.4393941],[-6.0495076,37.4392836],[-6.0495327,37.4391734],[-6.0495677,37.439065],[-6.0496125,37.4389588],[-6.0496668,37.4388555],[-6.0497303,37.4387555],[-6.0497994,37.4386639],[-6.0498764,37.4385764],[-6.049961,37.4384934],[-6.0500528,37.4384153],[-6.0505054,37.4379419],[-6.050584,37.4378266],[-6.0506525,37.4377073],[-6.0507105,37.4375845],[-6.0507578,37.4374589],[-6.0508159,37.4371797]]},"properties":{"site":"italica","name":"Antigua vía férrea Aznalcóllar - Camas","highway":"track"}},{"type":"Feature","geometry":{"type":"LineString","coordinates":[[-6.0500528,37.4384153],[-6.0502322,37.4391092],[-6.0503098,37.439218],[-6.0503451,37.4393503],[-6.0503507,37.4395088],[-6.050321,37.4395816]]},"properties":{"site":"italica","name":"","highway":"track"}},{"type":"Feature","geometry":{"type":"LineString","coordinates":[[-6.038555,37.4417544],[-6.0384718,37.4415742],[-6.038335,37.4412781],[-6.038231,37.4410529],[-6.0391584,37.4407828],[-6.0392624,37.441008],[-6.0393992,37.4413041],[-6.039485,37.4414898],[-6.0394599,37.4414971],[-6.039529,37.4416466],[-6.039489,37.4416743]]},"properties":{"site":"italica","name":"","highway":"pedestrian"}},{"type":"Feature","geometry":{"type":"LineString","coordinates":[[-6.0393992,37.4413041],[-6.0384718,37.4415742]]},"properties":{"site":"italica","name":"","highway":"pedestrian"}},{"type":"Feature","geometry":{"type":"LineString","coordinates":[[-6.0392624,37.441008],[-6.038335,37.4412781]]},"properties":{"site":"italica","name":"","highway":"pedestrian"}},{"type":"Feature","geometry":{"type":"LineString","coordinates":[[-6.0435633,37.4466606],[-6.0433925,37.4463007],[-6.0431175,37.4459925],[-6.0430846,37.4458834]]},"properties":{"site":"italica","name":"","highway":"track"}},{"type":"Feature","geometry":{"type":"LineString","coordinates":[[-6.0448074,37.4410064],[-6.0449031,37.44114]]},"properties":{"site":"italica","name":"","highway":"service"}},{"type":"Feature","geometry":{"type":"LineString","coordinates":[[-6.0447366,37.4410502],[-6.0440833,37.4414798]]},"properties":{"site":"italica","name":"","highway":"pedestrian"}},{"type":"Feature","geometry":{"type":"LineString","coordinates":[[-6.0463681,37.4438958],[-6.0463661,37.4438709]]},"properties":{"site":"italica","name":"","highway":"footway"}}]}