{"type":"FeatureCollection","features":[{"type":"Feature","geometry":{"type":"Polygon","coordinates":[[[35.8868422,32.2787859],[35.88791,32.2774957],[35.8885216,32.2767826],[35.8890061,32.2762796],[35.8895294,32.2762387],[35.8895698,32.2758872],[35.8895196,32.2754924],[35.8892908,32.2750283],[35.8899114,32.2747711],[35.889906,32.2747675],[35.8898655,32.2742482],[35.8898794,32.2739233],[35.8894949,32.2734623],[35.889011,32.2726996],[35.889209,32.2724765],[35.889158,32.2721653],[35.8893015,32.2722313],[35.8901743,32.2726228],[35.8903438,32.2723099],[35.8905125,32.272023],[35.8906468,32.2719499],[35.8907891,32.2718712],[35.8914323,32.2719498],[35.8914659,32.2722629],[35.8914368,32.2728259],[35.8913942,32.2736017],[35.8913586,32.2740301],[35.8911069,32.2742019],[35.8910958,32.2752171],[35.8912007,32.2756868],[35.891531,32.2758091],[35.8919181,32.2766976],[35.8921129,32.2771297],[35.8921724,32.2772616],[35.8922123,32.2776831],[35.8922239,32.277806],[35.8922334,32.2783315],[35.8922441,32.2785645],[35.8922927,32.2786716],[35.8922552,32.2787219],[35.8922348,32.2787475],[35.8924532,32.2789501],[35.8924672,32.2789755],[35.8924765,32.2789925],[35.8924854,32.2790085],[35.8924999,32.279035],[35.892667,32.2793241],[35.8928744,32.2796105],[35.8930915,32.279895],[35.8934302,32.2803393],[35.8937286,32.2808162],[35.8942392,32.281671],[35.8941555,32.2824548],[35.89418,32.2826633],[35.8942457,32.2832224],[35.8946803,32.284148],[35.8948344,32.284247],[35.8948579,32.284288],[35.8948553,32.2844037],[35.8947735,32.2845556],[35.8944613,32.2848917],[35.8939943,32.285008],[35.893828,32.2848606],[35.8937368,32.2843708],[35.8934375,32.2844783],[35.8928136,32.2845659],[35.8925392,32.2847711],[35.8923501,32.2849212],[35.8921637,32.2849762],[35.8916522,32.2849445],[35.8904996,32.2849254],[35.8899216,32.2849015],[35.8898817,32.2848622],[35.88957,32.2845358],[35.8892278,32.2842137],[35.888908,32.2838483],[35.8878327,32.282923],[35.8875365,32.2824004],[35.8874271,32.281524],[35.8874464,32.2808436],[35.8873734,32.280375],[35.8871865,32.2797257],[35.8868422,32.2787859]]]},"properties":{"site":"jerash","name":"جرش","category":"archaeological","historic":"archaeological_site","building":null,"osm_id":91339020}},{"type":"Feature","geometry":{"type":"Polygon","coordinates":[[[35.8906686,32.281909],[35.8907723,32.2820851],[35.8912541,32.2818822],[35.8912366,32.2818525],[35.8911042,32.2819082],[35.8910698,32.2818498],[35.8910348,32.2817904],[35.8911661,32.2817352],[35.8911492,32.2817066],[35.8906686,32.281909]]]},"properties":{"site":"jerash","name":"The Temple of Artemis","category":"temple","historic":"ruins","building":"yes","osm_id":92425307}},{"type":"Feature","geometry":{"type":"Polygon","coordinates":[[[35.8898139,32.2720471],[35.8897483,32.2718455],[35.8897745,32.2718321],[35.8897641,32.2717809],[35.8897958,32.271781],[35.88982,32.271781],[35.8898196,32.2717563],[35.8898592,32.2717577],[35.8898374,32.2717308],[35.88992,32.2716767],[35.8900525,32.271803],[35.8900993,32.2717587],[35.8903757,32.2718811],[35.8903439,32.271928],[35.8904408,32.2719726],[35.8904249,32.2719953],[35.8904621,32.2720132],[35.890433,32.272053],[35.8904055,32.2720945],[35.8904229,32.272103],[35.8903901,32.2721586],[35.8903163,32.2721206],[35.8903157,32.2720971],[35.8902314,32.2720909],[35.8901768,32.2720748],[35.8901591,32.2721501],[35.8900844,32.2721402],[35.8900125,32.2721308],[35.8900117,32.2721162],[35.8899205,32.272102],[35.8899273,32.2720203],[35.8898139,32.2720471]]]},"properties":{"site":"jerash","name":null,"category":"other","historic":null,"building":"yes","osm_id":92425744}},{"type":"Feature","geometry":{"type":"Polygon","coordinates":[[[35.8917653,32.2790702],[35.8917482,32.2790398],[35.891844,32.2790021],[35.8917571,32.2788442],[35.8916659,32.2788801],[35.8916248,32.2788054],[35.8915701,32.278827],[35.8913892,32.2784897],[35.8913642,32.2784532],[35.8914014,32.2784385],[35.8911923,32.2780588],[35.8911414,32.2780789],[35.8910182,32.2778579],[35.890976,32.2778845],[35.8913231,32.278513],[35.8915113,32.2788545],[35.8916529,32.2791141],[35.8917653,32.2790702]]]},"properties":{"site":"jerash","name":null,"category":"archaeological","historic":"ruins","building":"yes","osm_id":115555852}},{"type":"Feature","geometry":{"type":"Polygon","coordinates":[[[35.8925712,32.2813049],[35.8926697,32.2812649],[35.8926582,32.2812446],[35.8925934,32.2811305],[35.8925789,32.281105],[35.8924804,32.2811449],[35.8922233,32.2812492],[35.8923231,32.2814055],[35.8925712,32.2813049]]]},"properties":{"site":"jerash","name":"Propylaeum of the Sanctuary of Artemis","category":"temple","historic":"archaeological_site","building":null,"osm_id":115555856}},{"type":"Feature","geometry":{"type":"Polygon","coordinates":[[[35.8893915,32.2816139],[35.8893099,32.2814709],[35.8895555,32.2813707],[35.8895702,32.2813964],[35.8896253,32.2813739],[35.8896923,32.2814913],[35.8893915,32.2816139]]]},"properties":{"site":"jerash","name":"Church of St Cosmos & St Damianus","category":"medieval","historic":"ruins","building":"church","osm_id":115555862}},{"type":"Feature","geometry":{"type":"Polygon","coordinates":[[[35.8904258,32.2798505],[35.8904831,32.2799546],[35.8904115,32.2799828],[35.8905525,32.2802388],[35.8907661,32.2801547],[35.8907325,32.2800936],[35.8906933,32.280109],[35.8906491,32.2800288],[35.8907972,32.2799705],[35.8907324,32.2798529],[35.8906425,32.2798883],[35.8905867,32.2797871],[35.8904258,32.2798505]]]},"properties":{"site":"jerash","name":"Umayyad Houses","category":"archaeological","historic":null,"building":"ruins","osm_id":115555866}},{"type":"Feature","geometry":{"type":"Polygon","coordinates":[[[35.8873714,32.2794241],[35.8874814,32.2795234],[35.8876188,32.2794146],[35.8875087,32.2793153],[35.8873714,32.2794241]]]},"properties":{"site":"jerash","name":"Mortuary Church","category":"medieval","historic":null,"building":"ruins","osm_id":115555869}},{"type":"Feature","geometry":{"type":"Polygon","coordinates":[[[35.8918936,32.2819068],[35.8918504,32.2818162],[35.8919814,32.2817716],[35.8919518,32.2817092],[35.8920063,32.2816907],[35.8921,32.2818875],[35.8919488,32.281939],[35.8919279,32.2818951],[35.8918936,32.2819068]]]},"properties":{"site":"jerash","name":null,"category":"archaeological","historic":"ruins","building":null,"osm_id":115555874}},{"type":"Feature","geometry":{"type":"Polygon","coordinates":[[[35.8919579,32.2792152],[35.8924854,32.2790085],[35.8924999,32.279035],[35.8919725,32.2792416],[35.8919579,32.2792152]]]},"properties":{"site":"jerash","name":null,"category":"archaeological","historic":null,"building":"ruins","osm_id":115555879}},{"type":"Feature","geometry":{"type":"Polygon","coordinates":[[[35.8897606,32.2769636],[35.8900547,32.2771298],[35.8900897,32.2771496],[35.8903896,32.2773191],[35.8906082,32.2770464],[35.8905968,32.2770389],[35.890622,32.2770116],[35.8906585,32.2769722],[35.8909213,32.2766464],[35.8908117,32.2765845],[35.8902924,32.276291],[35.8901659,32.276451],[35.8900051,32.2766543],[35.8897606,32.2769636]]]},"properties":{"site":"jerash","name":"Temple of Zeus","category":"temple","historic":"ruins","building":null,"osm_id":115555882}},{"type":"Feature","geometry":{"type":"Polygon","coordinates":[[[35.8884876,32.2820782],[35.8883883,32.2819618],[35.8887148,32.2817628],[35.888814,32.2818792],[35.8884876,32.2820782]]]},"properties":{"site":"jerash","name":"Church of Bishop Genesius","category":"taberna","historic":"ruins","building":null,"osm_id":115555884}},{"type":"Feature","geometry":{"type":"Polygon","coordinates":[[[35.8879886,32.2774407],[35.8882729,32.2771241],[35.8890179,32.2762944],[35.8895425,32.2762497],[35.8895846,32.2758896],[35.8901686,32.2759077],[35.8902504,32.2762122],[35.8908222,32.2765587],[35.8908784,32.2764113],[35.891031,32.2764481],[35.8910232,32.2764716],[35.8911079,32.2764917],[35.8912025,32.2765141],[35.8912104,32.2764902],[35.8916161,32.2765898],[35.8918295,32.2765472],[35.8918456,32.2766788],[35.8919181,32.2766976],[35.8879886,32.2774407]]]},"properties":{"site":"jerash","name":null,"category":"archaeological","historic":"ruins","building":null,"osm_id":115555886}},{"type":"Feature","geometry":{"type":"Polygon","coordinates":[[[35.8877041,32.2796156],[35.8875959,32.2795193],[35.8878011,32.2793545],[35.8879093,32.2794509],[35.8877041,32.2796156]]]},"properties":{"site":"jerash","name":"Church of St Peter & St Paul","category":"medieval","historic":null,"building":"ruins","osm_id":115555892}},{"type":"Feature","geometry":{"type":"Polygon","coordinates":[[[35.8914862,32.2846031],[35.8916417,32.284526],[35.8913896,32.2841314],[35.8916149,32.2837051],[35.8914969,32.2836371],[35.8911911,32.2841269],[35.8914862,32.2846031]]]},"properties":{"site":"jerash","name":null,"category":"other","historic":null,"building":"yes","osm_id":115555893}},{"type":"Feature","geometry":{"type":"Polygon","coordinates":[[[35.8896652,32.2764621],[35.8900051,32.2766543],[35.8901659,32.276451],[35.889826,32.2762588],[35.8896652,32.2764621]]]},"properties":{"site":"jerash","name":"Upper Temple of Zeus","category":"temple","historic":"ruins","building":"yes","osm_id":115555898}},{"type":"Feature","geometry":{"type":"Polygon","coordinates":[[[35.8917918,32.2827597],[35.8920704,32.282757],[35.8920725,32.2829068],[35.8917938,32.2829095],[35.8917918,32.2827597]]]},"properties":{"site":"jerash","name":"Church of Bishop Isaiah","category":"taberna","historic":"church","building":"church","osm_id":115557371}},{"type":"Feature","geometry":{"type":"Polygon","coordinates":[[[35.8911094,32.2723553],[35.8911086,32.2722556],[35.8912571,32.2722549],[35.8914255,32.272254],[35.8914262,32.2723538],[35.8912574,32.2723546],[35.8911094,32.2723553]]]},"properties":{"site":"jerash","name":"Hadrian's Arch","category":"other","historic":"yes","building":"yes","osm_id":116438102}},{"type":"Feature","geometry":{"type":"Polygon","coordinates":[[[35.8921167,32.2805094],[35.8922193,32.2806889],[35.8923176,32.2806487],[35.892215,32.2804692],[35.8921167,32.2805094]]]},"properties":{"site":"jerash","name":"Nymphaeum","category":"fountain","historic":"archaeological_site","building":"yes","osm_id":616514873}},{"type":"Feature","geometry":{"type":"Polygon","coordinates":[[[35.8945072,32.2845012],[35.8945371,32.28456],[35.8946285,32.2845268],[35.8947202,32.2844935],[35.8946902,32.2844347],[35.8945969,32.2844687],[35.8945072,32.2845012]]]},"properties":{"site":"jerash","name":"North gate","category":"gate","historic":"yes","building":"yes","osm_id":616514876}},{"type":"Feature","geometry":{"type":"Polygon","coordinates":[[[35.8907241,32.2808066],[35.8908227,32.2809703],[35.8911787,32.280817],[35.8911465,32.2807635],[35.8911891,32.2807452],[35.8911587,32.2806947],[35.8911194,32.2807117],[35.8910834,32.2806518],[35.8907779,32.2807834],[35.8907241,32.2808066]]]},"properties":{"site":"jerash","name":"Church of St. Theodore","category":"medieval","historic":null,"building":"ruins","osm_id":616514877}},{"type":"Feature","geometry":{"type":"Polygon","coordinates":[[[35.8912025,32.2765141],[35.8911079,32.2764917],[35.8910232,32.2764716],[35.891031,32.2764481],[35.8910404,32.2764197],[35.8911276,32.2764403],[35.8912197,32.2764622],[35.8912104,32.2764902],[35.8912025,32.2765141]]]},"properties":{"site":"jerash","name":"The South Gate and the City Wall","category":"gate","historic":"ruins","building":"yes","osm_id":659508966}},{"type":"Feature","geometry":{"type":"Polygon","coordinates":[[[35.8908777,32.2779287],[35.8908837,32.2779381],[35.8908352,32.2779568],[35.8907849,32.2779617],[35.890751,32.2779503],[35.8907034,32.2779446],[35.8906364,32.2779202],[35.8905733,32.2778896],[35.8905183,32.2778533],[35.8904607,32.2778029],[35.8904171,32.2777502],[35.8903782,32.277694],[35.8903447,32.2776305],[35.8903192,32.2775636],[35.8903111,32.2775098],[35.8903071,32.2774803],[35.8903138,32.2774684],[35.8903337,32.2774565],[35.8903399,32.2775017],[35.8903537,32.2775656],[35.890372,32.2776156],[35.8903938,32.2776584],[35.8904275,32.2777093],[35.8904478,32.2777392],[35.8905034,32.277804],[35.8905398,32.2778352],[35.8905812,32.2778674],[35.8906392,32.2779024],[35.8907195,32.277929],[35.890749,32.2779383],[35.890787,32.2779421],[35.8908315,32.2779387],[35.8908777,32.2779287]]]},"properties":{"site":"jerash","name":null,"category":"archaeological","historic":"ruins","building":"yes","osm_id":659508968}},{"type":"Feature","geometry":{"type":"Polygon","coordinates":[[[35.8909079,32.2770879],[35.8909534,32.2770754],[35.8910156,32.2771261],[35.8910701,32.2771742],[35.891102,32.2772183],[35.8911424,32.2772991],[35.8911546,32.2773494],[35.891156,32.2774405],[35.8911436,32.277519],[35.8911064,32.2776679],[35.8910719,32.2777682],[35.8910168,32.2778556],[35.8909748,32.277883],[35.8909882,32.2778598],[35.8910294,32.2777825],[35.8910577,32.2776934],[35.8910965,32.2775547],[35.8911114,32.2774636],[35.8911117,32.2774148],[35.891108,32.2773627],[35.8910874,32.2772843],[35.8910548,32.2772274],[35.8910226,32.2771893],[35.8909923,32.2771581],[35.8909484,32.2771216],[35.8909079,32.2770879]]]},"properties":{"site":"jerash","name":null,"category":"archaeological","historic":"ruins","building":"yes","osm_id":659508969}},{"type":"Feature","geometry":{"type":"Polygon","coordinates":[[[35.8907238,32.2774982],[35.8907252,32.2774991],[35.8907263,32.2775003],[35.8907267,32.2775018],[35.8907266,32.2775033],[35.890726,32.2775047],[35.8907248,32.2775058],[35.8907233,32.2775066],[35.8907215,32.2775069],[35.8907197,32.2775066],[35.8907182,32.277506],[35.8907169,32.2775049],[35.8907162,32.2775035],[35.890716,32.277502],[35.8907163,32.2775006],[35.8907173,32.2774993],[35.8907186,32.2774983],[35.8907203,32.2774978],[35.8907221,32.2774977],[35.8907238,32.2774982]]]},"properties":{"site":"jerash","name":null,"category":"archaeological","historic":"monument","building":"ruins","osm_id":659508974}},{"type":"Feature","geometry":{"type":"Polygon","coordinates":[[[35.8943039,32.2794795],[35.8939976,32.2789932],[35.8944552,32.2787873],[35.8947614,32.2792735],[35.8943039,32.2794795]]]},"properties":{"site":"jerash","name":null,"category":"archaeological","historic":null,"building":"ruins","osm_id":695654297}},{"type":"Feature","geometry":{"type":"Polygon","coordinates":[[[35.8974274,32.2768887],[35.8977412,32.2768365],[35.8977492,32.2771653],[35.8974354,32.2771676],[35.8974274,32.2768887]]]},"properties":{"site":"jerash","name":"Church of Procopius","category":"medieval","historic":"archaeological_site","building":null,"osm_id":695654302}},{"type":"Feature","geometry":{"type":"Polygon","coordinates":[[[35.894721,32.2869184],[35.8951368,32.2868911],[35.8953004,32.2869705],[35.8953326,32.2871995],[35.8946164,32.287322],[35.8945869,32.2870295],[35.894721,32.2869184]]]},"properties":{"site":"jerash","name":"Martyrion Church","category":"medieval","historic":"archaeological_site","building":null,"osm_id":695654303}},{"type":"Feature","geometry":{"type":"Polygon","coordinates":[[[35.8908117,32.2765845],[35.8908222,32.2765587],[35.8908784,32.2764113],[35.891031,32.2764481],[35.8910232,32.2764716],[35.8909213,32.2766464],[35.8908117,32.2765845]]]},"properties":{"site":"jerash","name":"The West Souk","category":"archaeological","historic":"ruins","building":null,"osm_id":758521404}},{"type":"Feature","geometry":{"type":"Polygon","coordinates":[[[35.8911686,32.2766314],[35.8908412,32.2770215],[35.8908038,32.277066],[35.8907291,32.2770211],[35.8910939,32.2765866],[35.8911686,32.2766314]]]},"properties":{"site":"jerash","name":"The East Souk","category":"archaeological","historic":"ruins","building":null,"osm_id":758521407}},{"type":"Feature","geometry":{"type":"Polygon","coordinates":[[[35.8905968,32.2770389],[35.890622,32.2770116],[35.8906585,32.2769722],[35.8906807,32.2769868],[35.8907291,32.2770211],[35.8908038,32.277066],[35.8907619,32.2771037],[35.8907363,32.2771312],[35.8907049,32.2771104],[35.8906196,32.277054],[35.8906082,32.2770464],[35.8905968,32.2770389]]]},"properties":{"site":"jerash","name":null,"category":"archaeological","historic":"ruins","building":"yes","osm_id":758521408}},{"type":"Feature","geometry":{"type":"Polygon","coordinates":[[[35.8906613,32.2759938],[35.8906613,32.2757616],[35.8908568,32.2757616],[35.8909037,32.2757276],[35.8910046,32.2758314],[35.8910046,32.2759104],[35.8909737,32.2759104],[35.8909737,32.2759738],[35.8908749,32.2759738],[35.8908749,32.2760558],[35.8907421,32.2760558],[35.8907421,32.2759938],[35.8906613,32.2759938]]]},"properties":{"site":"jerash","name":null,"category":"other","historic":null,"building":"yes","osm_id":758521410}},{"type":"Feature","geometry":{"type":"Polygon","coordinates":[[[35.891544,32.2796711],[35.8917992,32.2795706],[35.8917629,32.2795047],[35.8917984,32.2794907],[35.8918504,32.2794702],[35.8918866,32.2794559],[35.8920542,32.27939],[35.8919725,32.2792416],[35.8919579,32.2792152],[35.8919397,32.2791821],[35.8919257,32.2791567],[35.8918594,32.2790362],[35.8916556,32.2791164],[35.8916033,32.279137],[35.8915501,32.279158],[35.8913876,32.279222],[35.8914539,32.2793424],[35.8914679,32.2793679],[35.8914861,32.2794009],[35.8915007,32.2794273],[35.8915542,32.2795245],[35.8914795,32.279554],[35.891544,32.2796711]]]},"properties":{"site":"jerash","name":"The South Tetrapylon","category":"archaeological","historic":"archaeological_site","building":null,"osm_id":758727660}},{"type":"Feature","geometry":{"type":"Polygon","coordinates":[[[35.8930551,32.2818509],[35.8930905,32.281837],[35.8934523,32.2824938],[35.8934169,32.2825077],[35.8930551,32.2818509]]]},"properties":{"site":"jerash","name":null,"category":"archaeological","historic":"ruins","building":"yes","osm_id":758727662}},{"type":"Feature","geometry":{"type":"Polygon","coordinates":[[[35.8916033,32.279137],[35.8913154,32.2786569],[35.8908837,32.2779381],[35.8908352,32.2779568],[35.8911188,32.2784364],[35.8912671,32.2786768],[35.8913877,32.2788631],[35.8915501,32.279158],[35.8916033,32.279137]]]},"properties":{"site":"jerash","name":null,"category":"archaeological","historic":"ruins","building":"yes","osm_id":758727663}},{"type":"Feature","geometry":{"type":"Polygon","coordinates":[[[35.8914679,32.2793679],[35.8915378,32.2793404],[35.8915124,32.2792942],[35.8915599,32.2792193],[35.8916328,32.2791906],[35.8916033,32.279137],[35.8915501,32.279158],[35.8913876,32.279222],[35.8914539,32.2793424],[35.8914679,32.2793679]]]},"properties":{"site":"jerash","name":null,"category":"archaeological","historic":null,"building":"ruins","osm_id":758727664}},{"type":"Feature","geometry":{"type":"Polygon","coordinates":[[[35.891736,32.2792623],[35.8917156,32.2792254],[35.8917615,32.2792073],[35.8917819,32.2792443],[35.891736,32.2792623]]]},"properties":{"site":"jerash","name":null,"category":"archaeological","historic":null,"building":"ruins","osm_id":758727665}},{"type":"Feature","geometry":{"type":"Polygon","coordinates":[[[35.8917758,32.2793348],[35.8917542,32.2792954],[35.8917989,32.2792778],[35.8918206,32.2793171],[35.8917758,32.2793348]]]},"properties":{"site":"jerash","name":null,"category":"archaeological","historic":null,"building":"ruins","osm_id":758727666}},{"type":"Feature","geometry":{"type":"Polygon","coordinates":[[[35.891637,32.2793013],[35.8916158,32.2792629],[35.8916625,32.2792445],[35.8916837,32.2792829],[35.891637,32.2793013]]]},"properties":{"site":"jerash","name":null,"category":"archaeological","historic":null,"building":"ruins","osm_id":758727667}},{"type":"Feature","geometry":{"type":"Polygon","coordinates":[[[35.8916748,32.2793718],[35.8916543,32.2793347],[35.8917019,32.279316],[35.8917224,32.2793531],[35.8916748,32.2793718]]]},"properties":{"site":"jerash","name":null,"category":"archaeological","historic":null,"building":"ruins","osm_id":758727668}},{"type":"Feature","geometry":{"type":"Polygon","coordinates":[[[35.8927014,32.2811308],[35.8922453,32.2803023],[35.8917984,32.2794907],[35.8917629,32.2795047],[35.8917992,32.2795706],[35.89221,32.2803167],[35.892666,32.2811447],[35.8927014,32.2811308]]]},"properties":{"site":"jerash","name":null,"category":"archaeological","historic":"ruins","building":"yes","osm_id":758727669}},{"type":"Feature","geometry":{"type":"Polygon","coordinates":[[[35.8926901,32.2811886],[35.893018,32.2817841],[35.8930535,32.2817701],[35.8927256,32.2811746],[35.8926901,32.2811886]]]},"properties":{"site":"jerash","name":null,"category":"other","historic":"yes","building":"yes","osm_id":758727670}},{"type":"Feature","geometry":{"type":"Polygon","coordinates":[[[35.8915007,32.2794273],[35.8915542,32.2795245],[35.8914795,32.279554],[35.891544,32.2796711],[35.8917992,32.2795706],[35.8917629,32.2795047],[35.8917984,32.2794907],[35.8917774,32.2794531],[35.8917045,32.2794819],[35.8915938,32.279442],[35.891556,32.2793734],[35.8914861,32.2794009],[35.8915007,32.2794273]]]},"properties":{"site":"jerash","name":null,"category":"archaeological","historic":null,"building":"ruins","osm_id":758727671}},{"type":"Feature","geometry":{"type":"Polygon","coordinates":[[[35.8914539,32.2793424],[35.8914679,32.2793679],[35.8901713,32.2798784],[35.8901572,32.2798529],[35.8914539,32.2793424]]]},"properties":{"site":"jerash","name":null,"category":"archaeological","historic":"ruins","building":"yes","osm_id":758727672}},{"type":"Feature","geometry":{"type":"Polygon","coordinates":[[[35.8918724,32.2792086],[35.891847,32.2791625],[35.8917533,32.2791432],[35.8916851,32.27917],[35.8916556,32.2791164],[35.8917663,32.2790728],[35.8918594,32.2790362],[35.8919257,32.2791567],[35.8919397,32.2791821],[35.8918724,32.2792086]]]},"properties":{"site":"jerash","name":null,"category":"archaeological","historic":null,"building":"ruins","osm_id":758727673}},{"type":"Feature","geometry":{"type":"Polygon","coordinates":[[[35.8919257,32.2791567],[35.8924532,32.2789501],[35.8924672,32.2789755],[35.8919397,32.2791821],[35.8919257,32.2791567]]]},"properties":{"site":"jerash","name":null,"category":"archaeological","historic":null,"building":"ruins","osm_id":758727674}},{"type":"Feature","geometry":{"type":"Polygon","coordinates":[[[35.8901895,32.2799114],[35.8914861,32.2794009],[35.8915007,32.2794273],[35.8905867,32.2797871],[35.8904258,32.2798505],[35.890204,32.2799378],[35.8901895,32.2799114]]]},"properties":{"site":"jerash","name":null,"category":"archaeological","historic":"ruins","building":"yes","osm_id":758727675}},{"type":"Feature","geometry":{"type":"Polygon","coordinates":[[[35.8920542,32.27939],[35.8918866,32.2794559],[35.8918504,32.2794702],[35.8918297,32.2794325],[35.8918979,32.2794057],[35.8919284,32.2793103],[35.8918906,32.2792417],[35.8919579,32.2792152],[35.8919725,32.2792416],[35.8920542,32.27939]]]},"properties":{"site":"jerash","name":null,"category":"archaeological","historic":null,"building":"ruins","osm_id":758727676}},{"type":"Feature","geometry":{"type":"Polygon","coordinates":[[[35.8918504,32.2794702],[35.8918866,32.2794559],[35.8935405,32.2824586],[35.8935043,32.2824729],[35.8918504,32.2794702]]]},"properties":{"site":"jerash","name":null,"category":"archaeological","historic":"ruins","building":"yes","osm_id":758727677}},{"type":"Feature","geometry":{"type":"Polygon","coordinates":[[[35.8939595,32.2832034],[35.8939228,32.2832181],[35.893583,32.2826137],[35.8936197,32.2825989],[35.8939595,32.2832034]]]},"properties":{"site":"jerash","name":null,"category":"archaeological","historic":"ruins","building":"yes","osm_id":758727678}},{"type":"Feature","geometry":{"type":"Polygon","coordinates":[[[35.8935295,32.2826352],[35.8943121,32.2840272],[35.8942775,32.2840411],[35.8934949,32.2826491],[35.8935295,32.2826352]]]},"properties":{"site":"jerash","name":null,"category":"archaeological","historic":"ruins","building":"yes","osm_id":758727679}},{"type":"Feature","geometry":{"type":"Polygon","coordinates":[[[35.893583,32.2826137],[35.8935593,32.2826232],[35.8935295,32.2826352],[35.8934949,32.2826491],[35.8934641,32.2825938],[35.8934361,32.2825446],[35.8935005,32.2825187],[35.8935609,32.2824944],[35.8936197,32.2825989],[35.893583,32.2826137]]]},"properties":{"site":"jerash","name":"The North Tetrapylon","category":"other","historic":"yes","building":"yes","osm_id":758727680}},{"type":"Feature","geometry":{"type":"Polygon","coordinates":[[[35.8919176,32.2805217],[35.891878,32.2804524],[35.8918397,32.2803854],[35.8918169,32.2803456],[35.8913877,32.2805211],[35.8912075,32.2805947],[35.8912347,32.2806423],[35.8914149,32.2805686],[35.8915058,32.2807277],[35.8919351,32.2805523],[35.8919176,32.2805217]]]},"properties":{"site":"jerash","name":"The Cathedral","category":"archaeological","historic":"archaeological_site","building":null,"osm_id":758753924}},{"type":"Feature","geometry":{"type":"Polygon","coordinates":[[[35.8924804,32.2811449],[35.8925789,32.281105],[35.8923406,32.2806852],[35.8922422,32.2807252],[35.8924804,32.2811449]]]},"properties":{"site":"jerash","name":null,"category":"archaeological","historic":"ruins","building":"yes","osm_id":758753925}},{"type":"Feature","geometry":{"type":"Polygon","coordinates":[[[35.8925712,32.2813049],[35.8925377,32.2812458],[35.8925958,32.2812223],[35.8926177,32.281261],[35.8926582,32.2812446],[35.8926697,32.2812649],[35.8925712,32.2813049]]]},"properties":{"site":"jerash","name":null,"category":"archaeological","historic":"ruins","building":"yes","osm_id":758753927}},{"type":"Feature","geometry":{"type":"Polygon","coordinates":[[[35.8924804,32.2811449],[35.8925153,32.2812063],[35.8925733,32.2811827],[35.8925529,32.2811469],[35.8925934,32.2811305],[35.8925789,32.281105],[35.8924804,32.2811449]]]},"properties":{"site":"jerash","name":null,"category":"archaeological","historic":"ruins","building":"yes","osm_id":758753928}},{"type":"Feature","geometry":{"type":"Polygon","coordinates":[[[35.8918169,32.2803456],[35.8918397,32.2803854],[35.891878,32.2804524],[35.8919176,32.2805217],[35.8919351,32.2805523],[35.8919496,32.2805776],[35.8921167,32.2805094],[35.892215,32.2804692],[35.8921434,32.2803439],[35.8920691,32.280214],[35.8919708,32.2802542],[35.891984,32.2802774],[35.8918169,32.2803456]]]},"properties":{"site":"jerash","name":null,"category":"archaeological","historic":"ruins","building":"yes","osm_id":758753929}},{"type":"Feature","geometry":{"type":"Polygon","coordinates":[[[35.8925712,32.2813049],[35.8926697,32.2812649],[35.8929675,32.2817896],[35.8928691,32.2818296],[35.8925712,32.2813049]]]},"properties":{"site":"jerash","name":null,"category":"archaeological","historic":"ruins","building":"yes","osm_id":758774104}},{"type":"Feature","geometry":{"type":"Polygon","coordinates":[[[35.892955,32.2809928],[35.8929403,32.280966],[35.8927687,32.2810006],[35.8929104,32.2812597],[35.8930544,32.2811747],[35.8930415,32.281151],[35.8934897,32.2809759],[35.8934032,32.2808176],[35.892955,32.2809928]]]},"properties":{"site":"jerash","name":"The Church of the Propylaea","category":"medieval","historic":"archaeological_site","building":null,"osm_id":758774106}},{"type":"Feature","geometry":{"type":"Polygon","coordinates":[[[35.8925941,32.2829684],[35.8929019,32.2828721],[35.8930584,32.2832297],[35.8927506,32.283326],[35.8925941,32.2829684]]]},"properties":{"site":"jerash","name":"Agora","category":"forum","historic":"ruins","building":null,"osm_id":758900818}},{"type":"Feature","geometry":{"type":"Polygon","coordinates":[[[35.8926482,32.283358],[35.8924917,32.2830004],[35.8925941,32.2829684],[35.8927506,32.283326],[35.8926482,32.283358]]]},"properties":{"site":"jerash","name":"Civic Basilica","category":"basilica","historic":"ruins","building":null,"osm_id":758900819}},{"type":"Feature","geometry":{"type":"Polygon","coordinates":[[[35.8932028,32.2826478],[35.8931884,32.282615],[35.8933685,32.2825587],[35.8933829,32.2825915],[35.8932028,32.2826478]]]},"properties":{"site":"jerash","name":null,"category":"archaeological","historic":"ruins","building":"yes","osm_id":758900824}},{"type":"Feature","geometry":{"type":"Polygon","coordinates":[[[35.8930502,32.2827918],[35.8930352,32.2827576],[35.8934548,32.2826263],[35.8934698,32.2826605],[35.8930502,32.2827918]]]},"properties":{"site":"jerash","name":null,"category":"archaeological","historic":"ruins","building":"yes","osm_id":758900825}},{"type":"Feature","geometry":{"type":"Polygon","coordinates":[[[35.8924461,32.2828845],[35.8924318,32.2828517],[35.8925156,32.2828255],[35.8928385,32.2827244],[35.8928529,32.2827573],[35.8925302,32.2828582],[35.8924461,32.2828845]]]},"properties":{"site":"jerash","name":null,"category":"archaeological","historic":"ruins","building":"yes","osm_id":758900826}},{"type":"Feature","geometry":{"type":"Polygon","coordinates":[[[35.8924682,32.2829349],[35.8924832,32.2829691],[35.892581,32.2829385],[35.8928881,32.2828424],[35.8928732,32.2828083],[35.8924682,32.2829349]]]},"properties":{"site":"jerash","name":null,"category":"archaeological","historic":"ruins","building":"yes","osm_id":758900827}},{"type":"Feature","geometry":{"type":"Polygon","coordinates":[[[35.8924127,32.2816486],[35.8923508,32.2815287],[35.892447,32.2814932],[35.8925089,32.2816131],[35.8924127,32.2816486]]]},"properties":{"site":"jerash","name":null,"category":"other","historic":null,"building":"yes","osm_id":758900828}},{"type":"Feature","geometry":{"type":"Polygon","coordinates":[[[35.8894458,32.2811768],[35.8893751,32.2810529],[35.8891287,32.2811534],[35.8891994,32.2812773],[35.8894458,32.2811768]]]},"properties":{"site":"jerash","name":"Church of St. Georg","category":"medieval","historic":"ruins","building":null,"osm_id":758950077}},{"type":"Feature","geometry":{"type":"Polygon","coordinates":[[[35.8895186,32.2813061],[35.8895484,32.281294],[35.8895781,32.2812819],[35.889566,32.2812606],[35.8895538,32.2812393],[35.8895416,32.2812179],[35.889512,32.2812299],[35.8894829,32.2812418],[35.8894458,32.2811768],[35.8891994,32.2812773],[35.8893099,32.2814709],[35.8895555,32.2813707],[35.8895186,32.2813061]]]},"properties":{"site":"jerash","name":"Church of St. John the Baptist","category":"medieval","historic":"ruins","building":"church","osm_id":758950078}},{"type":"Feature","geometry":{"type":"Polygon","coordinates":[[[35.8917622,32.2814261],[35.8917363,32.2814362],[35.8916028,32.2811928],[35.8916287,32.2811826],[35.8917622,32.2814261]]]},"properties":{"site":"jerash","name":null,"category":"archaeological","historic":"ruins","building":"yes","osm_id":758950079}},{"type":"Feature","geometry":{"type":"Polygon","coordinates":[[[35.8910357,32.281415],[35.8910471,32.2814358],[35.8914609,32.2812736],[35.8914495,32.2812529],[35.8910357,32.281415]]]},"properties":{"site":"jerash","name":null,"category":"archaeological","historic":"ruins","building":"yes","osm_id":758950080}},{"type":"Feature","geometry":{"type":"Polygon","coordinates":[[[35.8903192,32.2818866],[35.890342,32.2818776],[35.8902673,32.2817414],[35.8910097,32.2814505],[35.8909984,32.2814297],[35.8902331,32.2817296],[35.8903192,32.2818866]]]},"properties":{"site":"jerash","name":null,"category":"archaeological","historic":"ruins","building":"yes","osm_id":758950081}},{"type":"Feature","geometry":{"type":"Polygon","coordinates":[[[35.8902331,32.2817296],[35.8903192,32.2818866],[35.8906361,32.2824646],[35.8920317,32.2819176],[35.8917622,32.2814261],[35.8916287,32.2811826],[35.8916028,32.2811928],[35.8914495,32.2812529],[35.8910357,32.281415],[35.8909984,32.2814297],[35.8902331,32.2817296]]]},"properties":{"site":"jerash","name":"The Sanctuary of Artemis","category":"temple","historic":"archaeological_site","building":null,"osm_id":758950082}},{"type":"Feature","geometry":{"type":"Polygon","coordinates":[[[35.8911364,32.2759979],[35.8911288,32.2759518],[35.8911783,32.275946],[35.8911703,32.2758982],[35.8913065,32.275882],[35.891303,32.2758609],[35.891413,32.2758478],[35.8914551,32.2761008],[35.8912969,32.2761196],[35.8912916,32.2760875],[35.8912244,32.2760955],[35.8912284,32.2761195],[35.8912011,32.2761227],[35.8911795,32.2759928],[35.8911364,32.2759979]]]},"properties":{"site":"jerash","name":"Visitor Centre","category":"other","historic":null,"building":"yes","osm_id":760142715}},{"type":"Feature","geometry":{"type":"Polygon","coordinates":[[[35.8917174,32.2722703],[35.8920583,32.2722716],[35.8920549,32.2721356],[35.8919555,32.2721356],[35.891957,32.2721566],[35.8919024,32.2721573],[35.8917174,32.2722206],[35.8917174,32.2722703]]]},"properties":{"site":"jerash","name":"جرش","category":"other","historic":null,"building":"yes","osm_id":816833009}},{"type":"Feature","geometry":{"type":"Polygon","coordinates":[[[35.897509,32.2750825],[35.8976153,32.2750925],[35.8976284,32.2749932],[35.8976712,32.2749972],[35.8976879,32.2748701],[35.8975064,32.274853],[35.897486,32.2750078],[35.8975185,32.2750109],[35.897509,32.2750825]]]},"properties":{"site":"jerash","name":null,"category":"other","historic":null,"building":"yes","osm_id":834306869}},{"type":"Feature","geometry":{"type":"Polygon","coordinates":[[[35.8967233,32.2748954],[35.8967164,32.2749734],[35.8968677,32.2749831],[35.8968848,32.2747905],[35.8964769,32.2747645],[35.8964695,32.2748471],[35.8965129,32.274882],[35.8967233,32.2748954]]]},"properties":{"site":"jerash","name":null,"category":"other","historic":null,"building":"yes","osm_id":834306870}},{"type":"Feature","geometry":{"type":"Polygon","coordinates":[[[35.8968991,32.2749188],[35.8970572,32.2749336],[35.8970733,32.2748114],[35.8969152,32.2747966],[35.8968991,32.2749188]]]},"properties":{"site":"jerash","name":null,"category":"other","historic":null,"building":"yes","osm_id":834306871}},{"type":"Feature","geometry":{"type":"Polygon","coordinates":[[[35.8972542,32.275064],[35.8974689,32.2750842],[35.8974995,32.2748518],[35.8972848,32.2748315],[35.8972542,32.275064]]]},"properties":{"site":"jerash","name":null,"category":"other","historic":null,"building":"yes","osm_id":834306872}},{"type":"Feature","geometry":{"type":"Polygon","coordinates":[[[35.8967246,32.2753241],[35.8968584,32.2752818],[35.896787,32.2751205],[35.8962609,32.2752871],[35.8963388,32.275463],[35.8962804,32.2754815],[35.8963875,32.2757232],[35.8967225,32.2756171],[35.8966832,32.2755283],[35.8964426,32.2756044],[35.8963801,32.2754633],[35.8964144,32.2754524],[35.8963676,32.2753467],[35.8966894,32.2752448],[35.8967246,32.2753241]]]},"properties":{"site":"jerash","name":null,"category":"other","historic":null,"building":"yes","osm_id":834306873}},{"type":"Feature","geometry":{"type":"Polygon","coordinates":[[[35.8970971,32.2750442],[35.8972434,32.275058],[35.8972734,32.2748305],[35.897127,32.2748167],[35.8970971,32.2750442]]]},"properties":{"site":"jerash","name":null,"category":"other","historic":null,"building":"yes","osm_id":834306874}},{"type":"Feature","geometry":{"type":"Polygon","coordinates":[[[35.8967101,32.2754443],[35.8972203,32.2752918],[35.8971885,32.2752157],[35.8966782,32.2753682],[35.8967101,32.2754443]]]},"properties":{"site":"jerash","name":null,"category":"other","historic":null,"building":"yes","osm_id":834306875}},{"type":"Feature","geometry":{"type":"Polygon","coordinates":[[[35.8973543,32.2753938],[35.8976197,32.2753051],[35.8975597,32.2751769],[35.8972943,32.2752656],[35.8973543,32.2753938]]]},"properties":{"site":"jerash","name":null,"category":"other","historic":null,"building":"yes","osm_id":834306876}},{"type":"Feature","geometry":{"type":"Polygon","coordinates":[[[35.8976636,32.2751034],[35.8978026,32.2751165],[35.8978163,32.2750123],[35.8978553,32.275016],[35.8978729,32.2748828],[35.8976948,32.274866],[35.8976774,32.2749986],[35.8976636,32.2751034]]]},"properties":{"site":"jerash","name":null,"category":"other","historic":null,"building":"yes","osm_id":834306877}},{"type":"Feature","geometry":{"type":"Polygon","coordinates":[[[35.8978465,32.2751329],[35.8980266,32.2751498],[35.8980595,32.2749003],[35.8978794,32.2748834],[35.897861,32.2750234],[35.8978465,32.2751329]]]},"properties":{"site":"jerash","name":null,"category":"other","historic":null,"building":"yes","osm_id":834306878}},{"type":"Feature","geometry":{"type":"Polygon","coordinates":[[[35.8980382,32.2751306],[35.8981577,32.2750988],[35.898265,32.2750614],[35.8983187,32.2750342],[35.8983347,32.2750152],[35.8983408,32.2749875],[35.8983348,32.2749594],[35.898321,32.2749384],[35.8982945,32.2749208],[35.8982516,32.2749106],[35.8980699,32.2748948],[35.8980382,32.2751306]]]},"properties":{"site":"jerash","name":null,"category":"other","historic":null,"building":"yes","osm_id":834306879}},{"type":"Feature","geometry":{"type":"Polygon","coordinates":[[[35.8969582,32.275601],[35.8972169,32.2756748],[35.8972659,32.2755902],[35.8969721,32.2755191],[35.8969582,32.275601]]]},"properties":{"site":"jerash","name":null,"category":"other","historic":null,"building":"yes","osm_id":834307479}},{"type":"Feature","geometry":{"type":"Polygon","coordinates":[[[35.896946,32.275621],[35.8969541,32.2756673],[35.8969729,32.2757106],[35.8970265,32.2758047],[35.8970563,32.2758358],[35.8970949,32.2758591],[35.8971968,32.2756856],[35.896946,32.275621]]]},"properties":{"site":"jerash","name":null,"category":"other","historic":null,"building":"yes","osm_id":834307480}},{"type":"Feature","geometry":{"type":"Polygon","coordinates":[[[35.8968054,32.2758423],[35.8969228,32.2758408],[35.896927,32.2758894],[35.8970394,32.2759165],[35.8970673,32.2758887],[35.8969896,32.2758051],[35.8969532,32.2758065],[35.8969346,32.2757523],[35.8968028,32.2757587],[35.8968054,32.2758423]]]},"properties":{"site":"jerash","name":null,"category":"other","historic":null,"building":"yes","osm_id":834307481}},{"type":"Feature","geometry":{"type":"Polygon","coordinates":[[[35.8970672,32.2759549],[35.896844,32.2758923],[35.8968041,32.2759941],[35.8969186,32.2760262],[35.8969343,32.2759863],[35.8970429,32.2760168],[35.8970672,32.2759549]]]},"properties":{"site":"jerash","name":null,"category":"other","historic":null,"building":"yes","osm_id":834307482}},{"type":"Feature","geometry":{"type":"Polygon","coordinates":[[[35.8967164,32.2757732],[35.8968609,32.2756921],[35.8967963,32.2756099],[35.8966519,32.275691],[35.8967164,32.2757732]]]},"properties":{"site":"jerash","name":null,"category":"other","historic":null,"building":"yes","osm_id":834307483}},{"type":"Feature","geometry":{"type":"Polygon","coordinates":[[[35.8968514,32.2761318],[35.8970133,32.2761474],[35.8970259,32.2760533],[35.896864,32.2760377],[35.8968514,32.2761318]]]},"properties":{"site":"jerash","name":null,"category":"other","historic":null,"building":"yes","osm_id":834307484}},{"type":"Feature","geometry":{"type":"Polygon","coordinates":[[[35.8967309,32.2760936],[35.8968534,32.2761033],[35.8968615,32.2760305],[35.8967389,32.2760209],[35.8967309,32.2760936]]]},"properties":{"site":"jerash","name":null,"category":"other","historic":null,"building":"yes","osm_id":834307485}},{"type":"Feature","geometry":{"type":"Polygon","coordinates":[[[35.8963657,32.2761417],[35.8964873,32.2761075],[35.8964689,32.2760607],[35.8966327,32.2760146],[35.8965344,32.275765],[35.8963786,32.2758088],[35.8963563,32.2757522],[35.8962267,32.2757886],[35.8963657,32.2761417]]]},"properties":{"site":"jerash","name":null,"category":"other","historic":null,"building":"yes","osm_id":834307486}},{"type":"Feature","geometry":{"type":"Polygon","coordinates":[[[35.8967725,32.2762625],[35.8968811,32.276266],[35.8968862,32.2761517],[35.8967572,32.2761476],[35.896754,32.2762204],[35.8967743,32.2762211],[35.8967725,32.2762625]]]},"properties":{"site":"jerash","name":null,"category":"other","historic":null,"building":"yes","osm_id":834307487}},{"type":"Feature","geometry":{"type":"Polygon","coordinates":[[[35.8965808,32.2763174],[35.8966481,32.276317],[35.8966479,32.2762997],[35.8966615,32.2762996],[35.8966613,32.2762852],[35.896746,32.2762846],[35.8967451,32.2761915],[35.8966258,32.2761923],[35.8966259,32.2762087],[35.8965797,32.2762091],[35.8965808,32.2763174]]]},"properties":{"site":"jerash","name":null,"category":"other","historic":null,"building":"yes","osm_id":834307488}},{"type":"Feature","geometry":{"type":"Polygon","coordinates":[[[35.8965691,32.2763882],[35.8964685,32.2763856],[35.8964728,32.276266],[35.8965734,32.2762686],[35.8965691,32.2763882]]]},"properties":{"site":"jerash","name":null,"category":"other","historic":null,"building":"yes","osm_id":834307489}},{"type":"Feature","geometry":{"type":"Polygon","coordinates":[[[35.895617,32.2765252],[35.8957139,32.2765288],[35.8958393,32.2764523],[35.8958845,32.2764516],[35.8958849,32.2764623],[35.8959622,32.2764623],[35.8959618,32.2764712],[35.8960116,32.2764712],[35.8960129,32.2764819],[35.8961897,32.276485],[35.8961971,32.2763508],[35.8960383,32.2763451],[35.8960399,32.2762266],[35.8956361,32.2761766],[35.895617,32.2765252]]]},"properties":{"site":"jerash","name":null,"category":"other","historic":null,"building":"yes","osm_id":834307490}},{"type":"Feature","geometry":{"type":"Polygon","coordinates":[[[35.8890469,32.2690657],[35.8890416,32.2688798],[35.8888903,32.2688829],[35.8888957,32.2690689],[35.8890469,32.2690657]]]},"properties":{"site":"jerash","name":null,"category":"other","historic":null,"building":"yes","osm_id":911457728}},{"type":"Feature","geometry":{"type":"Polygon","coordinates":[[[35.8897678,32.2688418],[35.8897378,32.2687921],[35.8897761,32.2687756],[35.8897068,32.2686608],[35.8895528,32.2687273],[35.8895816,32.268775],[35.8895696,32.2687802],[35.8895863,32.2688078],[35.8895484,32.2688241],[35.8895814,32.2688787],[35.8896312,32.2688572],[35.8896521,32.2688917],[35.8897678,32.2688418]]]},"properties":{"site":"jerash","name":null,"category":"other","historic":null,"building":"yes","osm_id":911457729}},{"type":"Feature","geometry":{"type":"Polygon","coordinates":[[[35.8898566,32.2688005],[35.8897617,32.268636],[35.889714,32.2686556],[35.8897835,32.2687762],[35.8897501,32.2687899],[35.8897755,32.2688339],[35.8898566,32.2688005]]]},"properties":{"site":"jerash","name":null,"category":"other","historic":null,"building":"yes","osm_id":911457730}},{"type":"Feature","geometry":{"type":"Polygon","coordinates":[[[35.8894747,32.2694059],[35.8894672,32.2692201],[35.889156,32.2692292],[35.8891636,32.269415],[35.8894747,32.2694059]]]},"properties":{"site":"jerash","name":null,"category":"other","historic":null,"building":"yes","osm_id":911457731}},{"type":"Feature","geometry":{"type":"Polygon","coordinates":[[[35.8899119,32.2695647],[35.8899029,32.269524],[35.8898573,32.2695313],[35.8898286,32.2694025],[35.8895469,32.2694474],[35.8895847,32.2696168],[35.8899119,32.2695647]]]},"properties":{"site":"jerash","name":null,"category":"other","historic":null,"building":"yes","osm_id":911457732}},{"type":"Feature","geometry":{"type":"Polygon","coordinates":[[[35.8879419,32.2716942],[35.8879814,32.2716675],[35.8879882,32.2716746],[35.8880161,32.2716557],[35.8880212,32.271661],[35.8880454,32.2716446],[35.8880559,32.2716557],[35.8881376,32.2716004],[35.8879501,32.2714021],[35.8878713,32.2714554],[35.8878799,32.2714645],[35.8878586,32.2714789],[35.887866,32.2714868],[35.8878335,32.2715088],[35.8878433,32.2715192],[35.8878024,32.2715468],[35.8879419,32.2716942]]]},"properties":{"site":"jerash","name":null,"category":"other","historic":null,"building":"yes","osm_id":911457737}},{"type":"Feature","geometry":{"type":"Polygon","coordinates":[[[35.8882342,32.2710762],[35.8883093,32.2710025],[35.8882384,32.2709508],[35.8881633,32.2710246],[35.8882342,32.2710762]]]},"properties":{"site":"jerash","name":null,"category":"other","historic":null,"building":"yes","osm_id":911457738}},{"type":"Feature","geometry":{"type":"Polygon","coordinates":[[[35.8880103,32.2712736],[35.888129,32.2711766],[35.8879802,32.2710462],[35.8878614,32.2711431],[35.8880103,32.2712736]]]},"properties":{"site":"jerash","name":null,"category":"other","historic":null,"building":"yes","osm_id":911457739}},{"type":"Feature","geometry":{"type":"Polygon","coordinates":[[[35.8876106,32.2710604],[35.8877244,32.2711176],[35.8877853,32.2710617],[35.8878089,32.2710706],[35.8878754,32.2710006],[35.8877206,32.2709152],[35.8876106,32.2710604]]]},"properties":{"site":"jerash","name":null,"category":"other","historic":null,"building":"yes","osm_id":911457740}},{"type":"Feature","geometry":{"type":"Polygon","coordinates":[[[35.8877058,32.2711772],[35.8875592,32.2710797],[35.8874815,32.2711632],[35.8875126,32.2711838],[35.8874828,32.2712158],[35.8876051,32.2712757],[35.887626,32.2712552],[35.8876355,32.2712622],[35.8877153,32.2711841],[35.8877058,32.2711772]]]},"properties":{"site":"jerash","name":null,"category":"other","historic":null,"building":"yes","osm_id":911457741}},{"type":"Feature","geometry":{"type":"Polygon","coordinates":[[[35.8888927,32.2715956],[35.8887197,32.2716137],[35.8887352,32.2717192],[35.888863,32.2717058],[35.8888593,32.2716803],[35.8889044,32.2716755],[35.8888927,32.2715956]]]},"properties":{"site":"jerash","name":null,"category":"other","historic":null,"building":"yes","osm_id":911457742}},{"type":"Feature","geometry":{"type":"Polygon","coordinates":[[[35.8886419,32.2719494],[35.8887837,32.2719472],[35.888781,32.2718202],[35.8886392,32.2718224],[35.8886419,32.2719494]]]},"properties":{"site":"jerash","name":null,"category":"other","historic":null,"building":"yes","osm_id":911457743}},{"type":"Feature","geometry":{"type":"Polygon","coordinates":[[[35.8884086,32.2718428],[35.8885242,32.2718099],[35.8884826,32.2717055],[35.888367,32.2717385],[35.8884086,32.2718428]]]},"properties":{"site":"jerash","name":null,"category":"other","historic":null,"building":"yes","osm_id":911457744}},{"type":"Feature","geometry":{"type":"Polygon","coordinates":[[[35.8880518,32.272039],[35.8879449,32.2719954],[35.8878509,32.2721605],[35.8879076,32.2721835],[35.8879144,32.2721716],[35.8879647,32.272192],[35.8880518,32.272039]]]},"properties":{"site":"jerash","name":null,"category":"other","historic":null,"building":"yes","osm_id":911457745}},{"type":"Feature","geometry":{"type":"Polygon","coordinates":[[[35.8883375,32.2720923],[35.8883561,32.2719851],[35.8882005,32.2719658],[35.8881819,32.272073],[35.8883375,32.2720923]]]},"properties":{"site":"jerash","name":null,"category":"other","historic":null,"building":"yes","osm_id":911457746}},{"type":"Feature","geometry":{"type":"Polygon","coordinates":[[[35.8883791,32.2720945],[35.8885358,32.2721489],[35.8885908,32.2720355],[35.8884341,32.2719811],[35.8883791,32.2720945]]]},"properties":{"site":"jerash","name":null,"category":"other","historic":null,"building":"yes","osm_id":911457747}},{"type":"Feature","geometry":{"type":"Polygon","coordinates":[[[35.8883026,32.2727102],[35.8882369,32.2725152],[35.8881405,32.2725384],[35.8881591,32.2725936],[35.8881112,32.2726052],[35.8881286,32.272657],[35.8881766,32.2726454],[35.8881826,32.2726631],[35.8881534,32.2726701],[35.8881682,32.2727139],[35.8881973,32.2727069],[35.8882063,32.2727335],[35.8883026,32.2727102]]]},"properties":{"site":"jerash","name":null,"category":"other","historic":null,"building":"yes","osm_id":911457748}},{"type":"Feature","geometry":{"type":"Polygon","coordinates":[[[35.8885387,32.2726377],[35.8884935,32.2725214],[35.8883227,32.2725688],[35.8883482,32.2726346],[35.8883592,32.2726315],[35.8883697,32.2726585],[35.8883539,32.2726629],[35.8883688,32.2727015],[35.8884671,32.2726742],[35.8884613,32.2726591],[35.8885387,32.2726377]]]},"properties":{"site":"jerash","name":null,"category":"other","historic":null,"building":"yes","osm_id":911457749}},{"type":"Feature","geometry":{"type":"Polygon","coordinates":[[[35.8888122,32.272454],[35.888603,32.2725379],[35.8886604,32.2726402],[35.8888697,32.2725563],[35.8888122,32.272454]]]},"properties":{"site":"jerash","name":null,"category":"other","historic":null,"building":"yes","osm_id":911457750}},{"type":"Feature","geometry":{"type":"Polygon","coordinates":[[[35.8857706,32.2703539],[35.8858424,32.2703595],[35.8858412,32.2703705],[35.8858845,32.2703738],[35.8858857,32.2703629],[35.8859745,32.2703698],[35.8859894,32.2702328],[35.8857855,32.2702169],[35.8857706,32.2703539]]]},"properties":{"site":"jerash","name":null,"category":"other","historic":null,"building":"yes","osm_id":911458543}},{"type":"Feature","geometry":{"type":"Polygon","coordinates":[[[35.8855507,32.2703517],[35.8857331,32.2703703],[35.8857626,32.2701639],[35.8855802,32.2701453],[35.8855507,32.2703517]]]},"properties":{"site":"jerash","name":null,"category":"other","historic":null,"building":"yes","osm_id":911458544}},{"type":"Feature","geometry":{"type":"Polygon","coordinates":[[[35.8871734,32.2711454],[35.8873451,32.2711454],[35.8873451,32.2710161],[35.8871734,32.2710161],[35.8871734,32.2711454]]]},"properties":{"site":"jerash","name":null,"category":"other","historic":null,"building":"yes","osm_id":911458545}},{"type":"Feature","geometry":{"type":"Polygon","coordinates":[[[35.886177,32.2708313],[35.886185,32.2707043],[35.8860908,32.2707],[35.8860859,32.2707771],[35.8860235,32.2707742],[35.8860203,32.2708242],[35.886177,32.2708313]]]},"properties":{"site":"jerash","name":null,"category":"other","historic":null,"building":"yes","osm_id":911458546}},{"type":"Feature","geometry":{"type":"Polygon","coordinates":[[[35.8856969,32.2709674],[35.8855126,32.2709425],[35.8855055,32.2709799],[35.8855593,32.2709872],[35.8855513,32.2710295],[35.8854975,32.2710222],[35.8854912,32.2710559],[35.8856754,32.2710808],[35.8856969,32.2709674]]]},"properties":{"site":"jerash","name":null,"category":"other","historic":null,"building":"yes","osm_id":911458547}},{"type":"Feature","geometry":{"type":"Polygon","coordinates":[[[35.8858444,32.2710989],[35.8859906,32.2711069],[35.8859938,32.2710641],[35.8859468,32.2710615],[35.8859497,32.2710234],[35.8858505,32.271018],[35.8858444,32.2710989]]]},"properties":{"site":"jerash","name":null,"category":"other","historic":null,"building":"yes","osm_id":911458548}},{"type":"Feature","geometry":{"type":"Polygon","coordinates":[[[35.8863969,32.2709878],[35.8864077,32.2708813],[35.8862347,32.2708688],[35.8862239,32.2709753],[35.8863969,32.2709878]]]},"properties":{"site":"jerash","name":null,"category":"other","historic":null,"building":"yes","osm_id":911458549}},{"type":"Feature","geometry":{"type":"Polygon","coordinates":[[[35.8864318,32.2709594],[35.8864347,32.2710099],[35.8865434,32.2710054],[35.8865404,32.2709549],[35.8864318,32.2709594]]]},"properties":{"site":"jerash","name":null,"category":"other","historic":null,"building":"yes","osm_id":911458550}},{"type":"Feature","geometry":{"type":"Polygon","coordinates":[[[35.8868019,32.2709946],[35.886806,32.2708563],[35.886593,32.2708518],[35.8865925,32.2708671],[35.8865573,32.2708664],[35.8865533,32.271005],[35.8866405,32.2710068],[35.886641,32.2709913],[35.8868019,32.2709946]]]},"properties":{"site":"jerash","name":null,"category":"other","historic":null,"building":"yes","osm_id":911458551}},{"type":"Feature","geometry":{"type":"Polygon","coordinates":[[[35.8866665,32.2707179],[35.8867878,32.2707199],[35.8867905,32.2706043],[35.8866692,32.2706023],[35.8866665,32.2707179]]]},"properties":{"site":"jerash","name":null,"category":"other","historic":null,"building":"yes","osm_id":911458552}},{"type":"Feature","geometry":{"type":"Polygon","coordinates":[[[35.8868395,32.2706453],[35.8867617,32.2708166],[35.8869032,32.2708625],[35.886981,32.2706913],[35.8868395,32.2706453]]]},"properties":{"site":"jerash","name":null,"category":"other","historic":null,"building":"yes","osm_id":911458553}},{"type":"Feature","geometry":{"type":"Polygon","coordinates":[[[35.8850464,32.2709458],[35.8848265,32.2709141],[35.8848045,32.2710228],[35.8848957,32.2710359],[35.8848929,32.2710498],[35.884935,32.2710559],[35.8849378,32.271042],[35.8850245,32.2710545],[35.8850464,32.2709458]]]},"properties":{"site":"jerash","name":null,"category":"other","historic":null,"building":"yes","osm_id":911458555}},{"type":"Feature","geometry":{"type":"Polygon","coordinates":[[[35.8852127,32.2693901],[35.8851645,32.2693466],[35.8849875,32.2694873],[35.884984,32.2695256],[35.8850357,32.2695307],[35.8852127,32.2693901]]]},"properties":{"site":"jerash","name":null,"category":"other","historic":null,"building":"yes","osm_id":911458557}},{"type":"Feature","geometry":{"type":"Polygon","coordinates":[[[35.885886,32.2692993],[35.8857653,32.2693046],[35.8857597,32.2692119],[35.8856671,32.269216],[35.8856711,32.2692824],[35.8856069,32.2692851],[35.8856085,32.2693114],[35.8854875,32.2693166],[35.885492,32.2693905],[35.885472,32.2693913],[35.8854778,32.2694867],[35.885588,32.2694819],[35.8855884,32.269488],[35.8857078,32.2694828],[35.8857075,32.2694767],[35.8858962,32.2694685],[35.885886,32.2692993]]]},"properties":{"site":"jerash","name":null,"category":"other","historic":null,"building":"yes","osm_id":911458559}},{"type":"Feature","geometry":{"type":"Polygon","coordinates":[[[35.8864304,32.269508],[35.8864143,32.2693084],[35.8862221,32.2693378],[35.8862543,32.2694965],[35.8864304,32.269508]]]},"properties":{"site":"jerash","name":null,"category":"other","historic":null,"building":"yes","osm_id":911458560}},{"type":"Feature","geometry":{"type":"Polygon","coordinates":[[[35.8867107,32.2692528],[35.8867107,32.2694649],[35.8868542,32.2694649],[35.8868542,32.2692551],[35.8867107,32.2692528]]]},"properties":{"site":"jerash","name":null,"category":"other","historic":null,"building":"roof","osm_id":911458561}},{"type":"Feature","geometry":{"type":"Polygon","coordinates":[[[35.8868542,32.2692551],[35.8869374,32.2692551],[35.8869374,32.2691497],[35.8866262,32.2691497],[35.8866262,32.2692528],[35.8867107,32.2692528],[35.8868542,32.2692551]]]},"properties":{"site":"jerash","name":null,"category":"other","historic":null,"building":"yes","osm_id":911458562}},{"type":"Feature","geometry":{"type":"Polygon","coordinates":[[[35.8867684,32.2690543],[35.886809,32.2690527],[35.8868099,32.2690696],[35.8869511,32.2690642],[35.8869409,32.2688717],[35.886759,32.2688786],[35.8867684,32.2690543]]]},"properties":{"site":"jerash","name":null,"category":"other","historic":null,"building":"yes","osm_id":911458563}},{"type":"Feature","geometry":{"type":"Polygon","coordinates":[[[35.8876026,32.26889],[35.8875704,32.2687426],[35.8874585,32.26876],[35.8874907,32.2689074],[35.8876026,32.26889]]]},"properties":{"site":"jerash","name":null,"category":"other","historic":null,"building":"yes","osm_id":911458564}},{"type":"Feature","geometry":{"type":"Polygon","coordinates":[[[35.8933761,32.2851417],[35.8933431,32.2850527],[35.8935209,32.2850055],[35.893554,32.2850945],[35.8933761,32.2851417]]]},"properties":{"site":"jerash","name":null,"category":"other","historic":null,"building":"yes","osm_id":914218660}},{"type":"Feature","geometry":{"type":"Polygon","coordinates":[[[35.8935327,32.2848431],[35.8936811,32.2848222],[35.8936757,32.2847944],[35.893738,32.2847857],[35.8937195,32.2846916],[35.8935088,32.2847212],[35.8935327,32.2848431]]]},"properties":{"site":"jerash","name":null,"category":"other","historic":null,"building":"yes","osm_id":914218661}},{"type":"Feature","geometry":{"type":"Polygon","coordinates":[[[35.8914204,32.2779504],[35.8915549,32.278064],[35.8917049,32.2779372],[35.8915704,32.2778235],[35.8914204,32.2779504]]]},"properties":{"site":"jerash","name":null,"category":"other","historic":null,"building":"yes","osm_id":914218664}},{"type":"Feature","geometry":{"type":"Polygon","coordinates":[[[35.8911787,32.280817],[35.8913562,32.2811014],[35.8907925,32.2813197],[35.8906234,32.2810593],[35.8908227,32.2809703],[35.8911787,32.280817]]]},"properties":{"site":"jerash","name":"The Baths of Placcus","category":"bath","historic":"ruins","building":"ruins","osm_id":1019386844}},{"type":"Feature","geometry":{"type":"Polygon","coordinates":[[[35.8920841,32.2853081],[35.8921627,32.2853527],[35.8922023,32.2853529],[35.8922248,32.2853246],[35.8922153,32.2853109],[35.8922321,32.2852898],[35.8921826,32.2852617],[35.8921177,32.2852657],[35.8920841,32.2853081]]]},"properties":{"site":"jerash","name":null,"category":"other","historic":null,"building":"yes","osm_id":1056721253}},{"type":"Feature","geometry":{"type":"Polygon","coordinates":[[[35.8965976,32.2868537],[35.8966748,32.2869183],[35.8967105,32.2868878],[35.8966332,32.2868232],[35.8965976,32.2868537]]]},"properties":{"site":"jerash","name":null,"category":"other","historic":null,"building":"apartments","osm_id":1057525926}},{"type":"Feature","geometry":{"type":"Polygon","coordinates":[[[35.8964477,32.2866615],[35.896532,32.2866238],[35.8964982,32.2865698],[35.8964139,32.2866075],[35.8964477,32.2866615]]]},"properties":{"site":"jerash","name":null,"category":"other","historic":null,"building":"roof","osm_id":1057525927}},{"type":"Feature","geometry":{"type":"Polygon","coordinates":[[[35.8961869,32.2868356],[35.8965211,32.2868018],[35.8963958,32.2866268],[35.8962716,32.2866394],[35.8961641,32.2866747],[35.8961869,32.2868356]]]},"properties":{"site":"jerash","name":null,"category":"other","historic":null,"building":"yes","osm_id":1057525928}},{"type":"Feature","geometry":{"type":"Polygon","coordinates":[[[35.8935925,32.2800213],[35.8936884,32.2801986],[35.8938482,32.2801368],[35.8937523,32.2799595],[35.8935925,32.2800213]]]},"properties":{"site":"jerash","name":null,"category":"other","historic":null,"building":"yes","osm_id":1057633555}},{"type":"Feature","geometry":{"type":"Polygon","coordinates":[[[35.890041,32.2747879],[35.8901861,32.2747379],[35.8901447,32.274652],[35.8899996,32.274702],[35.890041,32.2747879]]]},"properties":{"site":"jerash","name":null,"category":"other","historic":null,"building":"yes","osm_id":1057741779}},{"type":"Feature","geometry":{"type":"Polygon","coordinates":[[[35.8898687,32.2687719],[35.8900812,32.2686859],[35.8899024,32.268335],[35.88969,32.2684225],[35.8898687,32.2687719]]]},"properties":{"site":"jerash","name":null,"category":"other","historic":null,"building":"yes","osm_id":1230004595}},{"type":"Feature","geometry":{"type":"Polygon","coordinates":[[[35.8894346,32.2684525],[35.889647,32.2683664],[35.8894682,32.2680155],[35.8892558,32.268103],[35.8894346,32.2684525]]]},"properties":{"site":"jerash","name":null,"category":"other","historic":null,"building":"yes","osm_id":1230004596}},{"type":"Feature","geometry":{"type":"Polygon","coordinates":[[[35.8896699,32.2682745],[35.8898327,32.2682249],[35.8896978,32.2679676],[35.8895474,32.2680398],[35.8896699,32.2682745]]]},"properties":{"site":"jerash","name":null,"category":"other","historic":null,"building":"roof","osm_id":1230004597}},{"type":"Feature","geometry":{"type":"Polygon","coordinates":[[[35.8920074,32.2688681],[35.8921361,32.2686236],[35.891855,32.2685593],[35.8917658,32.2688042],[35.8920074,32.2688681]]]},"properties":{"site":"jerash","name":null,"category":"other","historic":null,"building":"yes","osm_id":1230004598}},{"type":"Feature","geometry":{"type":"Polygon","coordinates":[[[35.8895434,32.2699254],[35.8892473,32.26988],[35.8892859,32.2697186],[35.8893473,32.2697249],[35.8896013,32.2697512],[35.8895434,32.2699254]]]},"properties":{"site":"jerash","name":null,"category":"other","historic":null,"building":"yes","osm_id":1230004607}},{"type":"Feature","geometry":{"type":"Polygon","coordinates":[[[35.8888449,32.2698395],[35.8885337,32.269785],[35.8885359,32.2696762],[35.8888727,32.2697052],[35.8888449,32.2698395]]]},"properties":{"site":"jerash","name":null,"category":"other","historic":null,"building":"yes","osm_id":1230004608}},{"type":"Feature","geometry":{"type":"Polygon","coordinates":[[[35.8884672,32.2697796],[35.8884994,32.2696562],[35.8880874,32.2696],[35.8880659,32.2697306],[35.8884672,32.2697796]]]},"properties":{"site":"jerash","name":null,"category":"other","historic":null,"building":"yes","osm_id":1230004609}},{"type":"Feature","geometry":{"type":"Polygon","coordinates":[[[35.8881304,32.2689274],[35.888334,32.2688531],[35.8883209,32.2687205],[35.8880762,32.2687378],[35.8881304,32.2689274]]]},"properties":{"site":"jerash","name":null,"category":"other","historic":null,"building":"yes","osm_id":1230004610}},{"type":"Feature","geometry":{"type":"Polygon","coordinates":[[[35.8862799,32.2715417],[35.8862907,32.2714352],[35.8861177,32.2714227],[35.8861069,32.2715292],[35.8862799,32.2715417]]]},"properties":{"site":"jerash","name":null,"category":"other","historic":null,"building":"yes","osm_id":1230004612}},{"type":"Feature","geometry":{"type":"Polygon","coordinates":[[[35.8865715,32.2715728],[35.8865823,32.2714663],[35.8864093,32.2714538],[35.8863985,32.2715603],[35.8865715,32.2715728]]]},"properties":{"site":"jerash","name":null,"category":"other","historic":null,"building":"yes","osm_id":1230004613}},{"type":"Feature","geometry":{"type":"Polygon","coordinates":[[[35.8859147,32.271489],[35.8859255,32.2713826],[35.8857525,32.2713701],[35.8857417,32.2714765],[35.8859147,32.271489]]]},"properties":{"site":"jerash","name":null,"category":"other","historic":null,"building":"yes","osm_id":1230004614}},{"type":"Feature","geometry":{"type":"Polygon","coordinates":[[[35.8863252,32.2713741],[35.886336,32.2712676],[35.886163,32.2712551],[35.8861522,32.2713616],[35.8863252,32.2713741]]]},"properties":{"site":"jerash","name":null,"category":"other","historic":null,"building":"yes","osm_id":1230004615}},{"type":"Feature","geometry":{"type":"Polygon","coordinates":[[[35.8858835,32.2713119],[35.8858943,32.2712054],[35.8857213,32.2711929],[35.8857105,32.2712994],[35.8858835,32.2713119]]]},"properties":{"site":"jerash","name":null,"category":"other","historic":null,"building":"yes","osm_id":1230004616}},{"type":"Feature","geometry":{"type":"Polygon","coordinates":[[[35.8853654,32.2713215],[35.8853762,32.271215],[35.8852032,32.2712025],[35.8851924,32.271309],[35.8853654,32.2713215]]]},"properties":{"site":"jerash","name":null,"category":"other","historic":null,"building":"yes","osm_id":1230004617}},{"type":"Feature","geometry":{"type":"Polygon","coordinates":[[[35.8853116,32.2715202],[35.8853224,32.2714137],[35.8851494,32.2714012],[35.8851386,32.2715077],[35.8853116,32.2715202]]]},"properties":{"site":"jerash","name":null,"category":"other","historic":null,"building":"yes","osm_id":1230004618}},{"type":"Feature","geometry":{"type":"Polygon","coordinates":[[[35.8852238,32.2717332],[35.8852346,32.2716267],[35.8850616,32.2716142],[35.8850508,32.2717207],[35.8852238,32.2717332]]]},"properties":{"site":"jerash","name":null,"category":"other","historic":null,"building":"yes","osm_id":1230004619}},{"type":"Feature","geometry":{"type":"Polygon","coordinates":[[[35.8855183,32.2717739],[35.8855291,32.2716674],[35.8853561,32.2716549],[35.8853453,32.2717614],[35.8855183,32.2717739]]]},"properties":{"site":"jerash","name":null,"category":"other","historic":null,"building":"yes","osm_id":1230004620}},{"type":"Feature","geometry":{"type":"Polygon","coordinates":[[[35.8856117,32.2712951],[35.8856225,32.2711886],[35.8854495,32.2711761],[35.8854387,32.2712826],[35.8856117,32.2712951]]]},"properties":{"site":"jerash","name":null,"category":"other","historic":null,"building":"yes","osm_id":1230004621}},{"type":"Feature","geometry":{"type":"Polygon","coordinates":[[[35.8861157,32.2719319],[35.8861265,32.2718254],[35.8859535,32.2718129],[35.8859427,32.2719194],[35.8861157,32.2719319]]]},"properties":{"site":"jerash","name":null,"category":"other","historic":null,"building":"yes","osm_id":1230004622}},{"type":"Feature","geometry":{"type":"Polygon","coordinates":[[[35.8861211,32.2717147],[35.8861319,32.2716082],[35.8859589,32.2715957],[35.8859481,32.2717022],[35.8861211,32.2717147]]]},"properties":{"site":"jerash","name":null,"category":"other","historic":null,"building":"yes","osm_id":1230004623}},{"type":"Feature","geometry":{"type":"Polygon","coordinates":[[[35.8865203,32.2717601],[35.8865311,32.2716536],[35.8863581,32.2716411],[35.8863473,32.2717476],[35.8865203,32.2717601]]]},"properties":{"site":"jerash","name":null,"category":"other","historic":null,"building":"yes","osm_id":1230004624}},{"type":"Feature","geometry":{"type":"Polygon","coordinates":[[[35.8864623,32.2719524],[35.8864731,32.2718459],[35.8863001,32.2718334],[35.8862893,32.2719399],[35.8864623,32.2719524]]]},"properties":{"site":"jerash","name":null,"category":"other","historic":null,"building":"yes","osm_id":1230004625}},{"type":"Feature","geometry":{"type":"Polygon","coordinates":[[[35.8861104,32.2721193],[35.8861212,32.2720128],[35.8859482,32.2720003],[35.8859374,32.2721068],[35.8861104,32.2721193]]]},"properties":{"site":"jerash","name":null,"category":"other","historic":null,"building":"yes","osm_id":1230004626}},{"type":"Feature","geometry":{"type":"Polygon","coordinates":[[[35.8863937,32.2721665],[35.8864045,32.27206],[35.8862315,32.2720475],[35.8862207,32.272154],[35.8863937,32.2721665]]]},"properties":{"site":"jerash","name":null,"category":"other","historic":null,"building":"yes","osm_id":1230004627}},{"type":"Feature","geometry":{"type":"Polygon","coordinates":[[[35.8863357,32.2723261],[35.8863465,32.2722196],[35.8861735,32.2722071],[35.8861627,32.2723136],[35.8863357,32.2723261]]]},"properties":{"site":"jerash","name":null,"category":"other","historic":null,"building":"yes","osm_id":1230004628}},{"type":"Feature","geometry":{"type":"Polygon","coordinates":[[[35.8861126,32.2723261],[35.8861234,32.2722196],[35.8859504,32.2722071],[35.8859396,32.2723136],[35.8861126,32.2723261]]]},"properties":{"site":"jerash","name":null,"category":"other","historic":null,"building":"yes","osm_id":1230004629}},{"type":"Feature","geometry":{"type":"Polygon","coordinates":[[[35.8858701,32.2723116],[35.8858809,32.2722051],[35.8857079,32.2721926],[35.8856971,32.2722991],[35.8858701,32.2723116]]]},"properties":{"site":"jerash","name":null,"category":"other","historic":null,"building":"yes","osm_id":1230004630}},{"type":"Feature","geometry":{"type":"Polygon","coordinates":[[[35.8856448,32.2723225],[35.8856556,32.272216],[35.8854826,32.2722035],[35.8854718,32.27231],[35.8856448,32.2723225]]]},"properties":{"site":"jerash","name":null,"category":"other","historic":null,"building":"yes","osm_id":1230004631}},{"type":"Feature","geometry":{"type":"Polygon","coordinates":[[[35.8853937,32.2723588],[35.8854045,32.2722523],[35.8852315,32.2722398],[35.8852207,32.2723463],[35.8853937,32.2723588]]]},"properties":{"site":"jerash","name":null,"category":"other","historic":null,"building":"yes","osm_id":1230004632}},{"type":"Feature","geometry":{"type":"Polygon","coordinates":[[[35.8851942,32.2723733],[35.885205,32.2722668],[35.885032,32.2722543],[35.8850212,32.2723608],[35.8851942,32.2723733]]]},"properties":{"site":"jerash","name":null,"category":"other","historic":null,"building":"yes","osm_id":1230004633}},{"type":"Feature","geometry":{"type":"Polygon","coordinates":[[[35.8856233,32.2720359],[35.8856341,32.2719294],[35.8854611,32.2719169],[35.8854503,32.2720234],[35.8856233,32.2720359]]]},"properties":{"site":"jerash","name":null,"category":"other","historic":null,"building":"yes","osm_id":1230004634}},{"type":"Feature","geometry":{"type":"Polygon","coordinates":[[[35.8853572,32.2720232],[35.885368,32.2719167],[35.885195,32.2719042],[35.8851842,32.2720107],[35.8853572,32.2720232]]]},"properties":{"site":"jerash","name":null,"category":"other","historic":null,"building":"yes","osm_id":1230004635}},{"type":"Feature","geometry":{"type":"Polygon","coordinates":[[[35.885162,32.2720123],[35.8851728,32.2719058],[35.8849998,32.2718933],[35.884989,32.2719998],[35.885162,32.2720123]]]},"properties":{"site":"jerash","name":null,"category":"other","historic":null,"building":"yes","osm_id":1230004636}},{"type":"Feature","geometry":{"type":"Polygon","coordinates":[[[35.8852027,32.2727267],[35.8852135,32.2726202],[35.8850405,32.2726077],[35.8850297,32.2727142],[35.8852027,32.2727267]]]},"properties":{"site":"jerash","name":null,"category":"other","historic":null,"building":"yes","osm_id":1230004639}},{"type":"Feature","geometry":{"type":"Polygon","coordinates":[[[35.8852569,32.2725496],[35.8852677,32.2724431],[35.8850947,32.2724306],[35.8850839,32.2725371],[35.8852569,32.2725496]]]},"properties":{"site":"jerash","name":null,"category":"other","historic":null,"building":"yes","osm_id":1230004640}},{"type":"Feature","geometry":{"type":"Polygon","coordinates":[[[35.8854196,32.2729559],[35.8854304,32.2728494],[35.8852574,32.2728369],[35.8852466,32.2729434],[35.8854196,32.2729559]]]},"properties":{"site":"jerash","name":null,"category":"other","historic":null,"building":"yes","osm_id":1230004641}},{"type":"Feature","geometry":{"type":"Polygon","coordinates":[[[35.8856463,32.2731935],[35.8856571,32.273087],[35.8854841,32.2730745],[35.8854733,32.273181],[35.8856463,32.2731935]]]},"properties":{"site":"jerash","name":null,"category":"other","historic":null,"building":"yes","osm_id":1230004642}},{"type":"Feature","geometry":{"type":"Polygon","coordinates":[[[35.8854073,32.2733248],[35.8854181,32.2732183],[35.8852451,32.2732058],[35.8852343,32.2733123],[35.8854073,32.2733248]]]},"properties":{"site":"jerash","name":null,"category":"other","historic":null,"building":"yes","osm_id":1230004643}},{"type":"Feature","geometry":{"type":"Polygon","coordinates":[[[35.8858706,32.2731175],[35.885911,32.2730328],[35.885738,32.2730203],[35.8857272,32.2731268],[35.8858706,32.2731175]]]},"properties":{"site":"jerash","name":null,"category":"other","historic":null,"building":"yes","osm_id":1230004644}},{"type":"Feature","geometry":{"type":"Polygon","coordinates":[[[35.8862231,32.272933],[35.8862339,32.2728265],[35.8860609,32.272814],[35.8860501,32.2729205],[35.8862231,32.272933]]]},"properties":{"site":"jerash","name":null,"category":"other","historic":null,"building":"yes","osm_id":1230004645}},{"type":"Feature","geometry":{"type":"Polygon","coordinates":[[[35.8862478,32.2728121],[35.8862586,32.2727056],[35.8860856,32.2726931],[35.8860748,32.2727996],[35.8862478,32.2728121]]]},"properties":{"site":"jerash","name":null,"category":"other","historic":null,"building":"yes","osm_id":1230004646}},{"type":"Feature","geometry":{"type":"Polygon","coordinates":[[[35.8862798,32.2726496],[35.8862906,32.2725431],[35.8861176,32.2725306],[35.8861068,32.2726371],[35.8862798,32.2726496]]]},"properties":{"site":"jerash","name":null,"category":"other","historic":null,"building":"yes","osm_id":1230004647}},{"type":"Feature","geometry":{"type":"Polygon","coordinates":[[[35.8863069,32.2725162],[35.8863177,32.2724097],[35.8861447,32.2723972],[35.8861339,32.2725037],[35.8863069,32.2725162]]]},"properties":{"site":"jerash","name":null,"category":"other","historic":null,"building":"yes","osm_id":1230004648}},{"type":"Feature","geometry":{"type":"Polygon","coordinates":[[[35.8963181,32.2706545],[35.8963289,32.270548],[35.8961559,32.2705355],[35.8961451,32.270642],[35.8963181,32.2706545]]]},"properties":{"site":"jerash","name":null,"category":"other","historic":null,"building":"yes","osm_id":1230004649}},{"type":"Feature","geometry":{"type":"Polygon","coordinates":[[[35.8965637,32.2705857],[35.8965745,32.2704792],[35.8964015,32.2704667],[35.8963907,32.2705732],[35.8965637,32.2705857]]]},"properties":{"site":"jerash","name":null,"category":"other","historic":null,"building":"yes","osm_id":1230004650}},{"type":"Feature","geometry":{"type":"Polygon","coordinates":[[[35.896793,32.270539],[35.8968038,32.2704325],[35.8966308,32.27042],[35.89662,32.2705265],[35.896793,32.270539]]]},"properties":{"site":"jerash","name":null,"category":"other","historic":null,"building":"yes","osm_id":1230004651}},{"type":"Feature","geometry":{"type":"Polygon","coordinates":[[[35.8970954,32.270517],[35.8971062,32.2704105],[35.8969332,32.270398],[35.8969224,32.2705045],[35.8970954,32.270517]]]},"properties":{"site":"jerash","name":null,"category":"other","historic":null,"building":"yes","osm_id":1230004652}},{"type":"Feature","geometry":{"type":"Polygon","coordinates":[[[35.8963636,32.2703822],[35.8963744,32.2702757],[35.8962014,32.2702632],[35.8961906,32.2703697],[35.8963636,32.2703822]]]},"properties":{"site":"jerash","name":null,"category":"other","historic":null,"building":"yes","osm_id":1230004653}},{"type":"Feature","geometry":{"type":"Polygon","coordinates":[[[35.8966905,32.2703148],[35.8967013,32.2702083],[35.8965283,32.2701958],[35.8965175,32.2703023],[35.8966905,32.2703148]]]},"properties":{"site":"jerash","name":null,"category":"other","historic":null,"building":"yes","osm_id":1230004654}},{"type":"Feature","geometry":{"type":"Polygon","coordinates":[[[35.8977501,32.2700931],[35.8977029,32.2699667],[35.897399,32.2700612],[35.8974462,32.2701569],[35.8977501,32.2700931]]]},"properties":{"site":"jerash","name":null,"category":"other","historic":null,"building":"yes","osm_id":1230004655}},{"type":"Feature","geometry":{"type":"Polygon","coordinates":[[[35.8882713,32.2702889],[35.8883076,32.2700651],[35.8879464,32.2700278],[35.8878888,32.2702596],[35.8882713,32.2702889]]]},"properties":{"site":"jerash","name":null,"category":"other","historic":null,"building":"yes","osm_id":1230004656}},{"type":"Feature","geometry":{"type":"Polygon","coordinates":[[[35.887688,32.2701213],[35.8876988,32.2700148],[35.8875258,32.2700023],[35.887515,32.2701088],[35.887688,32.2701213]]]},"properties":{"site":"jerash","name":null,"category":"other","historic":null,"building":"yes","osm_id":1230004657}},{"type":"Feature","geometry":{"type":"Polygon","coordinates":[[[35.8876456,32.2702937],[35.8876564,32.2701872],[35.8874834,32.2701747],[35.8874726,32.2702812],[35.8876456,32.2702937]]]},"properties":{"site":"jerash","name":null,"category":"other","historic":null,"building":"yes","osm_id":1230004658}},{"type":"Feature","geometry":{"type":"Polygon","coordinates":[[[35.8878579,32.2702913],[35.8878687,32.2701848],[35.8876957,32.2701723],[35.8876849,32.2702788],[35.8878579,32.2702913]]]},"properties":{"site":"jerash","name":null,"category":"other","historic":null,"building":"yes","osm_id":1230004659}},{"type":"Feature","geometry":{"type":"Polygon","coordinates":[[[35.8879004,32.2701452],[35.8879112,32.2700387],[35.8877382,32.2700262],[35.8877274,32.2701327],[35.8879004,32.2701452]]]},"properties":{"site":"jerash","name":null,"category":"other","historic":null,"building":"yes","osm_id":1230004660}},{"type":"Feature","geometry":{"type":"Polygon","coordinates":[[[35.8868443,32.2702913],[35.8868551,32.2701848],[35.8866821,32.2701723],[35.8866713,32.2702788],[35.8868443,32.2702913]]]},"properties":{"site":"jerash","name":null,"category":"other","historic":null,"building":"yes","osm_id":1230004661}},{"type":"Feature","geometry":{"type":"Polygon","coordinates":[[[35.886983,32.270016],[35.8869938,32.2699095],[35.8868208,32.269897],[35.88681,32.2700035],[35.886983,32.270016]]]},"properties":{"site":"jerash","name":null,"category":"other","historic":null,"building":"yes","osm_id":1230004662}},{"type":"Feature","geometry":{"type":"Polygon","coordinates":[[[35.8872322,32.2700471],[35.887243,32.2699406],[35.88707,32.2699281],[35.8870592,32.2700346],[35.8872322,32.2700471]]]},"properties":{"site":"jerash","name":null,"category":"other","historic":null,"building":"yes","osm_id":1230004663}},{"type":"Feature","geometry":{"type":"Polygon","coordinates":[[[35.8866008,32.26998],[35.8866116,32.2698735],[35.886096,32.2698515],[35.8860852,32.2699651],[35.8866008,32.26998]]]},"properties":{"site":"jerash","name":null,"category":"other","historic":null,"building":"yes","osm_id":1230004664}},{"type":"Feature","geometry":{"type":"Polygon","coordinates":[[[35.8855532,32.2700734],[35.8856093,32.269852],[35.8852579,32.2698682],[35.8852556,32.2700705],[35.8855532,32.2700734]]]},"properties":{"site":"jerash","name":null,"category":"other","historic":null,"building":"yes","osm_id":1230004665}},{"type":"Feature","geometry":{"type":"Polygon","coordinates":[[[35.885893,32.2699609],[35.8859038,32.2698544],[35.8857308,32.2698419],[35.88572,32.2699484],[35.885893,32.2699609]]]},"properties":{"site":"jerash","name":null,"category":"other","historic":null,"building":"yes","osm_id":1230004667}},{"type":"Feature","geometry":{"type":"Polygon","coordinates":[[[35.8904334,32.2725293],[35.8904315,32.2724918],[35.8905853,32.2724568],[35.8907026,32.2724385],[35.8907884,32.2724376],[35.8909088,32.2724518],[35.8909796,32.2724643],[35.8909787,32.2725051],[35.8909027,32.272491],[35.8907884,32.2724751],[35.8907016,32.2724768],[35.8905932,32.272491],[35.8904334,32.2725293]]]},"properties":{"site":"jerash","name":null,"category":"archaeological","historic":null,"building":"ruins","osm_id":1504209029}},{"type":"Feature","geometry":{"type":"Polygon","coordinates":[[[35.890976,32.2732411],[35.890977,32.2729484],[35.8909787,32.2725051],[35.8909796,32.2724643],[35.8910977,32.2724822],[35.8911003,32.2729495],[35.891102,32.2732398],[35.8910822,32.27324],[35.890976,32.2732411]]]},"properties":{"site":"jerash","name":null,"category":"archaeological","historic":null,"building":"ruins","osm_id":1504209030}},{"type":"Feature","geometry":{"type":"Polygon","coordinates":[[[35.891102,32.2732398],[35.8910762,32.2745557],[35.8910368,32.2746358],[35.8909767,32.2746974],[35.8909323,32.2747358],[35.8908347,32.2747825],[35.8907706,32.2748058],[35.8906661,32.2748192],[35.890671,32.2746958],[35.8907331,32.2746849],[35.8907844,32.2746724],[35.8908396,32.2746483],[35.8908761,32.2746183],[35.8909076,32.2745832],[35.8909323,32.2745207],[35.8909422,32.2743882],[35.8909589,32.273978],[35.8909599,32.2736229],[35.8909658,32.2733137],[35.8910802,32.2733145],[35.8910822,32.27324],[35.891102,32.2732398]]]},"properties":{"site":"jerash","name":null,"category":"archaeological","historic":null,"building":"ruins","osm_id":1504209031}},{"type":"Feature","geometry":{"type":"Polygon","coordinates":[[[35.8866757,32.2672347],[35.8866669,32.2672282],[35.886748,32.26715],[35.8867568,32.2671565],[35.8866757,32.2672347]]]},"properties":{"site":"jerash","name":"Artemis retaurant","category":"other","historic":"city_gate","building":"yes","osm_id":1504715360}},{"type":"Feature","geometry":{"type":"Polygon","coordinates":[[[35.8895636,32.2825689],[35.8899402,32.2824393],[35.8900281,32.2826218],[35.8896516,32.2827515],[35.8895636,32.2825689]]]},"properties":{"site":"jerash","name":"Synagogue Church","category":"medieval","historic":"ruins","building":"yes","osm_id":1527425000}}]}