{"type":"FeatureCollection","features":[{"type":"Feature","geometry":{"type":"LineString","coordinates":[[35.890433,32.272053],[35.8905864,32.2721217],[35.8906017,32.2721256],[35.8906174,32.2721274],[35.8906325,32.2721273],[35.8906469,32.2721257],[35.8909717,32.2720743],[35.891067,32.2720898],[35.8912535,32.2721202],[35.8912546,32.2721592]]},"properties":{"site":"jerash","name":"","highway":"footway"}},{"type":"Feature","geometry":{"type":"LineString","coordinates":[[35.8927391,32.2811427],[35.8922637,32.2813323]]},"properties":{"site":"jerash","name":"","highway":"steps"}},{"type":"Feature","geometry":{"type":"LineString","coordinates":[[35.8903799,32.2774332],[35.890283,32.2774194],[35.8901893,32.2773941],[35.8901009,32.2773579],[35.8900189,32.277312],[35.8899367,32.2772759],[35.889868,32.2772554],[35.8897969,32.2772416],[35.8897214,32.2772335],[35.8896479,32.2772164],[35.8895544,32.2771788],[35.8894764,32.2771327],[35.8894261,32.2771079],[35.8893419,32.2770837],[35.8892533,32.2770772],[35.8891655,32.2770888],[35.8889946,32.2771189],[35.8888545,32.2771393],[35.8887445,32.2771529],[35.888656,32.2771608],[35.8885802,32.2771636],[35.8884904,32.2771597],[35.8884173,32.2771501],[35.8883349,32.2771382],[35.8882729,32.2771241],[35.8881611,32.2770775]]},"properties":{"site":"jerash","name":"","highway":"track"}},{"type":"Feature","geometry":{"type":"LineString","coordinates":[[35.8895344,32.2776359],[35.8895391,32.2777039],[35.8895499,32.2777776],[35.8896699,32.2781546],[35.889688,32.2782193],[35.8897584,32.27845],[35.8898,32.2785844],[35.8898107,32.2786257],[35.8898234,32.2786892],[35.8898275,32.2788967],[35.8898301,32.2789738],[35.8898409,32.2791592],[35.8898234,32.2792851],[35.8897731,32.2795464],[35.8897249,32.2797341],[35.8897041,32.2799251],[35.8897001,32.2800442],[35.8896213,32.2801517],[35.889493,32.2803596],[35.889464,32.2804705],[35.8894841,32.2806848],[35.8895243,32.2808617],[35.8895029,32.2809478],[35.8894774,32.2809966],[35.88946,32.2810125],[35.8897202,32.2814961],[35.8897215,32.2815117],[35.8896612,32.2815386],[35.8895958,32.2815729],[35.8895782,32.2815878],[35.8895975,32.2816055],[35.889625,32.2816128],[35.8896773,32.28161],[35.8900943,32.28161],[35.8902432,32.2815987],[35.8903438,32.2815658],[35.890435,32.2814762],[35.8904965,32.2814418],[35.890561,32.2814082],[35.8907957,32.2813674],[35.8909432,32.2813799],[35.891013,32.2814121],[35.8910665,32.2814865],[35.8912812,32.2815624]]},"properties":{"site":"jerash","name":"","highway":"track"}},{"type":"Feature","geometry":{"type":"LineString","coordinates":[[35.8911931,32.2817978],[35.8912208,32.281766],[35.8911578,32.2816134],[35.8912812,32.2815624],[35.8915553,32.281548]]},"properties":{"site":"jerash","name":"","highway":"footway"}},{"type":"Feature","geometry":{"type":"LineString","coordinates":[[35.8913498,32.2786413],[35.8913154,32.2786569],[35.8912671,32.2786768],[35.8910757,32.2787625],[35.8910211,32.2787858]]},"properties":{"site":"jerash","name":"","highway":"footway"}},{"type":"Feature","geometry":{"type":"LineString","coordinates":[[35.893946,32.2807874],[35.8937985,32.2808328],[35.8937589,32.28086],[35.8937307,32.2808849],[35.8937026,32.2809195],[35.8936757,32.2809696],[35.8935779,32.2811973],[35.8935544,32.2812421],[35.8935288,32.2812811],[35.8934981,32.281322],[35.8934525,32.2813742],[35.8934055,32.2814286],[35.893294,32.2815364],[35.8932298,32.2816066],[35.8931802,32.2816769],[35.8931534,32.2817222],[35.8931286,32.2817602],[35.8931,32.2817949]]},"properties":{"site":"jerash","name":"","highway":"track"}},{"type":"Feature","geometry":{"type":"LineString","coordinates":[[35.8895791,32.2719259],[35.8895144,32.2720262],[35.8900197,32.2722496],[35.8902361,32.2723429],[35.8902494,32.2723504],[35.8902574,32.272362],[35.8902585,32.2723755],[35.8902526,32.2723879],[35.8901901,32.2724876],[35.8901798,32.2724987],[35.890165,32.2725053],[35.8901483,32.2725063],[35.8901326,32.2725016],[35.8894635,32.2722003],[35.8894474,32.2721919],[35.8894366,32.2721787],[35.889433,32.2721629],[35.8894372,32.2721473],[35.8895144,32.2720262]]},"properties":{"site":"jerash","name":"","highway":"service"}},{"type":"Feature","geometry":{"type":"LineString","coordinates":[[35.8895642,32.2765753],[35.8896002,32.276651],[35.8896234,32.2767302],[35.8896335,32.2768114],[35.8896308,32.2768981]]},"properties":{"site":"jerash","name":"","highway":"footway"}},{"type":"Feature","geometry":{"type":"LineString","coordinates":[[35.8922864,32.2806858],[35.8920786,32.2807675],[35.891935,32.280857],[35.8917634,32.2810112],[35.8916787,32.2810449],[35.8915985,32.2809906],[35.8915059,32.2809931],[35.8914093,32.2810203],[35.8912719,32.280789],[35.8912653,32.2807779],[35.8913879,32.28073],[35.8913508,32.2806778],[35.8913235,32.2806393],[35.8911789,32.2806808],[35.8911729,32.2806712],[35.8911569,32.2806459],[35.8910062,32.2805772],[35.8908463,32.2806265],[35.8907227,32.2805396],[35.8906047,32.2805577],[35.8904545,32.2805214],[35.8903216,32.2806619],[35.8899663,32.2803133],[35.8897001,32.2800442],[35.889925,32.2799821],[35.8901792,32.2798917]]},"properties":{"site":"jerash","name":"","highway":"footway"}},{"type":"Feature","geometry":{"type":"LineString","coordinates":[[35.8903216,32.2806619],[35.8905126,32.2809578],[35.8905221,32.2809704],[35.8906279,32.281128],[35.8907957,32.2813674]]},"properties":{"site":"jerash","name":"","highway":"footway"}},{"type":"Feature","geometry":{"type":"LineString","coordinates":[[35.8896213,32.2801517],[35.8894603,32.2800897],[35.8892129,32.2799494],[35.8890824,32.2798389],[35.8890191,32.2798331],[35.888458,32.2801173],[35.8880883,32.2802015],[35.8879821,32.2803122],[35.8879879,32.2807558],[35.8880411,32.2809706],[35.8879836,32.2812186],[35.8877029,32.2816699],[35.888064,32.2818535],[35.8884232,32.2818218],[35.8887477,32.2817384],[35.888983,32.2818036],[35.8892976,32.2817356],[35.8895782,32.2815878]]},"properties":{"site":"jerash","name":"","highway":"footway"}},{"type":"Feature","geometry":{"type":"LineString","coordinates":[[35.8903704,32.2776122],[35.890372,32.2776156],[35.8903938,32.2776584],[35.8904275,32.2777093],[35.8904478,32.2777392],[35.8905034,32.277804],[35.8905398,32.2778352],[35.8905812,32.2778674],[35.8906392,32.2779024],[35.8907195,32.277929],[35.890749,32.2779383],[35.890787,32.2779421],[35.8908315,32.2779387],[35.8908777,32.2779287],[35.8909209,32.2779173],[35.8909386,32.2779077],[35.8909748,32.277883],[35.8909882,32.2778598],[35.8910294,32.2777825],[35.8910577,32.2776934],[35.8910965,32.2775547],[35.8911114,32.2774636],[35.8911117,32.2774148],[35.891108,32.2773627],[35.8910874,32.2772843],[35.8910548,32.2772274],[35.8910226,32.2771893],[35.8909923,32.2771581],[35.8909484,32.2771216],[35.8909079,32.2770879],[35.8908548,32.2770369],[35.8908412,32.2770215],[35.8908038,32.277066],[35.8907619,32.2771037],[35.8907363,32.2771312],[35.8906847,32.2771776],[35.8904663,32.2773897],[35.8903799,32.2774332],[35.8903337,32.2774565],[35.8903399,32.2775017],[35.8903537,32.2775656],[35.8903704,32.2776122]]},"properties":{"site":"jerash","name":"Oval Plaza (Forum)","highway":"footway"}},{"type":"Feature","geometry":{"type":"LineString","coordinates":[[35.8896213,32.2801517],[35.8893029,32.2803207],[35.8891983,32.2804001],[35.8891715,32.2804795],[35.8891983,32.2805497],[35.8892627,32.2806336],[35.88946,32.2810125]]},"properties":{"site":"jerash","name":"","highway":"footway"}},{"type":"Feature","geometry":{"type":"LineString","coordinates":[[35.89179,32.2822164],[35.8918724,32.2823185],[35.8918966,32.2824251],[35.8918803,32.282532],[35.8917329,32.2826677],[35.8915921,32.2830181],[35.8915358,32.2831121],[35.8914822,32.283176],[35.8914031,32.2833015],[35.8914889,32.2834807],[35.8916458,32.2836496],[35.8915894,32.2839137],[35.8917195,32.2842732]]},"properties":{"site":"jerash","name":"","highway":"footway"}},{"type":"Feature","geometry":{"type":"LineString","coordinates":[[35.8877029,32.2816699],[35.8876507,32.2816586],[35.887715,32.2821666],[35.8877357,32.2824645],[35.8879725,32.2827153],[35.8881892,32.2826363],[35.8885982,32.2824745],[35.8890662,32.2823437],[35.8893847,32.2822628],[35.8900139,32.2822905],[35.8902184,32.2823747],[35.8903272,32.2825277],[35.890526,32.2826247],[35.8909686,32.2827108],[35.8911635,32.2827371],[35.8912762,32.2827116],[35.8913708,32.28267],[35.8916498,32.2823366],[35.89179,32.2822164],[35.8917659,32.2821603],[35.8917209,32.2818628],[35.8915553,32.281548]]},"properties":{"site":"jerash","name":"","highway":"footway"}},{"type":"Feature","geometry":{"type":"LineString","coordinates":[[35.8917659,32.2821603],[35.8920964,32.2822425]]},"properties":{"site":"jerash","name":"","highway":"footway"}},{"type":"Feature","geometry":{"type":"LineString","coordinates":[[35.8898409,32.2791592],[35.8895979,32.2793864],[35.889319,32.2796812],[35.8890191,32.2798331]]},"properties":{"site":"jerash","name":"","highway":"footway"}},{"type":"Feature","geometry":{"type":"LineString","coordinates":[[35.8879821,32.2803122],[35.8877687,32.2803026],[35.8875916,32.2801847],[35.8875863,32.2799579],[35.8876131,32.2797357],[35.8875541,32.2795225]]},"properties":{"site":"jerash","name":"","highway":"footway"}},{"type":"Feature","geometry":{"type":"LineString","coordinates":[[35.8914822,32.283176],[35.8915816,32.2832563],[35.8917102,32.2832595],[35.8918979,32.2831553],[35.8922332,32.2833049],[35.8924384,32.2835487],[35.8925551,32.2835475],[35.8928288,32.2833602],[35.8929507,32.2832505],[35.8930513,32.2830656],[35.893064,32.2829403]]},"properties":{"site":"jerash","name":"","highway":"footway"}},{"type":"Feature","geometry":{"type":"LineString","coordinates":[[35.8920964,32.2822425],[35.8920014,32.2824275],[35.8918803,32.282532]]},"properties":{"site":"jerash","name":"","highway":"footway"}},{"type":"Feature","geometry":{"type":"LineString","coordinates":[[35.8929401,32.2827577],[35.892846,32.282552],[35.8929643,32.282212],[35.8929764,32.2821395],[35.8929737,32.2820749],[35.8929601,32.2820215],[35.8928852,32.2819059],[35.8928286,32.2819359]]},"properties":{"site":"jerash","name":"","highway":"footway"}},{"type":"Feature","geometry":{"type":"LineString","coordinates":[[35.8928286,32.2819359],[35.892792,32.281962],[35.8926181,32.2821348],[35.8924089,32.28228],[35.8920964,32.2822425]]},"properties":{"site":"jerash","name":"","highway":"footway"}},{"type":"Feature","geometry":{"type":"LineString","coordinates":[[35.8920964,32.2822425],[35.8923259,32.2819002],[35.8923056,32.281844],[35.8921778,32.2818821],[35.8921328,32.2818696],[35.8920912,32.2818504],[35.8920306,32.281804],[35.8919062,32.2817029],[35.8917203,32.2815215]]},"properties":{"site":"jerash","name":"","highway":"footway"}},{"type":"Feature","geometry":{"type":"LineString","coordinates":[[35.8911276,32.2764403],[35.8911079,32.2764917]]},"properties":{"site":"jerash","name":"","highway":"footway"}},{"type":"Feature","geometry":{"type":"LineString","coordinates":[[35.8889946,32.2771189],[35.8891255,32.2773412],[35.8891664,32.2774058],[35.8892185,32.2774644],[35.8892807,32.2775155],[35.8893514,32.2775579],[35.8894291,32.2775906],[35.8895344,32.2776359]]},"properties":{"site":"jerash","name":"","highway":"track"}},{"type":"Feature","geometry":{"type":"LineString","coordinates":[[35.8877052,32.2773253],[35.8875811,32.2772481],[35.8875496,32.2772305],[35.8875167,32.2772169],[35.8874886,32.2772084],[35.8874711,32.277201],[35.8874537,32.2771874],[35.8874349,32.2771648],[35.8874088,32.2771239],[35.8873833,32.2770735],[35.8873471,32.276989],[35.8873303,32.2769493],[35.8873162,32.2769204],[35.8872981,32.2768943],[35.8872713,32.276866],[35.8872311,32.2768331]]},"properties":{"site":"jerash","name":"","highway":"track"}},{"type":"Feature","geometry":{"type":"LineString","coordinates":[[35.8928288,32.2833602],[35.8931525,32.283277],[35.8935588,32.2832978],[35.8937212,32.283438],[35.8942598,32.2840686],[35.8944236,32.2841605]]},"properties":{"site":"jerash","name":"","highway":"footway"}},{"type":"Feature","geometry":{"type":"LineString","coordinates":[[35.8929401,32.2827577],[35.893064,32.2829403],[35.8934275,32.283149],[35.8935588,32.2832978]]},"properties":{"site":"jerash","name":"","highway":"footway"}},{"type":"Feature","geometry":{"type":"LineString","coordinates":[[35.890433,32.272053],[35.8901987,32.271948],[35.8900844,32.2721402]]},"properties":{"site":"jerash","name":"","highway":"footway"}},{"type":"Feature","geometry":{"type":"LineString","coordinates":[[35.8900844,32.2721402],[35.8900197,32.2722496]]},"properties":{"site":"jerash","name":"","highway":"footway"}},{"type":"Feature","geometry":{"type":"LineString","coordinates":[[35.8912239,32.272517],[35.8911303,32.2724687],[35.8910915,32.2724517],[35.8910438,32.2724385],[35.8908661,32.2724057],[35.8907575,32.2723876],[35.8907307,32.2723842],[35.8907017,32.2723837],[35.8906743,32.272387],[35.8906382,32.272395],[35.8906092,32.2723971],[35.8905832,32.272395],[35.8905659,32.2723876],[35.8905525,32.2723748],[35.8905443,32.2723565],[35.8905436,32.2723332],[35.8905501,32.2722994],[35.8905565,32.2722609],[35.8905864,32.2721217]]},"properties":{"site":"jerash","name":"","highway":"footway"}},{"type":"Feature","geometry":{"type":"LineString","coordinates":[[35.8911166,32.274074],[35.891079,32.274685],[35.8910596,32.2752368],[35.8910578,32.275507],[35.8910555,32.2758438],[35.8910474,32.276276],[35.8910489,32.2763015],[35.8910566,32.2763261],[35.8910703,32.2763488],[35.8911008,32.2763886],[35.8911146,32.2764039],[35.8911237,32.2764214],[35.8911276,32.2764403]]},"properties":{"site":"jerash","name":"","highway":"footway"}},{"type":"Feature","geometry":{"type":"LineString","coordinates":[[35.8912571,32.2722549],[35.8912574,32.2723546]]},"properties":{"site":"jerash","name":"","highway":"footway"}},{"type":"Feature","geometry":{"type":"LineString","coordinates":[[35.8911313,32.2729525],[35.8911003,32.2729495]]},"properties":{"site":"jerash","name":"","highway":"footway"}},{"type":"Feature","geometry":{"type":"LineString","coordinates":[[35.8911003,32.2729495],[35.890977,32.2729484]]},"properties":{"site":"jerash","name":"","highway":"footway"}},{"type":"Feature","geometry":{"type":"LineString","coordinates":[[35.890977,32.2729484],[35.8909231,32.2729569],[35.8908978,32.2729665],[35.8908729,32.2729841],[35.8908568,32.2730034],[35.890846,32.2730226],[35.89084,32.2730459],[35.8908561,32.2738396],[35.8908547,32.27397],[35.8908427,32.2740812],[35.8908252,32.2741526],[35.8907931,32.2742195],[35.890734,32.2743193],[35.8907019,32.2743884],[35.8906724,32.2744758],[35.8906603,32.2745585],[35.8906308,32.2748647],[35.8906261,32.27488],[35.890616,32.2748936],[35.8906026,32.2749061],[35.8905657,32.2749299],[35.8905403,32.2749435],[35.8905262,32.2749537],[35.8905134,32.2749684],[35.8905074,32.274986],[35.8905087,32.2750047],[35.8905148,32.2750229],[35.8905268,32.2750433],[35.8906026,32.2751277],[35.8906214,32.2751561],[35.8906415,32.2751924],[35.890663,32.2752457],[35.8906817,32.2753092],[35.8907019,32.2754679],[35.8907139,32.2755212],[35.890726,32.2755575],[35.8907434,32.2755915],[35.8907689,32.2756221],[35.8907998,32.2756414],[35.8908393,32.2756561],[35.8908742,32.2756686],[35.8908977,32.2756794],[35.8909184,32.2756987],[35.8910555,32.2758438]]},"properties":{"site":"jerash","name":"","highway":"footway"}},{"type":"Feature","geometry":{"type":"LineString","coordinates":[[35.8894261,32.2771079],[35.8894544,32.2769118]]},"properties":{"site":"jerash","name":"","highway":"footway"}},{"type":"Feature","geometry":{"type":"LineString","coordinates":[[35.8894544,32.2769118],[35.8894501,32.2768669],[35.8894417,32.2768476],[35.8894263,32.2768317],[35.8894103,32.2768227],[35.8893921,32.2768175],[35.8893739,32.2768142]]},"properties":{"site":"jerash","name":"","highway":"footway"}},{"type":"Feature","geometry":{"type":"LineString","coordinates":[[35.8905221,32.2809704],[35.890647,32.2809173],[35.8907537,32.2808981],[35.8910248,32.2807826],[35.8911249,32.28074]]},"properties":{"site":"jerash","name":"","highway":"footway"}},{"type":"Feature","geometry":{"type":"LineString","coordinates":[[35.886806,32.2672379],[35.8866285,32.2671048],[35.8864976,32.2670045],[35.8863743,32.2668963],[35.8863327,32.2668481],[35.8863142,32.2667934],[35.8863189,32.2667504],[35.8863728,32.2667036],[35.8865931,32.2665577]]},"properties":{"site":"jerash","name":"","highway":"service"}},{"type":"Feature","geometry":{"type":"LineString","coordinates":[[35.8867437,32.2672907],[35.8866193,32.2671699],[35.8864714,32.2670448],[35.8863312,32.2669302]]},"properties":{"site":"jerash","name":"","highway":"footway"}},{"type":"Feature","geometry":{"type":"LineString","coordinates":[[35.8934162,32.2786246],[35.8926995,32.2789037]]},"properties":{"site":"jerash","name":"South Bridge","highway":"footway"}},{"type":"Feature","geometry":{"type":"LineString","coordinates":[[35.8937232,32.2784688],[35.8937381,32.2784992],[35.8934162,32.2786246]]},"properties":{"site":"jerash","name":"","highway":"footway"}},{"type":"Feature","geometry":{"type":"LineString","coordinates":[[35.8894261,32.2771079],[35.889519,32.2769799],[35.8895416,32.2769547],[35.8895682,32.2769324],[35.8895981,32.2769134],[35.8896308,32.2768981],[35.8896821,32.276877],[35.8897316,32.2768524],[35.8897704,32.2768277],[35.8898073,32.2768014],[35.8898362,32.2767786],[35.8898458,32.276764],[35.8898507,32.2767478],[35.8898505,32.2767311],[35.8898453,32.276715],[35.8898352,32.2767006],[35.8896531,32.2765067],[35.8896442,32.2764944],[35.8896392,32.2764806],[35.8896383,32.2764662],[35.8896416,32.2764521],[35.8896489,32.276439],[35.8897667,32.2762885],[35.8897941,32.2762631],[35.8898287,32.2762451],[35.889868,32.2762361],[35.8899086,32.2762368],[35.8900822,32.2762908],[35.8900981,32.2762961],[35.8901155,32.276305],[35.8901301,32.276317],[35.8901411,32.2763314],[35.8901481,32.2763459],[35.8901871,32.2764354],[35.8901923,32.2764529],[35.8901922,32.2764709],[35.8901869,32.2764884],[35.8901767,32.2765041],[35.8899157,32.2768285],[35.8899046,32.2768406],[35.8898917,32.2768513],[35.8898771,32.2768604],[35.8898612,32.2768679],[35.8898417,32.2768747],[35.8898237,32.2768842],[35.889808,32.2768962],[35.889795,32.2769103],[35.8897054,32.2770233],[35.8896892,32.2770468],[35.8896771,32.277072],[35.8896692,32.2770984],[35.8896479,32.2772164]]},"properties":{"site":"jerash","name":"","highway":"footway"}},{"type":"Feature","geometry":{"type":"LineString","coordinates":[[35.8895544,32.2771788],[35.8895344,32.2776359]]},"properties":{"site":"jerash","name":"","highway":"track"}},{"type":"Feature","geometry":{"type":"LineString","coordinates":[[35.8982456,32.2797913],[35.8984548,32.27978]]},"properties":{"site":"jerash","name":"","highway":"service"}},{"type":"Feature","geometry":{"type":"LineString","coordinates":[[35.8912567,32.2722294],[35.8912571,32.2722549]]},"properties":{"site":"jerash","name":"","highway":"steps"}},{"type":"Feature","geometry":{"type":"LineString","coordinates":[[35.8912555,32.2721869],[35.8912561,32.2722096],[35.8912567,32.2722294]]},"properties":{"site":"jerash","name":"","highway":"footway"}},{"type":"Feature","geometry":{"type":"LineString","coordinates":[[35.8912546,32.2721592],[35.8912555,32.2721869]]},"properties":{"site":"jerash","name":"","highway":"steps"}},{"type":"Feature","geometry":{"type":"LineString","coordinates":[[35.891021,32.2722119],[35.891067,32.2720898]]},"properties":{"site":"jerash","name":"","highway":"footway"}},{"type":"Feature","geometry":{"type":"LineString","coordinates":[[35.8910908,32.2722112],[35.891021,32.2722119]]},"properties":{"site":"jerash","name":"","highway":"steps"}},{"type":"Feature","geometry":{"type":"LineString","coordinates":[[35.8912561,32.2722096],[35.8910908,32.2722112]]},"properties":{"site":"jerash","name":"","highway":"footway"}},{"type":"Feature","geometry":{"type":"LineString","coordinates":[[35.8910577,32.2765534],[35.8911843,32.2766252]]},"properties":{"site":"jerash","name":"","highway":"steps"}},{"type":"Feature","geometry":{"type":"LineString","coordinates":[[35.8911843,32.2766252],[35.8908548,32.2770369],[35.8908273,32.2770638],[35.8904806,32.2774034],[35.8904595,32.277417],[35.8904357,32.2774267],[35.8904082,32.2774325],[35.8903799,32.2774332]]},"properties":{"site":"jerash","name":"","highway":"footway"}},{"type":"Feature","geometry":{"type":"LineString","coordinates":[[35.8906807,32.2769868],[35.8906196,32.277054]]},"properties":{"site":"jerash","name":"","highway":"footway"}},{"type":"Feature","geometry":{"type":"LineString","coordinates":[[35.8911079,32.2764917],[35.8910577,32.2765534],[35.8906807,32.2769868]]},"properties":{"site":"jerash","name":"","highway":"footway"}},{"type":"Feature","geometry":{"type":"LineString","coordinates":[[35.8912574,32.2723546],[35.8912239,32.272517],[35.8911313,32.2729525],[35.8911166,32.274074]]},"properties":{"site":"jerash","name":"","highway":"footway"}},{"type":"Feature","geometry":{"type":"LineString","coordinates":[[35.8906893,32.2770535],[35.8907619,32.2771037]]},"properties":{"site":"jerash","name":"","highway":"steps"}},{"type":"Feature","geometry":{"type":"LineString","coordinates":[[35.8899367,32.2772759],[35.8900547,32.2771298],[35.8902056,32.2769516],[35.8902399,32.2769187],[35.8902727,32.2768887],[35.8902995,32.2768807],[35.8903317,32.2768768],[35.890378,32.2768785],[35.8904262,32.2768903],[35.890622,32.2770116]]},"properties":{"site":"jerash","name":"","highway":"footway"}},{"type":"Feature","geometry":{"type":"LineString","coordinates":[[35.890622,32.2770116],[35.8906893,32.2770535]]},"properties":{"site":"jerash","name":"","highway":"footway"}},{"type":"Feature","geometry":{"type":"LineString","coordinates":[[35.8906207,32.2771327],[35.8906847,32.2771776]]},"properties":{"site":"jerash","name":"","highway":"steps"}},{"type":"Feature","geometry":{"type":"LineString","coordinates":[[35.8906196,32.277054],[35.8905895,32.2770857],[35.8905858,32.2770934],[35.890586,32.2771017],[35.8905902,32.2771092],[35.8906207,32.2771327]]},"properties":{"site":"jerash","name":"","highway":"footway"}},{"type":"Feature","geometry":{"type":"LineString","coordinates":[[35.8935593,32.2826232],[35.8944236,32.2841605],[35.8945969,32.2844687]]},"properties":{"site":"jerash","name":"The Cardo","highway":"track"}},{"type":"Feature","geometry":{"type":"LineString","coordinates":[[35.8935005,32.2825187],[35.8935295,32.2825704],[35.8935593,32.2826232]]},"properties":{"site":"jerash","name":"The Cardo","highway":"track"}},{"type":"Feature","geometry":{"type":"LineString","coordinates":[[35.8908422,32.2787787],[35.8908417,32.2788166],[35.8908574,32.278852],[35.8908872,32.2788802],[35.8909271,32.2788974],[35.8909716,32.2789013],[35.8910148,32.2788914],[35.8910508,32.2788689],[35.8910747,32.2788369],[35.8910834,32.2787998],[35.8910757,32.2787625],[35.8910525,32.2787302],[35.8910171,32.278707],[35.8909742,32.2786963],[35.8909296,32.2786994],[35.8908893,32.2787159],[35.8908588,32.2787436],[35.8908422,32.2787787]]},"properties":{"site":"jerash","name":"Agora","highway":"footway"}},{"type":"Feature","geometry":{"type":"LineString","coordinates":[[35.890898,32.2778797],[35.8909209,32.2779173],[35.8912844,32.2785257],[35.8913498,32.2786413],[35.8917191,32.2792899],[35.8922707,32.2802919],[35.8927391,32.2811427],[35.8931,32.2817949],[35.8935005,32.2825187]]},"properties":{"site":"jerash","name":"The Cardo","highway":"track"}},{"type":"Feature","geometry":{"type":"LineString","coordinates":[[35.8915553,32.281548],[35.8917203,32.2815215],[35.8918357,32.281503]]},"properties":{"site":"jerash","name":"","highway":"footway"}},{"type":"Feature","geometry":{"type":"LineString","coordinates":[[35.8921778,32.2818821],[35.891994,32.2819501],[35.8919578,32.2819564],[35.8919115,32.2819603],[35.8918706,32.2819564],[35.8918411,32.2819461],[35.8917209,32.2818628]]},"properties":{"site":"jerash","name":"","highway":"footway"}},{"type":"Feature","geometry":{"type":"LineString","coordinates":[[35.8922453,32.2803023],[35.8922707,32.2802919]]},"properties":{"site":"jerash","name":"","highway":"footway"}},{"type":"Feature","geometry":{"type":"LineString","coordinates":[[35.89221,32.2803167],[35.8922453,32.2803023]]},"properties":{"site":"jerash","name":"","highway":"steps"}},{"type":"Feature","geometry":{"type":"LineString","coordinates":[[35.8918324,32.280471],[35.891878,32.2804524],[35.8921434,32.2803439]]},"properties":{"site":"jerash","name":"","highway":"steps"}},{"type":"Feature","geometry":{"type":"LineString","coordinates":[[35.8921434,32.2803439],[35.89221,32.2803167]]},"properties":{"site":"jerash","name":"","highway":"footway"}},{"type":"Feature","geometry":{"type":"LineString","coordinates":[[35.8901792,32.2798917],[35.8917191,32.2792899],[35.8924765,32.2789925]]},"properties":{"site":"jerash","name":"South Decumanus","highway":"track"}},{"type":"Feature","geometry":{"type":"LineString","coordinates":[[35.8945969,32.2844687],[35.8946285,32.2845268]]},"properties":{"site":"jerash","name":"","highway":"track"}},{"type":"Feature","geometry":{"type":"LineString","coordinates":[[35.8925039,32.2827995],[35.8925156,32.2828255]]},"properties":{"site":"jerash","name":"","highway":"footway"}},{"type":"Feature","geometry":{"type":"LineString","coordinates":[[35.892491,32.2827707],[35.8925039,32.2827995]]},"properties":{"site":"jerash","name":"","highway":"steps"}},{"type":"Feature","geometry":{"type":"LineString","coordinates":[[35.8925302,32.2828582],[35.8925412,32.2828825]]},"properties":{"site":"jerash","name":"","highway":"footway"}},{"type":"Feature","geometry":{"type":"LineString","coordinates":[[35.8925156,32.2828255],[35.8925302,32.2828582]]},"properties":{"site":"jerash","name":"","highway":"footway"}},{"type":"Feature","geometry":{"type":"LineString","coordinates":[[35.8924541,32.2825628],[35.8923643,32.2825915],[35.8923587,32.2825792],[35.8923531,32.2825668],[35.892342,32.282542],[35.8923608,32.2825076],[35.8923907,32.282498],[35.8924318,32.2825131],[35.892443,32.2825379],[35.8924485,32.2825503],[35.8924541,32.2825628]]},"properties":{"site":"jerash","name":"Orchestra","highway":"footway"}},{"type":"Feature","geometry":{"type":"LineString","coordinates":[[35.8923643,32.2825915],[35.8924541,32.2825628],[35.8925461,32.2825334],[35.8925602,32.2825648],[35.8925744,32.2825965],[35.8923065,32.2826821],[35.8922925,32.2826508],[35.8922783,32.282619],[35.8923643,32.2825915]]},"properties":{"site":"jerash","name":"Scaenae frons","highway":"footway"}},{"type":"Feature","geometry":{"type":"LineString","coordinates":[[35.8923642,32.2828112],[35.8923369,32.28275],[35.8923316,32.2827383],[35.8925995,32.2826526],[35.8926321,32.2827256],[35.892491,32.2827707],[35.8923642,32.2828112]]},"properties":{"site":"jerash","name":"Portico","highway":"footway"}},{"type":"Feature","geometry":{"type":"LineString","coordinates":[[35.8934641,32.2825938],[35.8935295,32.2825704]]},"properties":{"site":"jerash","name":"North Decumanus","highway":"track"}},{"type":"Feature","geometry":{"type":"LineString","coordinates":[[35.8924511,32.2829107],[35.8925412,32.2828825],[35.892795,32.2828031]]},"properties":{"site":"jerash","name":"North Decumanus","highway":"track"}},{"type":"Feature","geometry":{"type":"LineString","coordinates":[[35.8930769,32.2827149],[35.8934641,32.2825938]]},"properties":{"site":"jerash","name":"North Decumanus","highway":"track"}},{"type":"Feature","geometry":{"type":"LineString","coordinates":[[35.892795,32.2828031],[35.8929401,32.2827577],[35.8930769,32.2827149]]},"properties":{"site":"jerash","name":"North Decumanus","highway":"track"}},{"type":"Feature","geometry":{"type":"LineString","coordinates":[[35.8920326,32.2814245],[35.8920082,32.2813807],[35.892205,32.2813022],[35.8922294,32.281346]]},"properties":{"site":"jerash","name":"","highway":"footway"}},{"type":"Feature","geometry":{"type":"LineString","coordinates":[[35.8919994,32.2814377],[35.8918357,32.281503]]},"properties":{"site":"jerash","name":"","highway":"steps"}},{"type":"Feature","geometry":{"type":"LineString","coordinates":[[35.8922637,32.2813323],[35.8922294,32.281346],[35.8922541,32.2813902],[35.8920573,32.2814687],[35.8920326,32.2814245],[35.8919994,32.2814377]]},"properties":{"site":"jerash","name":"","highway":"footway"}},{"type":"Feature","geometry":{"type":"LineString","coordinates":[[35.8910698,32.2818498],[35.8911931,32.2817978]]},"properties":{"site":"jerash","name":"","highway":"steps"}},{"type":"Feature","geometry":{"type":"LineString","coordinates":[[35.8924089,32.28228],[35.8926558,32.282373],[35.892846,32.282552]]},"properties":{"site":"jerash","name":"","highway":"footway"}},{"type":"Feature","geometry":{"type":"LineString","coordinates":[[35.8890242,32.276763],[35.8893684,32.2768325],[35.8893739,32.2768142],[35.8893774,32.2768005],[35.8893106,32.276787],[35.8893218,32.2767475],[35.8893155,32.2766942],[35.8892744,32.2766545],[35.8892048,32.2766404],[35.8891447,32.2766616],[35.8891128,32.2767053],[35.8891016,32.2767448],[35.8890333,32.276731],[35.8890287,32.276747],[35.8890242,32.276763]]},"properties":{"site":"jerash","name":"Orchestra","highway":"footway"}},{"type":"Feature","geometry":{"type":"LineString","coordinates":[[35.8890242,32.276763],[35.8893684,32.2768325],[35.8893629,32.276852],[35.8893573,32.2768715],[35.8893518,32.2768909],[35.8890077,32.2768214],[35.8890132,32.2768019],[35.8890187,32.2767825],[35.8890242,32.276763]]},"properties":{"site":"jerash","name":"Scaenae frons","highway":"footway"}},{"type":"Feature","geometry":{"type":"LineString","coordinates":[[35.8951932,32.2846588],[35.8952925,32.2847858],[35.895381,32.2849876],[35.8954856,32.2855567],[35.8955285,32.285847],[35.8956224,32.285881]]},"properties":{"site":"jerash","name":"","highway":"service"}},{"type":"Feature","geometry":{"type":"LineString","coordinates":[[35.8950028,32.2848787],[35.8951932,32.2846588],[35.895279,32.2845545],[35.8953743,32.2844082]]},"properties":{"site":"jerash","name":"","highway":"service"}},{"type":"Feature","geometry":{"type":"LineString","coordinates":[[35.895198,32.2858081],[35.8951342,32.2853821],[35.8950591,32.2850579],[35.8950028,32.2848787]]},"properties":{"site":"jerash","name":"","highway":"service"}},{"type":"Feature","geometry":{"type":"LineString","coordinates":[[35.8950028,32.2848787],[35.8948258,32.2850488],[35.8947748,32.285135],[35.8947641,32.2852483],[35.8948526,32.2857177],[35.8948955,32.2857608],[35.8949974,32.2858016],[35.895198,32.2858081],[35.8955285,32.285847]]},"properties":{"site":"jerash","name":"","highway":"service"}},{"type":"Feature","geometry":{"type":"LineString","coordinates":[[35.895226,32.284295],[35.8953743,32.2844082],[35.8955204,32.2845318],[35.8956063,32.2846531],[35.8956867,32.2848923],[35.8958745,32.2857086],[35.8958557,32.2857767],[35.8957967,32.2858447],[35.8957431,32.2858651],[35.8956224,32.285881]]},"properties":{"site":"jerash","name":"","highway":"service"}},{"type":"Feature","geometry":{"type":"LineString","coordinates":[[35.8946863,32.2858889],[35.8946796,32.2861939]]},"properties":{"site":"jerash","name":"","highway":"service"}},{"type":"Feature","geometry":{"type":"LineString","coordinates":[[35.8944369,32.2858401],[35.8946863,32.2858889],[35.8952194,32.2859473],[35.8952449,32.2859558],[35.895265,32.2859717],[35.8952804,32.2859921],[35.89533,32.2861848]]},"properties":{"site":"jerash","name":"","highway":"service"}},{"type":"Feature","geometry":{"type":"LineString","coordinates":[[35.8916044,32.2727233],[35.8919169,32.2727732],[35.8919531,32.2727867],[35.8919793,32.2728072],[35.8919933,32.2728316],[35.8919873,32.2729966],[35.8919712,32.2730224],[35.8919407,32.2730402],[35.8918934,32.273051],[35.8917003,32.2730725],[35.8915856,32.2730844]]},"properties":{"site":"jerash","name":"","highway":"service"}},{"type":"Feature","geometry":{"type":"LineString","coordinates":[[35.890088,32.2682654],[35.8899817,32.2682651],[35.8897725,32.2682867],[35.8896913,32.2682839],[35.8896699,32.2682745],[35.8895474,32.2680398],[35.8895378,32.2680213],[35.8895405,32.2680004],[35.8895619,32.2679714],[35.8896618,32.2679255],[35.88987,32.2678121]]},"properties":{"site":"jerash","name":"","highway":"service"}},{"type":"Feature","geometry":{"type":"LineString","coordinates":[[35.8908548,32.2770369],[35.8909278,32.2770242],[35.890958,32.2770236],[35.8909935,32.2770332],[35.8910318,32.2770548],[35.8910619,32.2770786],[35.8910953,32.2771035],[35.8911364,32.2771273],[35.8911631,32.2771378],[35.8911937,32.2771441],[35.8914499,32.2771822],[35.8915042,32.2771914],[35.8915478,32.2772031],[35.8915846,32.2772178],[35.8916162,32.2772339],[35.8916423,32.2772518],[35.8916604,32.2772685],[35.8916752,32.2772869],[35.8916852,32.2773051],[35.891691,32.2773217],[35.8916916,32.2773436],[35.8916886,32.2773697],[35.8916797,32.2773896],[35.8916164,32.2774662],[35.8916024,32.277493],[35.8915937,32.2775316],[35.8915934,32.2775613],[35.8916044,32.2775956],[35.8916278,32.2776271],[35.8916621,32.2776552],[35.8917231,32.2776902],[35.8917355,32.2777124],[35.8917439,32.2777331],[35.891755,32.2777674],[35.8917636,32.2778106],[35.8917687,32.2778899],[35.8917654,32.2779216],[35.8917605,32.2779466],[35.8917519,32.2779658],[35.8917385,32.2779845],[35.8917063,32.2780203],[35.8916951,32.2780473],[35.8916956,32.278071],[35.8917063,32.278094],[35.8917597,32.2781452],[35.8917667,32.2781813],[35.8917556,32.2782201],[35.8917389,32.2782439],[35.8916048,32.2783907],[35.8915691,32.2784405],[35.8915548,32.2784608],[35.891534,32.2784832],[35.8915059,32.2784953],[35.8914746,32.2784953],[35.8914351,32.2784922],[35.8913892,32.2784897],[35.8913231,32.278513],[35.8912844,32.2785257]]},"properties":{"site":"jerash","name":"","highway":"footway"}},{"type":"Feature","geometry":{"type":"LineString","coordinates":[[35.8917636,32.2778106],[35.8917808,32.2777935],[35.8917979,32.2777813],[35.891827,32.2777697],[35.8918556,32.2777657],[35.8918914,32.2777634],[35.8919374,32.2777966],[35.8919602,32.2778179],[35.8919814,32.277843],[35.8919977,32.2778714],[35.8920098,32.2779069],[35.8920131,32.2779403],[35.8920111,32.2779817],[35.8920061,32.2780186],[35.891998,32.2780529],[35.8919847,32.2780887],[35.89196,32.2781369],[35.8919437,32.2781898],[35.8919325,32.2782418],[35.8919259,32.2783049]]},"properties":{"site":"jerash","name":"","highway":"footway"}},{"type":"Feature","geometry":{"type":"LineString","coordinates":[[35.8916787,32.2810449],[35.8918019,32.2812322],[35.8918032,32.2813275],[35.8917796,32.281394],[35.8917203,32.2815215]]},"properties":{"site":"jerash","name":"","highway":"footway"}},{"type":"Feature","geometry":{"type":"LineString","coordinates":[[35.8911465,32.2806803],[35.8911729,32.2806712]]},"properties":{"site":"jerash","name":"","highway":"footway"}},{"type":"Feature","geometry":{"type":"LineString","coordinates":[[35.8911032,32.2806714],[35.8911189,32.2806642],[35.8911465,32.2806803]]},"properties":{"site":"jerash","name":"","highway":"steps"}},{"type":"Feature","geometry":{"type":"LineString","coordinates":[[35.8912448,32.2808011],[35.8912422,32.2808354],[35.8912205,32.2808448]]},"properties":{"site":"jerash","name":"","highway":"steps"}},{"type":"Feature","geometry":{"type":"LineString","coordinates":[[35.8912719,32.280789],[35.8912448,32.2808011]]},"properties":{"site":"jerash","name":"","highway":"footway"}},{"type":"Feature","geometry":{"type":"LineString","coordinates":[[35.8912205,32.2808448],[35.8910999,32.2808953],[35.8910855,32.2808825],[35.8910248,32.2807826],[35.8909892,32.2807274],[35.8911032,32.2806714]]},"properties":{"site":"jerash","name":"","highway":"footway"}},{"type":"Feature","geometry":{"type":"LineString","coordinates":[[35.8913508,32.2806778],[35.8916688,32.2805456],[35.8916229,32.2804614],[35.8917842,32.2803932],[35.8918324,32.280471]]},"properties":{"site":"jerash","name":"","highway":"path"}},{"type":"Feature","geometry":{"type":"LineString","coordinates":[[35.886889,32.2819236],[35.8867724,32.2817687]]},"properties":{"site":"jerash","name":"","highway":"service"}},{"type":"Feature","geometry":{"type":"LineString","coordinates":[[35.8945133,32.283288],[35.8949035,32.2842177],[35.8949277,32.284254],[35.8949579,32.2842869],[35.8949914,32.2843164],[35.8950497,32.2843567]]},"properties":{"site":"jerash","name":"","highway":"service"}},{"type":"Feature","geometry":{"type":"LineString","coordinates":[[35.8938548,32.2773944],[35.8942605,32.2773997]]},"properties":{"site":"jerash","name":"","highway":"path"}},{"type":"Feature","geometry":{"type":"LineString","coordinates":[[35.893883,32.2778235],[35.8941995,32.2777776]]},"properties":{"site":"jerash","name":"","highway":"path"}},{"type":"Feature","geometry":{"type":"LineString","coordinates":[[35.89436,32.2782701],[35.8942732,32.2780509],[35.8942236,32.2779114],[35.8942075,32.2778456],[35.8941995,32.2777776],[35.8941968,32.2776812],[35.8941981,32.2775611],[35.8942062,32.277476],[35.8942169,32.2774431],[35.8942384,32.2774148],[35.8942605,32.2773997],[35.8942772,32.277391],[35.8943309,32.2773728],[35.8943765,32.2773615],[35.8944537,32.2773456]]},"properties":{"site":"jerash","name":"","highway":"path"}},{"type":"Feature","geometry":{"type":"LineString","coordinates":[[35.8967248,32.2776348],[35.8968527,32.2776114]]},"properties":{"site":"jerash","name":"","highway":"steps"}},{"type":"Feature","geometry":{"type":"LineString","coordinates":[[35.8962611,32.2778262],[35.8964404,32.2777515],[35.8964532,32.2777419],[35.8964632,32.2777306],[35.8964706,32.2777113],[35.8964733,32.277692],[35.8964726,32.2776693],[35.8964575,32.2775557],[35.8964537,32.2775274]]},"properties":{"site":"jerash","name":"","highway":"service"}},{"type":"Feature","geometry":{"type":"LineString","coordinates":[[35.8956023,32.2797551],[35.8954397,32.2797698]]},"properties":{"site":"jerash","name":"","highway":"steps"}},{"type":"Feature","geometry":{"type":"LineString","coordinates":[[35.8963681,32.2805159],[35.8964351,32.2805136]]},"properties":{"site":"jerash","name":"","highway":"service"}},{"type":"Feature","geometry":{"type":"LineString","coordinates":[[35.8943058,32.2805177],[35.8942907,32.2804706],[35.8941807,32.2800975]]},"properties":{"site":"jerash","name":"","highway":"service"}},{"type":"Feature","geometry":{"type":"LineString","coordinates":[[35.8955488,32.2799656],[35.8954397,32.2797698],[35.8952723,32.2794693],[35.8951613,32.2794569],[35.8951128,32.2796825],[35.8950854,32.2798212],[35.8950739,32.2799852],[35.8955488,32.2799656]]},"properties":{"site":"jerash","name":"","highway":"pedestrian"}},{"type":"Feature","geometry":{"type":"LineString","coordinates":[[35.8961516,32.2747779],[35.896368,32.2748488],[35.8964378,32.2748772],[35.8965169,32.2749157],[35.8966054,32.2749656],[35.8966872,32.2750132],[35.8967422,32.2750506]]},"properties":{"site":"jerash","name":"","highway":"service"}},{"type":"Feature","geometry":{"type":"LineString","coordinates":[[35.8967422,32.2750506],[35.8967999,32.2750994],[35.8968535,32.2751504],[35.8968857,32.2751799],[35.8969125,32.2751969],[35.8969353,32.2752071],[35.8969581,32.2752117],[35.896989,32.2752117],[35.8972853,32.2751277]]},"properties":{"site":"jerash","name":"","highway":"service"}},{"type":"Feature","geometry":{"type":"LineString","coordinates":[[35.8968836,32.273742],[35.8968787,32.2738193],[35.8968784,32.2738565]]},"properties":{"site":"jerash","name":"","highway":"path"}},{"type":"Feature","geometry":{"type":"LineString","coordinates":[[35.8967081,32.2738973],[35.8967771,32.2739417]]},"properties":{"site":"jerash","name":"","highway":"service"}},{"type":"Feature","geometry":{"type":"LineString","coordinates":[[35.8966378,32.2738635],[35.8967081,32.2738973]]},"properties":{"site":"jerash","name":"","highway":"service"}},{"type":"Feature","geometry":{"type":"LineString","coordinates":[[35.8930029,32.2775253],[35.8930354,32.27751],[35.8930555,32.2774976],[35.8930689,32.2774828],[35.8930796,32.2774635],[35.8930918,32.2774315]]},"properties":{"site":"jerash","name":"","highway":"service"}},{"type":"Feature","geometry":{"type":"LineString","coordinates":[[35.8932042,32.27835],[35.8931789,32.2783105],[35.8931735,32.2782833],[35.8931762,32.2782561],[35.8931869,32.2782323],[35.8932124,32.278213],[35.8933164,32.2781724]]},"properties":{"site":"jerash","name":"","highway":"service"}},{"type":"Feature","geometry":{"type":"LineString","coordinates":[[35.8937381,32.2784992],[35.8937627,32.2785484]]},"properties":{"site":"jerash","name":"","highway":"footway"}},{"type":"Feature","geometry":{"type":"LineString","coordinates":[[35.8942598,32.2800408],[35.894313,32.2800281],[35.8943644,32.2800158],[35.8942974,32.2798299],[35.8942866,32.2797936],[35.8942772,32.279738],[35.8943456,32.2796916],[35.8943175,32.279636],[35.8942719,32.2796564],[35.8942276,32.2795872],[35.8942477,32.2795748],[35.8941686,32.2793741],[35.8939339,32.2789421],[35.8939255,32.2789155],[35.8939178,32.2788911],[35.8939379,32.2788616],[35.8943135,32.2787028],[35.8944757,32.2787697],[35.8945134,32.2787556],[35.8945495,32.278742],[35.8944771,32.2786019],[35.8940761,32.2787199],[35.8939876,32.2787573],[35.8938494,32.278518],[35.8937627,32.2785484],[35.8936778,32.2785781],[35.8936943,32.2786346],[35.8938056,32.279031],[35.8937319,32.2790458],[35.8937556,32.2790781],[35.8937019,32.2790986],[35.8937033,32.2791258],[35.8937556,32.2792165],[35.8936898,32.279246],[35.8936912,32.2792834],[35.8937113,32.2793134],[35.8937274,32.2793163],[35.8937495,32.279348],[35.8938548,32.2792981],[35.8940281,32.279595],[35.8941606,32.2798219],[35.8941753,32.2798197],[35.8942598,32.2800408]]},"properties":{"site":"jerash","name":"","highway":"pedestrian"}},{"type":"Feature","geometry":{"type":"LineString","coordinates":[[35.8933357,32.2801148],[35.8934176,32.2800703],[35.8933439,32.2799691],[35.8930461,32.27956],[35.8929019,32.2793474],[35.8928409,32.2792494],[35.8927685,32.2791331],[35.8927263,32.2791518],[35.8926961,32.2791037]]},"properties":{"site":"jerash","name":"","highway":"footway"}},{"type":"Feature","geometry":{"type":"LineString","coordinates":[[35.8926015,32.2789424],[35.8926364,32.2790096]]},"properties":{"site":"jerash","name":"","highway":"steps"}},{"type":"Feature","geometry":{"type":"LineString","coordinates":[[35.8926364,32.2790096],[35.892566,32.2790379]]},"properties":{"site":"jerash","name":"","highway":"footway"}},{"type":"Feature","geometry":{"type":"LineString","coordinates":[[35.892565,32.278864],[35.8924878,32.2788915]]},"properties":{"site":"jerash","name":"","highway":"footway"}},{"type":"Feature","geometry":{"type":"LineString","coordinates":[[35.8926015,32.2789424],[35.892565,32.278864]]},"properties":{"site":"jerash","name":"","highway":"steps"}},{"type":"Feature","geometry":{"type":"LineString","coordinates":[[35.8924765,32.2789925],[35.8925286,32.2789717]]},"properties":{"site":"jerash","name":"","highway":"track"}},{"type":"Feature","geometry":{"type":"LineString","coordinates":[[35.8926498,32.2789233],[35.8926015,32.2789424]]},"properties":{"site":"jerash","name":"","highway":"steps"}},{"type":"Feature","geometry":{"type":"LineString","coordinates":[[35.894313,32.2800281],[35.8943349,32.2800835]]},"properties":{"site":"jerash","name":"","highway":"footway"}},{"type":"Feature","geometry":{"type":"LineString","coordinates":[[35.8927056,32.2781753],[35.8926783,32.2781762],[35.8926411,32.2782267],[35.89269,32.2784069],[35.8927145,32.2784067],[35.8927517,32.2784061],[35.8927672,32.2783763],[35.8927665,32.2782828],[35.8927474,32.2782822],[35.8927343,32.2782828],[35.8927373,32.2781759],[35.8927056,32.2781753]]},"properties":{"site":"jerash","name":"","highway":"footway"}},{"type":"Feature","geometry":{"type":"LineString","coordinates":[[35.8925549,32.2783636],[35.8925895,32.2784367],[35.8925543,32.2784581]]},"properties":{"site":"jerash","name":"","highway":"footway"}},{"type":"Feature","geometry":{"type":"LineString","coordinates":[[35.8927454,32.2786837],[35.8927284,32.2786131],[35.8927056,32.2785436],[35.8926771,32.2784757],[35.8926429,32.2784096],[35.8926033,32.2783457]]},"properties":{"site":"jerash","name":"","highway":"footway"}},{"type":"Feature","geometry":{"type":"LineString","coordinates":[[35.8927867,32.2786743],[35.8927869,32.278681],[35.8927841,32.2786873],[35.8927788,32.2786923],[35.8927716,32.2786953],[35.8927637,32.2786957],[35.8927562,32.2786938],[35.89275,32.2786895],[35.8927454,32.2786837]]},"properties":{"site":"jerash","name":"","highway":"steps"}},{"type":"Feature","geometry":{"type":"LineString","coordinates":[[35.8931131,32.2777517],[35.8929296,32.2777963],[35.8928069,32.2778263],[35.8927862,32.2778325],[35.8927681,32.2778432],[35.892754,32.2778574],[35.8927448,32.2778743],[35.8927413,32.2778927],[35.8927056,32.2781753],[35.8927008,32.2782341],[35.892701,32.2782944],[35.8927054,32.27835],[35.8927145,32.2784067],[35.8927867,32.2786743]]},"properties":{"site":"jerash","name":"","highway":"footway"}},{"type":"Feature","geometry":{"type":"LineString","coordinates":[[35.8926683,32.2787202],[35.8926236,32.2786053],[35.8926082,32.2785622],[35.8925838,32.2785098],[35.8925543,32.2784581],[35.8924971,32.2783579]]},"properties":{"site":"jerash","name":"","highway":"footway"}},{"type":"Feature","geometry":{"type":"LineString","coordinates":[[35.8924971,32.2783579],[35.8924914,32.2783505],[35.8924835,32.2783459],[35.8924727,32.2783441],[35.8924615,32.2783465],[35.8924547,32.2783508],[35.8924498,32.2783572],[35.8924477,32.2783653],[35.8924478,32.2783699]]},"properties":{"site":"jerash","name":"","highway":"steps"}},{"type":"Feature","geometry":{"type":"LineString","coordinates":[[35.8924478,32.2783699],[35.8924148,32.2783694]]},"properties":{"site":"jerash","name":"","highway":"footway"}},{"type":"Feature","geometry":{"type":"LineString","coordinates":[[35.8926033,32.2783457],[35.8925967,32.2783371],[35.8925861,32.278332],[35.8925739,32.2783314],[35.8925627,32.2783355],[35.8925548,32.2783435],[35.8925521,32.2783536],[35.8925549,32.2783636]]},"properties":{"site":"jerash","name":"","highway":"steps"}},{"type":"Feature","geometry":{"type":"LineString","coordinates":[[35.8925546,32.2788344],[35.8926512,32.2787312],[35.8925754,32.2785396],[35.8925499,32.2785073],[35.892505,32.2784579],[35.8924755,32.2784052],[35.8924507,32.2784097],[35.8924581,32.2784834],[35.8924849,32.2786223],[35.8925211,32.2787448],[35.8925546,32.2788344]]},"properties":{"site":"jerash","name":"","highway":"pedestrian"}},{"type":"Feature","geometry":{"type":"LineString","coordinates":[[35.8920444,32.2785429],[35.8922552,32.2787219],[35.8922803,32.2787281],[35.8923085,32.2787318],[35.8924332,32.2787613]]},"properties":{"site":"jerash","name":"","highway":"service"}},{"type":"Feature","geometry":{"type":"LineString","coordinates":[[35.8943349,32.2800835],[35.8944958,32.2804905]]},"properties":{"site":"jerash","name":"","highway":"service"}},{"type":"Feature","geometry":{"type":"LineString","coordinates":[[35.8945614,32.2802744],[35.8944576,32.2801111],[35.8944422,32.2800924],[35.8944274,32.2800805],[35.8944107,32.2800737],[35.8943919,32.2800714],[35.8943745,32.2800731],[35.8943349,32.2800835]]},"properties":{"site":"jerash","name":"","highway":"service"}},{"type":"Feature","geometry":{"type":"LineString","coordinates":[[35.8929552,32.2793027],[35.8929251,32.279316]]},"properties":{"site":"jerash","name":"","highway":"footway"}},{"type":"Feature","geometry":{"type":"LineString","coordinates":[[35.8929251,32.279316],[35.8928758,32.2792341]]},"properties":{"site":"jerash","name":"","highway":"steps"}},{"type":"Feature","geometry":{"type":"LineString","coordinates":[[35.8928758,32.2792341],[35.8928409,32.2792494]]},"properties":{"site":"jerash","name":"","highway":"footway"}},{"type":"Feature","geometry":{"type":"LineString","coordinates":[[35.8933733,32.279954],[35.8933439,32.2799691]]},"properties":{"site":"jerash","name":"","highway":"footway"}},{"type":"Feature","geometry":{"type":"LineString","coordinates":[[35.8933505,32.2799229],[35.8933733,32.279954]]},"properties":{"site":"jerash","name":"","highway":"steps"}},{"type":"Feature","geometry":{"type":"LineString","coordinates":[[35.8933794,32.2799083],[35.8933505,32.2799229]]},"properties":{"site":"jerash","name":"","highway":"footway"}},{"type":"Feature","geometry":{"type":"LineString","coordinates":[[35.8934303,32.2799784],[35.893431,32.2800629]]},"properties":{"site":"jerash","name":"","highway":"steps"}},{"type":"Feature","geometry":{"type":"LineString","coordinates":[[35.893431,32.2800629],[35.8934176,32.2800703]]},"properties":{"site":"jerash","name":"","highway":"footway"}},{"type":"Feature","geometry":{"type":"LineString","coordinates":[[35.8927819,32.2790215],[35.8929552,32.2793027],[35.8929656,32.2793197],[35.8931078,32.279534],[35.8933794,32.2799083],[35.8934303,32.2799784]]},"properties":{"site":"jerash","name":"","highway":"footway"}},{"type":"Feature","geometry":{"type":"LineString","coordinates":[[35.8927685,32.2791331],[35.8927913,32.2791224],[35.8927397,32.2790356]]},"properties":{"site":"jerash","name":"","highway":"footway"}},{"type":"Feature","geometry":{"type":"LineString","coordinates":[[35.8926961,32.2791037],[35.8926364,32.2790096]]},"properties":{"site":"jerash","name":"","highway":"steps"}},{"type":"Feature","geometry":{"type":"LineString","coordinates":[[35.8926995,32.2789037],[35.8926498,32.2789233]]},"properties":{"site":"jerash","name":"","highway":"footway"}},{"type":"Feature","geometry":{"type":"LineString","coordinates":[[35.8932427,32.2786122],[35.89338,32.2788967],[35.8934203,32.2789693],[35.8934672,32.2790453],[35.893541,32.279136],[35.8935799,32.2791813],[35.8937156,32.2793753],[35.8937529,32.2794285],[35.8938293,32.2795362],[35.8939044,32.2796326],[35.8939835,32.2797471],[35.8940265,32.2798174],[35.8940667,32.2798956],[35.8941096,32.2799854]]},"properties":{"site":"jerash","name":"","highway":"path"}},{"type":"Feature","geometry":{"type":"LineString","coordinates":[[35.8929096,32.2787572],[35.8929218,32.2787731],[35.8930059,32.2787399],[35.8929807,32.2786989],[35.8929455,32.2786983],[35.8929384,32.278708],[35.8929284,32.2787204],[35.8929351,32.2787295],[35.8929366,32.278733],[35.892937,32.2787396],[35.8929348,32.2787454],[35.8929096,32.2787572]]},"properties":{"site":"jerash","name":"","highway":"footway"}},{"type":"Feature","geometry":{"type":"LineString","coordinates":[[35.8929296,32.2777963],[35.8928729,32.2782957],[35.892851,32.2785073],[35.892849,32.2785407],[35.8928513,32.278568],[35.892857,32.2785914],[35.8928664,32.2786152],[35.8928959,32.2786779],[35.8929026,32.2786867],[35.8929113,32.2786938],[35.8929236,32.2787021],[35.8929384,32.278708],[35.8929504,32.2787166],[35.8929593,32.2787275],[35.8929694,32.2787455]]},"properties":{"site":"jerash","name":"","highway":"footway"}},{"type":"Feature","geometry":{"type":"LineString","coordinates":[[35.8947359,32.2787788],[35.8948337,32.2787411]]},"properties":{"site":"jerash","name":"","highway":"steps"}},{"type":"Feature","geometry":{"type":"LineString","coordinates":[[35.8946125,32.2788264],[35.8947359,32.2787788]]},"properties":{"site":"jerash","name":"","highway":"steps"}},{"type":"Feature","geometry":{"type":"LineString","coordinates":[[35.8945134,32.2787556],[35.8945388,32.2788021]]},"properties":{"site":"jerash","name":"","highway":"footway"}},{"type":"Feature","geometry":{"type":"LineString","coordinates":[[35.8945388,32.2788021],[35.8946125,32.2788264]]},"properties":{"site":"jerash","name":"","highway":"steps"}},{"type":"Feature","geometry":{"type":"LineString","coordinates":[[35.8941686,32.2793741],[35.8942048,32.2793917],[35.894231,32.2794115],[35.8942551,32.2794353],[35.8943188,32.2795152],[35.8943611,32.2795753],[35.8943865,32.2796014],[35.8944127,32.2796213],[35.8944415,32.2796377],[35.8944777,32.2796496],[35.894524,32.279657],[35.8945857,32.2796598],[35.8946353,32.2796541],[35.8946997,32.2796417],[35.8947963,32.2796077]]},"properties":{"site":"jerash","name":"","highway":"track"}},{"type":"Feature","geometry":{"type":"LineString","coordinates":[[35.8974315,32.2789619],[35.8979465,32.2790339]]},"properties":{"site":"jerash","name":"","highway":"steps"}},{"type":"Feature","geometry":{"type":"LineString","coordinates":[[35.8956882,32.2732861],[35.896887,32.2730708]]},"properties":{"site":"jerash","name":"","highway":"service"}},{"type":"Feature","geometry":{"type":"LineString","coordinates":[[35.8961045,32.2742087],[35.8961878,32.2742716]]},"properties":{"site":"jerash","name":"","highway":"path"}},{"type":"Feature","geometry":{"type":"LineString","coordinates":[[35.8961347,32.2740897],[35.8961045,32.2742087]]},"properties":{"site":"jerash","name":"","highway":"steps"}},{"type":"Feature","geometry":{"type":"LineString","coordinates":[[35.8961171,32.2734622],[35.8961702,32.2736571],[35.8965987,32.273576],[35.8965625,32.2734178]]},"properties":{"site":"jerash","name":"","highway":"path"}},{"type":"Feature","geometry":{"type":"LineString","coordinates":[[35.8959007,32.2740454],[35.8959027,32.274065],[35.8958946,32.2740834],[35.8958778,32.2740969],[35.8958557,32.274103],[35.8958327,32.2741003],[35.8958133,32.2740895],[35.8958014,32.2740726],[35.8957993,32.2740531],[35.8958075,32.2740347],[35.8958243,32.2740212],[35.8958464,32.2740151],[35.8958694,32.2740178],[35.8958888,32.2740286],[35.8959007,32.2740454]]},"properties":{"site":"jerash","name":"","highway":"path"}},{"type":"Feature","geometry":{"type":"LineString","coordinates":[[35.8952861,32.2742453],[35.895442,32.2741679],[35.8958014,32.2740726]]},"properties":{"site":"jerash","name":"","highway":"path"}},{"type":"Feature","geometry":{"type":"LineString","coordinates":[[35.8960683,32.2739944],[35.8959228,32.2735023],[35.8961171,32.2734622],[35.8965249,32.2733804]]},"properties":{"site":"jerash","name":"","highway":"path"}},{"type":"Feature","geometry":{"type":"LineString","coordinates":[[35.8959007,32.2740454],[35.8960683,32.2739944],[35.8961347,32.2740897]]},"properties":{"site":"jerash","name":"","highway":"path"}},{"type":"Feature","geometry":{"type":"LineString","coordinates":[[35.8953458,32.2743157],[35.8952861,32.2742453],[35.8952506,32.2742051]]},"properties":{"site":"jerash","name":"","highway":"path"}},{"type":"Feature","geometry":{"type":"LineString","coordinates":[[35.895207,32.2742395],[35.8952944,32.2743405]]},"properties":{"site":"jerash","name":"","highway":"path"}},{"type":"Feature","geometry":{"type":"LineString","coordinates":[[35.8952506,32.2742051],[35.8952396,32.2741963],[35.895225,32.2741931],[35.8952104,32.2741963],[35.8951993,32.274205],[35.8951946,32.2742171],[35.8951974,32.2742296],[35.895207,32.2742395]]},"properties":{"site":"jerash","name":"","highway":"path"}},{"type":"Feature","geometry":{"type":"LineString","coordinates":[[35.8952944,32.2743405],[35.8953053,32.2743488],[35.8953196,32.2743517],[35.8953338,32.2743484],[35.8953443,32.2743398],[35.8953487,32.2743279],[35.8953458,32.2743157]]},"properties":{"site":"jerash","name":"","highway":"path"}},{"type":"Feature","geometry":{"type":"LineString","coordinates":[[35.8941139,32.2805093],[35.8941293,32.2805582]]},"properties":{"site":"jerash","name":"","highway":"steps"}},{"type":"Feature","geometry":{"type":"LineString","coordinates":[[35.8917231,32.2776902],[35.8917888,32.2777119],[35.8918207,32.277724],[35.8918562,32.2777419],[35.8918914,32.2777634]]},"properties":{"site":"jerash","name":"","highway":"footway"}},{"type":"Feature","geometry":{"type":"LineString","coordinates":[[35.891941,32.2783066],[35.8919259,32.2783049],[35.8919095,32.2783032],[35.891815,32.2783332],[35.8917647,32.2783752],[35.8917486,32.2784205],[35.8917473,32.2784681],[35.8917734,32.2785141],[35.8918586,32.2785611],[35.8920228,32.2785622],[35.8920444,32.2785429],[35.8920671,32.2785226],[35.891941,32.2783066]]},"properties":{"site":"jerash","name":"","highway":"service"}},{"type":"Feature","geometry":{"type":"LineString","coordinates":[[35.8939255,32.2789155],[35.8939641,32.2789047],[35.8939936,32.2788939],[35.8940271,32.2788843],[35.8940694,32.2788769],[35.8941103,32.2788735],[35.8941532,32.2788695],[35.894186,32.2788639],[35.8942249,32.278848],[35.8942746,32.2788174],[35.8943228,32.2787777]]},"properties":{"site":"jerash","name":"","highway":"track"}},{"type":"Feature","geometry":{"type":"LineString","coordinates":[[35.8940104,32.279602],[35.8940281,32.279595]]},"properties":{"site":"jerash","name":"","highway":"path"}},{"type":"Feature","geometry":{"type":"LineString","coordinates":[[35.8939772,32.2795463],[35.8940104,32.279602]]},"properties":{"site":"jerash","name":"","highway":"steps"}},{"type":"Feature","geometry":{"type":"LineString","coordinates":[[35.8938407,32.2793168],[35.8939772,32.2795463]]},"properties":{"site":"jerash","name":"","highway":"path"}},{"type":"Feature","geometry":{"type":"LineString","coordinates":[[35.8937156,32.2793753],[35.8938407,32.2793168]]},"properties":{"site":"jerash","name":"","highway":"steps"}},{"type":"Feature","geometry":{"type":"LineString","coordinates":[[35.8934114,32.2852515],[35.8932877,32.2850476],[35.8931708,32.2848549],[35.8931588,32.2848232],[35.8931507,32.2847926],[35.8931507,32.2847687],[35.8931614,32.2847472],[35.8931789,32.2847291],[35.8932003,32.2847166],[35.8932205,32.2847098],[35.8933244,32.2846922],[35.8936764,32.2846327]]},"properties":{"site":"jerash","name":"","highway":"service"}},{"type":"Feature","geometry":{"type":"LineString","coordinates":[[35.895241,32.2818546],[35.8953066,32.281907]]},"properties":{"site":"jerash","name":"","highway":"footway"}},{"type":"Feature","geometry":{"type":"LineString","coordinates":[[35.8951503,32.281782],[35.8952109,32.2818305]]},"properties":{"site":"jerash","name":"","highway":"footway"}},{"type":"Feature","geometry":{"type":"LineString","coordinates":[[35.8952408,32.2818288],[35.8952475,32.2818387],[35.8952459,32.2818501],[35.895241,32.2818546],[35.8952368,32.2818585],[35.8952236,32.2818608],[35.8952113,32.281856],[35.8952047,32.2818461],[35.8952062,32.2818348],[35.8952109,32.2818305],[35.8952153,32.2818264],[35.8952286,32.2818241],[35.8952408,32.2818288]]},"properties":{"site":"jerash","name":"","highway":"footway"}},{"type":"Feature","geometry":{"type":"LineString","coordinates":[[35.8910578,32.275507],[35.8911729,32.2754836]]},"properties":{"site":"jerash","name":"","highway":"footway"}},{"type":"Feature","geometry":{"type":"LineString","coordinates":[[35.8915892,32.2757239],[35.8914542,32.2757344],[35.8914153,32.275731],[35.8913831,32.275714],[35.8913617,32.2756924],[35.8913442,32.2756618],[35.8912763,32.275473]]},"properties":{"site":"jerash","name":"","highway":"service"}},{"type":"Feature","geometry":{"type":"LineString","coordinates":[[35.8897063,32.2717286],[35.8897926,32.2717702],[35.8897958,32.271781]]},"properties":{"site":"jerash","name":"","highway":"footway"}},{"type":"Feature","geometry":{"type":"LineString","coordinates":[[35.8897958,32.271781],[35.8898348,32.2719117],[35.8900273,32.2718711],[35.8901987,32.271948]]},"properties":{"site":"jerash","name":"","highway":"footway"}},{"type":"Feature","geometry":{"type":"LineString","coordinates":[[35.8895791,32.2719259],[35.8895142,32.2718985],[35.8894968,32.2718883],[35.8894863,32.2718728],[35.8894848,32.271855],[35.8894926,32.2718383],[35.8896222,32.2716446],[35.8896813,32.271552],[35.8897047,32.2715156]]},"properties":{"site":"jerash","name":"","highway":"service"}},{"type":"Feature","geometry":{"type":"LineString","coordinates":[[35.8928852,32.2819059],[35.8931,32.2817949]]},"properties":{"site":"jerash","name":"","highway":"footway"}},{"type":"Feature","geometry":{"type":"LineString","coordinates":[[35.8906261,32.27488],[35.8908179,32.2748465],[35.8908393,32.2748397],[35.8908608,32.2748307],[35.8908842,32.2748154],[35.8909627,32.2747428],[35.8909822,32.2747286],[35.8909976,32.2747184],[35.891019,32.2747082],[35.891079,32.274685]]},"properties":{"site":"jerash","name":"","highway":"footway"}},{"type":"Feature","geometry":{"type":"LineString","coordinates":[[35.892804,32.2782828],[35.8928051,32.2782967],[35.8928729,32.2782957]]},"properties":{"site":"jerash","name":"","highway":"footway"}},{"type":"Feature","geometry":{"type":"LineString","coordinates":[[35.8927474,32.2782822],[35.8927487,32.2782683],[35.8927576,32.2782596],[35.89277,32.2782552],[35.8927835,32.278256],[35.8927952,32.2782618],[35.8928025,32.2782714],[35.892804,32.2782828]]},"properties":{"site":"jerash","name":"","highway":"steps"}},{"type":"Feature","geometry":{"type":"LineString","coordinates":[[35.8897277,32.2716955],[35.8896222,32.2716446]]},"properties":{"site":"jerash","name":"","highway":"service"}},{"type":"Feature","geometry":{"type":"LineString","coordinates":[[35.8898125,32.2715642],[35.8897905,32.2715982],[35.8897277,32.2716955],[35.8897063,32.2717286],[35.8895791,32.2719259]]},"properties":{"site":"jerash","name":"","highway":"service"}},{"type":"Feature","geometry":{"type":"LineString","coordinates":[[35.8910105,32.2787661],[35.8910211,32.2787858],[35.8910226,32.2788074],[35.8910147,32.278828],[35.8909986,32.2788448],[35.8909764,32.2788555],[35.8909512,32.2788587],[35.8909262,32.278854],[35.8909049,32.278842],[35.8908902,32.2788243],[35.8908841,32.2788033],[35.8908873,32.2787819],[35.8908995,32.2787629],[35.890919,32.2787489],[35.8909432,32.2787418],[35.8909687,32.2787425],[35.8909922,32.278751],[35.8910105,32.2787661]]},"properties":{"site":"jerash","name":"","highway":"footway"}},{"type":"Feature","geometry":{"type":"LineString","coordinates":[[35.8908273,32.2770638],[35.8908794,32.2771018],[35.8909254,32.277145],[35.8909648,32.2771927],[35.8909969,32.2772441],[35.8910186,32.2772916],[35.8910341,32.2773408],[35.8910432,32.2773911],[35.8910459,32.277442],[35.8910427,32.277511],[35.891032,32.2775794],[35.8910157,32.2776529],[35.8909754,32.2777776],[35.8909652,32.277804],[35.8909528,32.2778288],[35.8909352,32.2778513],[35.8909101,32.2778729],[35.890898,32.2778797],[35.8908803,32.2778897],[35.8908471,32.277901],[35.8908118,32.2779063],[35.8907715,32.2779063],[35.8907319,32.2779],[35.8906944,32.2778876],[35.8906603,32.2778695],[35.8906009,32.2778323],[35.8905468,32.2777898],[35.8904987,32.2777425],[35.8904595,32.2776943],[35.8904266,32.2776429],[35.8904001,32.2775888],[35.8903849,32.2775379],[35.8903782,32.2774857],[35.8903799,32.2774332]]},"properties":{"site":"jerash","name":"","highway":"footway"}},{"type":"Feature","geometry":{"type":"LineString","coordinates":[[35.892701,32.2782944],[35.8927373,32.278292],[35.8927412,32.2782908],[35.8927444,32.2782886],[35.8927465,32.2782856],[35.8927474,32.2782822]]},"properties":{"site":"jerash","name":"","highway":"footway"}},{"type":"Feature","geometry":{"type":"LineString","coordinates":[[35.8929946,32.2787357],[35.8929694,32.2787455],[35.8929229,32.2787636]]},"properties":{"site":"jerash","name":"","highway":"footway"}},{"type":"Feature","geometry":{"type":"LineString","coordinates":[[35.8894501,32.2768669],[35.8893629,32.276852],[35.8890187,32.2767825],[35.8888846,32.2767609]]},"properties":{"site":"jerash","name":"","highway":"footway"}},{"type":"Feature","geometry":{"type":"LineString","coordinates":[[35.8888846,32.2767609],[35.8888984,32.2767526],[35.8889122,32.2767472],[35.8889524,32.2767418],[35.8889859,32.276743],[35.8890287,32.276747],[35.8893739,32.2768142]]},"properties":{"site":"jerash","name":"","highway":"footway"}},{"type":"Feature","geometry":{"type":"LineString","coordinates":[[35.8889946,32.2771189],[35.8889902,32.2770726],[35.8889775,32.2770273],[35.888957,32.2769842],[35.8889289,32.2769442],[35.8888949,32.276909],[35.8888552,32.2768785],[35.8888277,32.2768524],[35.8888122,32.2768252],[35.8888156,32.2768014],[35.8888205,32.276788],[35.8888297,32.2767764],[35.8888455,32.2767659],[35.8888538,32.2767631],[35.8888645,32.2767605],[35.8888846,32.2767609]]},"properties":{"site":"jerash","name":"","highway":"footway"}}]}