{"type":"FeatureCollection","features":[{"type":"Feature","geometry":{"type":"Polygon","coordinates":[[[14.2910301,32.6353015],[14.2919901,32.6354043],[14.2920436,32.6350502],[14.2918762,32.6350323],[14.2919187,32.6347508],[14.2917068,32.6347281],[14.2917226,32.6346236],[14.2913625,32.634585],[14.2913466,32.6346906],[14.2910659,32.6346606],[14.2910592,32.6347045],[14.2910079,32.634699],[14.2909766,32.6349067],[14.2909454,32.6349034],[14.290898,32.6352171],[14.2910406,32.6352323],[14.2910301,32.6353015]]]},"properties":{"site":"leptismagna","name":"Hadrian's Baths","category":"bath","historic":"building","building":"yes","osm_id":94730239}},{"type":"Feature","geometry":{"type":"Polygon","coordinates":[[[14.2915185,32.6313158],[14.2922769,32.6316687],[14.2930271,32.6322711],[14.2931425,32.6324618],[14.2936422,32.6340469],[14.2941803,32.6349432],[14.2945155,32.635215],[14.2974423,32.6364459],[14.2977597,32.6365207],[14.2987976,32.6363992],[14.2999113,32.6361491],[14.3001803,32.6360617],[14.3005058,32.635962],[14.3010704,32.6359676],[14.301517,32.6359823],[14.3025245,32.6357323],[14.3037055,32.6353626],[14.3054747,32.634597],[14.3059876,32.6343172],[14.3071073,32.6334751],[14.3066743,32.6324403],[14.3067061,32.6322711],[14.3068039,32.6320857],[14.307253,32.6316609],[14.3084344,32.6308531],[14.3099018,32.630801],[14.310064,32.6309509],[14.3104494,32.6306801],[14.3114649,32.63184],[14.312795,32.6318676],[14.3133856,32.6326547],[14.3132579,32.6328697],[14.308199,32.6341913],[14.3049513,32.6354812],[14.3042308,32.6355874],[14.3039403,32.6357037],[14.3036763,32.6358764],[14.3032668,32.6359842],[14.3018147,32.6364161],[14.3013632,32.6368705],[14.3012671,32.6370216],[14.301285,32.637156],[14.3013522,32.6373327],[14.3016055,32.6376922],[14.3015879,32.6381001],[14.3015009,32.6383698],[14.3012729,32.6386544],[14.3011629,32.638825],[14.3011281,32.6388057],[14.3010879,32.6387967],[14.3010476,32.6387921],[14.3010074,32.6387809],[14.3009672,32.6387741],[14.3009269,32.638765],[14.3008894,32.6387583],[14.3008545,32.638747],[14.300825,32.6387289],[14.3007982,32.6387063],[14.300766,32.638686],[14.3007311,32.6386724],[14.3006963,32.6386521],[14.3006882,32.6386227],[14.3007043,32.6385934],[14.3007204,32.6385685],[14.3007418,32.6385392],[14.3007579,32.6385121],[14.3007633,32.6384805],[14.3007606,32.6384511],[14.3007231,32.6384466],[14.3006855,32.6384443],[14.3006614,32.6384172],[14.3006372,32.6383901],[14.3005997,32.6383766],[14.3005595,32.6383811],[14.3005192,32.6383969],[14.3004763,32.6384037],[14.3004334,32.6384172],[14.3003958,32.638433],[14.3003744,32.6384601],[14.300369,32.6384917],[14.3003744,32.6385234],[14.3003932,32.6385505],[14.3004173,32.6385753],[14.3004441,32.6385979],[14.3004629,32.6386273],[14.3004656,32.6386611],[14.3004522,32.6386928],[14.30031,32.6387312],[14.3002591,32.6387537],[14.3002349,32.6387809],[14.3002349,32.6388125],[14.300243,32.6388441],[14.3002483,32.638878],[14.3002483,32.6389119],[14.3002295,32.6389435],[14.3001947,32.6389615],[14.3001598,32.6389728],[14.300133,32.6389977],[14.3001437,32.6390293],[14.3001786,32.6390451],[14.3002135,32.6390451],[14.3002483,32.6390496],[14.3002564,32.6390813],[14.3002725,32.6391084],[14.30031,32.6391174],[14.3002939,32.639149],[14.3002617,32.6391693],[14.3002269,32.6391874],[14.3002188,32.6392213],[14.3002242,32.6392529],[14.3002108,32.6392868],[14.3001813,32.6393478],[14.3001893,32.6393839],[14.3001357,32.6394223],[14.3001437,32.6394539],[14.3002376,32.6394946],[14.3002751,32.6395014],[14.3003127,32.6394901],[14.3003449,32.6394788],[14.3003824,32.6394765],[14.30042,32.6394743],[14.3004522,32.6394901],[14.300487,32.6395104],[14.3005165,32.6395307],[14.3005407,32.6395578],[14.3005595,32.6395872],[14.3005916,32.6396053],[14.3006265,32.6396211],[14.300648,32.6396459],[14.3006667,32.639673],[14.3006936,32.6396933],[14.3007284,32.6397069],[14.3007633,32.6397204],[14.3007982,32.639734],[14.3008223,32.6397566],[14.3008465,32.6397814],[14.3008813,32.639795],[14.3009135,32.6398063],[14.3009457,32.6398198],[14.3009779,32.6398356],[14.3010101,32.6398514],[14.3010449,32.6398605],[14.3010798,32.6398695],[14.3011174,32.6398786],[14.3011576,32.6398853],[14.3011951,32.6398898],[14.3012327,32.6398944],[14.3012676,32.6399011],[14.301438,32.6399049],[14.3018228,32.6400434],[14.3018281,32.640197],[14.3015304,32.6403754],[14.3012864,32.6403638],[14.2997441,32.6401473],[14.2986631,32.6402941],[14.2980248,32.6402625],[14.2971584,32.6400705],[14.296791,32.6398989],[14.2962277,32.6398921],[14.294912,32.6401907],[14.2929634,32.6405697],[14.2895365,32.640759],[14.2868646,32.641301],[14.2834934,32.6423086],[14.283239,32.642006],[14.2827771,32.6414565],[14.2804416,32.639475],[14.2824304,32.6378164],[14.2829776,32.6373782],[14.2846306,32.6363113],[14.2850536,32.6360727],[14.2853808,32.636407],[14.2863867,32.6357497],[14.2860809,32.6354222],[14.286517,32.6351135],[14.287667,32.634264],[14.2914164,32.6312625],[14.2915185,32.6313158]]]},"properties":{"site":"leptismagna","name":"لبدة الكبرى","category":"archaeological","historic":"archaeological_site","building":null,"osm_id":94730271}},{"type":"Feature","geometry":{"type":"Polygon","coordinates":[[[14.2943646,32.6369985],[14.2947877,32.6372249],[14.2944103,32.6379263],[14.293947,32.6377441],[14.2943646,32.6369985]]]},"properties":{"site":"leptismagna","name":"Basilica of Severus","category":"basilica","historic":"building","building":"yes","osm_id":94730289}},{"type":"Feature","geometry":{"type":"Polygon","coordinates":[[[14.2937515,32.6376316],[14.2926942,32.6369999],[14.2932337,32.636411],[14.2942788,32.6369562],[14.2937515,32.6376316]]]},"properties":{"site":"leptismagna","name":"Forum of Severus","category":"forum","historic":"building","building":"yes","osm_id":94730296}},{"type":"Feature","geometry":{"type":"Polygon","coordinates":[[[14.2859132,32.6413983],[14.2857669,32.6411718],[14.2857363,32.6411858],[14.285689,32.6411126],[14.2857805,32.6410707],[14.2858033,32.641106],[14.2858503,32.6410845],[14.285868,32.6411119],[14.2860201,32.6410423],[14.2860975,32.6411621],[14.2860585,32.6411799],[14.2860941,32.641235],[14.2860553,32.6412527],[14.2860645,32.641267],[14.2859979,32.6412975],[14.2860288,32.6413454],[14.2859132,32.6413983]]]},"properties":{"site":"leptismagna","name":"Leptis Magna, Hunting Baths","category":"bath","historic":"building","building":"yes","osm_id":257139444}},{"type":"Feature","geometry":{"type":"Polygon","coordinates":[[[14.293229,32.6392525],[14.2934756,32.6393489],[14.2936859,32.6389673],[14.2934393,32.6388709],[14.293229,32.6392525]]]},"properties":{"site":"leptismagna","name":"Serapaeum","category":"other","historic":"building","building":"yes","osm_id":257139445}},{"type":"Feature","geometry":{"type":"Polygon","coordinates":[[[14.2951283,32.639308],[14.2950143,32.639226],[14.295104,32.6391375],[14.295218,32.6392195],[14.2951283,32.639308]]]},"properties":{"site":"leptismagna","name":null,"category":"other","historic":"building","building":"yes","osm_id":257139446}},{"type":"Feature","geometry":{"type":"Polygon","coordinates":[[[14.2959956,32.6391955],[14.2957829,32.6390949],[14.2958553,32.6389863],[14.2960681,32.6390868],[14.2959956,32.6391955]]]},"properties":{"site":"leptismagna","name":"Curia","category":"other","historic":"building","building":"yes","osm_id":257139447}},{"type":"Feature","geometry":{"type":"Polygon","coordinates":[[[14.288515,32.6346795],[14.2889573,32.634337],[14.288872,32.6342589],[14.2888535,32.6342732],[14.2888402,32.6342611],[14.2888081,32.6342317],[14.2887213,32.6341521],[14.2887369,32.63414],[14.2886539,32.634064],[14.2882175,32.634402],[14.2882902,32.6344686],[14.2883039,32.634458],[14.288448,32.6345899],[14.2884313,32.6346028],[14.288515,32.6346795]]]},"properties":{"site":"leptismagna","name":"Leptis Magna Museum","category":"other","historic":null,"building":"yes","osm_id":367182583}},{"type":"Feature","geometry":{"type":"Polygon","coordinates":[[[14.2892333,32.6345927],[14.2892811,32.6345572],[14.2893812,32.6346527],[14.2894856,32.6345752],[14.289444,32.6345354],[14.2895433,32.6344617],[14.2895826,32.6344993],[14.2897332,32.6343875],[14.2896718,32.6343288],[14.2895229,32.6344394],[14.2894563,32.6343757],[14.2893581,32.6344486],[14.2893002,32.6343933],[14.2892384,32.6344393],[14.2892674,32.634467],[14.2891742,32.6345362],[14.2892333,32.6345927]]]},"properties":{"site":"leptismagna","name":null,"category":"other","historic":null,"building":"yes","osm_id":367182584}},{"type":"Feature","geometry":{"type":"Polygon","coordinates":[[[14.2888081,32.6342317],[14.2889469,32.6341292],[14.2887688,32.6339661],[14.2886987,32.6340204],[14.2885883,32.6339193],[14.2886628,32.6338616],[14.288641,32.6338416],[14.2886413,32.6337855],[14.2886883,32.6337491],[14.288703,32.6337626],[14.2888251,32.6336681],[14.2889549,32.6337871],[14.2889204,32.6338138],[14.2890915,32.6339705],[14.2891333,32.6339381],[14.2892452,32.6340405],[14.2890855,32.6341642],[14.2891314,32.6342063],[14.2890039,32.634305],[14.2889093,32.6342104],[14.2888402,32.6342611],[14.2888081,32.6342317]]]},"properties":{"site":"leptismagna","name":null,"category":"other","historic":null,"building":"yes","osm_id":367182585}},{"type":"Feature","geometry":{"type":"Polygon","coordinates":[[[14.287409,32.6350959],[14.2874994,32.6350325],[14.2874549,32.6349875],[14.2873645,32.635051],[14.287409,32.6350959]]]},"properties":{"site":"leptismagna","name":null,"category":"other","historic":null,"building":"yes","osm_id":367182587}},{"type":"Feature","geometry":{"type":"Polygon","coordinates":[[[14.2880832,32.6340011],[14.2881904,32.6339179],[14.2881533,32.633884],[14.2880462,32.6339672],[14.2880832,32.6340011]]]},"properties":{"site":"leptismagna","name":null,"category":"other","historic":null,"building":"yes","osm_id":367182588}},{"type":"Feature","geometry":{"type":"Polygon","coordinates":[[[14.2878759,32.6345584],[14.288035,32.6344427],[14.287908,32.6343188],[14.2877489,32.6344344],[14.2878759,32.6345584]]]},"properties":{"site":"leptismagna","name":null,"category":"other","historic":null,"building":"yes","osm_id":367182589}},{"type":"Feature","geometry":{"type":"Polygon","coordinates":[[[14.2873798,32.6346484],[14.2875758,32.6344975],[14.287498,32.6344259],[14.2873021,32.6345768],[14.2873798,32.6346484]]]},"properties":{"site":"leptismagna","name":null,"category":"other","historic":null,"building":"yes","osm_id":367182590}},{"type":"Feature","geometry":{"type":"Polygon","coordinates":[[[14.2905754,32.6387624],[14.2909046,32.6384301],[14.2909303,32.6384478],[14.2909467,32.6384202],[14.2912105,32.6385284],[14.2910284,32.6389374],[14.2905754,32.6387624]]]},"properties":{"site":"leptismagna","name":null,"category":"archaeological","historic":"ruins","building":null,"osm_id":407990207}},{"type":"Feature","geometry":{"type":"Polygon","coordinates":[[[14.2878833,32.6370049],[14.2882708,32.6365967],[14.2884673,32.6367289],[14.2880798,32.6371371],[14.2878833,32.6370049]]]},"properties":{"site":"leptismagna","name":"Leptis Magna, Temple to unknown divinity on the Decumanus","category":"temple","historic":"building","building":"yes","osm_id":407997997}},{"type":"Feature","geometry":{"type":"Polygon","coordinates":[[[14.2883042,32.6365591],[14.2884925,32.6366937],[14.289264,32.6359275],[14.2891996,32.6358815],[14.2891757,32.6359052],[14.2891228,32.6358674],[14.2890892,32.6359007],[14.2890183,32.63585],[14.2883042,32.6365591]]]},"properties":{"site":"leptismagna","name":null,"category":"other","historic":"building","building":"yes","osm_id":407997998}},{"type":"Feature","geometry":{"type":"Polygon","coordinates":[[[14.2947053,32.6388574],[14.2949337,32.6390151],[14.2950407,32.6389052],[14.2948123,32.6387475],[14.2947053,32.6388574]]]},"properties":{"site":"leptismagna","name":null,"category":"other","historic":"building","building":"yes","osm_id":407998000}},{"type":"Feature","geometry":{"type":"Polygon","coordinates":[[[14.2949462,32.6396927],[14.2950743,32.6395623],[14.2951837,32.6396386],[14.2950556,32.6397689],[14.2949462,32.6396927]]]},"properties":{"site":"leptismagna","name":"Hercules Temple","category":"temple","historic":"building","building":"yes","osm_id":407998004}},{"type":"Feature","geometry":{"type":"Polygon","coordinates":[[[14.2918408,32.6359188],[14.2918726,32.6359219],[14.2918721,32.6359366],[14.291876,32.6359522],[14.2918851,32.6359678],[14.2918987,32.6359808],[14.2919114,32.6359884],[14.2919327,32.6359954],[14.2919513,32.635997],[14.2919698,32.6359949],[14.2919872,32.6359892],[14.2920003,32.6359817],[14.2920102,32.6359735],[14.2920184,32.6359636],[14.2920245,32.635952],[14.2920282,32.6359372],[14.2920692,32.6359413],[14.2920815,32.6358532],[14.2918531,32.6358307],[14.2918408,32.6359188]]]},"properties":{"site":"leptismagna","name":null,"category":"other","historic":"building","building":"yes","osm_id":408718791}},{"type":"Feature","geometry":{"type":"Polygon","coordinates":[[[14.2971182,32.6373059],[14.2970391,32.6373044],[14.2970364,32.6374027],[14.2971155,32.6374042],[14.2971182,32.6373059]]]},"properties":{"site":"leptismagna","name":null,"category":"other","historic":null,"building":"yes","osm_id":893019307}},{"type":"Feature","geometry":{"type":"Polygon","coordinates":[[[14.2975084,32.6370236],[14.2976513,32.6368092],[14.2974863,32.6367313],[14.2973843,32.6368844],[14.2973435,32.6369457],[14.2975084,32.6370236]]]},"properties":{"site":"leptismagna","name":"معبد جوبيتير","category":"other","historic":"temple","building":"yes","osm_id":893019309}},{"type":"Feature","geometry":{"type":"Polygon","coordinates":[[[14.2952855,32.6385898],[14.2950355,32.6388526],[14.2953388,32.6390752],[14.2953723,32.6390299],[14.2953218,32.6388507],[14.2953102,32.6386567],[14.2952908,32.6386436],[14.2953199,32.638613],[14.2952855,32.6385898]]]},"properties":{"site":"leptismagna","name":"Old Basilica","category":"basilica","historic":"building","building":"yes","osm_id":893019310}},{"type":"Feature","geometry":{"type":"Polygon","coordinates":[[[14.2959069,32.6377959],[14.2960548,32.6378693],[14.2960346,32.6379],[14.2960147,32.6379193],[14.2959881,32.6379318],[14.2959581,32.6379358],[14.2959283,32.637931],[14.2959022,32.6379179],[14.295883,32.637898],[14.2958731,32.6378738],[14.2958735,32.6378482],[14.2958844,32.6378243],[14.2959069,32.6377959]]]},"properties":{"site":"leptismagna","name":null,"category":"other","historic":"building","building":"yes","osm_id":893019314}},{"type":"Feature","geometry":{"type":"Polygon","coordinates":[[[14.2921212,32.6402295],[14.2922512,32.6402246],[14.2922137,32.6401816],[14.2921515,32.6401642],[14.2921212,32.6402295]]]},"properties":{"site":"leptismagna","name":null,"category":"other","historic":"building","building":"yes","osm_id":893019315}},{"type":"Feature","geometry":{"type":"Polygon","coordinates":[[[14.2920515,32.6402365],[14.2921157,32.6401246],[14.2920327,32.6400909],[14.2919685,32.6402028],[14.2920515,32.6402365]]]},"properties":{"site":"leptismagna","name":null,"category":"other","historic":"building","building":"yes","osm_id":893019316}},{"type":"Feature","geometry":{"type":"Polygon","coordinates":[[[14.2916988,32.6402704],[14.2918316,32.6400389],[14.2916004,32.6399449],[14.2915411,32.6400484],[14.2916019,32.6400732],[14.2915285,32.6402012],[14.2916988,32.6402704]]]},"properties":{"site":"leptismagna","name":null,"category":"other","historic":"building","building":"yes","osm_id":893019317}},{"type":"Feature","geometry":{"type":"Polygon","coordinates":[[[14.292073,32.6380423],[14.2921042,32.6380509],[14.2921302,32.638068],[14.2921475,32.6380916],[14.2921543,32.6381187],[14.2921497,32.6381462],[14.2921341,32.6381706],[14.2921096,32.6381891],[14.292079,32.6381995],[14.2920461,32.6382004],[14.2920148,32.6381917],[14.2919889,32.6381746],[14.2919715,32.6381511],[14.2919648,32.6381239],[14.2919694,32.6380965],[14.2919849,32.638072],[14.2920095,32.6380535],[14.29204,32.6380432],[14.292073,32.6380423]]]},"properties":{"site":"leptismagna","name":null,"category":"other","historic":"building","building":"yes","osm_id":893019318}},{"type":"Feature","geometry":{"type":"Polygon","coordinates":[[[14.2919268,32.6383133],[14.2919402,32.6383247],[14.2919465,32.6383398],[14.2919443,32.6383557],[14.2919342,32.6383693],[14.2919181,32.6383778],[14.2918991,32.6383796],[14.2918812,32.6383743],[14.2918677,32.6383629],[14.2918614,32.6383478],[14.2918636,32.6383319],[14.2918737,32.6383183],[14.2918899,32.6383098],[14.2919088,32.638308],[14.2919268,32.6383133]]]},"properties":{"site":"leptismagna","name":null,"category":"other","historic":null,"building":"yes","osm_id":893019319}},{"type":"Feature","geometry":{"type":"Polygon","coordinates":[[[14.293064,32.6357248],[14.2931611,32.6356756],[14.2930885,32.6355741],[14.2929914,32.6356233],[14.293064,32.6357248]]]},"properties":{"site":"leptismagna","name":null,"category":"other","historic":"building","building":"yes","osm_id":893019320}},{"type":"Feature","geometry":{"type":"Polygon","coordinates":[[[14.2929366,32.6359089],[14.2926268,32.6355216],[14.2928347,32.635499],[14.2930399,32.6357858],[14.2929366,32.6359089]]]},"properties":{"site":"leptismagna","name":null,"category":"other","historic":"building","building":"yes","osm_id":893019321}},{"type":"Feature","geometry":{"type":"Polygon","coordinates":[[[14.2942509,32.6385157],[14.2941682,32.6384847],[14.2941323,32.6385533],[14.294088,32.638636],[14.2941706,32.6386671],[14.2942146,32.6385859],[14.2942509,32.6385157]]]},"properties":{"site":"leptismagna","name":null,"category":"other","historic":"building","building":"yes","osm_id":893019324}},{"type":"Feature","geometry":{"type":"Polygon","coordinates":[[[14.2961895,32.6386157],[14.2966948,32.6384117],[14.2966064,32.6382565],[14.2965512,32.6382788],[14.2964778,32.6381498],[14.2963472,32.6382025],[14.2964214,32.6383329],[14.2964921,32.6383043],[14.2965438,32.6383953],[14.2963838,32.6384599],[14.2963528,32.6384054],[14.2962704,32.6382607],[14.2962931,32.6382516],[14.2962633,32.6381992],[14.2962411,32.63818],[14.2962076,32.6381733],[14.2961669,32.6382058],[14.2959749,32.6383318],[14.2960133,32.6384032],[14.2960583,32.6383851],[14.2961895,32.6386157]]]},"properties":{"site":"leptismagna","name":null,"category":"other","historic":"building","building":"yes","osm_id":893019325}},{"type":"Feature","geometry":{"type":"Polygon","coordinates":[[[14.2902061,32.6388486],[14.290013,32.6390067],[14.2900584,32.639046],[14.2902515,32.6388879],[14.2902061,32.6388486]]]},"properties":{"site":"leptismagna","name":null,"category":"other","historic":"building","building":"yes","osm_id":893077481}},{"type":"Feature","geometry":{"type":"Polygon","coordinates":[[[14.2898896,32.6387775],[14.2897774,32.6386958],[14.2896581,32.6388121],[14.2897703,32.6388938],[14.2898896,32.6387775]]]},"properties":{"site":"leptismagna","name":null,"category":"other","historic":"building","building":"yes","osm_id":893077482}},{"type":"Feature","geometry":{"type":"Polygon","coordinates":[[[14.2897145,32.6381969],[14.2897485,32.6381625],[14.2897606,32.6381503],[14.2898889,32.6380207],[14.2899289,32.6379802],[14.2899398,32.6379692],[14.2899527,32.6379561],[14.2899754,32.6379332],[14.2900083,32.6378999],[14.290043,32.6378648],[14.2900804,32.637827],[14.2901033,32.6378039],[14.2901438,32.6377629],[14.2901777,32.6377866],[14.2902009,32.6378029],[14.2902696,32.6378511],[14.290299,32.6378717],[14.2903512,32.6379083],[14.2903193,32.6379406],[14.2903044,32.6379556],[14.2902817,32.6379786],[14.2902476,32.638013],[14.2902157,32.6380453],[14.2901636,32.6380087],[14.2900441,32.6381295],[14.2899736,32.6382007],[14.2899601,32.6382145],[14.2899158,32.6382592],[14.2898999,32.6382753],[14.2898671,32.6382523],[14.2898435,32.6382357],[14.2898133,32.6382662],[14.2897145,32.6381969]]]},"properties":{"site":"leptismagna","name":null,"category":"other","historic":"building","building":"yes","osm_id":893077483}},{"type":"Feature","geometry":{"type":"Polygon","coordinates":[[[14.2913139,32.6382128],[14.2914118,32.638101],[14.2912787,32.6380184],[14.2911808,32.6381302],[14.2913139,32.6382128]]]},"properties":{"site":"leptismagna","name":null,"category":"other","historic":"building","building":"yes","osm_id":893077484}},{"type":"Feature","geometry":{"type":"Polygon","coordinates":[[[14.2890675,32.6356401],[14.2891154,32.6356729],[14.2891652,32.6357069],[14.2892011,32.6356696],[14.2892403,32.635629],[14.2891916,32.6355957],[14.2891426,32.6355622],[14.2891076,32.6355985],[14.2890675,32.6356401]]]},"properties":{"site":"leptismagna","name":"Arch of Septimius Severus","category":"other","historic":"monument","building":"roof","osm_id":893077486}},{"type":"Feature","geometry":{"type":"Polygon","coordinates":[[[14.3010825,32.6384104],[14.3009994,32.6383943],[14.3009753,32.6384824],[14.3010583,32.6384985],[14.3010825,32.6384104]]]},"properties":{"site":"leptismagna","name":null,"category":"other","historic":"building","building":"yes","osm_id":893077499}},{"type":"Feature","geometry":{"type":"Polygon","coordinates":[[[14.3010771,32.6382072],[14.3010922,32.6380709],[14.3009768,32.6380619],[14.3009618,32.6381981],[14.3010771,32.6382072]]]},"properties":{"site":"leptismagna","name":null,"category":"other","historic":"building","building":"yes","osm_id":893077500}},{"type":"Feature","geometry":{"type":"Polygon","coordinates":[[[14.3012165,32.6378729],[14.3011958,32.6377517],[14.3010778,32.6374897],[14.3008847,32.6371102],[14.3007774,32.6368979],[14.3007666,32.636672],[14.3005836,32.636739],[14.3009189,32.637516],[14.3010074,32.6376877],[14.3010315,32.6378322],[14.3010396,32.6379135],[14.3012165,32.6378729]]]},"properties":{"site":"leptismagna","name":null,"category":"other","historic":"building","building":"yes","osm_id":893077501}},{"type":"Feature","geometry":{"type":"Polygon","coordinates":[[[14.3010272,32.6363209],[14.3011093,32.6365064],[14.3013324,32.6364324],[14.3012852,32.6363315],[14.301239,32.6363468],[14.3012044,32.6362727],[14.3011814,32.6362803],[14.3011749,32.6362282],[14.3011539,32.63623],[14.3011388,32.6361085],[14.3010982,32.636076],[14.3010406,32.6360592],[14.3008031,32.6360801],[14.3008085,32.6361239],[14.3009265,32.6361135],[14.3009469,32.6362781],[14.300907,32.6362816],[14.3009131,32.63633],[14.3010272,32.6363209]]]},"properties":{"site":"leptismagna","name":null,"category":"other","historic":"building","building":"yes","osm_id":893077503}},{"type":"Feature","geometry":{"type":"Polygon","coordinates":[[[14.2893022,32.6334841],[14.2894188,32.6333801],[14.2892271,32.6332278],[14.2891105,32.6333318],[14.2893022,32.6334841]]]},"properties":{"site":"leptismagna","name":null,"category":"other","historic":null,"building":"yes","osm_id":893077505}},{"type":"Feature","geometry":{"type":"Polygon","coordinates":[[[14.2894699,32.6336569],[14.2898502,32.6333176],[14.2896818,32.6331837],[14.2893014,32.6335231],[14.2894699,32.6336569]]]},"properties":{"site":"leptismagna","name":null,"category":"other","historic":null,"building":"yes","osm_id":893077506}},{"type":"Feature","geometry":{"type":"Polygon","coordinates":[[[14.2895919,32.6339969],[14.2892994,32.6337644],[14.2892868,32.6337756],[14.2891226,32.6336451],[14.2891843,32.63359],[14.2889911,32.6334364],[14.2888762,32.6335389],[14.2892233,32.6338148],[14.2891993,32.6338363],[14.2895022,32.634077],[14.2895919,32.6339969]]]},"properties":{"site":"leptismagna","name":null,"category":"other","historic":null,"building":"yes","osm_id":893077507}},{"type":"Feature","geometry":{"type":"Polygon","coordinates":[[[14.2862874,32.638599],[14.2863263,32.6385527],[14.2862423,32.6384893],[14.2861694,32.6384341],[14.2861198,32.6383664],[14.2860836,32.6383878],[14.2861238,32.6384511],[14.2860988,32.638476],[14.2860822,32.638485],[14.2860733,32.6384997],[14.2860743,32.6385162],[14.2860849,32.6385301],[14.2861024,32.6385377],[14.286122,32.6385369],[14.2861386,32.6385279],[14.2861475,32.6385131],[14.2861761,32.6384872],[14.286217,32.6385141],[14.2862861,32.6385595],[14.2862503,32.6385923],[14.2862338,32.6386013],[14.2862248,32.638616],[14.2862258,32.6386326],[14.2862365,32.6386465],[14.286254,32.638654],[14.2862736,32.6386532],[14.2862901,32.6386442],[14.2862991,32.6386295],[14.2862981,32.6386129],[14.2862874,32.638599]]]},"properties":{"site":"leptismagna","name":"Arch of Trajan","category":"other","historic":"monument","building":"yes","osm_id":893077520}},{"type":"Feature","geometry":{"type":"Polygon","coordinates":[[[14.2916277,32.6345119],[14.2915124,32.6345006],[14.2915078,32.634534],[14.2916231,32.6345453],[14.2916277,32.6345119]]]},"properties":{"site":"leptismagna","name":null,"category":"other","historic":"building","building":"yes","osm_id":893077521}},{"type":"Feature","geometry":{"type":"Polygon","coordinates":[[[14.2919978,32.6342476],[14.2919985,32.6341933],[14.2917356,32.634191],[14.291735,32.6342454],[14.2919978,32.6342476]]]},"properties":{"site":"leptismagna","name":null,"category":"other","historic":"building","building":"yes","osm_id":893077522}},{"type":"Feature","geometry":{"type":"Polygon","coordinates":[[[14.2920515,32.6346271],[14.2921393,32.6346142],[14.2921179,32.6345103],[14.29203,32.6345232],[14.2920515,32.6346271]]]},"properties":{"site":"leptismagna","name":null,"category":"other","historic":"building","building":"yes","osm_id":893077523}},{"type":"Feature","geometry":{"type":"Polygon","coordinates":[[[14.2922607,32.6353296],[14.2922151,32.6350608],[14.2921257,32.6350715],[14.2921459,32.6351904],[14.2921207,32.6351934],[14.2921462,32.6353433],[14.2922607,32.6353296]]]},"properties":{"site":"leptismagna","name":null,"category":"other","historic":"building","building":"yes","osm_id":893077524}},{"type":"Feature","geometry":{"type":"Polygon","coordinates":[[[14.2877864,32.6333351],[14.2880505,32.6335542],[14.288151,32.6334683],[14.2878869,32.6332492],[14.2877864,32.6333351]]]},"properties":{"site":"leptismagna","name":null,"category":"other","historic":null,"building":"yes","osm_id":1053769397}},{"type":"Feature","geometry":{"type":"Polygon","coordinates":[[[14.2877398,32.632951],[14.2878792,32.6330552],[14.2880102,32.632931],[14.2878708,32.6328268],[14.2877398,32.632951]]]},"properties":{"site":"leptismagna","name":null,"category":"other","historic":null,"building":"yes","osm_id":1053769398}},{"type":"Feature","geometry":{"type":"Polygon","coordinates":[[[14.2882486,32.6325649],[14.2883568,32.6324467],[14.2884161,32.6324853],[14.288392,32.6325116],[14.2884287,32.6325355],[14.2884609,32.6325264],[14.2884819,32.63254],[14.2883805,32.6326506],[14.2882486,32.6325649]]]},"properties":{"site":"leptismagna","name":null,"category":"other","historic":null,"building":"yes","osm_id":1053769399}},{"type":"Feature","geometry":{"type":"Polygon","coordinates":[[[14.2880959,32.6324852],[14.2882055,32.632555],[14.2882888,32.6324622],[14.2881792,32.6323924],[14.2880959,32.6324852]]]},"properties":{"site":"leptismagna","name":null,"category":"other","historic":null,"building":"yes","osm_id":1053769400}},{"type":"Feature","geometry":{"type":"Polygon","coordinates":[[[14.2883747,32.6324271],[14.2884367,32.6324742],[14.2884578,32.6324545],[14.2885202,32.6325019],[14.2886301,32.6323993],[14.2885057,32.6323048],[14.2883747,32.6324271]]]},"properties":{"site":"leptismagna","name":null,"category":"other","historic":null,"building":"yes","osm_id":1053769401}},{"type":"Feature","geometry":{"type":"Polygon","coordinates":[[[14.2881917,32.6323618],[14.2882948,32.6324373],[14.2883692,32.6323653],[14.2883919,32.6323819],[14.2884275,32.6323474],[14.2883017,32.6322553],[14.2881917,32.6323618]]]},"properties":{"site":"leptismagna","name":null,"category":"other","historic":null,"building":"yes","osm_id":1053769402}},{"type":"Feature","geometry":{"type":"Polygon","coordinates":[[[14.2881976,32.631964],[14.2883375,32.6320562],[14.2884506,32.6319346],[14.2883108,32.6318423],[14.2881976,32.631964]]]},"properties":{"site":"leptismagna","name":null,"category":"other","historic":null,"building":"yes","osm_id":1053769403}},{"type":"Feature","geometry":{"type":"Polygon","coordinates":[[[14.2879757,32.6318716],[14.2881357,32.6319769],[14.2882599,32.6318429],[14.2881,32.6317377],[14.2879757,32.6318716]]]},"properties":{"site":"leptismagna","name":null,"category":"other","historic":null,"building":"yes","osm_id":1053769404}},{"type":"Feature","geometry":{"type":"Polygon","coordinates":[[[14.2877362,32.6320186],[14.2878948,32.6321226],[14.2879762,32.6320347],[14.2880083,32.6320558],[14.2880554,32.6320048],[14.2879581,32.6319409],[14.2879114,32.6319913],[14.2878181,32.63193],[14.2877362,32.6320186]]]},"properties":{"site":"leptismagna","name":null,"category":"other","historic":null,"building":"yes","osm_id":1053769405}},{"type":"Feature","geometry":{"type":"Polygon","coordinates":[[[14.2878299,32.6317887],[14.2879342,32.6318464],[14.2880146,32.6317433],[14.2879103,32.6316857],[14.2878299,32.6317887]]]},"properties":{"site":"leptismagna","name":null,"category":"other","historic":null,"building":"yes","osm_id":1053769406}},{"type":"Feature","geometry":{"type":"Polygon","coordinates":[[[14.2883089,32.63152],[14.2881838,32.6314554],[14.2883109,32.6312807],[14.2884361,32.6313453],[14.2883089,32.63152]]]},"properties":{"site":"leptismagna","name":null,"category":"other","historic":null,"building":"yes","osm_id":1053769407}},{"type":"Feature","geometry":{"type":"Polygon","coordinates":[[[14.2888035,32.6316752],[14.2887419,32.6316076],[14.2887842,32.6315803],[14.2887544,32.6315475],[14.2888775,32.6314679],[14.288969,32.6315682],[14.2888035,32.6316752]]]},"properties":{"site":"leptismagna","name":null,"category":"other","historic":null,"building":"yes","osm_id":1053769408}},{"type":"Feature","geometry":{"type":"Polygon","coordinates":[[[14.2888077,32.6317017],[14.2889809,32.6315873],[14.289068,32.6316808],[14.2890129,32.6317172],[14.2890308,32.6317364],[14.2889126,32.6318144],[14.2888077,32.6317017]]]},"properties":{"site":"leptismagna","name":null,"category":"other","historic":null,"building":"yes","osm_id":1053769409}},{"type":"Feature","geometry":{"type":"Polygon","coordinates":[[[14.2884388,32.6313088],[14.2884098,32.6312625],[14.2883729,32.6312788],[14.2882726,32.6311183],[14.2884549,32.6310375],[14.2884904,32.6310943],[14.2885172,32.6310966],[14.2885494,32.6311395],[14.2885467,32.6311689],[14.2885918,32.631241],[14.2884388,32.6313088]]]},"properties":{"site":"leptismagna","name":null,"category":"other","historic":null,"building":"yes","osm_id":1053769410}},{"type":"Feature","geometry":{"type":"Polygon","coordinates":[[[14.2889087,32.6310704],[14.2888465,32.6309939],[14.2889259,32.630948],[14.2889881,32.6310245],[14.2889087,32.6310704]]]},"properties":{"site":"leptismagna","name":null,"category":"other","historic":null,"building":"yes","osm_id":1053769411}},{"type":"Feature","geometry":{"type":"Polygon","coordinates":[[[14.2902251,32.6314739],[14.2903438,32.6315703],[14.2905243,32.6314128],[14.2904056,32.6313163],[14.2902251,32.6314739]]]},"properties":{"site":"leptismagna","name":null,"category":"other","historic":null,"building":"yes","osm_id":1053769412}},{"type":"Feature","geometry":{"type":"Polygon","coordinates":[[[14.2901372,32.6317799],[14.2900044,32.6316774],[14.2902045,32.6314934],[14.2903373,32.6315959],[14.2901372,32.6317799]]]},"properties":{"site":"leptismagna","name":null,"category":"other","historic":null,"building":"yes","osm_id":1053769413}},{"type":"Feature","geometry":{"type":"Polygon","coordinates":[[[14.2899604,32.6315537],[14.2898345,32.6314489],[14.2899413,32.6313579],[14.2900672,32.6314627],[14.2899604,32.6315537]]]},"properties":{"site":"leptismagna","name":null,"category":"other","historic":null,"building":"yes","osm_id":1053769414}},{"type":"Feature","geometry":{"type":"Polygon","coordinates":[[[14.2898521,32.631801],[14.2897471,32.6317019],[14.2898769,32.6316044],[14.2899819,32.6317035],[14.2898521,32.631801]]]},"properties":{"site":"leptismagna","name":null,"category":"other","historic":null,"building":"yes","osm_id":1053769415}},{"type":"Feature","geometry":{"type":"Polygon","coordinates":[[[14.2946791,32.6396235],[14.294898,32.6394062],[14.295041,32.6395082],[14.2948075,32.6397553],[14.2946791,32.6396235]]]},"properties":{"site":"leptismagna","name":"Roma & Augustus temple","category":"temple","historic":"building","building":"yes","osm_id":1117661847}},{"type":"Feature","geometry":{"type":"Polygon","coordinates":[[[14.2946656,32.6396049],[14.2944896,32.6394834],[14.2946925,32.6392734],[14.2948723,32.639397],[14.2946656,32.6396049]]]},"properties":{"site":"leptismagna","name":"Liber Pater temple","category":"temple","historic":"building","building":"yes","osm_id":1117661848}},{"type":"Feature","geometry":{"type":"Polygon","coordinates":[[[14.2944725,32.639467],[14.2942658,32.6393156],[14.2945342,32.6390328],[14.294749,32.6391827],[14.2944725,32.639467]]]},"properties":{"site":"leptismagna","name":null,"category":"other","historic":"building","building":"yes","osm_id":1117661849}},{"type":"Feature","geometry":{"type":"Polygon","coordinates":[[[14.2947593,32.6391703],[14.294874,32.639044],[14.2946048,32.6388718],[14.2945077,32.6389907],[14.2947593,32.6391703]]]},"properties":{"site":"leptismagna","name":"Old Forum Church","category":"forum","historic":"building","building":"yes","osm_id":1117661850}},{"type":"Feature","geometry":{"type":"Polygon","coordinates":[[[14.2839568,32.6305909],[14.2844605,32.6304186],[14.2844742,32.6304456],[14.2846253,32.6304019],[14.2845765,32.6302965],[14.2845399,32.6303106],[14.2843628,32.6299224],[14.2842697,32.6299465],[14.2842865,32.6299886],[14.2837492,32.6301731],[14.2837843,32.6302451],[14.2843307,32.6300574],[14.284462,32.6303376],[14.2839232,32.630524],[14.2839568,32.6305909]]]},"properties":{"site":"leptismagna","name":null,"category":"other","historic":null,"building":"yes","osm_id":1121230011}},{"type":"Feature","geometry":{"type":"Polygon","coordinates":[[[14.2899982,32.6301027],[14.2901084,32.6300596],[14.2900403,32.6299362],[14.2899302,32.6299793],[14.2899982,32.6301027]]]},"properties":{"site":"leptismagna","name":null,"category":"other","historic":null,"building":"yes","osm_id":1226629406}},{"type":"Feature","geometry":{"type":"Polygon","coordinates":[[[14.2887955,32.6323651],[14.2883174,32.632714],[14.2884883,32.6328801],[14.2887295,32.6327042],[14.2886509,32.6326278],[14.2888878,32.6324549],[14.2887955,32.6323651]]]},"properties":{"site":"leptismagna","name":null,"category":"other","historic":null,"building":"yes","osm_id":1314921640}},{"type":"Feature","geometry":{"type":"Polygon","coordinates":[[[14.2887093,32.6330523],[14.2888065,32.6329839],[14.2886255,32.6328015],[14.2885283,32.6328699],[14.2887093,32.6330523]]]},"properties":{"site":"leptismagna","name":null,"category":"other","historic":null,"building":"yes","osm_id":1314921641}}]}