{"type":"FeatureCollection","features":[{"type":"Feature","geometry":{"type":"LineString","coordinates":[[14.2892011,32.6356696],[14.2911593,32.6371504],[14.2916416,32.6375228],[14.2917475,32.6376046],[14.2920316,32.6377531],[14.2924764,32.6379129],[14.2929592,32.6381101],[14.2936902,32.6383876],[14.2939392,32.6384756],[14.2941323,32.6385533]]},"properties":{"site":"leptismagna","name":"Via Trionfale","highway":"pedestrian"}},{"type":"Feature","geometry":{"type":"LineString","coordinates":[[14.292034,32.6378772],[14.292377,32.6380441],[14.2919976,32.6385969],[14.2916546,32.63843],[14.292034,32.6378772]]},"properties":{"site":"leptismagna","name":"الأسواق الرومانية","highway":"pedestrian"}},{"type":"Feature","geometry":{"type":"LineString","coordinates":[[14.289921,32.6383756],[14.2904072,32.6379057],[14.2909719,32.6373229],[14.2911593,32.6371504],[14.2919722,32.6363889],[14.291946,32.6363559],[14.2919261,32.6362933],[14.2919308,32.6361889],[14.2920083,32.6360671],[14.292404,32.6356745]]},"properties":{"site":"leptismagna","name":"","highway":"pedestrian"}},{"type":"Feature","geometry":{"type":"LineString","coordinates":[[14.2881316,32.6343221],[14.2883532,32.6341495],[14.2883195,32.6341168],[14.2882033,32.6340187],[14.2881854,32.6339993],[14.2885043,32.6337439],[14.2885981,32.633832],[14.2885713,32.6339178],[14.2885342,32.6339448]]},"properties":{"site":"leptismagna","name":"","highway":"footway"}},{"type":"Feature","geometry":{"type":"LineString","coordinates":[[14.2862423,32.6384893],[14.2877649,32.6369954],[14.2881113,32.63666],[14.28824,32.6365429],[14.2891154,32.6356729]]},"properties":{"site":"leptismagna","name":"Decumanus","highway":"pedestrian"}},{"type":"Feature","geometry":{"type":"LineString","coordinates":[[14.28824,32.6365429],[14.2885041,32.6367275],[14.2885514,32.6367151],[14.2886142,32.6366986],[14.2887032,32.6366883],[14.2904072,32.6379057],[14.2905146,32.6379011],[14.2906217,32.6379147],[14.2909956,32.638141],[14.2910511,32.6381746]]},"properties":{"site":"leptismagna","name":"","highway":"pedestrian"}},{"type":"Feature","geometry":{"type":"LineString","coordinates":[[14.2951055,32.6394843],[14.2950743,32.6395152],[14.2948332,32.6397676],[14.2947901,32.6397937],[14.2944848,32.6398607],[14.2942033,32.6396626],[14.2941352,32.6396146],[14.2934756,32.6393489],[14.293229,32.6392525],[14.2924906,32.6389712],[14.2920135,32.6387885],[14.2915096,32.6385955],[14.2913182,32.6385129],[14.2909251,32.6383433],[14.2910511,32.6381746]]},"properties":{"site":"leptismagna","name":"","highway":"pedestrian"}},{"type":"Feature","geometry":{"type":"LineString","coordinates":[[14.2926454,32.6358817],[14.2928979,32.6360069],[14.2938781,32.6364928],[14.2944388,32.6367973],[14.2954338,32.6373376],[14.2963183,32.6377913]]},"properties":{"site":"leptismagna","name":"Via Colonnata","highway":"pedestrian"}},{"type":"Feature","geometry":{"type":"LineString","coordinates":[[14.2979404,32.636217],[14.2980214,32.6359411],[14.2980563,32.635879],[14.2980771,32.635827],[14.2980918,32.635779],[14.2981093,32.635739],[14.2981414,32.6356983],[14.2982273,32.6356463],[14.2985123,32.6355221],[14.2985458,32.6355086],[14.2985686,32.6354973],[14.298582,32.6354826],[14.2985907,32.6354555],[14.2986229,32.6352985],[14.2986424,32.6352245],[14.2986712,32.6351545],[14.2986866,32.6351212],[14.2987,32.6351003],[14.2987322,32.6350732],[14.2987979,32.6350291],[14.2992257,32.6347163],[14.2993129,32.6346553],[14.2993759,32.6346005],[14.2996502,32.6343357],[14.2997421,32.6342555],[14.2998339,32.6341189],[14.2999553,32.6339269],[14.3000619,32.6337834],[14.3002886,32.6334966],[14.3006976,32.6328991],[14.3010087,32.632523],[14.3012086,32.6323977],[14.3012971,32.6323039],[14.3014097,32.6321255],[14.3015103,32.6319425],[14.3017477,32.631676],[14.3019515,32.6314535],[14.301977,32.6313744],[14.301981,32.6312852],[14.3020052,32.6312061],[14.3025792,32.6305048],[14.3029185,32.6300541]]},"properties":{"site":"leptismagna","name":"","highway":"track"}},{"type":"Feature","geometry":{"type":"LineString","coordinates":[[14.2926085,32.6301684],[14.2930479,32.6303161],[14.2932223,32.6303816],[14.2935616,32.6304754],[14.2943971,32.6306629],[14.2956536,32.6309065],[14.2961043,32.630961],[14.2965361,32.6310277],[14.296748,32.6310435],[14.2976372,32.631074],[14.2978303,32.6310875],[14.2986256,32.6311824],[14.2991414,32.6312523],[14.2992398,32.6312807],[14.2993954,32.631327],[14.2996381,32.6314094],[14.2996971,32.6314275],[14.2997749,32.6314377],[14.2998487,32.6314422],[14.3000257,32.6314422],[14.3003422,32.6314673],[14.3004207,32.6314789],[14.3007083,32.6315337],[14.3008666,32.6315845],[14.3011884,32.63172],[14.3012653,32.6317373],[14.3013641,32.631746],[14.3017477,32.631676],[14.3022171,32.6316805],[14.3032859,32.6316692],[14.3040007,32.6316297],[14.3046606,32.6315958],[14.3049945,32.6315879],[14.3053539,32.6314546],[14.3058696,32.631231],[14.305995,32.6311875],[14.306056,32.6311683],[14.3061499,32.6311547],[14.3062773,32.6311124],[14.3066896,32.6309328],[14.3069619,32.6308074]]},"properties":{"site":"leptismagna","name":"","highway":"track"}},{"type":"Feature","geometry":{"type":"LineString","coordinates":[[14.3010087,32.632523],[14.3010235,32.6327918],[14.3010315,32.632889],[14.3010825,32.6329827],[14.3013534,32.6332402],[14.3013842,32.6333164],[14.3014339,32.6334299],[14.301513,32.6335237],[14.3015867,32.6336039],[14.301926,32.6339009],[14.3020199,32.6340748],[14.3020749,32.6342533],[14.3020494,32.6343798],[14.3020092,32.634487],[14.3020146,32.6345729],[14.3021527,32.6350574],[14.3022144,32.6351794],[14.302376,32.6353979],[14.3023914,32.6355165],[14.3023854,32.6356012],[14.3023686,32.6356831]]},"properties":{"site":"leptismagna","name":"","highway":"track"}},{"type":"Feature","geometry":{"type":"LineString","coordinates":[[14.2975768,32.6336671],[14.2978384,32.6332922],[14.2978679,32.6332357],[14.2978866,32.6331781],[14.2978907,32.6331306],[14.2978947,32.6329872],[14.2979148,32.6329217],[14.297947,32.632846],[14.2980824,32.632479],[14.2982984,32.6320159],[14.2983507,32.6319041],[14.29836,32.6318623],[14.2983614,32.6318228],[14.2983694,32.631737],[14.2983815,32.6316974],[14.2984097,32.6316545],[14.2985062,32.631519],[14.2985263,32.6314795],[14.2985331,32.631432],[14.2985478,32.6313812],[14.2985626,32.6313281],[14.298588,32.6312592],[14.2986256,32.6311824],[14.2987356,32.6309927],[14.2988174,32.6308312],[14.2989676,32.6305386],[14.2990118,32.6304268],[14.2990547,32.6303681],[14.2991017,32.6303003],[14.2991835,32.6301614],[14.2993243,32.629905],[14.2994061,32.629809],[14.2994477,32.6297085],[14.2994732,32.6296317],[14.2995133,32.6293532],[14.2996672,32.6289169],[14.2999239,32.6284208],[14.3000787,32.6278866],[14.300225,32.6271093]]},"properties":{"site":"leptismagna","name":"","highway":"track"}},{"type":"Feature","geometry":{"type":"LineString","coordinates":[[14.3049945,32.6315879],[14.3053868,32.6316946],[14.3054324,32.6317189],[14.3054934,32.6317708],[14.3055765,32.6318053],[14.3056201,32.631816],[14.3056778,32.6318279],[14.3062873,32.631903],[14.3064684,32.6319261],[14.3066159,32.631929],[14.3067564,32.6319095],[14.3068103,32.6319089],[14.3070263,32.6319222],[14.3074507,32.6319493],[14.3074658,32.6319595],[14.3074715,32.6319747],[14.3074843,32.6320845],[14.3074923,32.6321187],[14.3075071,32.6321413],[14.3075352,32.6321577],[14.3080473,32.6322928]]},"properties":{"site":"leptismagna","name":"","highway":"track"}},{"type":"Feature","geometry":{"type":"LineString","coordinates":[[14.2883195,32.6341168],[14.2885342,32.6339448]]},"properties":{"site":"leptismagna","name":"","highway":"footway"}},{"type":"Feature","geometry":{"type":"LineString","coordinates":[[14.2876046,32.6345121],[14.2884779,32.635104],[14.2891076,32.6355985]]},"properties":{"site":"leptismagna","name":"","highway":"pedestrian"}},{"type":"Feature","geometry":{"type":"LineString","coordinates":[[14.2871994,32.6345491],[14.2872782,32.634638],[14.2872769,32.6347335],[14.2872656,32.6348237],[14.2871844,32.6349253],[14.2871873,32.6349625],[14.287253,32.6350179],[14.2872637,32.6350596],[14.2872316,32.6351093],[14.2870787,32.6352833]]},"properties":{"site":"leptismagna","name":"","highway":"service"}},{"type":"Feature","geometry":{"type":"LineString","coordinates":[[14.2933111,32.6374278],[14.2929592,32.6381101],[14.2924906,32.6389712],[14.2919412,32.6400323],[14.2914293,32.6398369]]},"properties":{"site":"leptismagna","name":"","highway":"footway"}},{"type":"Feature","geometry":{"type":"LineString","coordinates":[[14.293229,32.6392525],[14.2934393,32.6388709],[14.2936902,32.6383876],[14.2939879,32.6378041]]},"properties":{"site":"leptismagna","name":"","highway":"footway"}},{"type":"Feature","geometry":{"type":"LineString","coordinates":[[14.2942526,32.6379271],[14.2939392,32.6384756],[14.2936859,32.6389673],[14.2934756,32.6393489]]},"properties":{"site":"leptismagna","name":"","highway":"footway"}},{"type":"Feature","geometry":{"type":"LineString","coordinates":[[14.2959823,32.6285192],[14.2964314,32.6287332],[14.2966379,32.6287953],[14.2977877,32.628993],[14.2995133,32.6293532],[14.3019354,32.6298],[14.3029185,32.6300541]]},"properties":{"site":"leptismagna","name":"","highway":"track"}},{"type":"Feature","geometry":{"type":"LineString","coordinates":[[14.2956403,32.6395454],[14.2955571,32.639402],[14.2954861,32.6392247],[14.2954425,32.6390945],[14.295415,32.6390124],[14.2953667,32.6388102],[14.2953587,32.638625]]},"properties":{"site":"leptismagna","name":"","highway":"footway"}},{"type":"Feature","geometry":{"type":"LineString","coordinates":[[14.2963183,32.6377913],[14.2963108,32.6378525],[14.2963189,32.6379474],[14.2963001,32.6380287],[14.2962491,32.63811],[14.2955437,32.6384488],[14.2954177,32.6385324],[14.2953587,32.638625],[14.295305,32.6375905],[14.2953265,32.6374663],[14.2954338,32.6373376]]},"properties":{"site":"leptismagna","name":"","highway":"footway"}},{"type":"Feature","geometry":{"type":"LineString","coordinates":[[14.2942146,32.6385859],[14.2942378,32.6385953],[14.2943301,32.6386399],[14.2949201,32.6390463],[14.2949548,32.6390705]]},"properties":{"site":"leptismagna","name":"","highway":"pedestrian"}},{"type":"Feature","geometry":{"type":"LineString","coordinates":[[14.2941323,32.6385533],[14.2942146,32.6385859]]},"properties":{"site":"leptismagna","name":"","highway":"pedestrian"}},{"type":"Feature","geometry":{"type":"LineString","coordinates":[[14.2877649,32.6369954],[14.2875775,32.6368937],[14.2874019,32.6367876],[14.2872169,32.6366588],[14.2871014,32.636547],[14.2870358,32.636407],[14.2870331,32.6363731],[14.2870411,32.6363392],[14.2870706,32.636276],[14.2871913,32.6360614],[14.2872852,32.6359304],[14.2873093,32.6358694],[14.2873254,32.6357429],[14.287253,32.6356277],[14.2872423,32.6355961],[14.2872637,32.6355035],[14.2872959,32.6353092],[14.2872933,32.6352347],[14.2872316,32.6351093]]},"properties":{"site":"leptismagna","name":"","highway":"track"}},{"type":"Feature","geometry":{"type":"LineString","coordinates":[[14.2891916,32.6355957],[14.2902012,32.634662],[14.2905913,32.6343012],[14.2906732,32.6342255]]},"properties":{"site":"leptismagna","name":"Decumanus","highway":"pedestrian"}},{"type":"Feature","geometry":{"type":"LineString","coordinates":[[14.2891154,32.6356729],[14.2891536,32.6356337],[14.2891916,32.6355957]]},"properties":{"site":"leptismagna","name":"","highway":"pedestrian"}},{"type":"Feature","geometry":{"type":"LineString","coordinates":[[14.2891076,32.6355985],[14.2891536,32.6356337],[14.2892011,32.6356696]]},"properties":{"site":"leptismagna","name":"Via Trionfale","highway":"pedestrian"}},{"type":"Feature","geometry":{"type":"LineString","coordinates":[[14.2909251,32.6383433],[14.2904708,32.6388462]]},"properties":{"site":"leptismagna","name":"","highway":"footway"}},{"type":"Feature","geometry":{"type":"LineString","coordinates":[[14.2898623,32.6344175],[14.2902012,32.634662],[14.2905405,32.6349249],[14.291015,32.635392],[14.2910531,32.6354456],[14.2910662,32.6355149]]},"properties":{"site":"leptismagna","name":"","highway":"pedestrian"}},{"type":"Feature","geometry":{"type":"LineString","coordinates":[[14.2919779,32.6358175],[14.29201,32.6356269],[14.2920415,32.6354399]]},"properties":{"site":"leptismagna","name":"","highway":"pedestrian"}},{"type":"Feature","geometry":{"type":"LineString","coordinates":[[14.2916682,32.6357787],[14.2917,32.6355899],[14.2917318,32.635401]]},"properties":{"site":"leptismagna","name":"","highway":"pedestrian"}},{"type":"Feature","geometry":{"type":"LineString","coordinates":[[14.291373,32.6357416],[14.2914045,32.6355546],[14.2914366,32.635364]]},"properties":{"site":"leptismagna","name":"","highway":"pedestrian"}},{"type":"Feature","geometry":{"type":"LineString","coordinates":[[14.2913783,32.6353567],[14.2913276,32.6353551],[14.2912778,32.6353631],[14.2912313,32.6353802],[14.2911905,32.6354056],[14.2911575,32.635438],[14.2911338,32.6354758],[14.2911202,32.6355207],[14.2911189,32.6355597],[14.2911284,32.6356017],[14.2911487,32.6356408],[14.2911789,32.6356751],[14.2912173,32.6357029],[14.2912622,32.6357229],[14.2913112,32.6357339],[14.291373,32.6357416],[14.2916682,32.6357787],[14.2919779,32.6358175],[14.2920582,32.6358276],[14.2921089,32.6358292],[14.2921587,32.6358212],[14.2922052,32.6358041],[14.2922459,32.6357787],[14.292279,32.6357463],[14.2923026,32.6357085],[14.2923163,32.6356635],[14.2923175,32.6356246],[14.2923081,32.6355826],[14.2922877,32.6355435],[14.2922576,32.6355092],[14.2922191,32.6354813],[14.2921742,32.6354614],[14.2921253,32.6354504],[14.2920415,32.6354399],[14.2917318,32.635401],[14.2914366,32.635364],[14.2913783,32.6353567]]},"properties":{"site":"leptismagna","name":"","highway":"pedestrian"}},{"type":"Feature","geometry":{"type":"LineString","coordinates":[[14.2976493,32.6375747],[14.2976144,32.6375634],[14.2975715,32.6375657],[14.2975339,32.637577],[14.2974561,32.637586],[14.2972577,32.6375928],[14.2971745,32.6376041],[14.297137,32.6376176]]},"properties":{"site":"leptismagna","name":"","highway":"footway"}},{"type":"Feature","geometry":{"type":"LineString","coordinates":[[14.2976493,32.6375747],[14.2976761,32.6375499],[14.2976868,32.6375205],[14.2976868,32.6374889],[14.2976895,32.6374595],[14.2976868,32.6374279],[14.2976868,32.6373963],[14.2976975,32.6373647],[14.297719,32.6373376],[14.2977539,32.6373105],[14.2977861,32.6372879],[14.2978182,32.6372653],[14.2978504,32.6372495],[14.2978799,32.6372291],[14.2979094,32.6372066],[14.2979416,32.6371862],[14.2979711,32.6371682],[14.2980006,32.6371456],[14.2980301,32.637123],[14.298057,32.6371049],[14.2980865,32.6370778],[14.2981133,32.6370552],[14.2981401,32.6370349],[14.2981669,32.6370146],[14.2981991,32.6369965],[14.2982286,32.6369762],[14.2982608,32.6369604],[14.298293,32.6369445],[14.2983198,32.636922],[14.298344,32.6368971],[14.2983681,32.63687],[14.2983869,32.6368429],[14.2983922,32.6368113],[14.2983842,32.6367797],[14.29836,32.6367548],[14.298331,32.6366998]]},"properties":{"site":"leptismagna","name":"","highway":"footway"}},{"type":"Feature","geometry":{"type":"LineString","coordinates":[[14.300428,32.6384759],[14.3003476,32.6384737],[14.3001062,32.6384985],[14.2999801,32.6384759],[14.2999426,32.6384827],[14.2998943,32.6385369],[14.2998272,32.6385753],[14.2997897,32.6385843],[14.2997065,32.6385911],[14.299626,32.6385843],[14.2994168,32.6385414],[14.2991781,32.6384759],[14.2987436,32.6384037],[14.2985103,32.6383404],[14.2983198,32.6382727],[14.2982125,32.6382252],[14.2980435,32.6381778],[14.2979765,32.6381417],[14.2977431,32.637961],[14.2977002,32.6379113],[14.2976841,32.6378774],[14.297668,32.6377825],[14.297668,32.6375996],[14.2976493,32.6375747]]},"properties":{"site":"leptismagna","name":"","highway":"footway"}},{"type":"Feature","geometry":{"type":"LineString","coordinates":[[14.2979142,32.6365306],[14.2981803,32.6366441],[14.298331,32.6366998],[14.2984861,32.6367571],[14.2988509,32.63687],[14.2991111,32.6369829],[14.2993042,32.6370846],[14.2996582,32.6371252],[14.3000257,32.6372472],[14.3002886,32.6373217],[14.3004093,32.6374279],[14.3005568,32.6375567],[14.3006533,32.6377328],[14.300776,32.6379554],[14.3008347,32.6380625],[14.3008054,32.6383096]]},"properties":{"site":"leptismagna","name":"","highway":"footway"}},{"type":"Feature","geometry":{"type":"LineString","coordinates":[[14.3008411,32.6383607],[14.3011469,32.6384014],[14.3012381,32.6380694],[14.3012414,32.6380182],[14.3012165,32.6378729],[14.3010396,32.6379135],[14.3010315,32.6378322],[14.3010074,32.6376877],[14.3009189,32.637516],[14.3005836,32.636739],[14.3004978,32.6367797],[14.3008465,32.6376334],[14.3008786,32.637708],[14.3009108,32.6378164],[14.3009055,32.6379248],[14.3008411,32.6383607]]},"properties":{"site":"leptismagna","name":"","highway":"pedestrian"}},{"type":"Feature","geometry":{"type":"LineString","coordinates":[[14.2874032,32.6354493],[14.2876017,32.6354199],[14.2877868,32.6353431],[14.2879692,32.6352663],[14.2882159,32.6352257],[14.2884064,32.6351714],[14.2884779,32.635104]]},"properties":{"site":"leptismagna","name":"","highway":"track"}},{"type":"Feature","geometry":{"type":"LineString","coordinates":[[14.2882033,32.6340187],[14.2876046,32.6345121]]},"properties":{"site":"leptismagna","name":"","highway":"pedestrian"}},{"type":"Feature","geometry":{"type":"LineString","coordinates":[[14.2859535,32.6371388],[14.2858475,32.6372224],[14.2856652,32.6372992],[14.2854841,32.63735],[14.2852843,32.6373861],[14.2851716,32.6374155],[14.2847612,32.6376933],[14.2844582,32.6379079],[14.2843066,32.6380355],[14.2842342,32.6380649],[14.2841323,32.6380908],[14.2840143,32.6381179],[14.2839083,32.6381733],[14.2838359,32.6382376],[14.2836066,32.6385279]]},"properties":{"site":"leptismagna","name":"","highway":"track"}},{"type":"Feature","geometry":{"type":"LineString","coordinates":[[14.2860575,32.6387002],[14.2858999,32.638843],[14.2856812,32.639036],[14.2855948,32.6391258],[14.285527,32.6391879],[14.2854372,32.6392721],[14.2852414,32.6394821],[14.2846662,32.6400836],[14.2846597,32.6400901],[14.2844964,32.6402112],[14.2842687,32.6403391]]},"properties":{"site":"leptismagna","name":"","highway":"track"}},{"type":"Feature","geometry":{"type":"LineString","coordinates":[[14.286217,32.6385141],[14.2862423,32.6384893]]},"properties":{"site":"leptismagna","name":"","highway":"pedestrian"}},{"type":"Feature","geometry":{"type":"LineString","coordinates":[[14.2860534,32.6386674],[14.286217,32.6385141]]},"properties":{"site":"leptismagna","name":"","highway":"pedestrian"}},{"type":"Feature","geometry":{"type":"LineString","coordinates":[[14.2881113,32.63666],[14.2879558,32.6364838],[14.2875802,32.635901],[14.2874032,32.6354493],[14.2872637,32.6355035],[14.286958,32.6357474],[14.2861855,32.6365425],[14.2861426,32.6366509],[14.2861319,32.6368497],[14.2859535,32.6371388],[14.2856839,32.6375578],[14.2856397,32.6376447],[14.2856289,32.637717],[14.2856424,32.6377859],[14.2856866,32.6379248],[14.2857765,32.6381078],[14.2859535,32.6382467],[14.2859964,32.638328],[14.2859937,32.6383839],[14.2860534,32.6386674],[14.2860575,32.6387002],[14.2860943,32.6390474],[14.2861426,32.6394201],[14.2862016,32.6397588],[14.2862298,32.6400795],[14.2862418,32.64018],[14.2863156,32.6407323],[14.2862324,32.6409808]]},"properties":{"site":"leptismagna","name":"","highway":"track"}},{"type":"Feature","geometry":{"type":"LineString","coordinates":[[14.2910662,32.6355149],[14.2911202,32.6355207],[14.2914045,32.6355546],[14.2917,32.6355899],[14.29201,32.6356269],[14.2923163,32.6356635],[14.292404,32.6356745],[14.2926008,32.6356993]]},"properties":{"site":"leptismagna","name":"","highway":"pedestrian"}},{"type":"Feature","geometry":{"type":"LineString","coordinates":[[14.2917206,32.6393238],[14.2910058,32.6390506],[14.2904708,32.6388462],[14.2903947,32.6388171],[14.2901875,32.6386675],[14.2900807,32.6384878],[14.289921,32.6383756],[14.2885048,32.6374328],[14.2877649,32.6369954]]},"properties":{"site":"leptismagna","name":"","highway":"footway"}},{"type":"Feature","geometry":{"type":"LineString","coordinates":[[14.2903947,32.6388171],[14.2901345,32.6390568],[14.2900085,32.6392006],[14.2899963,32.6392553],[14.2900085,32.6393101],[14.2911887,32.6402694]]},"properties":{"site":"leptismagna","name":"","highway":"footway"}},{"type":"Feature","geometry":{"type":"LineString","coordinates":[[14.2911887,32.6402694],[14.2914293,32.6398369],[14.2917206,32.6393238],[14.2920135,32.6387885],[14.2924764,32.6379129],[14.2925956,32.6377151]]},"properties":{"site":"leptismagna","name":"","highway":"footway"}},{"type":"Feature","geometry":{"type":"LineString","coordinates":[[14.2913182,32.6385129],[14.2910058,32.6390506]]},"properties":{"site":"leptismagna","name":"","highway":"footway"}},{"type":"Feature","geometry":{"type":"LineString","coordinates":[[14.2909956,32.638141],[14.2911598,32.6379679],[14.2916416,32.6375228]]},"properties":{"site":"leptismagna","name":"","highway":"footway"}},{"type":"Feature","geometry":{"type":"LineString","coordinates":[[14.2915096,32.6385955],[14.2916412,32.6383996],[14.2920316,32.6377531]]},"properties":{"site":"leptismagna","name":"","highway":"footway"}},{"type":"Feature","geometry":{"type":"LineString","coordinates":[[14.2942033,32.6396626],[14.2939942,32.6400513]]},"properties":{"site":"leptismagna","name":"","highway":"footway"}},{"type":"Feature","geometry":{"type":"LineString","coordinates":[[14.2939704,32.639165],[14.2942378,32.6385953],[14.2945235,32.638042]]},"properties":{"site":"leptismagna","name":"","highway":"footway"}},{"type":"Feature","geometry":{"type":"LineString","coordinates":[[14.2919722,32.6363889],[14.2923593,32.636671],[14.2923933,32.6367282],[14.2924326,32.6368268],[14.2924615,32.6368535],[14.292667,32.6370309],[14.2933111,32.6374278],[14.2937703,32.6376839],[14.2939268,32.6377757],[14.2939879,32.6378041],[14.2942526,32.6379271],[14.2943931,32.6379886]]},"properties":{"site":"leptismagna","name":"","highway":"footway"}},{"type":"Feature","geometry":{"type":"LineString","coordinates":[[14.2896408,32.6327649],[14.2903043,32.6337104],[14.2905913,32.6343012],[14.2906567,32.6343458],[14.2911213,32.6343911],[14.2916771,32.6343406],[14.2917878,32.6343306],[14.2922526,32.6342726]]},"properties":{"site":"leptismagna","name":"","highway":"footway"}},{"type":"Feature","geometry":{"type":"LineString","coordinates":[[14.2963183,32.6377913],[14.2964569,32.6376592],[14.2965737,32.6376018],[14.2967722,32.6375905],[14.2968902,32.6376696],[14.297035,32.6376764],[14.297137,32.6376176],[14.2972174,32.6374889],[14.2978772,32.6366137],[14.2979142,32.6365306],[14.2979455,32.6364604],[14.2979619,32.6363483],[14.2979404,32.636217]]},"properties":{"site":"leptismagna","name":"","highway":"footway"}},{"type":"Feature","geometry":{"type":"LineString","coordinates":[[14.2944388,32.6367973],[14.2937703,32.6376839]]},"properties":{"site":"leptismagna","name":"","highway":"path"}},{"type":"Feature","geometry":{"type":"LineString","coordinates":[[14.2947049,32.6392583],[14.2949201,32.6390463],[14.2950608,32.6389077],[14.2953571,32.6391132],[14.2954109,32.6391505],[14.2952035,32.6396051],[14.2950743,32.6395152],[14.2947049,32.6392583]]},"properties":{"site":"leptismagna","name":"Old Forum","highway":"pedestrian"}},{"type":"Feature","geometry":{"type":"LineString","coordinates":[[14.2951923,32.639543],[14.2951055,32.6394843],[14.2950353,32.6394333],[14.2947766,32.6392455],[14.2949548,32.6390705],[14.2950651,32.6389623],[14.2953275,32.6391387],[14.2953488,32.639153]]},"properties":{"site":"leptismagna","name":"","highway":"footway"}},{"type":"Feature","geometry":{"type":"LineString","coordinates":[[14.2950353,32.6394333],[14.2953275,32.6391387],[14.2953571,32.6391132],[14.295384,32.6391039],[14.2954425,32.6390945],[14.2955078,32.6390696],[14.2955539,32.6390413],[14.2955696,32.6390214],[14.2956937,32.638864]]},"properties":{"site":"leptismagna","name":"","highway":"footway"}},{"type":"Feature","geometry":{"type":"LineString","coordinates":[[14.2955696,32.6390214],[14.2960139,32.6392246]]},"properties":{"site":"leptismagna","name":"","highway":"footway"}},{"type":"Feature","geometry":{"type":"LineString","coordinates":[[14.2876281,32.6301267],[14.2874166,32.6300653],[14.2865675,32.6290543],[14.2862428,32.6286561],[14.2861884,32.6286358],[14.2861522,32.6286036]]},"properties":{"site":"leptismagna","name":"","highway":"path"}},{"type":"Feature","geometry":{"type":"LineString","coordinates":[[14.2931768,32.6319381],[14.2933899,32.6319075],[14.2947524,32.6347355],[14.2947284,32.635045]]},"properties":{"site":"leptismagna","name":"","highway":"footway"}},{"type":"Feature","geometry":{"type":"LineString","coordinates":[[14.2846662,32.6400836],[14.2848471,32.6402444],[14.2849812,32.6403619],[14.2850965,32.6405155]]},"properties":{"site":"leptismagna","name":"","highway":"path"}},{"type":"Feature","geometry":{"type":"LineString","coordinates":[[14.2857537,32.6406521],[14.2858073,32.6406262],[14.2862418,32.64018]]},"properties":{"site":"leptismagna","name":"","highway":"track"}},{"type":"Feature","geometry":{"type":"LineString","coordinates":[[14.2857537,32.6406521],[14.2858194,32.6407221],[14.2859253,32.6407684],[14.286101,32.6407865],[14.2863156,32.6407323]]},"properties":{"site":"leptismagna","name":"","highway":"track"}},{"type":"Feature","geometry":{"type":"LineString","coordinates":[[14.2836776,32.6409627],[14.2837232,32.6408949],[14.2838949,32.6408227],[14.2841738,32.6408091],[14.2844152,32.6408046],[14.2846566,32.6407346],[14.2848417,32.6405787],[14.2849544,32.6405268],[14.2850965,32.6405155],[14.2854801,32.6405787],[14.2856973,32.640651],[14.2857537,32.6406521]]},"properties":{"site":"leptismagna","name":"","highway":"track"}},{"type":"Feature","geometry":{"type":"LineString","coordinates":[[14.285185,32.6303286],[14.2843911,32.6293279],[14.2842031,32.6291687]]},"properties":{"site":"leptismagna","name":"","highway":"service"}},{"type":"Feature","geometry":{"type":"LineString","coordinates":[[14.2836052,32.6306877],[14.2835516,32.6304031],[14.2834309,32.6301298],[14.2833048,32.6299175],[14.2832559,32.6297646]]},"properties":{"site":"leptismagna","name":"","highway":"service"}},{"type":"Feature","geometry":{"type":"LineString","coordinates":[[14.2970401,32.6398091],[14.2962969,32.6397894],[14.2954476,32.6399108],[14.2941461,32.6400118],[14.2939942,32.6400513],[14.2935988,32.6402135],[14.2935154,32.6402326],[14.2934456,32.6402352],[14.2933137,32.6402084],[14.2932137,32.6402045],[14.2917834,32.6402725],[14.291705,32.6402939],[14.2915725,32.6402654],[14.2911887,32.6402694],[14.2901811,32.6402834]]},"properties":{"site":"leptismagna","name":"","highway":"footway"}},{"type":"Feature","geometry":{"type":"LineString","coordinates":[[14.2916771,32.6343406],[14.2919772,32.634663],[14.2921484,32.6348071],[14.2925747,32.6355923]]},"properties":{"site":"leptismagna","name":"","highway":"footway"}},{"type":"Feature","geometry":{"type":"LineString","coordinates":[[14.2922413,32.6342261],[14.2922526,32.6342726],[14.2925747,32.6355923],[14.2926008,32.6356993],[14.2926454,32.6358817]]},"properties":{"site":"leptismagna","name":"","highway":"pedestrian"}},{"type":"Feature","geometry":{"type":"LineString","coordinates":[[14.2910662,32.6355149],[14.2910728,32.6356289],[14.2910941,32.6356964],[14.2916901,32.6362215],[14.2919722,32.6363889]]},"properties":{"site":"leptismagna","name":"","highway":"footway"}}]}