{"type":"FeatureCollection","features":[{"type":"Feature","geometry":{"type":"LineString","coordinates":[[10.0127441,44.0620124],[10.0127551,44.0620899],[10.0128579,44.0622894],[10.0133591,44.0630699],[10.0139089,44.0639259],[10.014056,44.06415],[10.0145827,44.0649347],[10.0146488,44.0650508]]},"properties":{"site":"luni","name":"","highway":"pedestrian"}},{"type":"Feature","geometry":{"type":"LineString","coordinates":[[10.011895,44.055588],[10.012118,44.05564],[10.0171749,44.0564751],[10.0175156,44.0565341],[10.0178312,44.0565654],[10.0183248,44.0564359],[10.0192405,44.0561839],[10.0194017,44.0561416],[10.0196837,44.0560527]]},"properties":{"site":"luni","name":"","highway":"track"}},{"type":"Feature","geometry":{"type":"LineString","coordinates":[[10.0196837,44.0560527],[10.019975,44.055982],[10.024711,44.054683],[10.0249263,44.0546196],[10.025122,44.054538]]},"properties":{"site":"luni","name":"Via della Chiesa Marinel","highway":"track"}},{"type":"Feature","geometry":{"type":"LineString","coordinates":[[10.0126716,44.0588927],[10.0125546,44.0589763],[10.012342,44.0590516],[10.0121549,44.0591228],[10.0119108,44.0592512],[10.0116856,44.0593945],[10.0114811,44.0595542]]},"properties":{"site":"luni","name":"","highway":"service"}},{"type":"Feature","geometry":{"type":"LineString","coordinates":[[10.0146488,44.0650508],[10.0146435,44.0649997]]},"properties":{"site":"luni","name":"","highway":"footway"}},{"type":"Feature","geometry":{"type":"LineString","coordinates":[[10.0313165,44.0654616],[10.0312188,44.065506]]},"properties":{"site":"luni","name":"","highway":"footway"}},{"type":"Feature","geometry":{"type":"LineString","coordinates":[[10.0130742,44.063755],[10.0131018,44.0637467],[10.0132108,44.0637138],[10.0133969,44.0636577],[10.0136641,44.0640248]]},"properties":{"site":"luni","name":"","highway":"service"}},{"type":"Feature","geometry":{"type":"LineString","coordinates":[[10.0177321,44.0638835],[10.0178437,44.0638533]]},"properties":{"site":"luni","name":"","highway":"footway"}},{"type":"Feature","geometry":{"type":"LineString","coordinates":[[10.0181767,44.0657203],[10.0182683,44.0658004]]},"properties":{"site":"luni","name":"","highway":"footway"}},{"type":"Feature","geometry":{"type":"LineString","coordinates":[[10.0168796,44.0642814],[10.0169888,44.0643758],[10.0172048,44.0647126],[10.0173672,44.0649374],[10.0174994,44.0650651],[10.0175653,44.0651281],[10.0179296,44.0650101],[10.0176687,44.06457],[10.0181128,44.0644144],[10.0177321,44.0638835],[10.0175944,44.0639055],[10.0174107,44.0636592],[10.0177039,44.0632733],[10.0177075,44.0632175],[10.0174814,44.0628595],[10.0173082,44.0627935],[10.0167117,44.0629782],[10.0164144,44.0630702],[10.0162624,44.0632632],[10.0162518,44.0633698],[10.0168262,44.0641922],[10.0168796,44.0642814]]},"properties":{"site":"luni","name":"","highway":"footway"}},{"type":"Feature","geometry":{"type":"LineString","coordinates":[[10.0175653,44.0651281],[10.0181767,44.0657203]]},"properties":{"site":"luni","name":"","highway":"footway"}},{"type":"Feature","geometry":{"type":"LineString","coordinates":[[10.0175653,44.0651281],[10.0175115,44.0651603],[10.0177844,44.0655692],[10.0176973,44.0657152],[10.017492,44.0657802]]},"properties":{"site":"luni","name":"","highway":"footway"}},{"type":"Feature","geometry":{"type":"LineString","coordinates":[[10.0134966,44.0641071],[10.0132108,44.0637138]]},"properties":{"site":"luni","name":"","highway":"service"}},{"type":"Feature","geometry":{"type":"LineString","coordinates":[[10.0179296,44.0650101],[10.0182548,44.0655024]]},"properties":{"site":"luni","name":"","highway":"footway"}},{"type":"Feature","geometry":{"type":"LineString","coordinates":[[10.0139089,44.0639259],[10.0138598,44.0639462]]},"properties":{"site":"luni","name":"","highway":"pedestrian"}},{"type":"Feature","geometry":{"type":"LineString","coordinates":[[10.031381,44.0627902],[10.0313759,44.0628042],[10.0313705,44.0628148],[10.0312927,44.0627969],[10.0312451,44.0627839],[10.0312056,44.0627632],[10.0311767,44.0627396],[10.0311508,44.0627059]]},"properties":{"site":"luni","name":"","highway":"footway"}},{"type":"Feature","geometry":{"type":"LineString","coordinates":[[10.0133561,44.0641507],[10.013069,44.0642772],[10.0109674,44.0651491],[10.0085071,44.0661625],[10.0059611,44.0673168],[10.0058655,44.0674444],[10.0058282,44.0676841],[10.005778,44.0678682],[10.0051366,44.068372],[10.0041326,44.0691722],[10.003859,44.0693957],[10.0028183,44.0702321],[10.0027379,44.0702938],[10.0026574,44.0703015],[10.0026198,44.0702706],[10.0020029,44.0694612],[10.0017723,44.0691375],[10.0015579,44.0689048],[10.0017293,44.0687829],[10.0019225,44.0686403],[10.0020298,44.0685516],[10.0021639,44.0684591],[10.0022282,44.0684013],[10.0022121,44.0683589],[10.0021746,44.0682934],[10.0021561,44.068256],[10.0022117,44.0682112],[10.0022248,44.0681654],[10.0021192,44.0680851],[10.0020199,44.0680703],[10.0018881,44.0680274],[9.999606,44.0660838]]},"properties":{"site":"luni","name":"","highway":"track"}},{"type":"Feature","geometry":{"type":"LineString","coordinates":[[10.0182706,44.0613339],[10.0176698,44.061411],[10.0170904,44.0615035],[10.0165111,44.0615883],[10.0161892,44.0616346],[10.0159961,44.0615652],[10.0158327,44.0613922],[10.0157629,44.0612341],[10.0156932,44.0610452]]},"properties":{"site":"luni","name":"","highway":"track"}},{"type":"Feature","geometry":{"type":"LineString","coordinates":[[10.0229405,44.0647496],[10.0224363,44.0647728],[10.0218247,44.0648865],[10.0217067,44.0649125]]},"properties":{"site":"luni","name":"","highway":"service"}},{"type":"Feature","geometry":{"type":"LineString","coordinates":[[10.0178437,44.0638533],[10.0190112,44.0654822]]},"properties":{"site":"luni","name":"","highway":"track"}},{"type":"Feature","geometry":{"type":"LineString","coordinates":[[10.0190112,44.0654822],[10.0183224,44.0656857],[10.018279,44.0657319],[10.0182683,44.0658004],[10.0182103,44.0658222],[10.0164281,44.0663609],[10.0157298,44.0666167],[10.0152272,44.0657739],[10.015031,44.0654671],[10.0149117,44.0653071],[10.0147722,44.0651404],[10.0146488,44.0650508]]},"properties":{"site":"luni","name":"","highway":"track"}},{"type":"Feature","geometry":{"type":"LineString","coordinates":[[10.0308925,44.0628108],[10.0307489,44.0628669]]},"properties":{"site":"luni","name":"","highway":"footway"}},{"type":"Feature","geometry":{"type":"LineString","coordinates":[[10.0157298,44.0666167],[10.0157955,44.0667767],[10.0158075,44.0668287],[10.0158008,44.0669087],[10.015776,44.0669632],[10.0157378,44.0670243],[10.0156687,44.0671135],[10.0155728,44.0672253]]},"properties":{"site":"luni","name":"","highway":"track"}},{"type":"Feature","geometry":{"type":"LineString","coordinates":[[10.0190112,44.0654822],[10.0197312,44.0652636],[10.0197868,44.065151],[10.0195996,44.0649178]]},"properties":{"site":"luni","name":"","highway":"track"}},{"type":"Feature","geometry":{"type":"LineString","coordinates":[[10.0274082,44.0577882],[10.0264299,44.0580473],[10.025813,44.0582285],[10.0246757,44.0587836],[10.0236616,44.0593096],[10.022884,44.0596317],[10.0216928,44.0600729],[10.0205395,44.060497],[10.0201589,44.0606166]]},"properties":{"site":"luni","name":"","highway":"track"}},{"type":"Feature","geometry":{"type":"LineString","coordinates":[[10.0138598,44.0639462],[10.0137703,44.0639779]]},"properties":{"site":"luni","name":"","highway":"pedestrian"}},{"type":"Feature","geometry":{"type":"LineString","coordinates":[[10.0137703,44.0639779],[10.0137079,44.0640036],[10.0136641,44.0640248]]},"properties":{"site":"luni","name":"","highway":"pedestrian"}},{"type":"Feature","geometry":{"type":"LineString","coordinates":[[10.0122497,44.0519492],[10.0121579,44.0528978],[10.0120898,44.0535346],[10.011895,44.055588]]},"properties":{"site":"luni","name":"","highway":"track"}},{"type":"Feature","geometry":{"type":"LineString","coordinates":[[9.999581,44.05747],[9.999932,44.057535],[10.000903,44.057641],[10.002339,44.057763],[10.010619,44.058579],[10.011063,44.058613],[10.01117,44.0586],[10.011244,44.058571],[10.011328,44.058507],[10.011399,44.058376],[10.0114325,44.0582674],[10.0115616,44.0578482]]},"properties":{"site":"luni","name":"","highway":"track"}},{"type":"Feature","geometry":{"type":"LineString","coordinates":[[10.0196837,44.0560527],[10.0196051,44.0559189],[10.018431,44.054168],[10.0182971,44.0539556],[10.016976,44.051971]]},"properties":{"site":"luni","name":"Strada Privata Tenuta di Marinella","highway":"track"}},{"type":"Feature","geometry":{"type":"LineString","coordinates":[[10.0167117,44.0629782],[10.0159477,44.0618657]]},"properties":{"site":"luni","name":"","highway":"footway"}},{"type":"Feature","geometry":{"type":"LineString","coordinates":[[10.0189768,44.0633423],[10.0188362,44.0633996],[10.0175944,44.0639055]]},"properties":{"site":"luni","name":"","highway":"footway"}},{"type":"Feature","geometry":{"type":"LineString","coordinates":[[10.0189768,44.0633423],[10.0190296,44.0634334],[10.0190364,44.0634452]]},"properties":{"site":"luni","name":"","highway":"footway"}},{"type":"Feature","geometry":{"type":"LineString","coordinates":[[10.0311207,44.0626645],[10.0311508,44.0627059]]},"properties":{"site":"luni","name":"","highway":"steps"}},{"type":"Feature","geometry":{"type":"LineString","coordinates":[[10.0309277,44.0627974],[10.0308925,44.0628108]]},"properties":{"site":"luni","name":"","highway":"steps"}},{"type":"Feature","geometry":{"type":"LineString","coordinates":[[10.0116181,44.0576649],[10.0117,44.057399],[10.011727,44.057251],[10.011748,44.056654],[10.011895,44.055588]]},"properties":{"site":"luni","name":"","highway":"track"}},{"type":"Feature","geometry":{"type":"LineString","coordinates":[[10.0156932,44.0610452],[10.0155162,44.060999],[10.0152694,44.0611223],[10.0151245,44.0612919],[10.0146793,44.0613999],[10.0127441,44.0620124]]},"properties":{"site":"luni","name":"","highway":"track"}},{"type":"Feature","geometry":{"type":"LineString","coordinates":[[10.0195627,44.0632998],[10.0195194,44.0632242],[10.0190245,44.0623944],[10.0186543,44.0618894],[10.0184208,44.0615575],[10.0182706,44.0613339]]},"properties":{"site":"luni","name":"","highway":"track"}},{"type":"Feature","geometry":{"type":"LineString","coordinates":[[10.0103763,44.0595023],[10.0104096,44.0596847],[10.0104753,44.0598273]]},"properties":{"site":"luni","name":"","highway":"footway"}},{"type":"Feature","geometry":{"type":"LineString","coordinates":[[10.0104753,44.0598273],[10.0105341,44.059864],[10.0105654,44.0598835],[10.0107171,44.0599155],[10.0109515,44.0599088],[10.0112038,44.0598319],[10.0113861,44.0597305],[10.0115246,44.0596379],[10.0118237,44.0594181],[10.0118581,44.0596166]]},"properties":{"site":"luni","name":"","highway":"footway"}},{"type":"Feature","geometry":{"type":"LineString","coordinates":[[10.0112464,44.0583265],[10.0110842,44.0584694],[10.0109516,44.0585636],[10.0106913,44.0588132]]},"properties":{"site":"luni","name":"","highway":"footway"}},{"type":"Feature","geometry":{"type":"LineString","coordinates":[[10.0311109,44.0650868],[10.0313362,44.0650191],[10.0314561,44.0649795],[10.0314781,44.0649611],[10.031483,44.064932],[10.0313362,44.0647026]]},"properties":{"site":"luni","name":"Via Marinella","highway":"service"}},{"type":"Feature","geometry":{"type":"LineString","coordinates":[[10.0307247,44.0666059],[10.0310055,44.0670598],[10.0308824,44.0670916],[10.0305922,44.066672]]},"properties":{"site":"luni","name":"","highway":"service"}},{"type":"Feature","geometry":{"type":"LineString","coordinates":[[10.011895,44.055588],[10.0118067,44.0555788],[10.0115635,44.0555309],[10.0102399,44.0554129],[10.0096399,44.0553518]]},"properties":{"site":"luni","name":"","highway":"service"}},{"type":"Feature","geometry":{"type":"LineString","coordinates":[[10.0102399,44.0554129],[10.0102708,44.0548896],[10.0102935,44.0544681],[10.0103609,44.054392],[10.0105735,44.0543579],[10.0115771,44.054401],[10.0116972,44.0544522],[10.011747,44.054605],[10.0117367,44.0549335],[10.0115635,44.0555309]]},"properties":{"site":"luni","name":"","highway":"service"}},{"type":"Feature","geometry":{"type":"LineString","coordinates":[[10.0187154,44.0586915],[10.0188061,44.0586172],[10.0198484,44.0583091],[10.0199218,44.0582478],[10.0200261,44.0581678],[10.0200782,44.0581576]]},"properties":{"site":"luni","name":"","highway":"track"}},{"type":"Feature","geometry":{"type":"LineString","coordinates":[[10.0106226,44.0589189],[10.0105359,44.0590672],[10.0104236,44.0593394]]},"properties":{"site":"luni","name":"","highway":"footway"}},{"type":"Feature","geometry":{"type":"LineString","coordinates":[[10.010074,44.0592305],[10.0101924,44.0590981],[10.0101434,44.0588682],[10.0100541,44.058804],[10.0101405,44.0587481],[10.0105353,44.0587668],[10.0106737,44.0587771],[10.0109734,44.0588227]]},"properties":{"site":"luni","name":"","highway":"service"}},{"type":"Feature","geometry":{"type":"LineString","coordinates":[[10.0100541,44.058804],[10.0091515,44.0587124],[10.0090035,44.0586576],[10.0088457,44.0586521]]},"properties":{"site":"luni","name":"","highway":"service"}},{"type":"Feature","geometry":{"type":"LineString","coordinates":[[10.0101945,44.0594023],[10.0102716,44.0593031],[10.010404,44.0590988],[10.0104819,44.0589057],[10.0105687,44.0588871],[10.0106226,44.0589189]]},"properties":{"site":"luni","name":"","highway":"footway"}},{"type":"Feature","geometry":{"type":"LineString","coordinates":[[10.010074,44.0592305],[10.0101945,44.0594023],[10.0093498,44.0598126],[10.0089708,44.0599983],[10.0087209,44.0601208],[10.0082877,44.060333],[10.0080516,44.0604487],[10.0073127,44.0608274],[10.0071747,44.0609168]]},"properties":{"site":"luni","name":"Via Fratelli Rosselli","highway":"footway"}},{"type":"Feature","geometry":{"type":"LineString","coordinates":[[10.0114811,44.0595542],[10.0112242,44.0596702],[10.0110512,44.0597395],[10.0108898,44.0597999],[10.0107636,44.0598499],[10.010689,44.0598823]]},"properties":{"site":"luni","name":"","highway":"service"}},{"type":"Feature","geometry":{"type":"LineString","coordinates":[[10.010689,44.0598823],[10.0103874,44.0599342],[10.0102452,44.0599554],[10.0100119,44.0600094],[10.0096739,44.0601443],[10.0092005,44.06031]]},"properties":{"site":"luni","name":"","highway":"service"}},{"type":"Feature","geometry":{"type":"LineString","coordinates":[[10.0304906,44.0545608],[10.0305877,44.0546388],[10.0306291,44.0547927],[10.0306948,44.0550298],[10.0307605,44.0552432],[10.0307852,44.0553]]},"properties":{"site":"luni","name":"","highway":"service"}},{"type":"Feature","geometry":{"type":"LineString","coordinates":[[10.0316629,44.0659452],[10.0316501,44.0659587],[10.0315846,44.0659277],[10.0315398,44.0659023],[10.0314841,44.0658545],[10.031442,44.0658028]]},"properties":{"site":"luni","name":"","highway":"footway"}},{"type":"Feature","geometry":{"type":"LineString","coordinates":[[10.0312726,44.0652446],[10.0312652,44.0652634],[10.0313343,44.0654537]]},"properties":{"site":"luni","name":"","highway":"service"}},{"type":"Feature","geometry":{"type":"LineString","coordinates":[[10.0307755,44.0649031],[10.0309201,44.0648519],[10.0309744,44.0648326]]},"properties":{"site":"luni","name":"","highway":"service"}},{"type":"Feature","geometry":{"type":"LineString","coordinates":[[10.0310487,44.0651796],[10.0310924,44.0651672],[10.0311443,44.0651525]]},"properties":{"site":"luni","name":"","highway":"service"}},{"type":"Feature","geometry":{"type":"LineString","coordinates":[[10.0299699,44.0698192],[10.0301305,44.0698073],[10.0308629,44.0694754]]},"properties":{"site":"luni","name":"","highway":"service"}},{"type":"Feature","geometry":{"type":"LineString","coordinates":[[10.0258737,44.0695738],[10.0258398,44.0696002],[10.0257044,44.0697452],[10.0255629,44.0699249],[10.0254193,44.0701041],[10.0249882,44.07065],[10.024781,44.0709044],[10.0247207,44.0709853],[10.0246476,44.0710638],[10.0245564,44.0711549],[10.0245101,44.0711877],[10.0244344,44.0712375]]},"properties":{"site":"luni","name":"Ciclopedonale Canale Lunense","highway":"path"}},{"type":"Feature","geometry":{"type":"LineString","coordinates":[[10.0106913,44.0588132],[10.0106226,44.0589189]]},"properties":{"site":"luni","name":"","highway":"footway"}},{"type":"Feature","geometry":{"type":"LineString","coordinates":[[10.0115616,44.0578482],[10.0114303,44.0578904],[10.0114069,44.0580296],[10.0113421,44.0582186],[10.0112464,44.0583265]]},"properties":{"site":"luni","name":"","highway":"footway"}},{"type":"Feature","geometry":{"type":"LineString","coordinates":[[10.0104236,44.0593394],[10.0103763,44.0595023]]},"properties":{"site":"luni","name":"","highway":"footway"}},{"type":"Feature","geometry":{"type":"LineString","coordinates":[[10.0122742,44.0614701],[10.0122964,44.0614993],[10.0113549,44.0615263],[10.0116768,44.0617499],[10.0121515,44.0623859],[10.0131018,44.0637467]]},"properties":{"site":"luni","name":"","highway":"footway"}},{"type":"Feature","geometry":{"type":"LineString","coordinates":[[10.0154669,44.0678646],[10.0153674,44.0678781],[10.0150006,44.0680064],[10.0148538,44.068038],[10.0147878,44.0679976],[10.0147193,44.067915]]},"properties":{"site":"luni","name":"","highway":"service"}},{"type":"Feature","geometry":{"type":"LineString","coordinates":[[10.031154,44.0626509],[10.0311207,44.0626645]]},"properties":{"site":"luni","name":"","highway":"footway"}},{"type":"Feature","geometry":{"type":"LineString","coordinates":[[10.0311508,44.0627059],[10.0309277,44.0627974]]},"properties":{"site":"luni","name":"","highway":"footway"}},{"type":"Feature","geometry":{"type":"LineString","coordinates":[[10.0309277,44.0627974],[10.0307838,44.0626524],[10.0307016,44.0626621]]},"properties":{"site":"luni","name":"","highway":"footway"}},{"type":"Feature","geometry":{"type":"LineString","coordinates":[[10.031442,44.0658028],[10.0314068,44.0657406],[10.0313608,44.0656174]]},"properties":{"site":"luni","name":"","highway":"footway"}},{"type":"Feature","geometry":{"type":"LineString","coordinates":[[10.0313608,44.0656174],[10.0312982,44.0654495]]},"properties":{"site":"luni","name":"","highway":"footway"}},{"type":"Feature","geometry":{"type":"LineString","coordinates":[[10.0312982,44.0654495],[10.0312137,44.0652229]]},"properties":{"site":"luni","name":"","highway":"footway"}},{"type":"Feature","geometry":{"type":"LineString","coordinates":[[10.0312137,44.0652229],[10.0312503,44.065211]]},"properties":{"site":"luni","name":"","highway":"footway"}},{"type":"Feature","geometry":{"type":"LineString","coordinates":[[10.0312188,44.065506],[10.0311011,44.0655388]]},"properties":{"site":"luni","name":"","highway":"footway"}},{"type":"Feature","geometry":{"type":"LineString","coordinates":[[10.0313343,44.0654537],[10.0313165,44.0654616]]},"properties":{"site":"luni","name":"","highway":"footway"}},{"type":"Feature","geometry":{"type":"LineString","coordinates":[[10.0317818,44.0660076],[10.0317212,44.0659563],[10.0316629,44.0659452],[10.0316059,44.0659153],[10.031565,44.0658797],[10.0315281,44.065846],[10.0314738,44.0657843],[10.0314248,44.0656662]]},"properties":{"site":"luni","name":"","highway":"service"}},{"type":"Feature","geometry":{"type":"LineString","coordinates":[[10.0109941,44.0598398],[10.0114461,44.0596518],[10.0115264,44.0595988],[10.0118581,44.0596166],[10.0118918,44.0597319],[10.0119854,44.0599191],[10.012062,44.0603213]]},"properties":{"site":"luni","name":"","highway":"footway"}},{"type":"Feature","geometry":{"type":"LineString","coordinates":[[10.012062,44.0603213],[10.012067,44.060391]]},"properties":{"site":"luni","name":"","highway":"footway"}},{"type":"Feature","geometry":{"type":"LineString","coordinates":[[10.0115616,44.0578482],[10.0116181,44.0576649]]},"properties":{"site":"luni","name":"","highway":"track"}},{"type":"Feature","geometry":{"type":"LineString","coordinates":[[10.0136641,44.0640248],[10.0134966,44.0641071],[10.0133561,44.0641507]]},"properties":{"site":"luni","name":"","highway":"service"}},{"type":"Feature","geometry":{"type":"LineString","coordinates":[[10.012067,44.060391],[10.0122742,44.0614701]]},"properties":{"site":"luni","name":"","highway":"footway"}},{"type":"Feature","geometry":{"type":"LineString","coordinates":[[10.0310792,44.0625433],[10.0312498,44.06249]]},"properties":{"site":"luni","name":"","highway":"track"}},{"type":"Feature","geometry":{"type":"LineString","coordinates":[[10.0311653,44.0625502],[10.0310984,44.0625723]]},"properties":{"site":"luni","name":"","highway":"service"}},{"type":"Feature","geometry":{"type":"LineString","coordinates":[[10.031105,44.062582],[10.0311398,44.0625705],[10.0311562,44.0625788],[10.031172,44.0625868]]},"properties":{"site":"luni","name":"","highway":"footway"}},{"type":"Feature","geometry":{"type":"LineString","coordinates":[[10.0314155,44.0627969],[10.0314329,44.062768],[10.0315985,44.062703]]},"properties":{"site":"luni","name":"","highway":"service"}},{"type":"Feature","geometry":{"type":"LineString","coordinates":[[10.0133591,44.0630699],[10.0145147,44.0626693]]},"properties":{"site":"luni","name":"","highway":"service"}},{"type":"Feature","geometry":{"type":"LineString","coordinates":[[10.0168262,44.0641922],[10.0169791,44.0641403]]},"properties":{"site":"luni","name":"","highway":"steps"}},{"type":"Feature","geometry":{"type":"LineString","coordinates":[[10.0169791,44.0641403],[10.0165811,44.063504],[10.0166314,44.0634844],[10.016553,44.0633479],[10.0168836,44.0632396],[10.0169691,44.0633544],[10.0170656,44.063327],[10.0174465,44.0639727]]},"properties":{"site":"luni","name":"","highway":"footway"}},{"type":"Feature","geometry":{"type":"LineString","coordinates":[[10.0174465,44.0639727],[10.0175944,44.0639055]]},"properties":{"site":"luni","name":"","highway":"steps"}},{"type":"Feature","geometry":{"type":"LineString","coordinates":[[10.0188857,44.0634988],[10.0188783,44.0634861],[10.0188709,44.0634734],[10.0189847,44.0634394],[10.0188362,44.0633996]]},"properties":{"site":"luni","name":"","highway":"footway"}}]}