{"type":"FeatureCollection","features":[{"type":"Feature","geometry":{"type":"LineString","coordinates":[[-6.3479284,38.9150674],[-6.3481179,38.9149479],[-6.3482427,38.9148693],[-6.3483776,38.9147843],[-6.3485183,38.9146956],[-6.3486576,38.9146078],[-6.3487933,38.9145222],[-6.348902,38.9144538],[-6.3491012,38.9143282]]},"properties":{"site":"merida","name":"Puente Romano","highway":"pedestrian"}},{"type":"Feature","geometry":{"type":"LineString","coordinates":[[-6.3461403,38.9113339],[-6.3460159,38.9113852]]},"properties":{"site":"merida","name":"","highway":"footway"}},{"type":"Feature","geometry":{"type":"LineString","coordinates":[[-6.3477559,38.9122493],[-6.347507,38.9119866],[-6.347341,38.911807],[-6.3469686,38.9113761],[-6.3467561,38.9111888],[-6.3464984,38.9109805],[-6.3460001,38.9106856],[-6.3457314,38.9105342],[-6.3454662,38.9104286],[-6.3454283,38.9103353],[-6.3454101,38.9102331],[-6.3455291,38.9100573],[-6.3455786,38.9098868],[-6.3455347,38.9096998],[-6.3454168,38.9094585],[-6.3452794,38.909031],[-6.3451302,38.9089629],[-6.3448564,38.908902],[-6.3445828,38.9088175],[-6.3444298,38.9087011],[-6.3442235,38.908512],[-6.3440756,38.9083603],[-6.3440328,38.9082977],[-6.3439576,38.9081694],[-6.3437516,38.9079624],[-6.3435542,38.907722],[-6.3432967,38.907388],[-6.3430907,38.9071476],[-6.3428762,38.906867],[-6.3427303,38.9065932],[-6.3426444,38.9064062],[-6.3424041,38.9064396],[-6.3423011,38.9065932],[-6.3422153,38.9067669],[-6.3421809,38.9069338],[-6.3422067,38.9070741],[-6.342279,38.907193],[-6.3423612,38.9073279],[-6.3425639,38.9075326],[-6.3427782,38.9077022],[-6.3428161,38.9077754],[-6.3429019,38.9078956],[-6.3430392,38.9080759],[-6.3432624,38.9084166],[-6.3434856,38.908637],[-6.3437774,38.9091112],[-6.3441293,38.9094117],[-6.344464,38.9097523],[-6.3445842,38.909946],[-6.34477,38.9101702],[-6.3448955,38.9102456],[-6.3449189,38.9102827],[-6.3455008,38.9105838],[-6.3457914,38.9108621],[-6.3458043,38.9108823],[-6.3461403,38.9113339],[-6.3463431,38.9114878],[-6.3464029,38.9115312],[-6.3464674,38.9116223],[-6.3468759,38.9120467],[-6.3471566,38.9123423],[-6.3472914,38.9124968],[-6.3478304,38.9131335],[-6.3482218,38.9135663],[-6.3482989,38.9136633],[-6.3484039,38.9137861]]},"properties":{"site":"merida","name":"","highway":"footway"}},{"type":"Feature","geometry":{"type":"LineString","coordinates":[[-6.3487462,38.9141608],[-6.3485577,38.9141313],[-6.3484032,38.9140792],[-6.348232,38.9139198],[-6.3479659,38.9136794],[-6.3476827,38.9133321],[-6.3471358,38.9126609],[-6.3470024,38.9124336],[-6.3469216,38.9122382],[-6.3468759,38.9120467]]},"properties":{"site":"merida","name":"","highway":"footway"}},{"type":"Feature","geometry":{"type":"LineString","coordinates":[[-6.3477559,38.9122493],[-6.347757,38.9123409],[-6.3476615,38.9124575],[-6.3476741,38.912544],[-6.3478544,38.9127978],[-6.3479831,38.9130449],[-6.3481684,38.9133783],[-6.3482142,38.9134883],[-6.3482218,38.9135663]]},"properties":{"site":"merida","name":"","highway":"footway"}},{"type":"Feature","geometry":{"type":"LineString","coordinates":[[-6.347341,38.911807],[-6.3472162,38.911885],[-6.3471059,38.9119901],[-6.3471008,38.9120913],[-6.3471566,38.9123423]]},"properties":{"site":"merida","name":"","highway":"footway"}},{"type":"Feature","geometry":{"type":"LineString","coordinates":[[-6.3467561,38.9111888],[-6.3466502,38.9112536],[-6.3465542,38.9113429],[-6.3464665,38.9114765],[-6.3464029,38.9115312]]},"properties":{"site":"merida","name":"","highway":"footway"}},{"type":"Feature","geometry":{"type":"LineString","coordinates":[[-6.3460001,38.9106856],[-6.3459254,38.9107087],[-6.3458781,38.9107477],[-6.3458405,38.9107946],[-6.3457914,38.9108621]]},"properties":{"site":"merida","name":"","highway":"footway"}},{"type":"Feature","geometry":{"type":"LineString","coordinates":[[-6.3455291,38.9100573],[-6.3454482,38.9100688],[-6.3448955,38.9102456]]},"properties":{"site":"merida","name":"","highway":"footway"}},{"type":"Feature","geometry":{"type":"LineString","coordinates":[[-6.3463232,38.9230775],[-6.3439272,38.9226302],[-6.3432751,38.922354],[-6.3423241,38.9219362],[-6.3415443,38.9217446],[-6.3405457,38.9214894],[-6.3401276,38.9213826]]},"properties":{"site":"merida","name":"","highway":"service"}},{"type":"Feature","geometry":{"type":"LineString","coordinates":[[-6.3417913,38.9228289],[-6.3419314,38.9227236],[-6.3426033,38.9226629],[-6.3433431,38.9227658],[-6.3442288,38.9229399],[-6.3446583,38.9230992],[-6.3449335,38.9232448],[-6.3451586,38.9233259],[-6.3456111,38.9234025],[-6.3458464,38.923444],[-6.3461278,38.92356],[-6.346341,38.923642],[-6.3467024,38.9236377]]},"properties":{"site":"merida","name":"Calle del Agua","highway":"footway"}},{"type":"Feature","geometry":{"type":"LineString","coordinates":[[-6.343835,38.9163569],[-6.3438818,38.916343],[-6.343988,38.9163193],[-6.3443345,38.916195],[-6.3447566,38.9160197]]},"properties":{"site":"merida","name":"Calle Romero Leal","highway":"pedestrian"}},{"type":"Feature","geometry":{"type":"LineString","coordinates":[[-6.3447566,38.9160197],[-6.3449229,38.916172],[-6.3452363,38.9166015]]},"properties":{"site":"merida","name":"Calle Alonso Zamora Vicente","highway":"pedestrian"}},{"type":"Feature","geometry":{"type":"LineString","coordinates":[[-6.3433061,38.9165228],[-6.343107,38.9163283],[-6.342906,38.916209]]},"properties":{"site":"merida","name":"Calle Baños","highway":"pedestrian"}},{"type":"Feature","geometry":{"type":"LineString","coordinates":[[-6.3429813,38.9181573],[-6.3430136,38.9183082],[-6.3434491,38.9194421]]},"properties":{"site":"merida","name":"Calle Miguel de Cervantes","highway":"pedestrian"}},{"type":"Feature","geometry":{"type":"LineString","coordinates":[[-6.3442367,38.917212],[-6.344794,38.9177595],[-6.3451211,38.9180771],[-6.3454752,38.9184501]]},"properties":{"site":"merida","name":"Calle San Francisco","highway":"pedestrian"}},{"type":"Feature","geometry":{"type":"LineString","coordinates":[[-6.3435445,38.9175437],[-6.3441565,38.9181649],[-6.3444446,38.9184712],[-6.3446761,38.9187423],[-6.3451195,38.9193528]]},"properties":{"site":"merida","name":"Calle Moreno de Vargas","highway":"pedestrian"}},{"type":"Feature","geometry":{"type":"LineString","coordinates":[[-6.3433835,38.9174369],[-6.3431508,38.9177533]]},"properties":{"site":"merida","name":"Calle Berzocana","highway":"pedestrian"}},{"type":"Feature","geometry":{"type":"LineString","coordinates":[[-6.3439906,38.9163224],[-6.3441518,38.9164973],[-6.3443795,38.9167443],[-6.3444107,38.9167781]]},"properties":{"site":"merida","name":"Calle Santa Catalina","highway":"pedestrian"}},{"type":"Feature","geometry":{"type":"LineString","coordinates":[[-6.3364888,38.9166015],[-6.3369403,38.9168676],[-6.3370232,38.9169068],[-6.3371476,38.9169456],[-6.3372897,38.9169724],[-6.3374274,38.916976],[-6.3378281,38.9169266],[-6.3382291,38.9168647],[-6.3383229,38.9168515],[-6.3393864,38.9167117],[-6.3395264,38.9167627],[-6.3399032,38.9170226],[-6.3401572,38.9171597],[-6.3404888,38.9172721],[-6.3413087,38.9175182],[-6.341729,38.9176773],[-6.3421783,38.9177613],[-6.3426773,38.9178317],[-6.3428183,38.9179274]]},"properties":{"site":"merida","name":"Calle José Ramón Mélida","highway":"pedestrian"}},{"type":"Feature","geometry":{"type":"LineString","coordinates":[[-6.3438386,38.9168513],[-6.344174,38.9172055]]},"properties":{"site":"merida","name":"Calle Manos Albas","highway":"pedestrian"}},{"type":"Feature","geometry":{"type":"LineString","coordinates":[[-6.3446761,38.9187423],[-6.34501,38.9185426],[-6.3450822,38.9184994],[-6.3451513,38.9184805],[-6.3452154,38.9184631],[-6.3452325,38.9184584],[-6.3454752,38.9184501]]},"properties":{"site":"merida","name":"Calle Louis Braille","highway":"pedestrian"}},{"type":"Feature","geometry":{"type":"LineString","coordinates":[[-6.3444446,38.9184712],[-6.3446625,38.9183439],[-6.3449521,38.9181926],[-6.3451211,38.9180771]]},"properties":{"site":"merida","name":"Calle Cárdenas","highway":"pedestrian"}},{"type":"Feature","geometry":{"type":"LineString","coordinates":[[-6.3451211,38.9180771],[-6.3455451,38.9178426],[-6.3456758,38.917776],[-6.3461134,38.9175918]]},"properties":{"site":"merida","name":"Calle de la Concepción","highway":"pedestrian"}},{"type":"Feature","geometry":{"type":"LineString","coordinates":[[-6.3456847,38.9172326],[-6.3456951,38.9171546],[-6.3452363,38.9166015]]},"properties":{"site":"merida","name":"Calle Juan Pablo Forner","highway":"pedestrian"}},{"type":"Feature","geometry":{"type":"LineString","coordinates":[[-6.3470756,38.915761],[-6.3474386,38.9162004],[-6.3474642,38.9162382]]},"properties":{"site":"merida","name":"Calle Castelar","highway":"pedestrian"}},{"type":"Feature","geometry":{"type":"LineString","coordinates":[[-6.3485247,38.9164755],[-6.3479674,38.9168118]]},"properties":{"site":"merida","name":"Travesía de San Salvador","highway":"pedestrian"}},{"type":"Feature","geometry":{"type":"LineString","coordinates":[[-6.3471635,38.917325],[-6.3472822,38.9172873],[-6.3473888,38.9172218],[-6.3475846,38.9170919],[-6.3480025,38.9168466]]},"properties":{"site":"merida","name":"Calle de San Juan de Dios","highway":"pedestrian"}},{"type":"Feature","geometry":{"type":"LineString","coordinates":[[-6.3463948,38.9178068],[-6.3464567,38.9177697],[-6.3466203,38.9176281],[-6.3471635,38.917325]]},"properties":{"site":"merida","name":"Calle Obispo y Arco","highway":"pedestrian"}},{"type":"Feature","geometry":{"type":"LineString","coordinates":[[-6.3465562,38.9180164],[-6.3469157,38.9178382],[-6.3473363,38.9177473],[-6.3474728,38.917684]]},"properties":{"site":"merida","name":"Calle Alvarado","highway":"pedestrian"}},{"type":"Feature","geometry":{"type":"LineString","coordinates":[[-6.3481403,38.9157414],[-6.3474386,38.9162004]]},"properties":{"site":"merida","name":"Calle Arquitas","highway":"pedestrian"}},{"type":"Feature","geometry":{"type":"LineString","coordinates":[[-6.3475293,38.9165921],[-6.3475694,38.9166233],[-6.3477183,38.9165461],[-6.3477373,38.9165219],[-6.3477658,38.9164897],[-6.347687,38.9163978],[-6.3476689,38.9163843],[-6.3475663,38.916281],[-6.3474983,38.916207],[-6.3474642,38.9162382],[-6.3474388,38.9162385],[-6.3473331,38.9162978],[-6.3473249,38.9163009],[-6.347255,38.9163061],[-6.3472682,38.9163454],[-6.3472742,38.9163654],[-6.3473319,38.9164342],[-6.3473504,38.9164264],[-6.3473901,38.9164678],[-6.3474103,38.9164591],[-6.3474921,38.9165402],[-6.3475293,38.9165921]]},"properties":{"site":"merida","name":"Plaza de Santa María","highway":"pedestrian"}},{"type":"Feature","geometry":{"type":"LineString","coordinates":[[-6.3475293,38.9165921],[-6.3473647,38.9166756],[-6.3472505,38.9167083],[-6.3471594,38.9167273],[-6.347053,38.9167909]]},"properties":{"site":"merida","name":"Calle de Juan Macías","highway":"pedestrian"}},{"type":"Feature","geometry":{"type":"LineString","coordinates":[[-6.3467485,38.9164965],[-6.3467569,38.9165046],[-6.3468358,38.91658],[-6.347053,38.9167909]]},"properties":{"site":"merida","name":"Calle Escult Manuel Madrigal","highway":"pedestrian"}},{"type":"Feature","geometry":{"type":"LineString","coordinates":[[-6.3465038,38.9171102],[-6.3470559,38.9168209],[-6.347053,38.9167909]]},"properties":{"site":"merida","name":"Pasaje Maestre Lopez Correa","highway":"pedestrian"}},{"type":"Feature","geometry":{"type":"LineString","coordinates":[[-6.3427618,38.9180911],[-6.3425957,38.9182295],[-6.3425415,38.9182736]]},"properties":{"site":"merida","name":"Rambla de la Mártir Santa Eulalia","highway":"pedestrian"}},{"type":"Feature","geometry":{"type":"LineString","coordinates":[[-6.3443795,38.9167443],[-6.3447039,38.9165547],[-6.3443345,38.916195]]},"properties":{"site":"merida","name":"","highway":"pedestrian"}},{"type":"Feature","geometry":{"type":"LineString","coordinates":[[-6.3479284,38.9150674],[-6.3478741,38.9151104],[-6.347837,38.9151206],[-6.347819,38.9151233],[-6.3477909,38.9151282],[-6.3477852,38.9151112],[-6.3477609,38.9150987],[-6.347717,38.915069],[-6.3476296,38.9151051],[-6.3476114,38.9150847],[-6.3474418,38.9148672],[-6.3472431,38.9146887],[-6.3470738,38.9146246]]},"properties":{"site":"merida","name":"","highway":"footway"}},{"type":"Feature","geometry":{"type":"LineString","coordinates":[[-6.345346,38.912057],[-6.3454388,38.9120563],[-6.3455044,38.9120542],[-6.345384,38.9117055],[-6.345423,38.9117087],[-6.3456127,38.9120147],[-6.3456522,38.9120106],[-6.3455359,38.9116821],[-6.3456219,38.9116797]]},"properties":{"site":"merida","name":"","highway":"footway"}},{"type":"Feature","geometry":{"type":"LineString","coordinates":[[-6.3455347,38.911601],[-6.3456219,38.9116797]]},"properties":{"site":"merida","name":"","highway":"footway"}},{"type":"Feature","geometry":{"type":"LineString","coordinates":[[-6.3479169,38.9152178],[-6.3479095,38.9151745],[-6.3479284,38.9150674]]},"properties":{"site":"merida","name":"Plaza de Roma","highway":"pedestrian"}},{"type":"Feature","geometry":{"type":"LineString","coordinates":[[-6.3471399,38.9192998],[-6.3473762,38.9195642]]},"properties":{"site":"merida","name":"","highway":"service"}},{"type":"Feature","geometry":{"type":"LineString","coordinates":[[-6.3331991,38.9208554],[-6.3331769,38.9207949],[-6.3334216,38.920638],[-6.3336527,38.9206255],[-6.334003,38.9205696],[-6.3343464,38.9204777],[-6.3350821,38.9201244],[-6.3354836,38.9200562]]},"properties":{"site":"merida","name":"","highway":"footway"}},{"type":"Feature","geometry":{"type":"LineString","coordinates":[[-6.3406219,38.9104733],[-6.3405877,38.9105783],[-6.3405673,38.9106412],[-6.3405351,38.9106788],[-6.3404815,38.9107414],[-6.3402937,38.9108165],[-6.3402703,38.9108971]]},"properties":{"site":"merida","name":"","highway":"service"}},{"type":"Feature","geometry":{"type":"LineString","coordinates":[[-6.3407257,38.9107198],[-6.3406391,38.9107012],[-6.3405789,38.9106882],[-6.3405351,38.9106788]]},"properties":{"site":"merida","name":"","highway":"service"}},{"type":"Feature","geometry":{"type":"LineString","coordinates":[[-6.3381402,38.91073],[-6.3374923,38.9109089],[-6.3374865,38.9109045]]},"properties":{"site":"merida","name":"","highway":"path"}},{"type":"Feature","geometry":{"type":"LineString","coordinates":[[-6.3381402,38.91073],[-6.3382694,38.9102777],[-6.3382581,38.9102652],[-6.3383087,38.9102248]]},"properties":{"site":"merida","name":"","highway":"path"}},{"type":"Feature","geometry":{"type":"LineString","coordinates":[[-6.3381402,38.91073],[-6.3379069,38.9105721],[-6.337897,38.9105655],[-6.3382581,38.9102652]]},"properties":{"site":"merida","name":"","highway":"path"}},{"type":"Feature","geometry":{"type":"LineString","coordinates":[[-6.3329928,38.9223142],[-6.3329405,38.9223559],[-6.3327874,38.9223971],[-6.3320666,38.9225911],[-6.3320304,38.9226049],[-6.3310047,38.9229942],[-6.330771,38.9231405],[-6.3306186,38.9232492],[-6.3304001,38.923429],[-6.3290831,38.9245954],[-6.32852,38.9250932],[-6.3283924,38.9252116],[-6.328236,38.9253537],[-6.3282053,38.9253816],[-6.3275804,38.9251306],[-6.3273543,38.9247512],[-6.3273568,38.9247077],[-6.3273416,38.9242887],[-6.3275931,38.9240259],[-6.3278038,38.9239529]]},"properties":{"site":"merida","name":"","highway":"footway"}},{"type":"Feature","geometry":{"type":"LineString","coordinates":[[-6.3342871,38.92235],[-6.3341683,38.9223796],[-6.3336783,38.9224066],[-6.3332394,38.9224308],[-6.3331083,38.9224326]]},"properties":{"site":"merida","name":"Calle Hoya de San Lázaro","highway":"footway"}},{"type":"Feature","geometry":{"type":"LineString","coordinates":[[-6.3314171,38.9225353],[-6.3310364,38.92274]]},"properties":{"site":"merida","name":"","highway":"service"}},{"type":"Feature","geometry":{"type":"LineString","coordinates":[[-6.3316932,38.9222397],[-6.3316199,38.922253],[-6.3315773,38.9222767],[-6.3309426,38.9226294],[-6.3310364,38.92274],[-6.3311231,38.9228422],[-6.331795,38.9225274]]},"properties":{"site":"merida","name":"","highway":"service"}},{"type":"Feature","geometry":{"type":"LineString","coordinates":[[-6.3374939,38.921404],[-6.3373608,38.9213057],[-6.3372904,38.9212208],[-6.3372472,38.92115],[-6.3372063,38.9210581],[-6.3371835,38.9209785],[-6.3371813,38.9209078]]},"properties":{"site":"merida","name":"Calle Alburquerque","highway":"pedestrian"}},{"type":"Feature","geometry":{"type":"LineString","coordinates":[[-6.3368173,38.9220318],[-6.336557,38.922035],[-6.3364217,38.9220366],[-6.3362054,38.9220392],[-6.3355866,38.9220467]]},"properties":{"site":"merida","name":"Calle Arzobispo Paulo","highway":"pedestrian"}},{"type":"Feature","geometry":{"type":"LineString","coordinates":[[-6.3350821,38.9201244],[-6.3345907,38.9195905],[-6.3343338,38.9193677],[-6.3338088,38.9189875],[-6.3332587,38.9184464],[-6.3332341,38.9184181],[-6.3327837,38.9178999],[-6.3325618,38.9178119],[-6.3314858,38.9181811],[-6.3314668,38.9181737],[-6.331454,38.9181687],[-6.3314474,38.9181553],[-6.3313904,38.9180396],[-6.3312602,38.9179991]]},"properties":{"site":"merida","name":"","highway":"footway"}},{"type":"Feature","geometry":{"type":"LineString","coordinates":[[-6.3355548,38.9217132],[-6.3355554,38.9214877],[-6.3360615,38.9214587]]},"properties":{"site":"merida","name":"","highway":"footway"}},{"type":"Feature","geometry":{"type":"LineString","coordinates":[[-6.3374025,38.9208919],[-6.3371813,38.9209078],[-6.3367569,38.9209293]]},"properties":{"site":"merida","name":"","highway":"footway"}},{"type":"Feature","geometry":{"type":"LineString","coordinates":[[-6.3421771,38.9221897],[-6.3418081,38.9222261],[-6.3418028,38.922322],[-6.3417913,38.9228289]]},"properties":{"site":"merida","name":"","highway":"service"}},{"type":"Feature","geometry":{"type":"LineString","coordinates":[[-6.3374025,38.9208919],[-6.3373313,38.9207999],[-6.3371108,38.9207981],[-6.336829,38.9208406],[-6.3367569,38.9209293]]},"properties":{"site":"merida","name":"","highway":"track"}},{"type":"Feature","geometry":{"type":"LineString","coordinates":[[-6.335877,38.9199116],[-6.3357557,38.9199244],[-6.3357076,38.9199275],[-6.3356649,38.9199139],[-6.335597,38.9198641],[-6.3353961,38.919717]]},"properties":{"site":"merida","name":"Calle Fuenterrabía","highway":"footway"}},{"type":"Feature","geometry":{"type":"LineString","coordinates":[[-6.3362874,38.9190455],[-6.3362761,38.9191342],[-6.3362576,38.9192793],[-6.3361903,38.9193335],[-6.3361714,38.9194544],[-6.3361567,38.9195486],[-6.3361903,38.9195916],[-6.3373057,38.9196832],[-6.337361,38.9196533],[-6.337377,38.9195581],[-6.3374046,38.9193939],[-6.3374451,38.9191536],[-6.3374749,38.9189765],[-6.3374859,38.9189109],[-6.3374571,38.9188735],[-6.3368225,38.9188155],[-6.3367937,38.9188492],[-6.3367862,38.9189063],[-6.3367622,38.9190898]]},"properties":{"site":"merida","name":"","highway":"service"}},{"type":"Feature","geometry":{"type":"LineString","coordinates":[[-6.3439242,38.9213103],[-6.3436163,38.9212561]]},"properties":{"site":"merida","name":"","highway":"service"}},{"type":"Feature","geometry":{"type":"LineString","coordinates":[[-6.3361714,38.9194544],[-6.337377,38.9195581]]},"properties":{"site":"merida","name":"","highway":"service"}},{"type":"Feature","geometry":{"type":"LineString","coordinates":[[-6.3362576,38.9192793],[-6.3374046,38.9193939]]},"properties":{"site":"merida","name":"","highway":"service"}},{"type":"Feature","geometry":{"type":"LineString","coordinates":[[-6.3451348,38.9213209],[-6.3450824,38.9214442]]},"properties":{"site":"merida","name":"","highway":"service"}},{"type":"Feature","geometry":{"type":"LineString","coordinates":[[-6.3367862,38.9189063],[-6.3374749,38.9189765]]},"properties":{"site":"merida","name":"","highway":"service"}},{"type":"Feature","geometry":{"type":"LineString","coordinates":[[-6.3436163,38.9212561],[-6.3435633,38.9211995],[-6.3435053,38.9211374]]},"properties":{"site":"merida","name":"","highway":"service"}},{"type":"Feature","geometry":{"type":"LineString","coordinates":[[-6.3440471,38.9210963],[-6.3451348,38.9213209],[-6.3458659,38.9214997]]},"properties":{"site":"merida","name":"","highway":"service"}},{"type":"Feature","geometry":{"type":"LineString","coordinates":[[-6.3360432,38.9190228],[-6.3362874,38.9190455],[-6.3364019,38.9190572],[-6.3367622,38.9190898],[-6.3374451,38.9191536]]},"properties":{"site":"merida","name":"","highway":"service"}},{"type":"Feature","geometry":{"type":"LineString","coordinates":[[-6.3458659,38.9214997],[-6.3459558,38.921488],[-6.3460582,38.9214747],[-6.3463415,38.9213192],[-6.3463903,38.9212492],[-6.346421,38.9212051]]},"properties":{"site":"merida","name":"","highway":"service"}},{"type":"Feature","geometry":{"type":"LineString","coordinates":[[-6.3439242,38.9213103],[-6.3439579,38.9213775],[-6.345297,38.9216089],[-6.3453308,38.9215055],[-6.3450824,38.9214442],[-6.3450093,38.9214314],[-6.3439959,38.9212463],[-6.3439242,38.9213103]]},"properties":{"site":"merida","name":"","highway":"service"}},{"type":"Feature","geometry":{"type":"LineString","coordinates":[[-6.3407237,38.9194766],[-6.3410832,38.9192934],[-6.3412401,38.9193411],[-6.3413646,38.9193789]]},"properties":{"site":"merida","name":"","highway":"footway"}},{"type":"Feature","geometry":{"type":"LineString","coordinates":[[-6.3477373,38.9165219],[-6.3479674,38.9168118],[-6.3480025,38.9168466],[-6.3485012,38.9172945],[-6.3490415,38.9176793]]},"properties":{"site":"merida","name":"Calle San Salvador","highway":"pedestrian"}},{"type":"Feature","geometry":{"type":"LineString","coordinates":[[-6.346438,38.9184728],[-6.3462265,38.9185716],[-6.346107,38.9185502],[-6.3456036,38.91846],[-6.345594,38.9184451],[-6.3460699,38.918219],[-6.3462249,38.9181552]]},"properties":{"site":"merida","name":"Plaza de la Constitución","highway":"footway"}},{"type":"Feature","geometry":{"type":"LineString","coordinates":[[-6.3456758,38.917776],[-6.345845,38.9179886],[-6.3459427,38.9180622],[-6.3460699,38.918219]]},"properties":{"site":"merida","name":"Calle Beatriz de Silva","highway":"pedestrian"}},{"type":"Feature","geometry":{"type":"LineString","coordinates":[[-6.3431308,38.9179146],[-6.3432395,38.9179821],[-6.3433538,38.9180418],[-6.3435086,38.9181001],[-6.3437601,38.9182585],[-6.34391,38.9183109]]},"properties":{"site":"merida","name":"Calle Delgado Valencia","highway":"pedestrian"}},{"type":"Feature","geometry":{"type":"LineString","coordinates":[[-6.3378281,38.9169266],[-6.3367053,38.9159825]]},"properties":{"site":"merida","name":"Calle José Ramón Mélida","highway":"footway"}},{"type":"Feature","geometry":{"type":"LineString","coordinates":[[-6.3441518,38.9164973],[-6.3439862,38.9165859],[-6.3438553,38.9166243]]},"properties":{"site":"merida","name":"Calle Santa Catalina","highway":"pedestrian"}},{"type":"Feature","geometry":{"type":"LineString","coordinates":[[-6.3414587,38.9130506],[-6.3412767,38.9131218],[-6.3411731,38.9131447],[-6.3410883,38.9130846],[-6.3410392,38.9130764],[-6.3406253,38.9126864]]},"properties":{"site":"merida","name":"Travesía de Calderón de la Barca","highway":"footway"}},{"type":"Feature","geometry":{"type":"LineString","coordinates":[[-6.342907,38.9102176],[-6.3425795,38.9103117]]},"properties":{"site":"merida","name":"","highway":"service"}},{"type":"Feature","geometry":{"type":"LineString","coordinates":[[-6.343277,38.9101088],[-6.3429752,38.9101975],[-6.342907,38.9102176]]},"properties":{"site":"merida","name":"","highway":"service"}},{"type":"Feature","geometry":{"type":"LineString","coordinates":[[-6.3418348,38.9104558],[-6.3419004,38.9104698],[-6.3419978,38.9104907],[-6.3425795,38.9103117]]},"properties":{"site":"merida","name":"","highway":"service"}},{"type":"Feature","geometry":{"type":"LineString","coordinates":[[-6.3417615,38.9104789],[-6.341794,38.9105425],[-6.3417982,38.9105508],[-6.341906,38.910762],[-6.3420365,38.9110178],[-6.3421153,38.9111752],[-6.3421944,38.9113331],[-6.3425363,38.9116335],[-6.3426401,38.9117247]]},"properties":{"site":"merida","name":"","highway":"footway"}},{"type":"Feature","geometry":{"type":"LineString","coordinates":[[-6.3327521,38.9150158],[-6.3325586,38.9152039]]},"properties":{"site":"merida","name":"","highway":"service"}},{"type":"Feature","geometry":{"type":"LineString","coordinates":[[-6.3320812,38.9139093],[-6.332317,38.9137152]]},"properties":{"site":"merida","name":"","highway":"service"}},{"type":"Feature","geometry":{"type":"LineString","coordinates":[[-6.3316114,38.9131629],[-6.3315788,38.913102]]},"properties":{"site":"merida","name":"","highway":"service"}},{"type":"Feature","geometry":{"type":"LineString","coordinates":[[-6.3334033,38.9156445],[-6.3340934,38.9160043]]},"properties":{"site":"merida","name":"","highway":"service"}},{"type":"Feature","geometry":{"type":"LineString","coordinates":[[-6.3328838,38.9150845],[-6.3327521,38.9150158],[-6.3326598,38.9149676]]},"properties":{"site":"merida","name":"","highway":"service"}},{"type":"Feature","geometry":{"type":"LineString","coordinates":[[-6.3324428,38.9151435],[-6.3325586,38.9152039],[-6.3333487,38.915616],[-6.3334033,38.9156445]]},"properties":{"site":"merida","name":"","highway":"service"}},{"type":"Feature","geometry":{"type":"LineString","coordinates":[[-6.332317,38.9137152],[-6.3324503,38.9135981],[-6.3323266,38.9135114],[-6.3321744,38.9134657]]},"properties":{"site":"merida","name":"","highway":"service"}},{"type":"Feature","geometry":{"type":"LineString","coordinates":[[-6.332317,38.9137152],[-6.3322597,38.9136682],[-6.3319723,38.9134556],[-6.3318505,38.9134995],[-6.3318136,38.9135384],[-6.3321288,38.9137736],[-6.3322597,38.9136682]]},"properties":{"site":"merida","name":"","highway":"service"}},{"type":"Feature","geometry":{"type":"LineString","coordinates":[[-6.3318505,38.9134995],[-6.3317483,38.9133947],[-6.3316114,38.9131629],[-6.3314809,38.913212],[-6.3314548,38.9132458],[-6.3315157,38.9133338],[-6.3316114,38.9133777],[-6.3317483,38.9133947]]},"properties":{"site":"merida","name":"","highway":"service"}},{"type":"Feature","geometry":{"type":"LineString","coordinates":[[-6.3411425,38.9103514],[-6.3415767,38.9102179],[-6.3415129,38.9100958],[-6.3414766,38.9100264],[-6.3410425,38.91016],[-6.3411252,38.9103184],[-6.3411425,38.9103514]]},"properties":{"site":"merida","name":"Plaza Jose Zorrilla","highway":"pedestrian"}},{"type":"Feature","geometry":{"type":"LineString","coordinates":[[-6.3427083,38.9100485],[-6.3423216,38.9092822],[-6.3425021,38.9092209],[-6.3425655,38.9091776],[-6.3425847,38.9091163],[-6.3425751,38.9090535],[-6.3423485,38.9087711],[-6.3422928,38.9087323],[-6.3422045,38.9087084],[-6.3421296,38.9087128],[-6.3420252,38.9087493],[-6.3419811,38.9087641],[-6.3418842,38.9087966],[-6.3416309,38.9088793]]},"properties":{"site":"merida","name":"","highway":"service"}},{"type":"Feature","geometry":{"type":"LineString","coordinates":[[-6.3415129,38.9100958],[-6.341582,38.9100735],[-6.3417379,38.9103517]]},"properties":{"site":"merida","name":"","highway":"footway"}},{"type":"Feature","geometry":{"type":"LineString","coordinates":[[-6.3411425,38.9103514],[-6.340775,38.9104677],[-6.3407251,38.9104647],[-6.3406548,38.9104173],[-6.3404287,38.9102649]]},"properties":{"site":"merida","name":"","highway":"footway"}},{"type":"Feature","geometry":{"type":"LineString","coordinates":[[-6.3340366,38.9119118],[-6.3339904,38.9118938],[-6.3337043,38.9118072],[-6.3334139,38.9117196]]},"properties":{"site":"merida","name":"","highway":"footway"}},{"type":"Feature","geometry":{"type":"LineString","coordinates":[[-6.3336138,38.9120596],[-6.3336233,38.9120376],[-6.3337043,38.9118072],[-6.3337895,38.9115784],[-6.3337972,38.9115576]]},"properties":{"site":"merida","name":"","highway":"footway"}},{"type":"Feature","geometry":{"type":"LineString","coordinates":[[-6.3417225,38.9110625],[-6.3416648,38.9111014],[-6.3415548,38.9111799],[-6.3412906,38.9114271],[-6.3412189,38.9114547],[-6.341124,38.9114901],[-6.341065,38.9115073],[-6.3409643,38.911538],[-6.3406774,38.9116601],[-6.3406129,38.9117111],[-6.3403584,38.9119998],[-6.3403017,38.9120591],[-6.3402218,38.9121178],[-6.3395588,38.9125983],[-6.3389146,38.9130169],[-6.3387694,38.9131253]]},"properties":{"site":"merida","name":"","highway":"footway"}},{"type":"Feature","geometry":{"type":"LineString","coordinates":[[-6.3383002,38.9117103],[-6.3383494,38.9117759],[-6.3383753,38.9118207],[-6.3386376,38.91173],[-6.338664,38.9117533],[-6.3385762,38.9119544],[-6.3386261,38.9120839],[-6.3385918,38.912697],[-6.338623,38.9127707],[-6.3386938,38.9128323],[-6.3389254,38.9129666],[-6.3389402,38.9129953],[-6.3389146,38.9130169]]},"properties":{"site":"merida","name":"","highway":"footway"}},{"type":"Feature","geometry":{"type":"LineString","coordinates":[[-6.3339915,38.9119443],[-6.334034,38.9120124]]},"properties":{"site":"merida","name":"","highway":"footway"}},{"type":"Feature","geometry":{"type":"LineString","coordinates":[[-6.3333926,38.9117136],[-6.3334139,38.9117196]]},"properties":{"site":"merida","name":"","highway":"footway"}},{"type":"Feature","geometry":{"type":"LineString","coordinates":[[-6.3337096,38.912139],[-6.3336646,38.9120656]]},"properties":{"site":"merida","name":"","highway":"footway"}},{"type":"Feature","geometry":{"type":"LineString","coordinates":[[-6.3340366,38.9119118],[-6.333816,38.9115623],[-6.3338568,38.9115471]]},"properties":{"site":"merida","name":"","highway":"footway"}},{"type":"Feature","geometry":{"type":"LineString","coordinates":[[-6.3336138,38.9120596],[-6.3336089,38.9120735],[-6.3335435,38.9121007]]},"properties":{"site":"merida","name":"","highway":"footway"}},{"type":"Feature","geometry":{"type":"LineString","coordinates":[[-6.3384879,38.9104902],[-6.3384566,38.9104655],[-6.3381402,38.91073],[-6.3377253,38.9110743],[-6.3377448,38.9111089]]},"properties":{"site":"merida","name":"","highway":"footway"}},{"type":"Feature","geometry":{"type":"LineString","coordinates":[[-6.3336138,38.9120596],[-6.3336487,38.9120713],[-6.3336646,38.9120656],[-6.3339915,38.9119443],[-6.3340301,38.9119288],[-6.3340366,38.9119118],[-6.3340695,38.9119001]]},"properties":{"site":"merida","name":"","highway":"footway"}},{"type":"Feature","geometry":{"type":"LineString","coordinates":[[-6.333816,38.9115623],[-6.3337972,38.9115576],[-6.3337746,38.9115507],[-6.3334002,38.9116976],[-6.3333926,38.9117136],[-6.3333846,38.9117357],[-6.3335915,38.9120489],[-6.3336138,38.9120596]]},"properties":{"site":"merida","name":"","highway":"footway"}},{"type":"Feature","geometry":{"type":"LineString","coordinates":[[-6.3404562,38.9173472],[-6.3404888,38.9172721]]},"properties":{"site":"merida","name":"Travesía del Museo","highway":"steps"}},{"type":"Feature","geometry":{"type":"LineString","coordinates":[[-6.3354836,38.9200562],[-6.3359353,38.9199885]]},"properties":{"site":"merida","name":"","highway":"footway"}},{"type":"Feature","geometry":{"type":"LineString","coordinates":[[-6.3359353,38.9199885],[-6.3362132,38.9199477],[-6.336256,38.919902]]},"properties":{"site":"merida","name":"","highway":"footway"}},{"type":"Feature","geometry":{"type":"LineString","coordinates":[[-6.3455347,38.911601],[-6.345493,38.9115537]]},"properties":{"site":"merida","name":"","highway":"footway"}},{"type":"Feature","geometry":{"type":"LineString","coordinates":[[-6.3393864,38.9167117],[-6.3392638,38.9166154],[-6.3393023,38.9165881],[-6.3392835,38.9165757],[-6.3392137,38.9165225],[-6.3390912,38.9164363],[-6.3385454,38.9166941],[-6.3382316,38.9167702],[-6.3381913,38.9167567],[-6.3381595,38.9166769]]},"properties":{"site":"merida","name":"","highway":"footway"}},{"type":"Feature","geometry":{"type":"LineString","coordinates":[[-6.345493,38.9115537],[-6.3453946,38.9116061],[-6.3451835,38.9117186]]},"properties":{"site":"merida","name":"","highway":"steps"}},{"type":"Feature","geometry":{"type":"LineString","coordinates":[[-6.3456219,38.9116797],[-6.3456988,38.9117459],[-6.3458919,38.9122415],[-6.3461967,38.9125576],[-6.3466625,38.9132136],[-6.3478161,38.9147283],[-6.3479463,38.9149916],[-6.3479631,38.9150161],[-6.347989,38.915045],[-6.3480176,38.9150687],[-6.3480646,38.9150888],[-6.3481595,38.9151143],[-6.3484292,38.9152116],[-6.3486634,38.9153178],[-6.3488066,38.915451],[-6.3493071,38.9159164],[-6.3493948,38.9159898],[-6.3498285,38.9164506],[-6.3505009,38.9171008],[-6.3505692,38.9171454],[-6.351016,38.9173207],[-6.3512487,38.9177706]]},"properties":{"site":"merida","name":"","highway":"footway"}},{"type":"Feature","geometry":{"type":"LineString","coordinates":[[-6.3418874,38.9203113],[-6.3418887,38.9204074],[-6.3418902,38.9205147],[-6.3415435,38.9205256],[-6.3415435,38.9206195],[-6.3415668,38.920718],[-6.3417871,38.9208786]]},"properties":{"site":"merida","name":"","highway":"footway"}},{"type":"Feature","geometry":{"type":"LineString","coordinates":[[-6.3384066,38.9151615],[-6.3385506,38.9152688]]},"properties":{"site":"merida","name":"","highway":"steps"}},{"type":"Feature","geometry":{"type":"LineString","coordinates":[[-6.3383233,38.9152674],[-6.338504,38.9153186]]},"properties":{"site":"merida","name":"","highway":"steps"}},{"type":"Feature","geometry":{"type":"LineString","coordinates":[[-6.3385469,38.9150989],[-6.3386148,38.9152428]]},"properties":{"site":"merida","name":"","highway":"steps"}},{"type":"Feature","geometry":{"type":"LineString","coordinates":[[-6.3383059,38.9153939],[-6.3384975,38.9153793]]},"properties":{"site":"merida","name":"","highway":"steps"}},{"type":"Feature","geometry":{"type":"LineString","coordinates":[[-6.3387047,38.9150871],[-6.3386893,38.9152396]]},"properties":{"site":"merida","name":"","highway":"steps"}},{"type":"Feature","geometry":{"type":"LineString","coordinates":[[-6.332255,38.9191946],[-6.3322077,38.9192347],[-6.3321573,38.9192677],[-6.3320878,38.9193236],[-6.3320183,38.9193449],[-6.3318992,38.9193661],[-6.3314798,38.9193934],[-6.3309192,38.9194298],[-6.3308596,38.9194337],[-6.3308249,38.9193931],[-6.3308001,38.9193314],[-6.3312974,38.9190658],[-6.3314328,38.9189935],[-6.3317727,38.9188352],[-6.3318399,38.9188168],[-6.3322789,38.9186963]]},"properties":{"site":"merida","name":"","highway":"footway"}},{"type":"Feature","geometry":{"type":"LineString","coordinates":[[-6.3315009,38.9184082],[-6.3314668,38.9181737]]},"properties":{"site":"merida","name":"","highway":"footway"}},{"type":"Feature","geometry":{"type":"LineString","coordinates":[[-6.3329304,38.9190166],[-6.3331103,38.9190177],[-6.3338088,38.9189875]]},"properties":{"site":"merida","name":"","highway":"footway"}},{"type":"Feature","geometry":{"type":"LineString","coordinates":[[-6.3332341,38.9184181],[-6.3329234,38.9185068],[-6.3325157,38.9186321]]},"properties":{"site":"merida","name":"","highway":"footway"}},{"type":"Feature","geometry":{"type":"LineString","coordinates":[[-6.3318399,38.9188168],[-6.3319141,38.9189607],[-6.3319762,38.9190418],[-6.3320456,38.9191055],[-6.3321747,38.9191654],[-6.332255,38.9191946],[-6.3322863,38.9192059],[-6.332388,38.919204],[-6.3325568,38.9191904],[-6.3326833,38.9191499],[-6.3328446,38.9190804],[-6.3329165,38.9190322],[-6.3329304,38.9190166],[-6.3329736,38.9189684],[-6.3330009,38.9188565],[-6.3330059,38.9187561],[-6.332986,38.9186596],[-6.3329234,38.9185068],[-6.3328942,38.9184356],[-6.3328222,38.9182947],[-6.3327677,38.9182407],[-6.3326759,38.9181905],[-6.3325195,38.9181306],[-6.3323533,38.9181383],[-6.3322144,38.9181538],[-6.332068,38.9181943],[-6.3319191,38.9182773],[-6.3318273,38.9183546],[-6.3318079,38.9183913],[-6.3317876,38.9184298],[-6.3317752,38.9184955],[-6.3317851,38.9186075],[-6.331805,38.9187117],[-6.3318113,38.9187307],[-6.3318399,38.9188168]]},"properties":{"site":"merida","name":"","highway":"footway"}},{"type":"Feature","geometry":{"type":"LineString","coordinates":[[-6.3314798,38.9193934],[-6.3312974,38.9190658],[-6.3311844,38.9190412],[-6.3308545,38.9190038]]},"properties":{"site":"merida","name":"","highway":"footway"}},{"type":"Feature","geometry":{"type":"LineString","coordinates":[[-6.3318079,38.9183913],[-6.3315009,38.9184082],[-6.3314015,38.9184137],[-6.3311455,38.9184329]]},"properties":{"site":"merida","name":"","highway":"footway"}},{"type":"Feature","geometry":{"type":"LineString","coordinates":[[-6.3318113,38.9187307],[-6.3315866,38.9187986],[-6.3314179,38.9188101],[-6.3312988,38.9188044],[-6.3312268,38.9187754],[-6.3310726,38.9185745]]},"properties":{"site":"merida","name":"","highway":"footway"}},{"type":"Feature","geometry":{"type":"LineString","coordinates":[[-6.3383133,38.9150862],[-6.3384066,38.9151615]]},"properties":{"site":"merida","name":"","highway":"footway"}},{"type":"Feature","geometry":{"type":"LineString","coordinates":[[-6.3385257,38.9154174],[-6.3383712,38.9155359]]},"properties":{"site":"merida","name":"","highway":"steps"}},{"type":"Feature","geometry":{"type":"LineString","coordinates":[[-6.3387155,38.9149779],[-6.3387047,38.9150871]]},"properties":{"site":"merida","name":"","highway":"footway"}},{"type":"Feature","geometry":{"type":"LineString","coordinates":[[-6.3381669,38.915403],[-6.3383059,38.9153939]]},"properties":{"site":"merida","name":"","highway":"footway"}},{"type":"Feature","geometry":{"type":"LineString","coordinates":[[-6.3387406,38.9152567],[-6.3388706,38.9151456]]},"properties":{"site":"merida","name":"","highway":"steps"}},{"type":"Feature","geometry":{"type":"LineString","coordinates":[[-6.3384978,38.9149971],[-6.3385469,38.9150989]]},"properties":{"site":"merida","name":"","highway":"footway"}},{"type":"Feature","geometry":{"type":"LineString","coordinates":[[-6.3381895,38.9152357],[-6.3383233,38.9152674]]},"properties":{"site":"merida","name":"","highway":"footway"}},{"type":"Feature","geometry":{"type":"LineString","coordinates":[[-6.3377418,38.9158264],[-6.3377035,38.9158316],[-6.3376379,38.9158565],[-6.33759,38.9158864],[-6.3375452,38.9159274],[-6.3375148,38.9159648],[-6.3374972,38.9160108],[-6.3374892,38.9160519],[-6.3374892,38.9160991],[-6.337496,38.9161188],[-6.3375116,38.9161638],[-6.3375436,38.9162285],[-6.3375681,38.9162626],[-6.337582,38.916282],[-6.3376347,38.916343],[-6.3377035,38.916399],[-6.3377856,38.9164444],[-6.337849,38.9164724],[-6.337913,38.916496],[-6.3379594,38.916506],[-6.3379993,38.9165135],[-6.3380569,38.9165135],[-6.3381134,38.9165106],[-6.3381609,38.9164985],[-6.3381992,38.9164848],[-6.3382472,38.9164537],[-6.3382776,38.9164301],[-6.3383192,38.916389],[-6.338348,38.9163517],[-6.3383591,38.9163057],[-6.3383655,38.9162609],[-6.3383511,38.9162099],[-6.3383256,38.9161539],[-6.3382957,38.9161072],[-6.3382584,38.9160704]]},"properties":{"site":"merida","name":"","highway":"footway"}},{"type":"Feature","geometry":{"type":"LineString","coordinates":[[-6.3383712,38.9155359],[-6.3383601,38.9155253],[-6.3383473,38.9155104],[-6.3383345,38.9154923],[-6.3383241,38.9154749],[-6.3383161,38.9154556],[-6.3383105,38.9154314],[-6.3383057,38.9154083],[-6.3383059,38.9153939],[-6.3383049,38.915371],[-6.3383049,38.9153468],[-6.3383081,38.9153262],[-6.3383105,38.9153063],[-6.3383177,38.9152852],[-6.3383233,38.9152674],[-6.3383377,38.915246],[-6.3383537,38.9152211],[-6.3383721,38.9151993],[-6.3383921,38.9151794],[-6.3384066,38.9151615],[-6.3384544,38.915134],[-6.3384904,38.9151172],[-6.3385224,38.915106],[-6.3385469,38.9150989],[-6.3385808,38.9150911],[-6.3386015,38.9150873],[-6.3386303,38.9150855],[-6.3386711,38.9150848],[-6.3387047,38.9150871],[-6.3387327,38.9150911],[-6.3387575,38.9150967],[-6.3387862,38.9151047],[-6.3388094,38.9151147],[-6.3388366,38.915129],[-6.3388706,38.9151456]]},"properties":{"site":"merida","name":"","highway":"footway"}},{"type":"Feature","geometry":{"type":"LineString","coordinates":[[-6.3375681,38.9162626],[-6.3373913,38.9163452]]},"properties":{"site":"merida","name":"","highway":"footway"}},{"type":"Feature","geometry":{"type":"LineString","coordinates":[[-6.3381595,38.9166769],[-6.3381134,38.9165106]]},"properties":{"site":"merida","name":"","highway":"footway"}},{"type":"Feature","geometry":{"type":"LineString","coordinates":[[-6.3377856,38.9164444],[-6.3376867,38.9165965]]},"properties":{"site":"merida","name":"","highway":"footway"}},{"type":"Feature","geometry":{"type":"LineString","coordinates":[[-6.338579,38.9161878],[-6.3383511,38.9162099]]},"properties":{"site":"merida","name":"","highway":"footway"}},{"type":"Feature","geometry":{"type":"LineString","coordinates":[[-6.3376467,38.9159403],[-6.3376928,38.9159776],[-6.3377606,38.9159476],[-6.33788,38.9159506],[-6.3380079,38.9159949],[-6.3380865,38.9160591],[-6.3381021,38.9160445]]},"properties":{"site":"merida","name":"","highway":"footway"}},{"type":"Feature","geometry":{"type":"LineString","coordinates":[[-6.337496,38.9161188],[-6.3373664,38.9161286]]},"properties":{"site":"merida","name":"","highway":"footway"}},{"type":"Feature","geometry":{"type":"LineString","coordinates":[[-6.3377734,38.9159193],[-6.3377418,38.9158264],[-6.3376958,38.9156553]]},"properties":{"site":"merida","name":"","highway":"footway"}},{"type":"Feature","geometry":{"type":"LineString","coordinates":[[-6.3472969,38.917491],[-6.3473595,38.9174742],[-6.3477412,38.9172663],[-6.3476069,38.9171146],[-6.3475846,38.9170919],[-6.3473888,38.9172218],[-6.3472822,38.9172873],[-6.3471635,38.917325],[-6.3472969,38.917491]]},"properties":{"site":"merida","name":"Plaza de San Juan de Dios","highway":"pedestrian"}},{"type":"Feature","geometry":{"type":"LineString","coordinates":[[-6.3343338,38.9193677],[-6.3332633,38.9193868],[-6.3331941,38.9193305],[-6.3331881,38.9192743]]},"properties":{"site":"merida","name":"","highway":"footway"}},{"type":"Feature","geometry":{"type":"LineString","coordinates":[[-6.3456929,38.9148997],[-6.3457932,38.9148488],[-6.3458197,38.9148804]]},"properties":{"site":"merida","name":"","highway":"footway"}},{"type":"Feature","geometry":{"type":"LineString","coordinates":[[-6.3330732,38.9137366],[-6.3331884,38.9136448],[-6.3335359,38.9139091],[-6.3335611,38.9139296],[-6.3337041,38.9138221],[-6.3336818,38.9138038],[-6.3333477,38.9135606],[-6.3333344,38.9135509],[-6.3332497,38.9135907],[-6.3332131,38.9135622],[-6.3331577,38.9136041],[-6.3330896,38.9136594],[-6.333055,38.9136921],[-6.33305,38.9137165],[-6.333055,38.9137258],[-6.3330732,38.9137366]]},"properties":{"site":"merida","name":"","highway":"pedestrian"}},{"type":"Feature","geometry":{"type":"LineString","coordinates":[[-6.3335359,38.9139091],[-6.3333477,38.9140668],[-6.3329925,38.913808]]},"properties":{"site":"merida","name":"","highway":"footway"}},{"type":"Feature","geometry":{"type":"LineString","coordinates":[[-6.3336818,38.9138038],[-6.3338641,38.9136605]]},"properties":{"site":"merida","name":"","highway":"steps"}},{"type":"Feature","geometry":{"type":"LineString","coordinates":[[-6.3338641,38.9136605],[-6.3339332,38.9136035],[-6.3341255,38.9134609],[-6.3340012,38.9133805],[-6.3337623,38.9131915],[-6.3333344,38.9135509]]},"properties":{"site":"merida","name":"","highway":"footway"}},{"type":"Feature","geometry":{"type":"LineString","coordinates":[[-6.3339332,38.9136035],[-6.3339903,38.9136423],[-6.3337837,38.9138033],[-6.3338038,38.9138229],[-6.3339143,38.9137408],[-6.3339805,38.9137949]]},"properties":{"site":"merida","name":"","highway":"footway"}},{"type":"Feature","geometry":{"type":"LineString","coordinates":[[-6.3339903,38.9136423],[-6.3340888,38.9137113]]},"properties":{"site":"merida","name":"","highway":"steps"}},{"type":"Feature","geometry":{"type":"LineString","coordinates":[[-6.3340012,38.9133805],[-6.3341596,38.9132857]]},"properties":{"site":"merida","name":"","highway":"steps"}},{"type":"Feature","geometry":{"type":"LineString","coordinates":[[-6.3337623,38.9131915],[-6.3338206,38.9131411]]},"properties":{"site":"merida","name":"","highway":"steps"}},{"type":"Feature","geometry":{"type":"LineString","coordinates":[[-6.3335611,38.9139296],[-6.3334216,38.9140598],[-6.3334265,38.914066],[-6.3334297,38.91407],[-6.3336025,38.9139198],[-6.3336198,38.9139364],[-6.3334531,38.9140819],[-6.3334724,38.9141001],[-6.3334511,38.9141207],[-6.3335156,38.9141672]]},"properties":{"site":"merida","name":"","highway":"footway"}},{"type":"Feature","geometry":{"type":"LineString","coordinates":[[-6.3333477,38.9140668],[-6.333323,38.914093],[-6.3333362,38.9141048]]},"properties":{"site":"merida","name":"","highway":"footway"}},{"type":"Feature","geometry":{"type":"LineString","coordinates":[[-6.3333362,38.9141048],[-6.3333799,38.9140748]]},"properties":{"site":"merida","name":"","highway":"steps"}},{"type":"Feature","geometry":{"type":"LineString","coordinates":[[-6.3333959,38.91409],[-6.3334265,38.914066]]},"properties":{"site":"merida","name":"","highway":"footway"}},{"type":"Feature","geometry":{"type":"LineString","coordinates":[[-6.3333799,38.9140748],[-6.3333959,38.91409],[-6.3334204,38.9141132]]},"properties":{"site":"merida","name":"","highway":"footway"}},{"type":"Feature","geometry":{"type":"LineString","coordinates":[[-6.3334204,38.9141132],[-6.3333848,38.9141418],[-6.3334026,38.9141553],[-6.3334511,38.9141207]]},"properties":{"site":"merida","name":"","highway":"steps"}},{"type":"Feature","geometry":{"type":"LineString","coordinates":[[-6.3448651,38.9137923],[-6.3448309,38.9138048],[-6.3447661,38.9138048],[-6.3446346,38.9138842],[-6.3446189,38.9139407],[-6.3445757,38.9139521],[-6.3445306,38.9139682],[-6.344456,38.9139132],[-6.3444121,38.9138612],[-6.3443618,38.9138017],[-6.3444483,38.9137351],[-6.344613,38.9136154],[-6.3446387,38.913594],[-6.34467,38.913568],[-6.3447077,38.9135999],[-6.3447602,38.9136444],[-6.3449016,38.9137589],[-6.3448651,38.9137923]]},"properties":{"site":"merida","name":"Plaza Santo Domingo","highway":"pedestrian"}},{"type":"Feature","geometry":{"type":"LineString","coordinates":[[-6.345594,38.9184451],[-6.3454752,38.9184501]]},"properties":{"site":"merida","name":"","highway":"footway"}},{"type":"Feature","geometry":{"type":"LineString","coordinates":[[-6.3473959,38.9154388],[-6.3473857,38.9154439],[-6.347369,38.9154523],[-6.3473376,38.9154125],[-6.3473259,38.9154125],[-6.3473128,38.9154098],[-6.3473014,38.9154041],[-6.3472914,38.9153958],[-6.3472867,38.9153885],[-6.3472843,38.9153827],[-6.347283,38.915377],[-6.3472813,38.9153702],[-6.3472837,38.9153613],[-6.3472867,38.9153561],[-6.3472572,38.9153193],[-6.3470899,38.9154021],[-6.3472014,38.9155384],[-6.3471853,38.9155462],[-6.3471712,38.915553],[-6.3471522,38.9155301],[-6.3471405,38.9155348],[-6.3471254,38.9155158],[-6.3471338,38.9155108],[-6.347104,38.9154732],[-6.3470929,38.9154782],[-6.3470771,38.9154586],[-6.3470855,38.9154531],[-6.3470557,38.9154148],[-6.3470436,38.91542],[-6.3470265,38.9153986],[-6.3470366,38.9153939],[-6.3470309,38.9153864],[-6.3471376,38.9153358],[-6.3471691,38.9153211],[-6.3471583,38.9153055],[-6.3473362,38.9152137],[-6.3473495,38.9152284],[-6.3473842,38.915213],[-6.3473765,38.9151971],[-6.34751,38.9151319],[-6.3476096,38.9152475],[-6.3476119,38.9152613],[-6.3476182,38.9152693],[-6.3476064,38.915276],[-6.3476061,38.9152792],[-6.347627,38.9153033],[-6.3475747,38.9153281],[-6.3475642,38.9153331],[-6.3475514,38.9153375],[-6.3475363,38.9153176],[-6.3475451,38.9153132],[-6.3475122,38.9152712],[-6.3475008,38.9152759],[-6.347485,38.9152558],[-6.3474958,38.9152509],[-6.3474659,38.9152133],[-6.3472861,38.9153043],[-6.3473149,38.9153401],[-6.3473266,38.9153416],[-6.3473357,38.9153432],[-6.3473427,38.9153461],[-6.3473494,38.9153495],[-6.3473531,38.9153521],[-6.3473578,38.9153563],[-6.3473628,38.915362],[-6.3473662,38.9153669],[-6.3473689,38.9153729],[-6.3473702,38.9153792],[-6.3473702,38.9153881],[-6.3473675,38.9153949],[-6.3473652,38.9154009],[-6.3473959,38.9154388]]},"properties":{"site":"merida","name":"","highway":"pedestrian"}},{"type":"Feature","geometry":{"type":"LineString","coordinates":[[-6.3423318,38.9117212],[-6.3422813,38.911744]]},"properties":{"site":"merida","name":"","highway":"footway"}},{"type":"Feature","geometry":{"type":"LineString","coordinates":[[-6.3420684,38.91184],[-6.3420611,38.9119208],[-6.3420398,38.912013],[-6.3419797,38.9121356]]},"properties":{"site":"merida","name":"","highway":"service"}},{"type":"Feature","geometry":{"type":"LineString","coordinates":[[-6.3420684,38.91184],[-6.3419461,38.9116845],[-6.3418277,38.9115939],[-6.341578,38.9115463],[-6.3412389,38.9115708],[-6.3411045,38.9115615]]},"properties":{"site":"merida","name":"","highway":"service"}},{"type":"Feature","geometry":{"type":"LineString","coordinates":[[-6.3390912,38.9164363],[-6.3387799,38.9162416],[-6.3386553,38.9160396],[-6.3383952,38.9158259],[-6.3385591,38.9156999],[-6.338636,38.9156408],[-6.339013,38.9153508],[-6.3391837,38.9152196],[-6.3391306,38.9151678],[-6.3391046,38.9151424],[-6.3389611,38.9150203],[-6.3387184,38.9149556],[-6.3384944,38.9149692],[-6.3383415,38.9150329],[-6.3382329,38.9151174],[-6.3381524,38.9152405],[-6.338127,38.9153699],[-6.3381524,38.9155577],[-6.3382114,38.915684],[-6.3381846,38.9156955],[-6.3380252,38.9156277],[-6.3378829,38.9156235],[-6.3376871,38.9156318],[-6.3376958,38.9156553]]},"properties":{"site":"merida","name":"","highway":"footway"}},{"type":"Feature","geometry":{"type":"LineString","coordinates":[[-6.3454476,38.9192678],[-6.3453467,38.9190778],[-6.3453321,38.9189803],[-6.3453697,38.9189347],[-6.3454679,38.9188859],[-6.3457825,38.9189445],[-6.3459259,38.9191068]]},"properties":{"site":"merida","name":"","highway":"service"}},{"type":"Feature","geometry":{"type":"LineString","coordinates":[[-6.3454679,38.9188859],[-6.3453854,38.9188705],[-6.3452903,38.9188957],[-6.3452702,38.9189243]]},"properties":{"site":"merida","name":"","highway":"service"}},{"type":"Feature","geometry":{"type":"LineString","coordinates":[[-6.3452702,38.9189243],[-6.3451955,38.9190258],[-6.3453202,38.9192101]]},"properties":{"site":"merida","name":"","highway":"service"}},{"type":"Feature","geometry":{"type":"LineString","coordinates":[[-6.3416485,38.9108183],[-6.3416663,38.9108144],[-6.3416813,38.910806],[-6.3416938,38.9107896],[-6.3416963,38.9107754],[-6.3416923,38.9107613],[-6.3416824,38.9107492],[-6.3416734,38.910743],[-6.3416566,38.910737],[-6.3416399,38.9107357],[-6.3416219,38.9107391],[-6.3416065,38.910747],[-6.3415963,38.9107574],[-6.3415904,38.9107711],[-6.341591,38.9107855],[-6.3415978,38.9107988],[-6.3416101,38.9108096],[-6.3416264,38.9108164],[-6.3416485,38.9108183]]},"properties":{"site":"merida","name":"","highway":"footway"}},{"type":"Feature","geometry":{"type":"LineString","coordinates":[[-6.3415819,38.9109714],[-6.3416264,38.9108164]]},"properties":{"site":"merida","name":"","highway":"footway"}},{"type":"Feature","geometry":{"type":"LineString","coordinates":[[-6.3416923,38.9107613],[-6.3417129,38.9107264],[-6.341788,38.9106346],[-6.341794,38.9105425]]},"properties":{"site":"merida","name":"","highway":"footway"}},{"type":"Feature","geometry":{"type":"LineString","coordinates":[[-6.3416219,38.9107391],[-6.3416127,38.9107112]]},"properties":{"site":"merida","name":"","highway":"footway"}},{"type":"Feature","geometry":{"type":"LineString","coordinates":[[-6.3457361,38.9143736],[-6.3456898,38.9143258],[-6.3455181,38.9141547],[-6.3453844,38.9142315]]},"properties":{"site":"merida","name":"","highway":"footway"}},{"type":"Feature","geometry":{"type":"LineString","coordinates":[[-6.3457041,38.9163112],[-6.3458178,38.9163256],[-6.3462678,38.9160878],[-6.3463095,38.9160658],[-6.3463201,38.9160299]]},"properties":{"site":"merida","name":"Plaza de España","highway":"pedestrian"}},{"type":"Feature","geometry":{"type":"LineString","coordinates":[[-6.3310251,38.9161477],[-6.3309606,38.9160268],[-6.3309338,38.9159767],[-6.3308403,38.9158013]]},"properties":{"site":"merida","name":"","highway":"footway"}},{"type":"Feature","geometry":{"type":"LineString","coordinates":[[-6.3308041,38.9161448],[-6.3309606,38.9160268],[-6.3312145,38.9158359],[-6.3310827,38.9156264],[-6.3308294,38.9152238],[-6.3303411,38.9144478],[-6.3300182,38.9139347],[-6.3299914,38.9138951],[-6.3299163,38.9138679],[-6.3298439,38.9138283],[-6.3297929,38.9137907],[-6.3297343,38.9137431],[-6.3294017,38.9137525]]},"properties":{"site":"merida","name":"","highway":"footway"}},{"type":"Feature","geometry":{"type":"LineString","coordinates":[[-6.3310827,38.9156264],[-6.3308841,38.9156932]]},"properties":{"site":"merida","name":"","highway":"footway"}},{"type":"Feature","geometry":{"type":"LineString","coordinates":[[-6.3489238,38.924635],[-6.3488879,38.9246337],[-6.3488561,38.9246326],[-6.3488269,38.9246321],[-6.3483194,38.9245076],[-6.3481895,38.9244993],[-6.3480431,38.9245216],[-6.3479485,38.9245529],[-6.3478642,38.9245929],[-6.3477097,38.9246237],[-6.3474755,38.9246249],[-6.3470693,38.9245714],[-6.3467034,38.9244591],[-6.3464393,38.9243083],[-6.3463073,38.9242602],[-6.3444363,38.9239162],[-6.3440227,38.9238707],[-6.343985,38.9238665],[-6.3432525,38.9237241],[-6.3431065,38.923706],[-6.3428789,38.9236825],[-6.3426608,38.9236127],[-6.3409209,38.9233493],[-6.3402902,38.9232265],[-6.3390551,38.9229945]]},"properties":{"site":"merida","name":"Calle Ribera","highway":"pedestrian"}},{"type":"Feature","geometry":{"type":"LineString","coordinates":[[-6.3425787,38.9119692],[-6.3426848,38.9118844]]},"properties":{"site":"merida","name":"","highway":"footway"}},{"type":"Feature","geometry":{"type":"LineString","coordinates":[[-6.3425363,38.9116335],[-6.3424475,38.9116724],[-6.3423318,38.9117212]]},"properties":{"site":"merida","name":"","highway":"footway"}},{"type":"Feature","geometry":{"type":"LineString","coordinates":[[-6.3348681,38.9130025],[-6.3348688,38.9130471],[-6.3349124,38.9130924],[-6.3349725,38.9131623]]},"properties":{"site":"merida","name":"","highway":"footway"}},{"type":"Feature","geometry":{"type":"LineString","coordinates":[[-6.3343539,38.9130618],[-6.3344158,38.9130234],[-6.3347378,38.9129314]]},"properties":{"site":"merida","name":"","highway":"footway"}},{"type":"Feature","geometry":{"type":"LineString","coordinates":[[-6.33327,38.9144842],[-6.3331921,38.9144219]]},"properties":{"site":"merida","name":"","highway":"footway"}},{"type":"Feature","geometry":{"type":"LineString","coordinates":[[-6.3326435,38.914864],[-6.3327194,38.9149193]]},"properties":{"site":"merida","name":"","highway":"footway"}},{"type":"Feature","geometry":{"type":"LineString","coordinates":[[-6.3373461,38.9120837],[-6.3373861,38.9121585]]},"properties":{"site":"merida","name":"","highway":"footway"}},{"type":"Feature","geometry":{"type":"LineString","coordinates":[[-6.3458797,38.9144343],[-6.3458042,38.9143392]]},"properties":{"site":"merida","name":"","highway":"footway"}},{"type":"Feature","geometry":{"type":"LineString","coordinates":[[-6.3462216,38.9142632],[-6.3462523,38.914247]]},"properties":{"site":"merida","name":"","highway":"footway"}},{"type":"Feature","geometry":{"type":"LineString","coordinates":[[-6.345502,38.9146255],[-6.3458797,38.9144343],[-6.3462216,38.9142632]]},"properties":{"site":"merida","name":"","highway":"footway"}},{"type":"Feature","geometry":{"type":"LineString","coordinates":[[-6.3462523,38.914247],[-6.3464193,38.9141592],[-6.3467084,38.9139981],[-6.3467623,38.9140113],[-6.3468036,38.9140459]]},"properties":{"site":"merida","name":"","highway":"footway"}},{"type":"Feature","geometry":{"type":"LineString","coordinates":[[-6.3458398,38.9149042],[-6.3460341,38.9151339]]},"properties":{"site":"merida","name":"","highway":"footway"}},{"type":"Feature","geometry":{"type":"LineString","coordinates":[[-6.3458197,38.9148804],[-6.3458398,38.9149042]]},"properties":{"site":"merida","name":"","highway":"footway"}},{"type":"Feature","geometry":{"type":"LineString","coordinates":[[-6.3460536,38.9151585],[-6.3462687,38.9154559],[-6.3461705,38.9155005],[-6.34613,38.9155174]]},"properties":{"site":"merida","name":"","highway":"footway"}},{"type":"Feature","geometry":{"type":"LineString","coordinates":[[-6.3460341,38.9151339],[-6.3460536,38.9151585]]},"properties":{"site":"merida","name":"","highway":"footway"}},{"type":"Feature","geometry":{"type":"LineString","coordinates":[[-6.3461283,38.9155706],[-6.3460497,38.9156106]]},"properties":{"site":"merida","name":"","highway":"footway"}},{"type":"Feature","geometry":{"type":"LineString","coordinates":[[-6.3477086,38.9153084],[-6.3477281,38.9153321],[-6.3477546,38.9153626],[-6.3477828,38.915395]]},"properties":{"site":"merida","name":"","highway":"footway"}},{"type":"Feature","geometry":{"type":"LineString","coordinates":[[-6.332092,38.921526],[-6.3320427,38.921474]]},"properties":{"site":"merida","name":"","highway":"footway"}},{"type":"Feature","geometry":{"type":"LineString","coordinates":[[-6.3486893,38.9138636],[-6.3486526,38.9136727],[-6.3485753,38.9135525],[-6.3484122,38.9133855],[-6.3483522,38.9131985],[-6.3482578,38.9129982],[-6.3482344,38.9129604],[-6.3481988,38.9129334],[-6.3480998,38.9127643],[-6.3481203,38.9125528],[-6.3478287,38.9123521],[-6.3477559,38.9122493]]},"properties":{"site":"merida","name":"","highway":"path"}},{"type":"Feature","geometry":{"type":"LineString","coordinates":[[-6.3460159,38.9113852],[-6.3455347,38.911601]]},"properties":{"site":"merida","name":"","highway":"footway"}},{"type":"Feature","geometry":{"type":"LineString","coordinates":[[-6.3471758,38.915606],[-6.3472058,38.9156436],[-6.347234,38.915679]]},"properties":{"site":"merida","name":"","highway":"footway"}},{"type":"Feature","geometry":{"type":"LineString","coordinates":[[-6.3313195,38.9219783],[-6.331265,38.9219169]]},"properties":{"site":"merida","name":"","highway":"footway"}},{"type":"Feature","geometry":{"type":"LineString","coordinates":[[-6.3347111,38.9222809],[-6.3348236,38.9222304],[-6.335018,38.9221411],[-6.3352732,38.9220286],[-6.3352438,38.9217294],[-6.3351844,38.9211248],[-6.3351147,38.9204154],[-6.3347235,38.9205969],[-6.3345802,38.9206634],[-6.3344708,38.9207141]]},"properties":{"site":"merida","name":"","highway":"footway"}},{"type":"Feature","geometry":{"type":"LineString","coordinates":[[-6.3347235,38.9205969],[-6.3347785,38.920924],[-6.3348169,38.9211532],[-6.3348919,38.9213923],[-6.334953,38.9217003],[-6.335018,38.9221411]]},"properties":{"site":"merida","name":"","highway":"footway"}},{"type":"Feature","geometry":{"type":"LineString","coordinates":[[-6.3345802,38.9206634],[-6.3346226,38.9209364],[-6.3346581,38.9211648],[-6.3346958,38.9214078],[-6.3347373,38.9216752],[-6.3348236,38.9222304]]},"properties":{"site":"merida","name":"","highway":"footway"}},{"type":"Feature","geometry":{"type":"LineString","coordinates":[[-6.3355021,38.9217529],[-6.3354248,38.9217459],[-6.3352438,38.9217294],[-6.334953,38.9217003],[-6.3347373,38.9216752],[-6.3346202,38.9216971]]},"properties":{"site":"merida","name":"","highway":"footway"}},{"type":"Feature","geometry":{"type":"LineString","coordinates":[[-6.3347785,38.920924],[-6.3346226,38.9209364]]},"properties":{"site":"merida","name":"","highway":"footway"}},{"type":"Feature","geometry":{"type":"LineString","coordinates":[[-6.3348919,38.9213923],[-6.3346958,38.9214078]]},"properties":{"site":"merida","name":"","highway":"footway"}},{"type":"Feature","geometry":{"type":"LineString","coordinates":[[-6.3351844,38.9211248],[-6.3348169,38.9211532],[-6.3346581,38.9211648]]},"properties":{"site":"merida","name":"","highway":"footway"}},{"type":"Feature","geometry":{"type":"LineString","coordinates":[[-6.3368121,38.9222758],[-6.3366261,38.9222475]]},"properties":{"site":"merida","name":"","highway":"steps"}},{"type":"Feature","geometry":{"type":"LineString","coordinates":[[-6.3354248,38.9217459],[-6.3354366,38.9220484],[-6.3354429,38.922212]]},"properties":{"site":"merida","name":"","highway":"footway"}},{"type":"Feature","geometry":{"type":"LineString","coordinates":[[-6.3355866,38.9220467],[-6.3354366,38.9220484]]},"properties":{"site":"merida","name":"","highway":"footway"}},{"type":"Feature","geometry":{"type":"LineString","coordinates":[[-6.3376617,38.9200284],[-6.337695,38.9198154]]},"properties":{"site":"merida","name":"","highway":"footway"}},{"type":"Feature","geometry":{"type":"LineString","coordinates":[[-6.335006,38.9233002],[-6.3349229,38.9225789],[-6.3333304,38.9226604]]},"properties":{"site":"merida","name":"","highway":"footway"}},{"type":"Feature","geometry":{"type":"LineString","coordinates":[[-6.3366729,38.9227685],[-6.3367322,38.9227237],[-6.3368231,38.922691],[-6.3370972,38.9226813],[-6.3374262,38.9226698],[-6.3384426,38.9226922],[-6.3384734,38.9226929],[-6.338767,38.9226948],[-6.338756,38.9228701],[-6.3387146,38.9229052],[-6.3388096,38.922944],[-6.3390551,38.9229945]]},"properties":{"site":"merida","name":"","highway":"footway"}},{"type":"Feature","geometry":{"type":"LineString","coordinates":[[-6.3384426,38.9226922],[-6.3385131,38.9227349],[-6.3385204,38.9228372],[-6.3385618,38.9228723],[-6.3387146,38.9229052]]},"properties":{"site":"merida","name":"","highway":"footway"}},{"type":"Feature","geometry":{"type":"LineString","coordinates":[[-6.3368121,38.9222758],[-6.3369779,38.9222851],[-6.3371577,38.9222951],[-6.3375618,38.9222927],[-6.3381957,38.9222889],[-6.3391861,38.9222834],[-6.3392847,38.9222868],[-6.3393774,38.9223318]]},"properties":{"site":"merida","name":"","highway":"footway"}},{"type":"Feature","geometry":{"type":"LineString","coordinates":[[-6.3387397,38.9231058],[-6.3387146,38.9229052]]},"properties":{"site":"merida","name":"","highway":"footway"}},{"type":"Feature","geometry":{"type":"LineString","coordinates":[[-6.3365233,38.9227204],[-6.3364458,38.9227249],[-6.3357322,38.9227615],[-6.3357607,38.9229284]]},"properties":{"site":"merida","name":"","highway":"footway"}},{"type":"Feature","geometry":{"type":"LineString","coordinates":[[-6.3319285,38.9224899],[-6.3320304,38.9226049]]},"properties":{"site":"merida","name":"","highway":"footway"}},{"type":"Feature","geometry":{"type":"LineString","coordinates":[[-6.3332518,38.9225798],[-6.332473,38.9226471],[-6.3320412,38.9227806],[-6.3311828,38.9231124],[-6.3307837,38.9233348],[-6.3299084,38.9241326],[-6.328765,38.9251878],[-6.3286631,38.9252988],[-6.3285908,38.9253465],[-6.3283656,38.9255743]]},"properties":{"site":"merida","name":"","highway":"footway"}},{"type":"Feature","geometry":{"type":"LineString","coordinates":[[-6.343988,38.9163193],[-6.3439906,38.9163224]]},"properties":{"site":"merida","name":"Calle Santa Catalina","highway":"pedestrian"}},{"type":"Feature","geometry":{"type":"LineString","coordinates":[[-6.3444107,38.9167781],[-6.3446375,38.9170143]]},"properties":{"site":"merida","name":"Calle Santa Catalina","highway":"pedestrian"}},{"type":"Feature","geometry":{"type":"LineString","coordinates":[[-6.3420252,38.9087493],[-6.3420104,38.9087173],[-6.3420285,38.9087105],[-6.3418387,38.9083004],[-6.3419722,38.9082612],[-6.3420057,38.908255],[-6.3420493,38.9082555],[-6.3420888,38.9082623],[-6.342121,38.9082759],[-6.3421344,38.9082884],[-6.342343,38.9085962],[-6.3424385,38.9086995],[-6.3427413,38.9090135],[-6.3432455,38.9095394],[-6.3436005,38.9099721],[-6.3439247,38.9103719],[-6.3439263,38.9103863],[-6.3439163,38.9104013],[-6.3435918,38.9105021],[-6.3431776,38.9106308],[-6.3431614,38.910632],[-6.3429904,38.910276],[-6.3430157,38.9102683],[-6.3433417,38.9101669],[-6.3433417,38.9101537],[-6.3432708,38.9100272],[-6.3429481,38.9101386],[-6.3429609,38.9101677],[-6.3429752,38.9101975],[-6.3429888,38.9102198],[-6.3430157,38.9102683]]},"properties":{"site":"merida","name":"","highway":"footway"}},{"type":"Feature","geometry":{"type":"LineString","coordinates":[[-6.3432708,38.9100272],[-6.3434368,38.9099732]]},"properties":{"site":"merida","name":"","highway":"footway"}},{"type":"Feature","geometry":{"type":"LineString","coordinates":[[-6.3476225,38.9153844],[-6.3476015,38.9153597],[-6.3475747,38.9153281],[-6.3474678,38.9151935],[-6.347261,38.9152959],[-6.3470631,38.915394],[-6.3471853,38.9155462],[-6.3472002,38.9155646]]},"properties":{"site":"merida","name":"","highway":"footway"}},{"type":"Feature","geometry":{"type":"LineString","coordinates":[[-6.347261,38.9152959],[-6.3473857,38.9154439],[-6.3474,38.915461]]},"properties":{"site":"merida","name":"","highway":"footway"}},{"type":"Feature","geometry":{"type":"LineString","coordinates":[[-6.3479095,38.9151745],[-6.3478651,38.9151791],[-6.3478498,38.9151847],[-6.3477218,38.9152546],[-6.3477086,38.9153084],[-6.3476015,38.9153597],[-6.3474,38.915461],[-6.3472002,38.9155646],[-6.3471583,38.9155864],[-6.3471758,38.915606]]},"properties":{"site":"merida","name":"","highway":"footway"}},{"type":"Feature","geometry":{"type":"LineString","coordinates":[[-6.3455008,38.9105838],[-6.3454662,38.9104286]]},"properties":{"site":"merida","name":"","highway":"footway"}},{"type":"Feature","geometry":{"type":"LineString","coordinates":[[-6.337897,38.9105655],[-6.3374865,38.9109045],[-6.3373701,38.9110007]]},"properties":{"site":"merida","name":"","highway":"path"}},{"type":"Feature","geometry":{"type":"LineString","coordinates":[[-6.3364608,38.9118023],[-6.3368189,38.9116653],[-6.3368447,38.9116453],[-6.3368614,38.9116146],[-6.3368614,38.9115909],[-6.3366839,38.9113017],[-6.3364138,38.9111789],[-6.3363659,38.9110996]]},"properties":{"site":"merida","name":"","highway":"service"}},{"type":"Feature","geometry":{"type":"LineString","coordinates":[[-6.3427333,38.9113839],[-6.3422417,38.9113169],[-6.3421944,38.9113331]]},"properties":{"site":"merida","name":"","highway":"footway"}},{"type":"Feature","geometry":{"type":"LineString","coordinates":[[-6.3413293,38.9108751],[-6.3414259,38.9108289]]},"properties":{"site":"merida","name":"","highway":"footway"}},{"type":"Feature","geometry":{"type":"LineString","coordinates":[[-6.3474199,38.9188757],[-6.3473859,38.9189041]]},"properties":{"site":"merida","name":"","highway":"steps"}},{"type":"Feature","geometry":{"type":"LineString","coordinates":[[-6.3474535,38.9189002],[-6.3473983,38.9189267],[-6.3474599,38.918991]]},"properties":{"site":"merida","name":"","highway":"footway"}},{"type":"Feature","geometry":{"type":"LineString","coordinates":[[-6.3474599,38.918991],[-6.3474678,38.9189861],[-6.3475105,38.9190249],[-6.3472123,38.9192025],[-6.3472085,38.9191937],[-6.3471741,38.919059],[-6.347123,38.9190669],[-6.3471034,38.9190687],[-6.3470779,38.9189542],[-6.3471037,38.9189426],[-6.347121,38.9189323],[-6.3471348,38.918917],[-6.3471365,38.9189061],[-6.3471369,38.9188991],[-6.3473253,38.9188923],[-6.3473581,38.9188925],[-6.3473859,38.9189041],[-6.3473971,38.9189173],[-6.3473845,38.918927],[-6.3474547,38.9189945],[-6.3474599,38.918991]]},"properties":{"site":"merida","name":"Plaza de la Politecnica","highway":"pedestrian"}},{"type":"Feature","geometry":{"type":"LineString","coordinates":[[-6.3461701,38.9184373],[-6.3461677,38.9184471],[-6.3461628,38.9184551],[-6.346158,38.9184601],[-6.3461541,38.918463],[-6.3461469,38.9184672],[-6.3461364,38.9184708],[-6.3461283,38.9184722],[-6.3461205,38.9184725],[-6.3461125,38.9184713],[-6.3461052,38.9184701],[-6.3460916,38.9184639],[-6.346086,38.9184597],[-6.3460802,38.9184533],[-6.3460761,38.9184454],[-6.3460743,38.9184365],[-6.3460756,38.9184262],[-6.3460793,38.9184185],[-6.3460841,38.9184125],[-6.3460923,38.918406],[-6.3461037,38.9184007],[-6.346118,38.918398],[-6.3461254,38.9183979],[-6.3461341,38.918399],[-6.3461458,38.9184026],[-6.3461571,38.9184095],[-6.3461646,38.9184176],[-6.3461688,38.9184261],[-6.3461702,38.9184333],[-6.3461701,38.9184373]]},"properties":{"site":"merida","name":"","highway":"footway"}},{"type":"Feature","geometry":{"type":"LineString","coordinates":[[-6.3461125,38.9184713],[-6.346107,38.9185502]]},"properties":{"site":"merida","name":"","highway":"footway"}},{"type":"Feature","geometry":{"type":"LineString","coordinates":[[-6.3460743,38.9184365],[-6.3458213,38.9184168]]},"properties":{"site":"merida","name":"","highway":"footway"}},{"type":"Feature","geometry":{"type":"LineString","coordinates":[[-6.3461254,38.9183979],[-6.3461515,38.9182781]]},"properties":{"site":"merida","name":"","highway":"footway"}},{"type":"Feature","geometry":{"type":"LineString","coordinates":[[-6.3463453,38.9184472],[-6.3461701,38.9184373]]},"properties":{"site":"merida","name":"","highway":"footway"}},{"type":"Feature","geometry":{"type":"LineString","coordinates":[[-6.3467788,38.9171675],[-6.3466418,38.9171721],[-6.3467007,38.9170711]]},"properties":{"site":"merida","name":"","highway":"footway"}},{"type":"Feature","geometry":{"type":"LineString","coordinates":[[-6.3477546,38.9153626],[-6.3472058,38.9156436]]},"properties":{"site":"merida","name":"","highway":"footway"}},{"type":"Feature","geometry":{"type":"LineString","coordinates":[[-6.3375908,38.9212361],[-6.3375575,38.9212171],[-6.3374802,38.9211363],[-6.3374348,38.9210363],[-6.3374025,38.9208919]]},"properties":{"site":"merida","name":"Calle Piornal","highway":"track"}},{"type":"Feature","geometry":{"type":"LineString","coordinates":[[-6.3417298,38.9190181],[-6.3421149,38.9191322],[-6.3421583,38.9190479],[-6.3422067,38.9190614]]},"properties":{"site":"merida","name":"","highway":"footway"}},{"type":"Feature","geometry":{"type":"LineString","coordinates":[[-6.3423232,38.9187875],[-6.3421683,38.9186939],[-6.3419943,38.9185862]]},"properties":{"site":"merida","name":"","highway":"footway"}},{"type":"Feature","geometry":{"type":"LineString","coordinates":[[-6.3421683,38.9186939],[-6.3417298,38.9190181],[-6.3414052,38.9191265],[-6.3413522,38.9191552],[-6.341311,38.9191775],[-6.3412732,38.9192583]]},"properties":{"site":"merida","name":"","highway":"footway"}},{"type":"Feature","geometry":{"type":"LineString","coordinates":[[-6.3412523,38.9193148],[-6.3412401,38.9193411]]},"properties":{"site":"merida","name":"","highway":"footway"}},{"type":"Feature","geometry":{"type":"LineString","coordinates":[[-6.341311,38.9191775],[-6.3411841,38.9190872]]},"properties":{"site":"merida","name":"","highway":"footway"}},{"type":"Feature","geometry":{"type":"LineString","coordinates":[[-6.3412732,38.9192583],[-6.3412805,38.9192606],[-6.3412906,38.9192665],[-6.3412994,38.9192785],[-6.3412985,38.9192969],[-6.3412823,38.919312],[-6.3412712,38.9193154],[-6.3412523,38.9193148],[-6.3412388,38.9193091],[-6.3412297,38.9193003],[-6.3412256,38.919283],[-6.341231,38.9192711],[-6.3412419,38.9192623],[-6.3412591,38.9192574],[-6.3412732,38.9192583]]},"properties":{"site":"merida","name":"","highway":"footway"}},{"type":"Feature","geometry":{"type":"LineString","coordinates":[[-6.3414565,38.9191891],[-6.3413522,38.9191552]]},"properties":{"site":"merida","name":"","highway":"footway"}},{"type":"Feature","geometry":{"type":"LineString","coordinates":[[-6.3313562,38.9162732],[-6.3313504,38.9162287]]},"properties":{"site":"merida","name":"","highway":"footway"}},{"type":"Feature","geometry":{"type":"LineString","coordinates":[[-6.3463604,38.9157612],[-6.3463476,38.915791],[-6.3463423,38.9158076]]},"properties":{"site":"merida","name":"","highway":"footway"}},{"type":"Feature","geometry":{"type":"LineString","coordinates":[[-6.3416127,38.9107112],[-6.3415919,38.9106755]]},"properties":{"site":"merida","name":"","highway":"steps"}},{"type":"Feature","geometry":{"type":"LineString","coordinates":[[-6.3415919,38.9106755],[-6.3415341,38.9105765],[-6.3414511,38.9104478],[-6.3414143,38.9103704],[-6.3411425,38.9103514]]},"properties":{"site":"merida","name":"","highway":"footway"}},{"type":"Feature","geometry":{"type":"LineString","coordinates":[[-6.3313504,38.9162287],[-6.3313052,38.9161794]]},"properties":{"site":"merida","name":"","highway":"steps"}},{"type":"Feature","geometry":{"type":"LineString","coordinates":[[-6.3313052,38.9161794],[-6.3312656,38.9160755]]},"properties":{"site":"merida","name":"","highway":"footway"}},{"type":"Feature","geometry":{"type":"LineString","coordinates":[[-6.3463721,38.916209],[-6.3463572,38.9161926]]},"properties":{"site":"merida","name":"","highway":"steps"}},{"type":"Feature","geometry":{"type":"LineString","coordinates":[[-6.3466705,38.9162431],[-6.3466581,38.9162497]]},"properties":{"site":"merida","name":"","highway":"steps"}},{"type":"Feature","geometry":{"type":"LineString","coordinates":[[-6.3467485,38.9164965],[-6.3467337,38.9164809],[-6.3467204,38.9164669]]},"properties":{"site":"merida","name":"","highway":"footway"}},{"type":"Feature","geometry":{"type":"LineString","coordinates":[[-6.3464108,38.9166019],[-6.3464043,38.9165941]]},"properties":{"site":"merida","name":"","highway":"steps"}},{"type":"Feature","geometry":{"type":"LineString","coordinates":[[-6.3466141,38.916144],[-6.3466266,38.9161368],[-6.3466479,38.9161245],[-6.3466629,38.9161162]]},"properties":{"site":"merida","name":"","highway":"footway"}},{"type":"Feature","geometry":{"type":"LineString","coordinates":[[-6.3466241,38.9164943],[-6.346639,38.9165088]]},"properties":{"site":"merida","name":"","highway":"footway"}},{"type":"Feature","geometry":{"type":"LineString","coordinates":[[-6.3466241,38.9164943],[-6.3466183,38.9164889]]},"properties":{"site":"merida","name":"","highway":"steps"}},{"type":"Feature","geometry":{"type":"LineString","coordinates":[[-6.3464055,38.9166795],[-6.3463931,38.9166653],[-6.3463764,38.9166461]]},"properties":{"site":"merida","name":"","highway":"footway"}},{"type":"Feature","geometry":{"type":"LineString","coordinates":[[-6.3464108,38.9166019],[-6.3464261,38.9166203]]},"properties":{"site":"merida","name":"","highway":"footway"}},{"type":"Feature","geometry":{"type":"LineString","coordinates":[[-6.3463764,38.9166461],[-6.3464261,38.9166203],[-6.346639,38.9165088],[-6.3467204,38.9164669],[-6.3468272,38.9164111],[-6.3468308,38.9163953],[-6.3468203,38.9163785],[-6.3466915,38.916232],[-6.3466141,38.916144]]},"properties":{"site":"merida","name":"","highway":"footway"}},{"type":"Feature","geometry":{"type":"LineString","coordinates":[[-6.3466915,38.916232],[-6.3466705,38.9162431]]},"properties":{"site":"merida","name":"","highway":"footway"}},{"type":"Feature","geometry":{"type":"LineString","coordinates":[[-6.3338206,38.9131411],[-6.3338322,38.9131323],[-6.3337766,38.9130968]]},"properties":{"site":"merida","name":"","highway":"footway"}},{"type":"Feature","geometry":{"type":"LineString","coordinates":[[-6.3337766,38.9130968],[-6.3337475,38.9130783]]},"properties":{"site":"merida","name":"","highway":"footway"}},{"type":"Feature","geometry":{"type":"LineString","coordinates":[[-6.3435918,38.9105021],[-6.3434149,38.9102123]]},"properties":{"site":"merida","name":"","highway":"footway"}},{"type":"Feature","geometry":{"type":"LineString","coordinates":[[-6.3428479,38.918128],[-6.3428908,38.9180535],[-6.3428848,38.9180492],[-6.3428788,38.9180431],[-6.3428741,38.9180354],[-6.3428715,38.9180262],[-6.3428715,38.9180178],[-6.3428737,38.91801],[-6.3428789,38.9180013],[-6.3428885,38.9179926],[-6.3428962,38.9179882],[-6.342915,38.9179831],[-6.3429269,38.9179829],[-6.3429395,38.917889],[-6.3429092,38.9178645],[-6.3428481,38.9179042],[-6.3428183,38.9179274],[-6.3427921,38.9179466],[-6.3427512,38.9179748],[-6.3426882,38.9180202],[-6.3426659,38.9180372],[-6.3427618,38.9180911],[-6.3428479,38.918128]]},"properties":{"site":"merida","name":"Plaza Puerta de la Villa","highway":"pedestrian"}},{"type":"Feature","geometry":{"type":"LineString","coordinates":[[-6.3430778,38.9178291],[-6.3431508,38.9177533],[-6.3432245,38.9177202],[-6.3435445,38.9175437],[-6.343849,38.9173669],[-6.344174,38.9172055],[-6.3442367,38.917212],[-6.3443678,38.9171692],[-6.3446375,38.9170143],[-6.3449499,38.9168172],[-6.3452363,38.9166015],[-6.3456311,38.9163447],[-6.3457041,38.9163112]]},"properties":{"site":"merida","name":"Calle Santa Eulalia","highway":"pedestrian"}},{"type":"Feature","geometry":{"type":"LineString","coordinates":[[-6.3431688,38.9178856],[-6.3431308,38.9179146],[-6.3431102,38.9179327],[-6.3430505,38.9179852],[-6.3431597,38.9180516],[-6.3430763,38.9180884],[-6.3430128,38.918144],[-6.3430094,38.9181589],[-6.3429813,38.9181573],[-6.3429579,38.9181558],[-6.3428479,38.918128],[-6.3428908,38.9180535],[-6.3428967,38.9180565],[-6.3429064,38.9180599],[-6.3429157,38.9180615],[-6.3429264,38.9180616],[-6.3429361,38.9180603],[-6.3429456,38.9180573],[-6.3429527,38.9180538],[-6.3429576,38.9180505],[-6.3429638,38.9180448],[-6.3429678,38.9180395],[-6.3429717,38.9180306],[-6.3429728,38.9180208],[-6.3429713,38.9180126],[-6.3429666,38.9180032],[-6.3429589,38.917995],[-6.3429511,38.9179898],[-6.3429397,38.9179851],[-6.3429269,38.9179829],[-6.3429395,38.917889],[-6.3429978,38.9178408],[-6.3430331,38.9178206],[-6.3430465,38.9178069],[-6.3430778,38.9178291],[-6.3431138,38.9178499],[-6.3431688,38.9178856]]},"properties":{"site":"merida","name":"Plaza Puerta de la Villa","highway":"pedestrian"}},{"type":"Feature","geometry":{"type":"LineString","coordinates":[[-6.3394326,38.9149169],[-6.3391306,38.9151678]]},"properties":{"site":"merida","name":"","highway":"service"}},{"type":"Feature","geometry":{"type":"LineString","coordinates":[[-6.3372499,38.915947],[-6.3372992,38.9158499],[-6.3373731,38.915766],[-6.3374071,38.9157468],[-6.3375195,38.9156833],[-6.3376871,38.9156318]]},"properties":{"site":"merida","name":"","highway":"footway"}},{"type":"Feature","geometry":{"type":"LineString","coordinates":[[-6.3374972,38.9160108],[-6.3372499,38.915947]]},"properties":{"site":"merida","name":"","highway":"footway"}},{"type":"Feature","geometry":{"type":"LineString","coordinates":[[-6.3374071,38.9157468],[-6.3376467,38.9159403]]},"properties":{"site":"merida","name":"","highway":"footway"}},{"type":"Feature","geometry":{"type":"LineString","coordinates":[[-6.3381021,38.9160445],[-6.3383952,38.9158259]]},"properties":{"site":"merida","name":"","highway":"footway"}},{"type":"Feature","geometry":{"type":"LineString","coordinates":[[-6.3451466,38.9128801],[-6.3452182,38.9128961],[-6.3453239,38.9129332],[-6.3454009,38.9129833],[-6.3453493,38.9129162],[-6.3452922,38.9128508],[-6.3452286,38.912851],[-6.3451466,38.9128801]]},"properties":{"site":"merida","name":"","highway":"service"}},{"type":"Feature","geometry":{"type":"LineString","coordinates":[[-6.3395199,38.9161736],[-6.3395303,38.9161734],[-6.3395321,38.9162552],[-6.3395338,38.916337],[-6.3395339,38.916342],[-6.3395339,38.9163952],[-6.3394385,38.9164326],[-6.339292,38.9163065],[-6.3390912,38.9164363]]},"properties":{"site":"merida","name":"","highway":"footway"}},{"type":"Feature","geometry":{"type":"LineString","coordinates":[[-6.3395338,38.916337],[-6.3395229,38.916337]]},"properties":{"site":"merida","name":"","highway":"footway"}},{"type":"Feature","geometry":{"type":"LineString","coordinates":[[-6.3395321,38.9162552],[-6.3395206,38.9162553]]},"properties":{"site":"merida","name":"","highway":"footway"}},{"type":"Feature","geometry":{"type":"LineString","coordinates":[[-6.3362501,38.9187373],[-6.336094,38.9187213]]},"properties":{"site":"merida","name":"","highway":"footway"}},{"type":"Feature","geometry":{"type":"LineString","coordinates":[[-6.3383229,38.9168515],[-6.3383472,38.9169412],[-6.3382876,38.9169531],[-6.3381214,38.9170232],[-6.3381721,38.9170903],[-6.3381455,38.917109],[-6.3380135,38.917033],[-6.3379539,38.9170449],[-6.3380097,38.9170853],[-6.337997,38.9170992],[-6.3377357,38.9171002],[-6.3377255,38.917263],[-6.3376472,38.9174638],[-6.3376311,38.9175051],[-6.3376177,38.9175394],[-6.337454,38.9175128],[-6.3373056,38.9176145],[-6.3367004,38.9172808],[-6.3368602,38.9171248],[-6.3369769,38.917186],[-6.3376253,38.9171979],[-6.3377128,38.9171002],[-6.3377357,38.9171002]]},"properties":{"site":"merida","name":"","highway":"footway"}},{"type":"Feature","geometry":{"type":"LineString","coordinates":[[-6.3377255,38.917263],[-6.3379443,38.9172997],[-6.3378403,38.9174991],[-6.3376472,38.9174638]]},"properties":{"site":"merida","name":"","highway":"footway"}},{"type":"Feature","geometry":{"type":"LineString","coordinates":[[-6.3377357,38.9171002],[-6.3379443,38.9172997]]},"properties":{"site":"merida","name":"","highway":"footway"}},{"type":"Feature","geometry":{"type":"LineString","coordinates":[[-6.3385591,38.9156999],[-6.3388962,38.9159549],[-6.3391527,38.9157642],[-6.3392891,38.9156627]]},"properties":{"site":"merida","name":"","highway":"footway"}},{"type":"Feature","geometry":{"type":"LineString","coordinates":[[-6.339013,38.9153508],[-6.3392811,38.9155761],[-6.3390997,38.9157167],[-6.3389217,38.9158547],[-6.338636,38.9156408]]},"properties":{"site":"merida","name":"","highway":"footway"}},{"type":"Feature","geometry":{"type":"LineString","coordinates":[[-6.3391527,38.9157642],[-6.3390997,38.9157167]]},"properties":{"site":"merida","name":"","highway":"footway"}},{"type":"Feature","geometry":{"type":"LineString","coordinates":[[-6.3383952,38.9158259],[-6.3381846,38.9156955]]},"properties":{"site":"merida","name":"","highway":"footway"}},{"type":"Feature","geometry":{"type":"LineString","coordinates":[[-6.3357618,38.911739],[-6.3355611,38.9114122]]},"properties":{"site":"merida","name":"","highway":"service"}},{"type":"Feature","geometry":{"type":"LineString","coordinates":[[-6.3469574,38.9202779],[-6.346951,38.9202149],[-6.3470197,38.9201435],[-6.3471571,38.9200836],[-6.3476232,38.9198221],[-6.3477303,38.9199278],[-6.3478752,38.920062],[-6.3479405,38.9200253],[-6.3479317,38.9199619],[-6.3478325,38.9198701],[-6.3477303,38.9199278]]},"properties":{"site":"merida","name":"","highway":"service"}},{"type":"Feature","geometry":{"type":"LineString","coordinates":[[-6.3476232,38.9198221],[-6.3475165,38.919697],[-6.3470519,38.919964],[-6.3471571,38.9200836]]},"properties":{"site":"merida","name":"","highway":"service"}},{"type":"Feature","geometry":{"type":"LineString","coordinates":[[-6.3475165,38.919697],[-6.347414,38.9195988],[-6.3469634,38.9198764],[-6.3470519,38.919964]]},"properties":{"site":"merida","name":"","highway":"service"}},{"type":"Feature","geometry":{"type":"LineString","coordinates":[[-6.3406391,38.9107012],[-6.3405877,38.9105783]]},"properties":{"site":"merida","name":"","highway":"service"}},{"type":"Feature","geometry":{"type":"LineString","coordinates":[[-6.3323703,38.9150761],[-6.3321114,38.9150813],[-6.331819,38.9153129],[-6.3318267,38.9154983]]},"properties":{"site":"merida","name":"","highway":"service"}},{"type":"Feature","geometry":{"type":"LineString","coordinates":[[-6.3458659,38.9214997],[-6.3458773,38.9214469],[-6.3451348,38.9213209]]},"properties":{"site":"merida","name":"","highway":"service"}},{"type":"Feature","geometry":{"type":"LineString","coordinates":[[-6.3418028,38.922322],[-6.3413695,38.9222267]]},"properties":{"site":"merida","name":"","highway":"service"}},{"type":"Feature","geometry":{"type":"LineString","coordinates":[[-6.3466418,38.9171721],[-6.3465788,38.9172028]]},"properties":{"site":"merida","name":"","highway":"footway"}},{"type":"Feature","geometry":{"type":"LineString","coordinates":[[-6.3431212,38.9211961],[-6.3431369,38.921129]]},"properties":{"site":"merida","name":"","highway":"steps"}},{"type":"Feature","geometry":{"type":"LineString","coordinates":[[-6.3431151,38.9212175],[-6.343063,38.9212074],[-6.3428154,38.9211638],[-6.3428221,38.9211455],[-6.3429431,38.9211604],[-6.3430842,38.9211482],[-6.3430966,38.9211142]]},"properties":{"site":"merida","name":"","highway":"footway"}},{"type":"Feature","geometry":{"type":"LineString","coordinates":[[-6.3430966,38.9211142],[-6.3431369,38.921129],[-6.3431425,38.9211037]]},"properties":{"site":"merida","name":"","highway":"footway"}},{"type":"Feature","geometry":{"type":"LineString","coordinates":[[-6.3431425,38.9211037],[-6.343153,38.9210612]]},"properties":{"site":"merida","name":"","highway":"footway"}},{"type":"Feature","geometry":{"type":"LineString","coordinates":[[-6.3431212,38.9211961],[-6.3431151,38.9212175],[-6.3430831,38.9213294]]},"properties":{"site":"merida","name":"","highway":"footway"}},{"type":"Feature","geometry":{"type":"LineString","coordinates":[[-6.3454009,38.9129833],[-6.3455933,38.9131168],[-6.3456912,38.9131425],[-6.3457321,38.9131263],[-6.3458692,38.9130719],[-6.3459282,38.9131489],[-6.3459676,38.9131942],[-6.3459682,38.9132014],[-6.3461958,38.9134562],[-6.3463066,38.9133783],[-6.3462956,38.9133651],[-6.3460956,38.9131269],[-6.3459676,38.9131942]]},"properties":{"site":"merida","name":"","highway":"service"}},{"type":"Feature","geometry":{"type":"LineString","coordinates":[[-6.3460956,38.9131269],[-6.3459957,38.9130072],[-6.3458692,38.9130719]]},"properties":{"site":"merida","name":"","highway":"service"}},{"type":"Feature","geometry":{"type":"LineString","coordinates":[[-6.3459957,38.9130072],[-6.3455415,38.9124444],[-6.3454342,38.9124252],[-6.3454012,38.9125233],[-6.3454495,38.9125545],[-6.3458692,38.9130719]]},"properties":{"site":"merida","name":"","highway":"service"}},{"type":"Feature","geometry":{"type":"LineString","coordinates":[[-6.3457321,38.9131263],[-6.3453579,38.9126762],[-6.3454012,38.9125233]]},"properties":{"site":"merida","name":"","highway":"service"}},{"type":"Feature","geometry":{"type":"LineString","coordinates":[[-6.3453579,38.9126762],[-6.3452922,38.9128508]]},"properties":{"site":"merida","name":"","highway":"service"}},{"type":"Feature","geometry":{"type":"LineString","coordinates":[[-6.3422245,38.9117696],[-6.3420684,38.91184]]},"properties":{"site":"merida","name":"","highway":"footway"}},{"type":"Feature","geometry":{"type":"LineString","coordinates":[[-6.3422813,38.911744],[-6.3422245,38.9117696]]},"properties":{"site":"merida","name":"","highway":"steps"}},{"type":"Feature","geometry":{"type":"LineString","coordinates":[[-6.3463572,38.9161926],[-6.3462678,38.9160878]]},"properties":{"site":"merida","name":"","highway":"footway"}},{"type":"Feature","geometry":{"type":"LineString","coordinates":[[-6.3472406,38.916375],[-6.3471739,38.9164094],[-6.3471549,38.9163933],[-6.3469342,38.9165192],[-6.3469409,38.9165275],[-6.3468358,38.91658],[-6.3468136,38.916591],[-6.3467922,38.9165691],[-6.3467774,38.9165549],[-6.3467367,38.9165159],[-6.3467569,38.9165046],[-6.346842,38.9164569],[-6.3469412,38.9164402],[-6.3470881,38.9163797],[-6.3472742,38.9163654],[-6.3472406,38.916375]]},"properties":{"site":"merida","name":"","highway":"pedestrian"}},{"type":"Feature","geometry":{"type":"LineString","coordinates":[[-6.3466493,38.9160403],[-6.3466248,38.9160531],[-6.3466204,38.9160662],[-6.3466629,38.9161162],[-6.3468982,38.9163925],[-6.3469908,38.9163519],[-6.3469181,38.9162855],[-6.3468903,38.9162602],[-6.3468097,38.9161867],[-6.3467719,38.9161522],[-6.3466493,38.9160403]]},"properties":{"site":"merida","name":"","highway":"pedestrian"}},{"type":"Feature","geometry":{"type":"LineString","coordinates":[[-6.3466837,38.9159595],[-6.3465757,38.9160111],[-6.3463871,38.9160163],[-6.3463429,38.9159843],[-6.3462781,38.9158438],[-6.3462327,38.9157859],[-6.3462628,38.9157685],[-6.3463064,38.9157974],[-6.3463423,38.9158076],[-6.3463715,38.9158159],[-6.3463833,38.915833],[-6.3463864,38.9159789],[-6.346516,38.9159777],[-6.3466837,38.9159595]]},"properties":{"site":"merida","name":"","highway":"pedestrian"}},{"type":"Feature","geometry":{"type":"LineString","coordinates":[[-6.3463429,38.9159843],[-6.3463211,38.9159892],[-6.3462919,38.9159957]]},"properties":{"site":"merida","name":"","highway":"footway"}},{"type":"Feature","geometry":{"type":"LineString","coordinates":[[-6.3462964,38.9160104],[-6.3462919,38.9159957],[-6.346263,38.9159024],[-6.3460009,38.9156354]]},"properties":{"site":"merida","name":"","highway":"footway"}},{"type":"Feature","geometry":{"type":"LineString","coordinates":[[-6.3465718,38.9157688],[-6.3464874,38.9157756],[-6.346427,38.9157777],[-6.3463771,38.9157712],[-6.3463604,38.9157612],[-6.3463486,38.9157534],[-6.3462449,38.9156149],[-6.3462357,38.9156027],[-6.3462115,38.9155972],[-6.3461769,38.9155459]]},"properties":{"site":"merida","name":"","highway":"footway"}},{"type":"Feature","geometry":{"type":"LineString","coordinates":[[-6.3460497,38.9156106],[-6.3460171,38.9156272],[-6.3460009,38.9156354]]},"properties":{"site":"merida","name":"","highway":"footway"}},{"type":"Feature","geometry":{"type":"LineString","coordinates":[[-6.3461769,38.9155459],[-6.3461573,38.9155559],[-6.3461283,38.9155706]]},"properties":{"site":"merida","name":"","highway":"footway"}},{"type":"Feature","geometry":{"type":"LineString","coordinates":[[-6.3466116,38.9157558],[-6.3465635,38.9157599],[-6.3464851,38.9157665],[-6.3464276,38.9157692],[-6.3463786,38.9157624],[-6.346354,38.9157462],[-6.3462577,38.91562],[-6.3462517,38.9156122],[-6.346242,38.9155996],[-6.3462531,38.9155945],[-6.3463373,38.9155542],[-6.3463476,38.9155653],[-6.3464899,38.9157172],[-6.3465491,38.9156824],[-6.3466116,38.9157558]]},"properties":{"site":"merida","name":"","highway":"pedestrian"}},{"type":"Feature","geometry":{"type":"LineString","coordinates":[[-6.3462449,38.9156149],[-6.3462517,38.9156122],[-6.3462594,38.9156084],[-6.3463298,38.915574],[-6.3463476,38.9155653]]},"properties":{"site":"merida","name":"","highway":"footway"}},{"type":"Feature","geometry":{"type":"LineString","coordinates":[[-6.3465718,38.9157688],[-6.3465635,38.9157599],[-6.3465349,38.9157287],[-6.3464931,38.9157519],[-6.3463578,38.9156045]]},"properties":{"site":"merida","name":"","highway":"footway"}},{"type":"Feature","geometry":{"type":"LineString","coordinates":[[-6.3463578,38.9156045],[-6.3463298,38.915574]]},"properties":{"site":"merida","name":"","highway":"steps"}},{"type":"Feature","geometry":{"type":"LineString","coordinates":[[-6.3464931,38.9157519],[-6.3464726,38.9157616],[-6.3464294,38.9157636],[-6.3463828,38.9157571],[-6.3463603,38.9157425],[-6.3462594,38.9156084]]},"properties":{"site":"merida","name":"","highway":"footway"}}]}