{"type":"FeatureCollection","features":[{"type":"Feature","geometry":{"type":"LineString","coordinates":[[15.0145126,40.4217083],[15.0144261,40.4216798],[15.0137413,40.4216458]]},"properties":{"site":"paestum","name":"Via Porta Giustizia","highway":"service"}},{"type":"Feature","geometry":{"type":"LineString","coordinates":[[15.0135563,40.4216348],[15.0133708,40.4216286],[15.0132178,40.4216235],[15.011495,40.4215664],[15.011159,40.4215553],[15.0098269,40.4215111],[15.0085965,40.4214703],[15.0081716,40.421456],[15.0076659,40.421439],[15.0073214,40.421432],[15.0067402,40.4214203]]},"properties":{"site":"paestum","name":"Via Porta Sirena","highway":"service"}},{"type":"Feature","geometry":{"type":"LineString","coordinates":[[15.0062933,40.4244804],[15.0066206,40.4245441],[15.0066444,40.4245527],[15.006667,40.4245606],[15.0066962,40.4245728],[15.0067703,40.4245922],[15.0068173,40.4246001],[15.0068612,40.4246019],[15.0069139,40.4245997],[15.006952,40.4245961],[15.0069895,40.4245925],[15.0070861,40.4245972],[15.0079716,40.4247339]]},"properties":{"site":"paestum","name":"","highway":"service"}},{"type":"Feature","geometry":{"type":"LineString","coordinates":[[15.0010148,40.4262682],[15.0008605,40.4262701],[15.0005825,40.426245],[14.9998204,40.4261314],[14.9992416,40.4260455],[14.9986703,40.4259826],[14.9975954,40.4258624],[14.9969714,40.4257823],[14.9963099,40.4256907],[14.9952876,40.4255477],[14.9950347,40.4255299],[14.9942918,40.4254417],[14.9937493,40.4253769],[14.99304,40.4252787],[14.9924236,40.4251986],[14.992138,40.4251471]]},"properties":{"site":"paestum","name":"","highway":"track"}},{"type":"Feature","geometry":{"type":"LineString","coordinates":[[15.0060468,40.4239635],[15.0059967,40.4239258],[15.0058863,40.4237635],[15.005867,40.4237153],[15.0058603,40.4236647],[15.0058629,40.4236245],[15.0058846,40.4235554],[15.0060083,40.423319],[15.0060164,40.42329],[15.0060119,40.4232563],[15.0059956,40.4232353],[15.005969,40.4232145],[15.0059046,40.4231936],[15.00572,40.4231418],[15.0056951,40.423129],[15.0056773,40.423111],[15.0056654,40.423082],[15.0056239,40.4227008],[15.0056112,40.4226688],[15.0055005,40.4224885],[15.0054586,40.4223988],[15.005435,40.4223571],[15.0054183,40.4223109],[15.0054303,40.4220925],[15.005446,40.4218108]]},"properties":{"site":"paestum","name":"","highway":"footway"}},{"type":"Feature","geometry":{"type":"LineString","coordinates":[[15.0060452,40.4218358],[15.0059687,40.4218203],[15.0057754,40.4218125],[15.0054462,40.4217993],[15.005446,40.4218108]]},"properties":{"site":"paestum","name":"","highway":"footway"}},{"type":"Feature","geometry":{"type":"LineString","coordinates":[[15.0060452,40.4218358],[15.0060687,40.4212986]]},"properties":{"site":"paestum","name":"","highway":"footway"}},{"type":"Feature","geometry":{"type":"LineString","coordinates":[[15.0047009,40.4239232],[15.0047016,40.4239131],[15.0047842,40.422684],[15.0047844,40.422681],[15.0047847,40.4226762]]},"properties":{"site":"paestum","name":"Via Sacra","highway":"pedestrian"}},{"type":"Feature","geometry":{"type":"LineString","coordinates":[[15.0045812,40.4213099],[15.0045844,40.4212394],[15.0047494,40.4187117],[15.0048028,40.4183073]]},"properties":{"site":"paestum","name":"Via Sacra","highway":"pedestrian"}},{"type":"Feature","geometry":{"type":"LineString","coordinates":[[15.0065474,40.4201496],[15.0065479,40.4201418],[15.0065489,40.4201277],[15.0065516,40.4201154],[15.0064403,40.4200926],[15.006314,40.4200857],[15.0061653,40.420081],[15.006059,40.4200845]]},"properties":{"site":"paestum","name":"","highway":"footway"}},{"type":"Feature","geometry":{"type":"LineString","coordinates":[[15.0054183,40.4223109],[15.005524,40.4223482],[15.005549,40.4223629],[15.0055967,40.4223773],[15.0056436,40.4223793],[15.0056937,40.4223866],[15.0057383,40.4223991],[15.0057846,40.4224063],[15.0058098,40.4224061],[15.0058261,40.4224029],[15.0058422,40.4223946],[15.0058646,40.4223854],[15.0059146,40.4223746],[15.0060171,40.4223665]]},"properties":{"site":"paestum","name":"","highway":"footway"}},{"type":"Feature","geometry":{"type":"LineString","coordinates":[[15.0060979,40.4203612],[15.0062145,40.4203581],[15.0063903,40.4203502],[15.0064068,40.4203499],[15.0065465,40.4203516]]},"properties":{"site":"paestum","name":"","highway":"footway"}},{"type":"Feature","geometry":{"type":"LineString","coordinates":[[15.0047847,40.4226762],[15.0047524,40.422658],[15.0046706,40.4225106],[15.0046564,40.4224917],[15.00464,40.4224752],[15.0046273,40.422455],[15.0045879,40.4223667],[15.0045772,40.42231],[15.0045779,40.4222317],[15.0046107,40.4217827],[15.0046417,40.421404],[15.0046298,40.4213792],[15.0045812,40.4213099]]},"properties":{"site":"paestum","name":"","highway":"footway"}},{"type":"Feature","geometry":{"type":"LineString","coordinates":[[15.0045812,40.4213099],[15.0040907,40.4212913],[15.0036147,40.4212732],[15.0031384,40.4212551],[15.0016197,40.4211941]]},"properties":{"site":"paestum","name":"Decumano","highway":"pedestrian"}},{"type":"Feature","geometry":{"type":"LineString","coordinates":[[15.0051871,40.4246325],[15.0052391,40.4246347],[15.0056607,40.4246251],[15.0056959,40.4246223],[15.0057223,40.424615],[15.0057407,40.4246069],[15.0057493,40.4245943],[15.0057537,40.4245742],[15.0057429,40.4243683],[15.0057468,40.4243476],[15.0057792,40.4243228],[15.005812,40.4242974],[15.0058365,40.4242733],[15.0058425,40.4242549],[15.0058441,40.4242288],[15.0058422,40.4241985]]},"properties":{"site":"paestum","name":"","highway":"footway"}},{"type":"Feature","geometry":{"type":"LineString","coordinates":[[15.0060789,40.42107],[15.0060719,40.4209465],[15.0059671,40.4203688],[15.0059245,40.4201472],[15.0059145,40.4201168],[15.0058759,40.4200624],[15.0058555,40.4200284],[15.0058374,40.4197146],[15.0058197,40.4194337],[15.0058005,40.419129],[15.0057832,40.4190866],[15.0055348,40.4189223],[15.005462,40.4189124],[15.0048488,40.4189258]]},"properties":{"site":"paestum","name":"","highway":"footway"}},{"type":"Feature","geometry":{"type":"LineString","coordinates":[[15.0047009,40.4239232],[15.0047405,40.4239146]]},"properties":{"site":"paestum","name":"","highway":"footway"}},{"type":"Feature","geometry":{"type":"LineString","coordinates":[[15.0084937,40.4227187],[15.0085079,40.4227369],[15.0085293,40.4230814],[15.0085566,40.4235131],[15.0085793,40.4238954],[15.0085892,40.4239502],[15.0086023,40.4239917],[15.0086225,40.4240463],[15.0086518,40.4241595],[15.0086558,40.4242209],[15.0086517,40.4242804],[15.0085952,40.4246224],[15.0085373,40.4249262],[15.0085223,40.4250043],[15.0084083,40.4254377],[15.0083803,40.4255123],[15.0083507,40.4257259]]},"properties":{"site":"paestum","name":"","highway":"track"}},{"type":"Feature","geometry":{"type":"LineString","coordinates":[[15.0029692,40.4265745],[15.0030983,40.426554],[15.0032017,40.4265445],[15.0034592,40.4265443],[15.0035098,40.4265368],[15.003558,40.4265016],[15.0035704,40.4264511],[15.003572,40.4263857],[15.0035888,40.4257205],[15.003636,40.4248858],[15.0036174,40.4247061],[15.0036181,40.4245691],[15.0036318,40.424247],[15.0036314,40.4241371],[15.0036476,40.4240599],[15.0036683,40.4239943],[15.0036756,40.4239182],[15.0036103,40.4228946],[15.0035872,40.4226922],[15.0035825,40.4225812],[15.0035806,40.4224557],[15.0035711,40.4224136],[15.0035541,40.4223667],[15.003525,40.4223356],[15.0034984,40.4222993],[15.0034814,40.422264],[15.0034782,40.4222203],[15.0034803,40.422164],[15.0034868,40.4221026],[15.0034986,40.4219922],[15.0034986,40.4219157],[15.003493,40.4218625],[15.0034763,40.4218153],[15.0034404,40.4217608],[15.0033721,40.4216896],[15.0032843,40.4216129],[15.0031721,40.4215521],[15.0030747,40.421503],[15.0029684,40.4214772],[15.0028349,40.4214513],[15.0027706,40.421444],[15.0027154,40.421444],[15.0026718,40.421451],[15.0026163,40.4214672],[15.0025307,40.4214958],[15.0024678,40.4215138],[15.0024082,40.4215233],[15.0023221,40.4215338],[15.0022402,40.4215347],[15.0021541,40.4215348],[15.002042,40.4215193],[15.0019322,40.4214992],[15.0018603,40.4214781],[15.0018032,40.4214665],[15.0017206,40.4214561],[15.0013718,40.421402]]},"properties":{"site":"paestum","name":"","highway":"track"}},{"type":"Feature","geometry":{"type":"LineString","coordinates":[[15.0135979,40.4235708],[15.013612,40.4232579],[15.0137018,40.4223028],[15.0137413,40.4216458]]},"properties":{"site":"paestum","name":"Via Porta Aurea","highway":"service"}},{"type":"Feature","geometry":{"type":"LineString","coordinates":[[15.0071008,40.4239134],[15.0069073,40.4237895],[15.0064788,40.4237689],[15.0064119,40.4237646]]},"properties":{"site":"paestum","name":"","highway":"pedestrian"}},{"type":"Feature","geometry":{"type":"LineString","coordinates":[[15.0066348,40.421418],[15.0066597,40.4211889],[15.0067255,40.4205415],[15.006744,40.4203538]]},"properties":{"site":"paestum","name":"Via Magna Graecia","highway":"pedestrian"}},{"type":"Feature","geometry":{"type":"LineString","coordinates":[[15.0062933,40.4244804],[15.0063219,40.4243994],[15.0063915,40.4239705],[15.0064119,40.4237646],[15.0064618,40.4233177],[15.0065109,40.422878],[15.0065213,40.4227554],[15.0066348,40.421418]]},"properties":{"site":"paestum","name":"Via Magna Graecia","highway":"pedestrian"}},{"type":"Feature","geometry":{"type":"LineString","coordinates":[[15.0023263,40.4267106],[15.0025049,40.4267266],[15.0029229,40.426754],[15.0041829,40.4268366],[15.0048367,40.426865],[15.0051468,40.4268785]]},"properties":{"site":"paestum","name":"Via Tavernelle","highway":"pedestrian"}},{"type":"Feature","geometry":{"type":"LineString","coordinates":[[15.0060687,40.4212986],[15.0045844,40.4212394]]},"properties":{"site":"paestum","name":"","highway":"footway"}},{"type":"Feature","geometry":{"type":"LineString","coordinates":[[15.0033081,40.418657],[15.0037903,40.4186769],[15.0042606,40.4186991],[15.0047494,40.4187117],[15.0048164,40.418752],[15.0048674,40.4188582],[15.0048488,40.4189258]]},"properties":{"site":"paestum","name":"","highway":"footway"}},{"type":"Feature","geometry":{"type":"LineString","coordinates":[[15.0036147,40.4212732],[15.0037903,40.4186769]]},"properties":{"site":"paestum","name":"","highway":"footway"}},{"type":"Feature","geometry":{"type":"LineString","coordinates":[[15.0040907,40.4212913],[15.0042606,40.4186991]]},"properties":{"site":"paestum","name":"","highway":"footway"}},{"type":"Feature","geometry":{"type":"LineString","coordinates":[[15.0031384,40.4212551],[15.0033081,40.418657]]},"properties":{"site":"paestum","name":"","highway":"footway"}},{"type":"Feature","geometry":{"type":"LineString","coordinates":[[15.0046334,40.4247275],[15.0046456,40.4247612],[15.0046817,40.4247806],[15.0058919,40.4247795],[15.0059056,40.4247732],[15.0059104,40.4247601],[15.0059005,40.424683],[15.0058829,40.4246701],[15.0058595,40.4246609],[15.0057407,40.4246069]]},"properties":{"site":"paestum","name":"","highway":"footway"}},{"type":"Feature","geometry":{"type":"LineString","coordinates":[[15.0047842,40.422684],[15.0044564,40.4226794]]},"properties":{"site":"paestum","name":"","highway":"track"}},{"type":"Feature","geometry":{"type":"LineString","coordinates":[[15.0059671,40.4203688],[15.0050733,40.4203832],[15.0050486,40.4203818],[15.0050352,40.4203797],[15.0050269,40.4203763],[15.0050201,40.4203714],[15.0050166,40.4203637],[15.0050089,40.4201545],[15.0050061,40.4201493],[15.0050007,40.4201449],[15.0049927,40.4201402],[15.0047935,40.4200695],[15.0047859,40.4200656],[15.0047799,40.4200594],[15.0047765,40.4200501],[15.0048155,40.419482],[15.0048469,40.4190254],[15.0048488,40.4189258]]},"properties":{"site":"paestum","name":"","highway":"footway"}},{"type":"Feature","geometry":{"type":"LineString","coordinates":[[15.0071211,40.4185743],[15.007189,40.4185007]]},"properties":{"site":"paestum","name":"","highway":"service"}},{"type":"Feature","geometry":{"type":"LineString","coordinates":[[15.0060468,40.4239635],[15.0059439,40.4240001],[15.005891,40.424035],[15.0058104,40.4240978]]},"properties":{"site":"paestum","name":"","highway":"footway"}},{"type":"Feature","geometry":{"type":"LineString","coordinates":[[15.0057468,40.4243476],[15.0057136,40.4243506],[15.0056455,40.4243486],[15.0055807,40.4243425],[15.0055268,40.4243382],[15.005479,40.4243351],[15.0052426,40.4243375],[15.005162,40.4243465],[15.0049813,40.4243846]]},"properties":{"site":"paestum","name":"","highway":"footway"}},{"type":"Feature","geometry":{"type":"LineString","coordinates":[[15.0056112,40.4226688],[15.0059196,40.4226625],[15.0059495,40.4226569],[15.0059757,40.4226482],[15.0059928,40.422625],[15.0059992,40.422601],[15.0059939,40.4225218],[15.0059965,40.4224883],[15.006,40.4224583],[15.0060096,40.4224411],[15.0060175,40.422429],[15.0060188,40.4224146],[15.0060171,40.4223665],[15.0060302,40.4222744],[15.0060336,40.4222634],[15.0060332,40.4222571],[15.0060285,40.4222524],[15.0060224,40.4222487],[15.006017,40.4222424],[15.0060132,40.4222359],[15.006015,40.4222],[15.0060276,40.4220503]]},"properties":{"site":"paestum","name":"","highway":"footway"}},{"type":"Feature","geometry":{"type":"LineString","coordinates":[[15.0060687,40.4212986],[15.0064477,40.4213113]]},"properties":{"site":"paestum","name":"","highway":"footway"}},{"type":"Feature","geometry":{"type":"LineString","coordinates":[[15.0051198,40.4194689],[15.0058197,40.4194337]]},"properties":{"site":"paestum","name":"","highway":"path"}},{"type":"Feature","geometry":{"type":"LineString","coordinates":[[15.0058555,40.4200284],[15.0058579,40.420069],[15.004969,40.4201031],[15.0049455,40.419749],[15.0058374,40.4197146]]},"properties":{"site":"paestum","name":"","highway":"path"}},{"type":"Feature","geometry":{"type":"LineString","coordinates":[[15.0022244,40.4179061],[15.0022089,40.4182163],[15.0022169,40.4182379],[15.0022353,40.4182505],[15.0022606,40.4182605],[15.0022887,40.4182645],[15.00244,40.4182819],[15.0025848,40.4182955],[15.0027048,40.4183192],[15.0027827,40.4183505],[15.0028101,40.4183888],[15.0028251,40.4184689],[15.0028138,40.4185642],[15.0027889,40.4185986],[15.0027431,40.4186208],[15.002525,40.4187033],[15.002495,40.4187109],[15.0024638,40.4187124],[15.0020056,40.4186956],[15.0019391,40.4186929],[15.001898,40.4187051],[15.0018802,40.4187832],[15.00183,40.4197661],[15.0018242,40.419881],[15.0018066,40.4202267],[15.0017956,40.4202722],[15.0017823,40.4203107],[15.0017657,40.4204067],[15.0017324,40.4206863],[15.0017324,40.4207566],[15.0017091,40.4208114],[15.0016469,40.4208778],[15.0015526,40.420965],[15.0014917,40.421037],[15.0014265,40.4211382],[15.0014049,40.4211796],[15.0013998,40.4212145],[15.0013744,40.4212879],[15.0013718,40.421402],[15.00125,40.4243103],[15.0012643,40.4243702],[15.0012961,40.4244121],[15.0022456,40.4249913],[15.002289,40.4250328],[15.0023267,40.4250747],[15.0022316,40.4261109],[15.0022285,40.4262387],[15.0022377,40.4263248],[15.0022585,40.4264492]]},"properties":{"site":"paestum","name":"","highway":"track"}},{"type":"Feature","geometry":{"type":"LineString","coordinates":[[15.008226,40.4211765],[15.0082451,40.4211619],[15.0083443,40.4208517],[15.0083513,40.420773],[15.0083399,40.4207048],[15.0083069,40.4206044],[15.0082924,40.4205847],[15.0082722,40.4205744],[15.0074561,40.4205652],[15.0074154,40.4205589],[15.0073798,40.4205404],[15.0073473,40.4204932],[15.0073268,40.4204655],[15.0072922,40.4204497],[15.0072439,40.4204331],[15.0071974,40.4204223],[15.0071471,40.4203991],[15.0070595,40.4203424],[15.007008,40.4203041],[15.0069731,40.420271],[15.0069488,40.4202388],[15.0069317,40.4202053],[15.006926,40.420172],[15.0069272,40.420138],[15.0070493,40.4190821],[15.0070723,40.4189221],[15.0070573,40.4188677],[15.007051,40.4188626],[15.0070211,40.4188383],[15.0069951,40.4188326],[15.006965,40.4188303],[15.0068972,40.4188251]]},"properties":{"site":"paestum","name":"","highway":"service"}},{"type":"Feature","geometry":{"type":"LineString","coordinates":[[15.0088477,40.4188914],[15.0086814,40.4188893],[15.0086143,40.418873],[15.0085607,40.4188607],[15.007341,40.4188092],[15.0071666,40.4188007],[15.0070869,40.4188101],[15.0069951,40.4188326]]},"properties":{"site":"paestum","name":"","highway":"track"}},{"type":"Feature","geometry":{"type":"LineString","coordinates":[[15.0067402,40.4214203],[15.0066348,40.421418]]},"properties":{"site":"paestum","name":"Via di Porta Sirena","highway":"pedestrian"}},{"type":"Feature","geometry":{"type":"LineString","coordinates":[[15.013711,40.4216214],[15.0137341,40.4211681],[15.0137495,40.4208469],[15.0137616,40.4206291],[15.0137746,40.4203692],[15.0137929,40.4199716],[15.0138098,40.4196244],[15.0138272,40.4192818],[15.0138266,40.4192308],[15.0138178,40.4191916],[15.0138065,40.4191642],[15.0137855,40.4191272],[15.0137356,40.41907],[15.0136884,40.4190327],[15.0136476,40.4190092],[15.0136004,40.418987],[15.013528,40.4189678],[15.0134837,40.4189601],[15.0133204,40.4189451],[15.0131263,40.4189272],[15.0128227,40.4189024],[15.0123665,40.4188826],[15.0117576,40.4188579],[15.0111447,40.4188323],[15.0107823,40.4188174],[15.0103883,40.4188013],[15.0100271,40.4187863],[15.0095633,40.4187672],[15.0090298,40.4187445],[15.0086837,40.4187304],[15.0083827,40.4187182],[15.0080476,40.4187044],[15.0076636,40.418688],[15.0074584,40.4186756],[15.0072027,40.418645],[15.0070092,40.4186171],[15.0069977,40.4186155],[15.0069917,40.4186155],[15.0069873,40.4186167],[15.0069843,40.4186203],[15.0069823,40.4186257],[15.0069741,40.4187117]]},"properties":{"site":"paestum","name":"","highway":"footway"}},{"type":"Feature","geometry":{"type":"LineString","coordinates":[[15.0147144,40.4215939],[15.014716,40.4215614],[15.014781,40.4215616]]},"properties":{"site":"paestum","name":"","highway":"steps"}},{"type":"Feature","geometry":{"type":"LineString","coordinates":[[15.015393,40.4219643],[15.0152957,40.4218706],[15.0153333,40.421744],[15.0154352,40.4216807]]},"properties":{"site":"paestum","name":"","highway":"service"}},{"type":"Feature","geometry":{"type":"LineString","coordinates":[[15.0154165,40.421647],[15.0154433,40.4215111],[15.0155721,40.4213315],[15.0156069,40.4206249]]},"properties":{"site":"paestum","name":"","highway":"service"}},{"type":"Feature","geometry":{"type":"LineString","coordinates":[[15.0156467,40.4217563],[15.0154352,40.4216807],[15.0154165,40.421647]]},"properties":{"site":"paestum","name":"","highway":"service"}},{"type":"Feature","geometry":{"type":"LineString","coordinates":[[15.006744,40.4203538],[15.0068097,40.4197173],[15.0068953,40.4188545]]},"properties":{"site":"paestum","name":"Via Magna Graecia","highway":"pedestrian"}},{"type":"Feature","geometry":{"type":"LineString","coordinates":[[15.0111909,40.4115857],[15.0128017,40.413763]]},"properties":{"site":"paestum","name":"","highway":"service"}},{"type":"Feature","geometry":{"type":"LineString","coordinates":[[15.0092515,40.4144174],[15.0113983,40.4156827]]},"properties":{"site":"paestum","name":"","highway":"service"}},{"type":"Feature","geometry":{"type":"LineString","coordinates":[[15.01294,40.418849],[15.013045,40.4170746],[15.0130427,40.4169616],[15.0130604,40.4168543],[15.0131454,40.416819],[15.013213,40.416798],[15.0133,40.4167946],[15.013977,40.4168296]]},"properties":{"site":"paestum","name":"","highway":"service"}},{"type":"Feature","geometry":{"type":"LineString","coordinates":[[15.013045,40.4170746],[15.0146262,40.4171313]]},"properties":{"site":"paestum","name":"","highway":"service"}},{"type":"Feature","geometry":{"type":"LineString","coordinates":[[15.0019018,40.4175368],[15.0019026,40.4174782],[15.0019158,40.4164768],[15.0019855,40.4162993],[15.0020686,40.4158974]]},"properties":{"site":"paestum","name":"","highway":"service"}},{"type":"Feature","geometry":{"type":"LineString","coordinates":[[15.0019158,40.4164768],[15.0019374,40.4148161]]},"properties":{"site":"paestum","name":"","highway":"service"}},{"type":"Feature","geometry":{"type":"LineString","coordinates":[[15.0013101,40.4175581],[15.0013123,40.4174965],[15.0013753,40.4157613],[15.0014376,40.414257]]},"properties":{"site":"paestum","name":"","highway":"service"}},{"type":"Feature","geometry":{"type":"LineString","coordinates":[[14.9957446,40.4183283],[14.9959403,40.4183672],[14.9959982,40.4183726],[14.9960569,40.4183773],[14.9960942,40.418393],[14.9961119,40.4184181],[14.9961109,40.4184494],[14.9956428,40.4199345],[14.9955623,40.4202506],[14.9955565,40.4203454],[14.9955703,40.4204087],[14.9955954,40.4204553],[14.9956487,40.4204939],[14.9957294,40.4205174],[14.995859,40.4205407],[14.9959902,40.4205593],[14.9960881,40.4205861],[14.9961682,40.4206217],[14.9964171,40.4207622],[14.9965568,40.4208238],[14.9966859,40.420857],[14.9968692,40.4208792],[14.9968898,40.4208817],[14.9974543,40.4209486],[14.9975335,40.4209699],[14.9975758,40.4210036],[14.9975899,40.4210463],[14.997591,40.4210669],[14.9975938,40.4211233],[14.9975766,40.4211927],[14.9975147,40.4213593],[14.9975068,40.4214161],[14.9975236,40.4214575],[14.9975689,40.4215115],[14.9976941,40.4216092],[14.9978431,40.4217032],[14.9979392,40.4217799],[14.9980092,40.4218421],[14.998122,40.4219535],[14.9984407,40.4222918],[14.9993634,40.4233863],[14.99938,40.4234118],[14.9993801,40.4234358],[14.9993654,40.4234487],[14.9993302,40.4234623],[14.9993035,40.4234815],[14.9993013,40.4235031],[14.9993168,40.4235264],[14.9997192,40.4240052],[15.0005312,40.4250118],[15.0005737,40.4250519],[15.0006369,40.4251009],[15.0006847,40.425147],[15.0007137,40.42519],[15.0009505,40.42557],[15.0013104,40.4260905],[15.0013758,40.4261511],[15.0014578,40.4262093],[15.0015437,40.4262627],[15.0016584,40.426313],[15.0018219,40.4263689],[15.0019958,40.4264206],[15.002131,40.4264527],[15.0022585,40.4264492]]},"properties":{"site":"paestum","name":"","highway":"track"}},{"type":"Feature","geometry":{"type":"LineString","coordinates":[[14.996817,40.4212013],[14.9968067,40.4211553],[14.9968044,40.4211112],[14.9968174,40.4210685],[14.9968378,40.4210303],[14.9968774,40.4209975],[14.9969131,40.4209897],[14.9969525,40.4209931],[14.9974254,40.421048],[14.9974889,40.4210553],[14.997591,40.4210669]]},"properties":{"site":"paestum","name":"","highway":"service"}},{"type":"Feature","geometry":{"type":"LineString","coordinates":[[14.997591,40.4210669],[14.9984938,40.4211375],[14.9985094,40.4211387],[14.9987373,40.4211706],[14.9989999,40.4211918],[14.9994301,40.421209],[15.0000073,40.4212386],[15.0003404,40.4212484],[15.0006554,40.4212441],[15.000773,40.4212368],[15.0008466,40.4212427],[15.0009535,40.4212535],[15.0010215,40.4212448],[15.0011075,40.4212256],[15.0011822,40.4212047],[15.0012356,40.4211956],[15.0013166,40.4211921],[15.0013623,40.4211914],[15.0014049,40.4211796]]},"properties":{"site":"paestum","name":"","highway":"track"}},{"type":"Feature","geometry":{"type":"LineString","coordinates":[[14.9984938,40.4211375],[14.9985035,40.4211153],[14.9985107,40.4210976],[14.9985222,40.4210565],[14.9985119,40.4210133],[14.9984816,40.420985],[14.9984201,40.4209594],[14.9981494,40.4208909]]},"properties":{"site":"paestum","name":"","highway":"track"}},{"type":"Feature","geometry":{"type":"LineString","coordinates":[[15.0035806,40.4224557],[15.0036116,40.4223291],[15.0036296,40.4222199],[15.0036441,40.4221081],[15.0036699,40.4219409],[15.0037057,40.4218083],[15.0037662,40.4216546]]},"properties":{"site":"paestum","name":"","highway":"track"}},{"type":"Feature","geometry":{"type":"LineString","coordinates":[[15.0018242,40.419881],[15.0016943,40.4199359],[15.0016247,40.4199542],[15.0015389,40.4199641],[15.0014104,40.4199657],[15.0001262,40.4199494],[15.0000579,40.4199437],[15.000028,40.4199233],[15.0000182,40.419878],[15.0000871,40.4190224],[15.0000902,40.4187982],[15.0001268,40.4187668],[15.0001909,40.4187506],[15.0002705,40.4187445],[15.0018802,40.4187832]]},"properties":{"site":"paestum","name":"","highway":"track"}},{"type":"Feature","geometry":{"type":"LineString","coordinates":[[14.9974254,40.421048],[14.9973071,40.4213737]]},"properties":{"site":"paestum","name":"","highway":"service"}},{"type":"Feature","geometry":{"type":"LineString","coordinates":[[15.001898,40.4187051],[15.0019047,40.4183425],[15.0019076,40.4181813],[15.0019126,40.4179071],[15.0019248,40.4178615],[15.0019492,40.4177985],[15.002001,40.4177688],[15.0020682,40.4177626],[15.0024237,40.4177641],[15.0026579,40.4177656],[15.0028346,40.4177815]]},"properties":{"site":"paestum","name":"","highway":"track"}},{"type":"Feature","geometry":{"type":"LineString","coordinates":[[15.0022353,40.4182505],[15.0021974,40.4182377],[15.0021318,40.4182202],[15.002058,40.4182056],[15.0019076,40.4181813]]},"properties":{"site":"paestum","name":"","highway":"track"}},{"type":"Feature","geometry":{"type":"LineString","coordinates":[[15.0045924,40.4179017],[15.0045673,40.4179546],[15.004516,40.4180627],[15.0044919,40.4180771],[15.0044497,40.4180802],[15.0043733,40.4180681],[15.0043096,40.4180478],[15.0042277,40.4180104],[15.0041281,40.4179734],[15.00404,40.4179439],[15.0039433,40.4179257],[15.0038346,40.4179084],[15.0036495,40.4178851],[15.0035223,40.4178734],[15.0034277,40.4178747],[15.0033617,40.4178832],[15.0033134,40.4178833],[15.0032027,40.4178624],[15.0028346,40.4177815]]},"properties":{"site":"paestum","name":"","highway":"service"}},{"type":"Feature","geometry":{"type":"LineString","coordinates":[[15.0035553,40.4181157],[15.0033685,40.4181003],[15.0033158,40.4180912],[15.0032979,40.4180779],[15.003294,40.4180599],[15.0033134,40.4178833]]},"properties":{"site":"paestum","name":"","highway":"service"}},{"type":"Feature","geometry":{"type":"LineString","coordinates":[[15.0044575,40.4181513],[15.0044624,40.4181789],[15.0044555,40.4182063],[15.0044376,40.4182307],[15.0044104,40.4182494],[15.0043768,40.4182606],[15.0043403,40.4182631],[15.0043029,40.4182562],[15.0042706,40.4182401],[15.0042473,40.4182167],[15.0042355,40.4181888],[15.0042365,40.4181595],[15.0042504,40.4181321],[15.0042754,40.4181098],[15.0043087,40.4180951],[15.0043466,40.4180897],[15.0043829,40.4180937],[15.0044156,40.4181064],[15.0044414,40.4181262],[15.0044575,40.4181513]]},"properties":{"site":"paestum","name":"","highway":"service"}},{"type":"Feature","geometry":{"type":"LineString","coordinates":[[15.0044919,40.4180771],[15.0044156,40.4181064]]},"properties":{"site":"paestum","name":"","highway":"service"}},{"type":"Feature","geometry":{"type":"LineString","coordinates":[[15.0018802,40.4187832],[15.0019197,40.4187864],[15.0019644,40.4188009],[15.0019901,40.4188286],[15.0020022,40.418877],[15.0020115,40.4189224],[15.0020222,40.4189578],[15.0020395,40.4189773]]},"properties":{"site":"paestum","name":"","highway":"track"}},{"type":"Feature","geometry":{"type":"LineString","coordinates":[[15.0137413,40.4216458],[15.0137097,40.4216424],[15.013662,40.4216373],[15.0136076,40.4216355]]},"properties":{"site":"paestum","name":"Via di Porta Sirena","highway":"service"}},{"type":"Feature","geometry":{"type":"LineString","coordinates":[[15.0136076,40.4216355],[15.0135563,40.4216348]]},"properties":{"site":"paestum","name":"Via di Porta Sirena","highway":"service"}},{"type":"Feature","geometry":{"type":"LineString","coordinates":[[15.0137501,40.4216216],[15.0137344,40.4216215],[15.013711,40.4216214],[15.0136076,40.4216355]]},"properties":{"site":"paestum","name":"","highway":"footway"}},{"type":"Feature","geometry":{"type":"LineString","coordinates":[[15.0069641,40.4187354],[15.0069044,40.4187327],[15.0068422,40.41873]]},"properties":{"site":"paestum","name":"","highway":"footway"}},{"type":"Feature","geometry":{"type":"LineString","coordinates":[[15.0137501,40.4216216],[15.0144487,40.4216509]]},"properties":{"site":"paestum","name":"","highway":"footway"}},{"type":"Feature","geometry":{"type":"LineString","coordinates":[[15.0144487,40.4216509],[15.0145017,40.4216529],[15.0145954,40.4216564]]},"properties":{"site":"paestum","name":"","highway":"footway"}},{"type":"Feature","geometry":{"type":"LineString","coordinates":[[15.0145954,40.4216564],[15.0146705,40.421659]]},"properties":{"site":"paestum","name":"","highway":"footway"}},{"type":"Feature","geometry":{"type":"LineString","coordinates":[[15.0051198,40.4194689],[15.0051362,40.4194572],[15.0051428,40.4194453],[15.0051435,40.4194305],[15.0051441,40.4194017],[15.0051504,40.4193961],[15.0051616,40.4193785],[15.0051628,40.4193643],[15.0051211,40.419366],[15.0051143,40.419239]]},"properties":{"site":"paestum","name":"","highway":"footway"}},{"type":"Feature","geometry":{"type":"LineString","coordinates":[[15.0051628,40.4193643],[15.005668,40.4193449],[15.0056596,40.4192174]]},"properties":{"site":"paestum","name":"","highway":"footway"}},{"type":"Feature","geometry":{"type":"LineString","coordinates":[[15.0048155,40.419482],[15.004984,40.4194757],[15.0051198,40.4194689]]},"properties":{"site":"paestum","name":"","highway":"footway"}},{"type":"Feature","geometry":{"type":"LineString","coordinates":[[15.0065516,40.4201154],[15.0065649,40.4201092],[15.0065695,40.4201027],[15.0065946,40.419918],[15.0065935,40.4198658]]},"properties":{"site":"paestum","name":"","highway":"footway"}},{"type":"Feature","geometry":{"type":"LineString","coordinates":[[15.0060632,40.4203621],[15.006059,40.4200845]]},"properties":{"site":"paestum","name":"","highway":"footway"}},{"type":"Feature","geometry":{"type":"LineString","coordinates":[[15.0065465,40.4203516],[15.0065491,40.420284]]},"properties":{"site":"paestum","name":"","highway":"footway"}},{"type":"Feature","geometry":{"type":"LineString","coordinates":[[15.0064577,40.4202416],[15.006447,40.4202416],[15.0064467,40.4201282],[15.0065489,40.4201277],[15.0066496,40.4201283],[15.0066503,40.4202396],[15.0066393,40.4202396]]},"properties":{"site":"paestum","name":"","highway":"footway"}},{"type":"Feature","geometry":{"type":"LineString","coordinates":[[15.006744,40.4203538],[15.0066851,40.4203534],[15.00667,40.4203534],[15.0065465,40.4203516]]},"properties":{"site":"paestum","name":"","highway":"footway"}},{"type":"Feature","geometry":{"type":"LineString","coordinates":[[15.0060276,40.4220503],[15.0057653,40.4220457],[15.0057754,40.4218125]]},"properties":{"site":"paestum","name":"","highway":"path"}},{"type":"Feature","geometry":{"type":"LineString","coordinates":[[15.006107,40.4223666],[15.0063309,40.4223686]]},"properties":{"site":"paestum","name":"","highway":"footway"}},{"type":"Feature","geometry":{"type":"LineString","coordinates":[[15.0060171,40.4223665],[15.0060548,40.4223661]]},"properties":{"site":"paestum","name":"","highway":"footway"}},{"type":"Feature","geometry":{"type":"LineString","coordinates":[[15.0060548,40.4223661],[15.006107,40.4223666]]},"properties":{"site":"paestum","name":"","highway":"footway"}},{"type":"Feature","geometry":{"type":"LineString","coordinates":[[15.003572,40.4263857],[15.0036158,40.4263586],[15.0036975,40.4263409],[15.0038062,40.4263349],[15.0042049,40.426349],[15.0043113,40.42635],[15.0043759,40.4263381],[15.0044341,40.4263053],[15.0044668,40.4262691],[15.0045134,40.4261558],[15.0045701,40.4259302],[15.0046338,40.4258012],[15.0047123,40.425632],[15.0047696,40.425515],[15.0048199,40.4254214],[15.0048354,40.4253671],[15.004839,40.4253012],[15.0048324,40.4252391],[15.0048173,40.4252013],[15.0047852,40.4251838],[15.0047469,40.4251508],[15.0047134,40.425102],[15.0046941,40.4250404],[15.004684,40.4249981]]},"properties":{"site":"paestum","name":"","highway":"track"}},{"type":"Feature","geometry":{"type":"LineString","coordinates":[[15.0047405,40.4239146],[15.0047798,40.4239652],[15.0048058,40.4239865],[15.0048195,40.4240102],[15.0048209,40.4240468],[15.0048338,40.4241328],[15.0048541,40.4241808],[15.0048903,40.4242457],[15.004933,40.4243123],[15.0049813,40.4243846]]},"properties":{"site":"paestum","name":"","highway":"footway"}},{"type":"Feature","geometry":{"type":"LineString","coordinates":[[15.0062071,40.423968],[15.0063155,40.4239695]]},"properties":{"site":"paestum","name":"","highway":"footway"}},{"type":"Feature","geometry":{"type":"LineString","coordinates":[[15.006313,40.424101],[15.0062071,40.424101],[15.0062071,40.423968]]},"properties":{"site":"paestum","name":"","highway":"footway"}},{"type":"Feature","geometry":{"type":"LineString","coordinates":[[15.0063155,40.4239695],[15.0063337,40.4239701],[15.0063915,40.4239705]]},"properties":{"site":"paestum","name":"","highway":"footway"}},{"type":"Feature","geometry":{"type":"LineString","coordinates":[[15.0068953,40.4188545],[15.0068972,40.4188251],[15.0069044,40.4187327],[15.0069124,40.4185521]]},"properties":{"site":"paestum","name":"Via Magna Grecia","highway":"pedestrian"}},{"type":"Feature","geometry":{"type":"LineString","coordinates":[[15.0069741,40.4187117],[15.0069641,40.4187354]]},"properties":{"site":"paestum","name":"","highway":"footway"}},{"type":"Feature","geometry":{"type":"LineString","coordinates":[[15.0068422,40.41873],[15.0067729,40.4194302],[15.006746,40.4197135],[15.0067354,40.4198256]]},"properties":{"site":"paestum","name":"","highway":"footway"}},{"type":"Feature","geometry":{"type":"LineString","coordinates":[[15.0067354,40.4198256],[15.0067275,40.4199194]]},"properties":{"site":"paestum","name":"","highway":"footway"}},{"type":"Feature","geometry":{"type":"LineString","coordinates":[[15.0067275,40.4199194],[15.0066851,40.4203534],[15.0066359,40.4208573],[15.006609,40.4211636],[15.0065574,40.4216824],[15.0065083,40.4222187],[15.0064709,40.4226094],[15.006424,40.4230629],[15.0063609,40.423682],[15.0063337,40.4239701],[15.0063284,40.4240262],[15.0063214,40.424117],[15.0063128,40.4241675],[15.006278,40.4243401],[15.0062678,40.4243777],[15.0062565,40.4244145],[15.0062417,40.4244636],[15.0062202,40.4245281],[15.0062157,40.4245389],[15.0061643,40.4246634],[15.0060914,40.4248079],[15.0060178,40.4249438],[15.005989,40.424997],[15.0058687,40.425218],[15.0058449,40.4252617],[15.0056825,40.4255599],[15.005563,40.4257768],[15.0055046,40.4258827],[15.0053125,40.4262264],[15.0052421,40.4263524],[15.0051412,40.4265405],[15.0051395,40.426544],[15.0051269,40.4265704],[15.0051154,40.4266085],[15.0050999,40.4266642],[15.005086,40.4267152],[15.0050836,40.4267475],[15.0050875,40.4268387],[15.0050852,40.4268425],[15.0050769,40.4268442],[15.0049845,40.4268457],[15.0048384,40.4268383]]},"properties":{"site":"paestum","name":"","highway":"footway"}},{"type":"Feature","geometry":{"type":"LineString","coordinates":[[15.0048384,40.4268383],[15.0048367,40.426865],[15.004834,40.4268908]]},"properties":{"site":"paestum","name":"","highway":"footway"}},{"type":"Feature","geometry":{"type":"LineString","coordinates":[[15.0068422,40.41873],[15.0068433,40.4187133],[15.0068437,40.4186974],[15.0068415,40.4186819],[15.0068364,40.4186654],[15.0068284,40.4186476],[15.0068189,40.4186307],[15.0068055,40.4186134],[15.0067903,40.4185983],[15.0067693,40.4185834],[15.006745,40.4185702],[15.0067194,40.4185593],[15.0066914,40.4185488],[15.0066726,40.4185429]]},"properties":{"site":"paestum","name":"","highway":"footway"}},{"type":"Feature","geometry":{"type":"LineString","coordinates":[[15.0066726,40.4185429],[15.006693,40.4184978],[15.0067129,40.4184625]]},"properties":{"site":"paestum","name":"","highway":"footway"}},{"type":"Feature","geometry":{"type":"LineString","coordinates":[[15.0069641,40.4187354],[15.0069595,40.418813],[15.006965,40.4188303],[15.0069708,40.4188494],[15.00697,40.4188655],[15.0069681,40.4188896],[15.0069146,40.4194445],[15.0068909,40.4197207]]},"properties":{"site":"paestum","name":"","highway":"footway"}},{"type":"Feature","geometry":{"type":"LineString","coordinates":[[15.0068909,40.4197207],[15.0068097,40.4197173],[15.006746,40.4197135]]},"properties":{"site":"paestum","name":"","highway":"footway"}},{"type":"Feature","geometry":{"type":"LineString","coordinates":[[15.0074561,40.4205652],[15.0068216,40.4205439],[15.0067255,40.4205415]]},"properties":{"site":"paestum","name":"","highway":"service"}},{"type":"Feature","geometry":{"type":"LineString","coordinates":[[15.008226,40.4211765],[15.008185,40.4211849],[15.008022,40.4211939],[15.0067692,40.4211901],[15.0066597,40.4211889]]},"properties":{"site":"paestum","name":"","highway":"service"}},{"type":"Feature","geometry":{"type":"LineString","coordinates":[[15.005563,40.4257768],[15.0056227,40.4257945],[15.0056783,40.425811]]},"properties":{"site":"paestum","name":"","highway":"footway"}},{"type":"Feature","geometry":{"type":"LineString","coordinates":[[15.0053125,40.4262264],[15.0053723,40.4262444],[15.0054076,40.4262561]]},"properties":{"site":"paestum","name":"","highway":"footway"}},{"type":"Feature","geometry":{"type":"LineString","coordinates":[[15.0052,40.4267504],[15.0052177,40.426681],[15.0052235,40.4266581],[15.0053288,40.4264156],[15.0054086,40.4262884],[15.0054238,40.4262614],[15.0056783,40.425811],[15.0058661,40.4254521]]},"properties":{"site":"paestum","name":"","highway":"footway"}},{"type":"Feature","geometry":{"type":"LineString","coordinates":[[15.0058483,40.4253891],[15.0058938,40.4254028],[15.0060431,40.4254705],[15.0060933,40.4254966]]},"properties":{"site":"paestum","name":"","highway":"service"}},{"type":"Feature","geometry":{"type":"LineString","coordinates":[[15.006812,40.4255672],[15.0065815,40.4255247],[15.0063023,40.4254698],[15.0062702,40.4254667],[15.0062372,40.4254714],[15.006211,40.4254748],[15.0061848,40.4254778],[15.0061761,40.4254779],[15.0061598,40.4254782],[15.0060933,40.4254966]]},"properties":{"site":"paestum","name":"","highway":"service"}},{"type":"Feature","geometry":{"type":"LineString","coordinates":[[15.0058661,40.4254521],[15.0058938,40.4254028],[15.005948,40.4253064],[15.0059641,40.4252778]]},"properties":{"site":"paestum","name":"","highway":"footway"}},{"type":"Feature","geometry":{"type":"LineString","coordinates":[[15.0058687,40.425218],[15.0059327,40.4252376],[15.0059791,40.4252514]]},"properties":{"site":"paestum","name":"","highway":"footway"}},{"type":"Feature","geometry":{"type":"LineString","coordinates":[[15.0059641,40.4252778],[15.0059791,40.4252514]]},"properties":{"site":"paestum","name":"","highway":"footway"}},{"type":"Feature","geometry":{"type":"LineString","coordinates":[[15.0121724,40.4269399],[15.011905,40.4268224],[15.0118156,40.4267779],[15.0117945,40.4267712],[15.0117393,40.4267656],[15.0116436,40.4267651],[15.0114674,40.4267648],[15.0113678,40.4267653],[15.0112277,40.4267696],[15.0110648,40.4267821],[15.0109018,40.4267917],[15.0108041,40.4267969],[15.0107446,40.4267913],[15.0106933,40.4267748],[15.0106467,40.4267544],[15.0106137,40.4267253],[15.0105962,40.4266913],[15.0105887,40.4266585],[15.0105887,40.4266271],[15.0106417,40.426131],[15.0106945,40.4256108],[15.0107976,40.4246584],[15.010872,40.4236935],[15.0108937,40.4234116],[15.0109518,40.4228636],[15.0109639,40.4226251],[15.0110156,40.4222107],[15.0110414,40.4219674],[15.0110492,40.4218709],[15.0110488,40.421814],[15.0110488,40.4217645],[15.011055,40.4217421],[15.0110619,40.4217175],[15.0110968,40.4216585],[15.011159,40.4215553]]},"properties":{"site":"paestum","name":"","highway":"track"}},{"type":"Feature","geometry":{"type":"LineString","coordinates":[[15.0117945,40.4267712],[15.0118108,40.4267287],[15.0118452,40.4266759],[15.0118985,40.4266226],[15.0120328,40.4264926],[15.0121922,40.4263001],[15.0122559,40.4262141],[15.0123404,40.4261028],[15.0123818,40.4260478],[15.012438,40.4259951],[15.0128952,40.4256399],[15.0129404,40.4255993],[15.0129584,40.4255604],[15.0130359,40.4252658],[15.013049,40.4252103],[15.0130587,40.4251532],[15.0130666,40.4250901],[15.0130692,40.4250054],[15.0130756,40.4249279],[15.0130806,40.4248387],[15.0131029,40.4247241],[15.0131213,40.4246351],[15.0131319,40.4245376],[15.0131457,40.4243269],[15.0131432,40.4242107],[15.0131398,40.4240928],[15.0131397,40.423996],[15.0131518,40.4239199],[15.0131575,40.4238736],[15.0131523,40.423841],[15.0131281,40.4238106],[15.0130812,40.4237917],[15.0130174,40.4237788],[15.0129429,40.4237711],[15.0121568,40.4237432],[15.0119308,40.4237352],[15.010872,40.4236935]]},"properties":{"site":"paestum","name":"","highway":"track"}},{"type":"Feature","geometry":{"type":"LineString","coordinates":[[15.0063823,40.4253254],[15.0062882,40.425299],[15.0062491,40.4252909],[15.0062293,40.4252902],[15.0062083,40.4252894],[15.00619,40.4252894],[15.0061825,40.425291],[15.0061765,40.4252922],[15.006162,40.4252954],[15.0061245,40.4253056],[15.0060939,40.4253118],[15.0060812,40.4253146],[15.0060756,40.4253148],[15.0060669,40.4253149],[15.005948,40.4253064]]},"properties":{"site":"paestum","name":"","highway":"footway"}},{"type":"Feature","geometry":{"type":"LineString","coordinates":[[15.0062271,40.4252317],[15.0062141,40.4252512],[15.0062063,40.4252522],[15.0061875,40.4252547],[15.0061795,40.425258],[15.0061731,40.4252606],[15.006165,40.4252617],[15.0061308,40.4252667],[15.0060994,40.4252727],[15.0060805,40.4252725],[15.0060758,40.4252724],[15.0060697,40.4252713],[15.0060607,40.4252695],[15.0060558,40.4252686],[15.0060312,40.4252606],[15.0060178,40.4252548],[15.0060611,40.4251716],[15.0061066,40.4250769],[15.0061207,40.4250475],[15.006151,40.4249849],[15.006153,40.4249802],[15.0061753,40.4249338],[15.0062035,40.4248751],[15.006228,40.4248803],[15.0063423,40.4249087],[15.0062784,40.4250652],[15.0062551,40.4251247],[15.0062221,40.4251331],[15.0062197,40.4251392],[15.00618,40.425166],[15.0061932,40.4251796],[15.0062098,40.4251877],[15.0062271,40.4252317]]},"properties":{"site":"paestum","name":"","highway":"pedestrian"}},{"type":"Feature","geometry":{"type":"LineString","coordinates":[[15.0060697,40.4252713],[15.0060756,40.4253148],[15.0060766,40.4253252],[15.0060766,40.4253382],[15.0060431,40.4254705]]},"properties":{"site":"paestum","name":"","highway":"footway"}},{"type":"Feature","geometry":{"type":"LineString","coordinates":[[15.0061761,40.4254779],[15.0062293,40.4252902]]},"properties":{"site":"paestum","name":"","highway":"footway"}},{"type":"Feature","geometry":{"type":"LineString","coordinates":[[15.0061825,40.425291],[15.0061731,40.4252606]]},"properties":{"site":"paestum","name":"","highway":"footway"}},{"type":"Feature","geometry":{"type":"LineString","coordinates":[[15.0060178,40.4249438],[15.0060817,40.4249618],[15.006153,40.4249802]]},"properties":{"site":"paestum","name":"","highway":"footway"}},{"type":"Feature","geometry":{"type":"LineString","coordinates":[[15.0061063,40.4249144],[15.0061753,40.4249338]]},"properties":{"site":"paestum","name":"","highway":"service"}},{"type":"Feature","geometry":{"type":"LineString","coordinates":[[15.0069064,40.4248082],[15.006952,40.4245961],[15.0069895,40.4244218],[15.0069817,40.4243867],[15.0069563,40.4243697],[15.0069388,40.4243599],[15.0069153,40.4243549]]},"properties":{"site":"paestum","name":"","highway":"service"}},{"type":"Feature","geometry":{"type":"LineString","coordinates":[[15.003294,40.4180599],[15.0032748,40.4182131],[15.0032612,40.4182396],[15.0032407,40.4182512],[15.0032068,40.4182538],[15.0031705,40.4182634]]},"properties":{"site":"paestum","name":"","highway":"service"}},{"type":"Feature","geometry":{"type":"LineString","coordinates":[[15.0086506,40.4251523],[15.0086235,40.4251027],[15.0085815,40.4250241],[15.0085373,40.4249262]]},"properties":{"site":"paestum","name":"","highway":"track"}},{"type":"Feature","geometry":{"type":"LineString","coordinates":[[15.0076659,40.421439],[15.0076507,40.4215781],[15.0076377,40.4216713],[15.007571,40.4220318],[15.0074801,40.4224447],[15.0074807,40.4224898],[15.0074952,40.4225296],[15.0075112,40.4225419],[15.0075265,40.4225536],[15.0075709,40.4225667],[15.007744,40.4225976],[15.0079544,40.4226387],[15.0080655,40.4226688],[15.0081223,40.4226994],[15.00814,40.422742],[15.0081391,40.4228021],[15.0080807,40.4231594],[15.0080929,40.4232214],[15.0081246,40.4233048],[15.0081466,40.4233709],[15.008158,40.4234375],[15.0081475,40.4235688]]},"properties":{"site":"paestum","name":"","highway":"service"}},{"type":"Feature","geometry":{"type":"LineString","coordinates":[[15.0080655,40.4226688],[15.0082235,40.4227055],[15.008338,40.4227264],[15.0084089,40.4227322],[15.0084566,40.4227282],[15.0084937,40.4227187],[15.0085187,40.4226991],[15.0085351,40.4226666],[15.0085466,40.4226316],[15.0085547,40.4225936],[15.0085639,40.4223631],[15.0085667,40.4221287],[15.008579,40.4219117],[15.0085965,40.4214703]]},"properties":{"site":"paestum","name":"","highway":"track"}},{"type":"Feature","geometry":{"type":"LineString","coordinates":[[15.0075112,40.4225419],[15.0074554,40.4225615],[15.0074117,40.4225744],[15.0073726,40.4225818],[15.0073297,40.4225841],[15.0072928,40.422582],[15.0070079,40.4225293],[15.0069669,40.4225246],[15.0069423,40.4225284],[15.0069317,40.4225429],[15.0069168,40.4225726],[15.0068022,40.4227667],[15.006773,40.422774],[15.0065839,40.42276],[15.0065213,40.4227554]]},"properties":{"site":"paestum","name":"","highway":"service"}},{"type":"Feature","geometry":{"type":"LineString","coordinates":[[15.0064748,40.4238123],[15.0064788,40.4237689],[15.0064833,40.4237203],[15.0066548,40.4237294],[15.0066525,40.4237478],[15.0067051,40.4237508],[15.0067126,40.4237513],[15.0067586,40.4237513],[15.0067582,40.4237555],[15.0068153,40.4237586],[15.0068212,40.4236956],[15.0068713,40.4236974],[15.0071019,40.4237056],[15.0071038,40.4237907],[15.0071058,40.4238799],[15.0071008,40.4239134],[15.0071793,40.4239753],[15.0071788,40.4239901],[15.0071781,40.4240092],[15.0070776,40.4240046],[15.0070782,40.4239681],[15.0070652,40.4239667],[15.0070663,40.4239549],[15.0069362,40.4239429],[15.0069194,40.4240269],[15.0068882,40.4240225],[15.0068686,40.4240197],[15.0068728,40.4239932],[15.0068308,40.4239899],[15.0068503,40.423843],[15.0067147,40.4238326],[15.0066821,40.4238285],[15.0065619,40.4238196],[15.00655,40.4238182],[15.0064748,40.4238123]]},"properties":{"site":"paestum","name":"Piazzetta Basilica","highway":"pedestrian"}},{"type":"Feature","geometry":{"type":"LineString","coordinates":[[15.0069073,40.4237895],[15.0069086,40.4239215],[15.0068882,40.4240225]]},"properties":{"site":"paestum","name":"","highway":"pedestrian"}},{"type":"Feature","geometry":{"type":"LineString","coordinates":[[15.0068882,40.4240225],[15.0068737,40.4240896],[15.0068724,40.4241049],[15.0068779,40.4241168],[15.0068939,40.424127],[15.0069528,40.4241587],[15.0069686,40.424172],[15.006981,40.4241893],[15.0069863,40.4242071],[15.0069866,40.4242292],[15.0069818,40.4242472],[15.0069744,40.4242684],[15.0069462,40.4243391],[15.0069347,40.4243506],[15.0069153,40.4243549],[15.006884,40.4243525],[15.0068437,40.4243485],[15.0068144,40.424348],[15.0067851,40.4243541],[15.0067637,40.4243684],[15.0067503,40.4243856],[15.0067377,40.4244113],[15.0067236,40.4244774],[15.0067096,40.424503],[15.0066856,40.4245224],[15.0066531,40.4245359],[15.0066206,40.4245441]]},"properties":{"site":"paestum","name":"","highway":"service"}},{"type":"Feature","geometry":{"type":"LineString","coordinates":[[15.0068939,40.424127],[15.006862,40.4241256],[15.0068223,40.4241282],[15.0067627,40.4241403]]},"properties":{"site":"paestum","name":"","highway":"service"}},{"type":"Feature","geometry":{"type":"LineString","coordinates":[[15.0133708,40.4216286],[15.0133451,40.4215912],[15.0133008,40.4215268]]},"properties":{"site":"paestum","name":"","highway":"track"}},{"type":"Feature","geometry":{"type":"LineString","coordinates":[[15.0133451,40.4215912],[15.0133746,40.4215258],[15.0134219,40.4214374],[15.0134436,40.421376],[15.0134546,40.4213259],[15.0134662,40.4211661],[15.0134988,40.4208416],[15.0135008,40.4207853],[15.0134993,40.4207471],[15.0134869,40.4206692],[15.0134838,40.4206313],[15.0134874,40.4205573],[15.0134953,40.4204266],[15.013506,40.4202583],[15.0135225,40.4200016],[15.0135316,40.4198725],[15.013539,40.41985],[15.0135509,40.4198382],[15.0135636,40.4198316],[15.0135714,40.4198235],[15.0135741,40.4198118],[15.0135885,40.4196235],[15.0135885,40.4195864],[15.0135645,40.4194169]]},"properties":{"site":"paestum","name":"","highway":"track"}},{"type":"Feature","geometry":{"type":"LineString","coordinates":[[15.011495,40.4215664],[15.0114954,40.4215044],[15.0114992,40.4214726],[15.0115079,40.4214202],[15.0115128,40.4213858],[15.0115089,40.421201]]},"properties":{"site":"paestum","name":"","highway":"track"}},{"type":"Feature","geometry":{"type":"LineString","coordinates":[[15.0098269,40.4215111],[15.0098275,40.4214728],[15.0098285,40.4214008],[15.0098248,40.4213166],[15.0098186,40.4212523],[15.009808,40.4211965],[15.0098048,40.4211645],[15.0098039,40.4211156],[15.0097979,40.4210378],[15.0097957,40.4210146],[15.0097829,40.4209968],[15.0097614,40.4209906],[15.009728,40.4209859],[15.0096862,40.4209704],[15.0092469,40.4208111]]},"properties":{"site":"paestum","name":"","highway":"track"}},{"type":"Feature","geometry":{"type":"LineString","coordinates":[[15.0081733,40.421419],[15.008185,40.4211849]]},"properties":{"site":"paestum","name":"","highway":"service"}},{"type":"Feature","geometry":{"type":"LineString","coordinates":[[15.0081716,40.421456],[15.0081733,40.421419]]},"properties":{"site":"paestum","name":"","highway":"service"}},{"type":"Feature","geometry":{"type":"LineString","coordinates":[[15.011055,40.4217421],[15.0112719,40.4217412],[15.0114736,40.4217459],[15.0118457,40.4217605],[15.0123029,40.4217858],[15.0125568,40.4217842],[15.0126348,40.4217858],[15.0127056,40.4217794],[15.0129984,40.421756],[15.0130573,40.4217519],[15.0131165,40.4217521],[15.0131609,40.421751],[15.0131867,40.4217407],[15.0132016,40.4217198],[15.0132117,40.4216784],[15.0132178,40.4216235]]},"properties":{"site":"paestum","name":"","highway":"track"}},{"type":"Feature","geometry":{"type":"LineString","coordinates":[[15.0121568,40.4237432],[15.0121681,40.4236331],[15.0121637,40.4235889],[15.0121503,40.4235686],[15.0121123,40.4235541],[15.0120219,40.4235459]]},"properties":{"site":"paestum","name":"","highway":"track"}},{"type":"Feature","geometry":{"type":"LineString","coordinates":[[15.0047009,40.4239232],[15.004432,40.4239106],[15.0044207,40.4239068],[15.0044122,40.4239028],[15.0044057,40.4238933],[15.0044047,40.4238819],[15.0044035,40.4237949],[15.0043948,40.423788],[15.0043701,40.4237867]]},"properties":{"site":"paestum","name":"","highway":"footway"}},{"type":"Feature","geometry":{"type":"LineString","coordinates":[[15.0069198,40.4233381],[15.0069054,40.4233374],[15.0068641,40.4233356]]},"properties":{"site":"paestum","name":"","highway":"steps"}},{"type":"Feature","geometry":{"type":"LineString","coordinates":[[15.0069423,40.4225284],[15.0069545,40.4224819],[15.0069721,40.422447],[15.0070171,40.4224036],[15.0070817,40.4223536],[15.007132,40.4223026],[15.0071593,40.4222504],[15.0071758,40.4221449],[15.0072087,40.421928],[15.0072494,40.4216963],[15.0073214,40.421432]]},"properties":{"site":"paestum","name":"","highway":"track"}},{"type":"Feature","geometry":{"type":"LineString","coordinates":[[15.0068795,40.4183775],[15.0069366,40.41838],[15.0069914,40.4183824]]},"properties":{"site":"paestum","name":"","highway":"footway"}},{"type":"Feature","geometry":{"type":"LineString","coordinates":[[15.0067129,40.4184625],[15.0067389,40.4184663],[15.0067631,40.4184723],[15.0068047,40.4184726],[15.0068451,40.4184545],[15.0068665,40.4184318],[15.0068803,40.4184115],[15.0068795,40.4183775]]},"properties":{"site":"paestum","name":"","highway":"footway"}},{"type":"Feature","geometry":{"type":"LineString","coordinates":[[15.0060682,40.418287],[15.005979,40.4182606],[15.0056924,40.4181852],[15.0053493,40.4180822],[15.005051,40.4179978],[15.0047388,40.4179009],[15.0046637,40.4178784],[15.0045434,40.4178422],[15.0039943,40.4176947],[15.0039071,40.4176666],[15.0038843,40.4176355],[15.0038655,40.4176033],[15.0038642,40.4175609],[15.0038157,40.4175521],[15.0037582,40.4175369],[15.0037354,40.4175798],[15.0036845,40.4176161],[15.0036013,40.417636],[15.0035839,40.4176115],[15.0034652,40.4176084],[15.0032627,40.4175926],[15.0027021,40.4175272],[15.0025519,40.4175078],[15.0024822,40.4175032],[15.0021502,40.4174797],[15.0019026,40.4174782],[15.0018485,40.4174864],[15.0013123,40.4174965],[15.0012725,40.4175175],[15.0008393,40.4175313],[14.999639,40.4175773],[14.999067,40.4176023],[14.998603,40.4176263],[14.9985661,40.4176048],[14.9983207,40.4176161],[14.996594,40.4177049],[14.9961528,40.4177161],[14.9960073,40.4177079],[14.995894,40.4176868],[14.9958385,40.4176765],[14.9957304,40.4176446],[14.9951671,40.4174777],[14.9947634,40.4173588],[14.9936678,40.4170412],[14.993352,40.4169463],[14.9932266,40.4169121],[14.9931514,40.4168916],[14.9929771,40.4168436],[14.9926519,40.4167475],[14.9920839,40.4165797],[14.9916154,40.416443],[14.9912764,40.4163388]]},"properties":{"site":"paestum","name":"","highway":"footway"}},{"type":"Feature","geometry":{"type":"LineString","coordinates":[[15.0053092,40.4272774],[15.0052188,40.4272869],[15.0051436,40.4272962],[15.0051597,40.4273568],[15.0052397,40.4277314],[15.0053052,40.4279842],[15.0053534,40.4281767],[15.005428,40.4284516],[15.0054808,40.4286732],[15.0056054,40.4291489],[15.0057136,40.429574],[15.0058501,40.4300539],[15.0058619,40.4301737],[15.0059365,40.430459],[15.0060129,40.4307727],[15.0060457,40.4308904],[15.0060739,40.4309915],[15.0061821,40.4314298],[15.006304,40.4319082],[15.0063576,40.4321081],[15.0063886,40.432224],[15.0065278,40.43278],[15.0066552,40.4332875],[15.0067443,40.433676],[15.0067754,40.433783],[15.0068553,40.4340533],[15.006929,40.4343518],[15.0069896,40.4345889],[15.0070309,40.4347679],[15.0071864,40.4352706],[15.0072248,40.4354572]]},"properties":{"site":"paestum","name":"","highway":"footway"}},{"type":"Feature","geometry":{"type":"LineString","coordinates":[[15.0079974,40.4164266],[15.0080235,40.4163855],[15.0085242,40.4156794],[15.0085735,40.4156677],[15.0086322,40.4156678],[15.0086626,40.4157042],[15.0086608,40.4157393],[15.0081545,40.4164559]]},"properties":{"site":"paestum","name":"","highway":"service"}},{"type":"Feature","geometry":{"type":"LineString","coordinates":[[15.0081545,40.4164559],[15.0081531,40.4165097],[15.0081522,40.4165436],[15.008148,40.4165534],[15.0081322,40.4165905],[15.0078359,40.4170237],[15.0077857,40.4170539],[15.0077296,40.4170539],[15.0076829,40.4170299],[15.0076678,40.4170041],[15.0076736,40.4169704],[15.0079293,40.4165606],[15.0079578,40.4165144],[15.0079974,40.4164266]]},"properties":{"site":"paestum","name":"","highway":"service"}},{"type":"Feature","geometry":{"type":"LineString","coordinates":[[15.0085242,40.4156794],[15.008529,40.4156527],[15.0085192,40.4156362],[15.0084447,40.4155954]]},"properties":{"site":"paestum","name":"","highway":"service"}},{"type":"Feature","geometry":{"type":"LineString","coordinates":[[15.0084447,40.4155954],[15.0085188,40.4155982],[15.0085896,40.4156147],[15.0086214,40.4156339],[15.0086322,40.4156678]]},"properties":{"site":"paestum","name":"","highway":"service"}},{"type":"Feature","geometry":{"type":"LineString","coordinates":[[15.0079974,40.4164266],[15.0079555,40.4164108],[15.0079003,40.4163901]]},"properties":{"site":"paestum","name":"","highway":"service"}},{"type":"Feature","geometry":{"type":"LineString","coordinates":[[15.0079974,40.4164266],[15.008054,40.416473],[15.0081531,40.4165097]]},"properties":{"site":"paestum","name":"","highway":"service"}},{"type":"Feature","geometry":{"type":"LineString","coordinates":[[15.0079293,40.4165606],[15.008148,40.4165534]]},"properties":{"site":"paestum","name":"","highway":"footway"}},{"type":"Feature","geometry":{"type":"LineString","coordinates":[[15.0149705,40.4215929],[15.0147144,40.4215939]]},"properties":{"site":"paestum","name":"","highway":"footway"}},{"type":"Feature","geometry":{"type":"LineString","coordinates":[[15.0147794,40.4216176],[15.0147774,40.4216589],[15.0146962,40.4216592]]},"properties":{"site":"paestum","name":"","highway":"footway"}},{"type":"Feature","geometry":{"type":"LineString","coordinates":[[15.0149678,40.4216698],[15.0149705,40.4215929]]},"properties":{"site":"paestum","name":"","highway":"steps"}},{"type":"Feature","geometry":{"type":"LineString","coordinates":[[15.0154165,40.421647],[15.0150371,40.4216702],[15.0149678,40.4216698]]},"properties":{"site":"paestum","name":"","highway":"footway"}},{"type":"Feature","geometry":{"type":"LineString","coordinates":[[15.0052073,40.4272368],[15.0045843,40.4272202],[15.0045387,40.4271896],[15.0045052,40.4271345]]},"properties":{"site":"paestum","name":"","highway":"service"}},{"type":"Feature","geometry":{"type":"LineString","coordinates":[[15.0020712,40.4266943],[15.0020349,40.4268925],[15.0019539,40.4271285],[15.0018907,40.4272851],[15.0018592,40.4273632]]},"properties":{"site":"paestum","name":"","highway":"service"}},{"type":"Feature","geometry":{"type":"LineString","coordinates":[[15.0084695,40.4280227],[15.0085191,40.4280441],[15.0086452,40.4280553],[15.0094619,40.4280696],[15.0096698,40.4280788],[15.0097449,40.4280992],[15.0097986,40.4281319],[15.0098388,40.4281778],[15.0098401,40.4282238],[15.0097691,40.4284259],[15.0096323,40.4288424],[15.009419,40.429506]]},"properties":{"site":"paestum","name":"","highway":"service"}},{"type":"Feature","geometry":{"type":"LineString","coordinates":[[15.0081555,40.4294505],[15.0091428,40.4296765]]},"properties":{"site":"paestum","name":"","highway":"service"}},{"type":"Feature","geometry":{"type":"LineString","coordinates":[[15.0092111,40.430082],[15.0092366,40.4300297],[15.0092487,40.4299797],[15.009234,40.429948],[15.009179,40.4299327],[15.0088772,40.4298643]]},"properties":{"site":"paestum","name":"","highway":"service"}},{"type":"Feature","geometry":{"type":"LineString","coordinates":[[14.9964559,40.4283218],[14.9966115,40.4283738],[14.9967402,40.4284463],[14.9968196,40.4284886],[14.9969266,40.428478],[14.9970607,40.4284933],[14.9974604,40.4286015],[14.9983831,40.4288383],[14.9990684,40.4290282],[15.0000407,40.4292875],[15.0008601,40.429509],[15.0019464,40.4297898],[15.0032406,40.4301389],[15.0045508,40.4304931],[15.0055097,40.4307443],[15.0060457,40.4308904],[15.0061422,40.4308908]]},"properties":{"site":"paestum","name":"","highway":"track"}},{"type":"Feature","geometry":{"type":"LineString","coordinates":[[15.0113847,40.4281057],[15.0115809,40.4281411],[15.0122139,40.4282973],[15.0144549,40.4288414]]},"properties":{"site":"paestum","name":"","highway":"track"}},{"type":"Feature","geometry":{"type":"LineString","coordinates":[[15.01457,40.4228908],[15.014656,40.4229732],[15.0146507,40.4232233],[15.0145286,40.4245353]]},"properties":{"site":"paestum","name":"","highway":"track"}},{"type":"Feature","geometry":{"type":"LineString","coordinates":[[15.0145664,40.4218069],[15.0147425,40.4218149]]},"properties":{"site":"paestum","name":"","highway":"footway"}},{"type":"Feature","geometry":{"type":"LineString","coordinates":[[15.0156836,40.4131653],[15.0156176,40.4131499],[15.0154902,40.4130723],[15.0154272,40.4129099],[15.0154138,40.4127588],[15.0154929,40.4125771],[15.0155519,40.4125577],[15.0157101,40.412528],[15.0163619,40.4122278],[15.016433,40.4122105],[15.0164679,40.4122493],[15.0171451,40.4119828],[15.0174952,40.4118796],[15.0177312,40.4118388],[15.0179394,40.4118318]]},"properties":{"site":"paestum","name":"","highway":"track"}},{"type":"Feature","geometry":{"type":"LineString","coordinates":[[15.0254818,40.4160918],[15.0254264,40.4160773],[15.0256276,40.4156628],[15.0258824,40.4152053],[15.026207,40.4147806],[15.0262472,40.4146907],[15.0261989,40.4145641],[15.0258502,40.4142272],[15.0256973,40.4141332],[15.0255927,40.414125],[15.0217411,40.4143967],[15.0187343,40.414609],[15.0179136,40.4146642],[15.0177923,40.4146727],[15.0176239,40.4146703],[15.0173637,40.4147071],[15.0169976,40.4147387],[15.016901,40.4147009],[15.0167763,40.4145804],[15.0163633,40.4141005],[15.0162345,40.4140086],[15.0161326,40.4139872],[15.0159153,40.414028],[15.0156605,40.4141373],[15.0154822,40.4141884],[15.0153789,40.4141291],[15.0153507,40.4140679],[15.0153548,40.413734],[15.015395,40.4135155],[15.0155492,40.4133214],[15.0156836,40.4131653],[15.0157249,40.4131172],[15.0157517,40.4130029],[15.0158992,40.412718],[15.0162117,40.4127149],[15.0163244,40.4127813],[15.0164169,40.4128783]]},"properties":{"site":"paestum","name":"","highway":"track"}},{"type":"Feature","geometry":{"type":"LineString","coordinates":[[14.9965971,40.4166164],[14.9968385,40.4166899],[14.9971603,40.416743],[14.9973427,40.4163305]]},"properties":{"site":"paestum","name":"","highway":"track"}},{"type":"Feature","geometry":{"type":"LineString","coordinates":[[15.0068131,40.4232143],[15.0068052,40.423333]]},"properties":{"site":"paestum","name":"","highway":"service"}},{"type":"Feature","geometry":{"type":"LineString","coordinates":[[15.0068131,40.4232143],[15.0069153,40.4232202],[15.0069054,40.4233374]]},"properties":{"site":"paestum","name":"","highway":"footway"}},{"type":"Feature","geometry":{"type":"LineString","coordinates":[[15.0075817,40.4232274],[15.0068542,40.4231897],[15.0068131,40.4232143]]},"properties":{"site":"paestum","name":"","highway":"service"}},{"type":"Feature","geometry":{"type":"LineString","coordinates":[[15.0068641,40.4233356],[15.0068052,40.423333],[15.0065656,40.4233223]]},"properties":{"site":"paestum","name":"","highway":"service"}},{"type":"Feature","geometry":{"type":"LineString","coordinates":[[15.0065656,40.4233223],[15.0064618,40.4233177]]},"properties":{"site":"paestum","name":"","highway":"service"}},{"type":"Feature","geometry":{"type":"LineString","coordinates":[[15.005446,40.4218108],[15.0046107,40.4217827]]},"properties":{"site":"paestum","name":"","highway":"footway"}},{"type":"Feature","geometry":{"type":"LineString","coordinates":[[15.0062071,40.423968],[15.0060468,40.4239635],[15.0055453,40.4239425],[15.0047405,40.4239146]]},"properties":{"site":"paestum","name":"","highway":"footway"}},{"type":"Feature","geometry":{"type":"LineString","coordinates":[[14.9983248,40.4176747],[14.9983207,40.4176161],[14.9983193,40.4176039]]},"properties":{"site":"paestum","name":"","highway":"track"}},{"type":"Feature","geometry":{"type":"LineString","coordinates":[[14.9990698,40.4176456],[14.999067,40.4176023],[14.9990633,40.4175699]]},"properties":{"site":"paestum","name":"","highway":"track"}},{"type":"Feature","geometry":{"type":"LineString","coordinates":[[14.9996436,40.4176232],[14.999639,40.4175773],[14.9996358,40.4175448]]},"properties":{"site":"paestum","name":"","highway":"track"}},{"type":"Feature","geometry":{"type":"LineString","coordinates":[[15.0008433,40.4175763],[15.0008393,40.4175313],[15.0008374,40.4175005]]},"properties":{"site":"paestum","name":"","highway":"track"}},{"type":"Feature","geometry":{"type":"LineString","coordinates":[[15.0034652,40.4176084],[15.0034614,40.4176333]]},"properties":{"site":"paestum","name":"","highway":"footway"}},{"type":"Feature","geometry":{"type":"LineString","coordinates":[[15.0039943,40.4176947],[15.003979,40.4177439]]},"properties":{"site":"paestum","name":"","highway":"footway"}},{"type":"Feature","geometry":{"type":"LineString","coordinates":[[15.0046259,40.4179591],[15.0045673,40.4179546]]},"properties":{"site":"paestum","name":"","highway":"footway"}},{"type":"Feature","geometry":{"type":"LineString","coordinates":[[15.0046637,40.4178784],[15.0046475,40.4179155],[15.0046259,40.4179591]]},"properties":{"site":"paestum","name":"","highway":"footway"}},{"type":"Feature","geometry":{"type":"LineString","coordinates":[[15.006059,40.4182171],[15.006081,40.4182598],[15.0060682,40.418287]]},"properties":{"site":"paestum","name":"","highway":"footway"}},{"type":"Feature","geometry":{"type":"LineString","coordinates":[[15.0056924,40.4181852],[15.0058812,40.4182047],[15.0060187,40.4182154],[15.006059,40.4182171],[15.0062305,40.4182246],[15.006252,40.4182374],[15.0062634,40.4182613],[15.0062587,40.4182792],[15.0062507,40.4182955],[15.006252,40.4183175],[15.0062559,40.4183425]]},"properties":{"site":"paestum","name":"","highway":"footway"}},{"type":"Feature","geometry":{"type":"LineString","coordinates":[[15.0065491,40.420284],[15.0065474,40.4201496]]},"properties":{"site":"paestum","name":"","highway":"footway"}},{"type":"Feature","geometry":{"type":"LineString","coordinates":[[15.0057307,40.4199651],[15.0057533,40.4199657],[15.0057746,40.4199917]]},"properties":{"site":"paestum","name":"","highway":"steps"}},{"type":"Feature","geometry":{"type":"LineString","coordinates":[[15.0057746,40.4199917],[15.0058054,40.4200124],[15.0058276,40.4200195],[15.0058555,40.4200284]]},"properties":{"site":"paestum","name":"","highway":"footway"}},{"type":"Feature","geometry":{"type":"LineString","coordinates":[[15.0051168,40.4198452],[15.0056743,40.419822],[15.0056834,40.4199644],[15.0057307,40.4199651]]},"properties":{"site":"paestum","name":"","highway":"footway"}},{"type":"Feature","geometry":{"type":"LineString","coordinates":[[15.0146962,40.4216592],[15.0146705,40.421659]]},"properties":{"site":"paestum","name":"","highway":"footway"}},{"type":"Feature","geometry":{"type":"LineString","coordinates":[[15.014781,40.4215616],[15.0147794,40.4216176]]},"properties":{"site":"paestum","name":"","highway":"footway"}},{"type":"Feature","geometry":{"type":"LineString","coordinates":[[15.0008374,40.4175005],[15.000836,40.4174956]]},"properties":{"site":"paestum","name":"","highway":"track"}},{"type":"Feature","geometry":{"type":"LineString","coordinates":[[14.9996358,40.4175448],[14.9996348,40.4175346],[14.9996251,40.4175134]]},"properties":{"site":"paestum","name":"","highway":"track"}},{"type":"Feature","geometry":{"type":"LineString","coordinates":[[14.9990633,40.4175699],[14.9990624,40.4175614]]},"properties":{"site":"paestum","name":"","highway":"track"}},{"type":"Feature","geometry":{"type":"LineString","coordinates":[[14.9983193,40.4176039],[14.9983187,40.4175982]]},"properties":{"site":"paestum","name":"","highway":"track"}},{"type":"Feature","geometry":{"type":"LineString","coordinates":[[15.0041199,40.4161038],[15.0033934,40.4161069]]},"properties":{"site":"paestum","name":"","highway":"service"}},{"type":"Feature","geometry":{"type":"LineString","coordinates":[[15.0060933,40.4254966],[15.0061631,40.4255383],[15.0062734,40.4255853],[15.0065602,40.4256509]]},"properties":{"site":"paestum","name":"","highway":"service"}},{"type":"Feature","geometry":{"type":"LineString","coordinates":[[15.0067129,40.4184625],[15.0064733,40.4183977],[15.0062698,40.4183466],[15.0062559,40.4183425]]},"properties":{"site":"paestum","name":"","highway":"footway"}},{"type":"Feature","geometry":{"type":"LineString","coordinates":[[15.0062559,40.4183425],[15.0060682,40.418287]]},"properties":{"site":"paestum","name":"","highway":"footway"}},{"type":"Feature","geometry":{"type":"LineString","coordinates":[[15.0059671,40.4203688],[15.0060632,40.4203621],[15.0060979,40.4203612]]},"properties":{"site":"paestum","name":"","highway":"footway"}},{"type":"Feature","geometry":{"type":"LineString","coordinates":[[15.0060687,40.4212986],[15.0060794,40.4210791],[15.0060789,40.42107]]},"properties":{"site":"paestum","name":"","highway":"footway"}},{"type":"Feature","geometry":{"type":"LineString","coordinates":[[15.006387,40.421845],[15.0060452,40.4218358]]},"properties":{"site":"paestum","name":"","highway":"footway"}},{"type":"Feature","geometry":{"type":"LineString","coordinates":[[15.0060276,40.4220503],[15.0060452,40.4218358]]},"properties":{"site":"paestum","name":"","highway":"footway"}},{"type":"Feature","geometry":{"type":"LineString","coordinates":[[15.0047844,40.422681],[15.0049327,40.422684],[15.0056112,40.4226688]]},"properties":{"site":"paestum","name":"","highway":"footway"}},{"type":"Feature","geometry":{"type":"LineString","coordinates":[[15.0049813,40.4243846],[15.0050544,40.4245092],[15.0051105,40.424585],[15.0051348,40.4246076],[15.0051608,40.4246248],[15.0051871,40.4246325]]},"properties":{"site":"paestum","name":"","highway":"footway"}},{"type":"Feature","geometry":{"type":"LineString","coordinates":[[15.0047009,40.4239232],[15.0046334,40.4247275]]},"properties":{"site":"paestum","name":"","highway":"footway"}},{"type":"Feature","geometry":{"type":"LineString","coordinates":[[15.0058422,40.4241985],[15.0058104,40.4240978],[15.0056166,40.4240598],[15.0055837,40.4240468],[15.0055561,40.4240288],[15.005545,40.4240119],[15.0055453,40.4239425]]},"properties":{"site":"paestum","name":"","highway":"footway"}},{"type":"Feature","geometry":{"type":"LineString","coordinates":[[15.0022585,40.4264492],[15.0024372,40.4264844],[15.0025794,40.4264987],[15.0028208,40.426513]]},"properties":{"site":"paestum","name":"","highway":"track"}},{"type":"Feature","geometry":{"type":"LineString","coordinates":[[15.0028208,40.426513],[15.0029404,40.4265492],[15.0029692,40.4265745],[15.0029443,40.4266852],[15.0029229,40.426754]]},"properties":{"site":"paestum","name":"","highway":"track"}},{"type":"Feature","geometry":{"type":"LineString","coordinates":[[15.0034614,40.4176333],[15.0034572,40.4176605]]},"properties":{"site":"paestum","name":"","highway":"footway"}},{"type":"Feature","geometry":{"type":"LineString","coordinates":[[15.0021657,40.4267369],[15.0021684,40.4267005],[15.0021701,40.4266782]]},"properties":{"site":"paestum","name":"","highway":"footway"}},{"type":"Feature","geometry":{"type":"LineString","coordinates":[[15.0054076,40.4262561],[15.0054238,40.4262614],[15.0054556,40.4262719]]},"properties":{"site":"paestum","name":"","highway":"footway"}},{"type":"Feature","geometry":{"type":"LineString","coordinates":[[15.0050999,40.4266642],[15.0051525,40.4266717],[15.0052177,40.426681]]},"properties":{"site":"paestum","name":"","highway":"footway"}},{"type":"Feature","geometry":{"type":"LineString","coordinates":[[15.0062157,40.4245389],[15.0062689,40.4245485],[15.0063158,40.424557]]},"properties":{"site":"paestum","name":"","highway":"footway"}}]}