{"type":"FeatureCollection","features":[{"type":"Feature","geometry":{"type":"Polygon","coordinates":[[[15.0043225,40.424993],[15.0047067,40.4249984],[15.0047073,40.4248692],[15.0060418,40.4248699],[15.0061339,40.4246968],[15.0061774,40.4246038],[15.006208,40.4245232],[15.0062285,40.4244627],[15.0062631,40.4243483],[15.0063098,40.4241043],[15.006313,40.4241042],[15.006313,40.424101],[15.0063129,40.4240971],[15.0063103,40.4240219],[15.0063155,40.4239695],[15.0063196,40.4239367],[15.0063463,40.4237199],[15.0063696,40.4234836],[15.0064268,40.4229363],[15.0064556,40.4226197],[15.0064639,40.4225288],[15.0064931,40.4222038],[15.0065005,40.4222044],[15.0065074,40.4221112],[15.0065016,40.422111],[15.0065374,40.4217773],[15.0066007,40.4211189],[15.0066191,40.4209214],[15.0066673,40.4203829],[15.00667,40.4203534],[15.0067137,40.419911],[15.0066146,40.4199033],[15.0066141,40.4198182],[15.0067256,40.4198202],[15.0067534,40.419499],[15.0068054,40.4189641],[15.0068272,40.4187438],[15.0068306,40.4186987],[15.0068304,40.418686],[15.0068269,40.4186726],[15.0068213,40.4186565],[15.0068107,40.4186386],[15.0067965,40.4186185],[15.0067822,40.4186029],[15.0067666,40.4185911],[15.0067412,40.4185779],[15.0067096,40.418564],[15.0066618,40.4185466],[15.0066104,40.41853],[15.0065073,40.4185011],[15.0048757,40.4180238],[15.0048636,40.418054],[15.0047823,40.4182586],[15.004756,40.4183591],[15.0047461,40.4184334],[15.0047369,40.4184327],[15.004726,40.4184318],[15.0047073,40.4186589],[15.0041266,40.4186431],[15.0037736,40.4186336],[15.0034866,40.4186258],[15.0032594,40.4186196],[15.0032134,40.419644],[15.0029993,40.4196366],[15.0028605,40.4196357],[15.0027653,40.4196346],[15.0027004,40.4196338],[15.0025519,40.419624],[15.0022682,40.4196136],[15.0018685,40.4195937],[15.0018522,40.4197942],[15.0018221,40.4202833],[15.0018016,40.420337],[15.001795,40.4203609],[15.0017804,40.4204715],[15.001749,40.4207679],[15.0017408,40.4207907],[15.0016932,40.4208629],[15.0016029,40.4209474],[15.0015348,40.4210325],[15.0015018,40.4210775],[15.0014705,40.4211388],[15.0014385,40.4212218],[15.0031096,40.421288],[15.0031568,40.4212898],[15.0035478,40.4213053],[15.0037738,40.4213143],[15.0040976,40.4213271],[15.0039789,40.4232461],[15.0039816,40.4232811],[15.0039895,40.4233137],[15.004008,40.4233386],[15.0040491,40.4233641],[15.0041147,40.4233968],[15.0041722,40.4234154],[15.0042237,40.4234294],[15.0042726,40.4234376],[15.0043236,40.4234401],[15.0043621,40.42344],[15.0043581,40.4235973],[15.0043522,40.4238288],[15.0043457,40.4240827],[15.0043272,40.424782],[15.0043225,40.424993]]]},"properties":{"site":"paestum","name":"Sito archeologico di Paestum","category":"archaeological","historic":"archaeological_site","building":null,"osm_id":97709710}},{"type":"Feature","geometry":{"type":"Polygon","coordinates":[[[15.0052578,40.42457],[15.0052515,40.4244214],[15.0056577,40.4244113],[15.005664,40.4245599],[15.0052578,40.42457]]]},"properties":{"site":"paestum","name":"Tempio di Athena","category":"temple","historic":"yes","building":"yes","osm_id":107830700}},{"type":"Feature","geometry":{"type":"Polygon","coordinates":[[[15.0072285,40.4239857],[15.0072288,40.4239764],[15.0072308,40.4239173],[15.0072321,40.4238783],[15.0072459,40.4238781],[15.0073131,40.4238795],[15.0073169,40.4238729],[15.0073216,40.4238679],[15.0073306,40.4238645],[15.007341,40.4238624],[15.007534,40.4238654],[15.007534,40.4238707],[15.0075386,40.4238718],[15.0075434,40.4238741],[15.0075481,40.4238761],[15.0075517,40.423879],[15.0075537,40.4238835],[15.0075541,40.4238885],[15.0075537,40.4238928],[15.0075515,40.4238967],[15.007548,40.4238993],[15.0075438,40.4239018],[15.0075397,40.4239022],[15.0075435,40.4239038],[15.0075476,40.4239057],[15.0075518,40.423908],[15.0075559,40.4239109],[15.0075596,40.4239143],[15.0075619,40.4239183],[15.007564,40.4239232],[15.007565,40.4239276],[15.0075652,40.4239316],[15.0075642,40.4239362],[15.007562,40.4239401],[15.0075585,40.4239431],[15.0075547,40.4239464],[15.00755,40.4239491],[15.0075453,40.4239512],[15.0075409,40.4239532],[15.0075358,40.4239545],[15.0075385,40.4239565],[15.0075426,40.4239574],[15.0075461,40.4239585],[15.0075492,40.4239601],[15.0075515,40.4239624],[15.007553,40.423965],[15.007554,40.4239683],[15.007554,40.4239723],[15.0075532,40.4239754],[15.0075518,40.4239791],[15.0075499,40.4239816],[15.0075469,40.4239845],[15.0075431,40.4239865],[15.0075392,40.4239876],[15.0075354,40.4239885],[15.0075316,40.4239892],[15.007531,40.4239914],[15.0072285,40.4239857]]]},"properties":{"site":"paestum","name":"Chiesa dell'Annunziata","category":"medieval","historic":null,"building":"yes","osm_id":107830981}},{"type":"Feature","geometry":{"type":"Polygon","coordinates":[[[15.0069701,40.4234676],[15.0069718,40.4234494],[15.0069098,40.4234461],[15.0069198,40.4233381],[15.0069299,40.4232299],[15.0069919,40.4232332],[15.0069933,40.4232183],[15.0074721,40.4232442],[15.0074685,40.4232828],[15.0076026,40.42329],[15.0076164,40.423141],[15.0078081,40.4231513],[15.0077984,40.4232546],[15.0079296,40.4232616],[15.0078912,40.4236738],[15.007809,40.4236694],[15.0078117,40.4236401],[15.007674,40.4236327],[15.0076629,40.4237516],[15.007509,40.4237433],[15.0075308,40.4235097],[15.0074478,40.4235052],[15.0074489,40.4234934],[15.0069701,40.4234676]]]},"properties":{"site":"paestum","name":"Museo archeologico nazionale di Paestum","category":"other","historic":null,"building":"public","osm_id":107830986}},{"type":"Feature","geometry":{"type":"Polygon","coordinates":[[[15.008483,40.4211213],[15.0084594,40.4213402],[15.0086348,40.4213511],[15.0086584,40.4211322],[15.008483,40.4211213]]]},"properties":{"site":"paestum","name":null,"category":"other","historic":null,"building":"yes","osm_id":108292726}},{"type":"Feature","geometry":{"type":"Polygon","coordinates":[[[15.0069553,40.42259],[15.0068833,40.4228311],[15.0070138,40.4228537],[15.0070269,40.42281],[15.0071417,40.4228299],[15.0071648,40.4227525],[15.0071508,40.42275],[15.0071611,40.4227155],[15.0071733,40.4227176],[15.007181,40.422692],[15.0072377,40.4227018],[15.0072556,40.422642],[15.0069553,40.42259]]]},"properties":{"site":"paestum","name":null,"category":"other","historic":null,"building":"yes","osm_id":108292729}},{"type":"Feature","geometry":{"type":"Polygon","coordinates":[[[15.0058603,40.4255736],[15.0058125,40.4256605],[15.0059375,40.4257016],[15.0060004,40.4257223],[15.0060028,40.42572],[15.0060454,40.4257341],[15.0060773,40.4256779],[15.006084,40.4256801],[15.0060997,40.4256524],[15.0058827,40.425581],[15.0058603,40.4255736]]]},"properties":{"site":"paestum","name":null,"category":"other","historic":null,"building":"yes","osm_id":108292732}},{"type":"Feature","geometry":{"type":"Polygon","coordinates":[[[15.0063423,40.4249087],[15.0062784,40.4250652],[15.006404,40.4250949],[15.0066508,40.4251533],[15.0066807,40.4250803],[15.0066842,40.4250717],[15.0065744,40.425046],[15.0066006,40.4249742],[15.0064731,40.4249412],[15.0063423,40.4249087]]]},"properties":{"site":"paestum","name":null,"category":"other","historic":null,"building":"yes","osm_id":108292733}},{"type":"Feature","geometry":{"type":"Polygon","coordinates":[[[15.0036883,40.4152595],[15.0038384,40.4152535],[15.0038466,40.4153721],[15.0036965,40.415378],[15.0036883,40.4152595]]]},"properties":{"site":"paestum","name":null,"category":"other","historic":null,"building":"yes","osm_id":109231013}},{"type":"Feature","geometry":{"type":"Polygon","coordinates":[[[15.0037395,40.4154845],[15.0036848,40.4154827],[15.0036789,40.4155895],[15.0038266,40.4155943],[15.0038343,40.4154562],[15.0037412,40.4154531],[15.0037395,40.4154845]]]},"properties":{"site":"paestum","name":null,"category":"other","historic":null,"building":"yes","osm_id":109231014}},{"type":"Feature","geometry":{"type":"Polygon","coordinates":[[[15.006909,40.4141241],[15.0069905,40.4141508],[15.0070982,40.4139601],[15.0070167,40.4139334],[15.006909,40.4141241]]]},"properties":{"site":"paestum","name":null,"category":"other","historic":null,"building":"yes","osm_id":109231072}},{"type":"Feature","geometry":{"type":"Polygon","coordinates":[[[15.0069614,40.41372],[15.0069378,40.4137903],[15.0071095,40.4137984],[15.0071309,40.4137413],[15.0069614,40.41372]]]},"properties":{"site":"paestum","name":null,"category":"other","historic":null,"building":"yes","osm_id":109231073}},{"type":"Feature","geometry":{"type":"Polygon","coordinates":[[[15.0068193,40.4142181],[15.0069264,40.4143216],[15.0067847,40.4144065],[15.0068761,40.4144949],[15.0071365,40.4143388],[15.0070516,40.4142567],[15.006938,40.4141469],[15.0068193,40.4142181]]]},"properties":{"site":"paestum","name":null,"category":"other","historic":null,"building":"yes","osm_id":109231074}},{"type":"Feature","geometry":{"type":"Polygon","coordinates":[[[15.0066807,40.4250803],[15.0070354,40.4251644],[15.0069703,40.4253235],[15.0067133,40.4252626],[15.0066924,40.4253139],[15.0068543,40.4253458],[15.006837,40.425396],[15.0066714,40.4253651],[15.0066214,40.4255151],[15.0064103,40.4254736],[15.0064612,40.4253346],[15.0063268,40.4253028],[15.0063206,40.4252786],[15.0063194,40.425274],[15.0063417,40.4252268],[15.006404,40.4250949],[15.0066508,40.4251533],[15.0066807,40.4250803]]]},"properties":{"site":"paestum","name":null,"category":"other","historic":null,"building":"yes","osm_id":109231985}},{"type":"Feature","geometry":{"type":"Polygon","coordinates":[[[15.0146931,40.4217701],[15.0146962,40.4216592],[15.0146973,40.4216163],[15.0147794,40.4216176],[15.0147945,40.4216179],[15.0147902,40.4217716],[15.0147412,40.4217709],[15.0146931,40.4217701]]]},"properties":{"site":"paestum","name":"Paestum","category":"other","historic":null,"building":"train_station","osm_id":131405169}},{"type":"Feature","geometry":{"type":"Polygon","coordinates":[[[15.0064582,40.4202847],[15.0064577,40.4202416],[15.0064565,40.4201503],[15.0065474,40.4201496],[15.0066382,40.4201489],[15.0066393,40.4202396],[15.0066399,40.4202833],[15.0065491,40.420284],[15.0064582,40.4202847]]]},"properties":{"site":"paestum","name":null,"category":"other","historic":null,"building":"yes","osm_id":146715841}},{"type":"Feature","geometry":{"type":"Polygon","coordinates":[[[14.9970676,40.4215261],[14.997101,40.4214877],[14.9971294,40.4214552],[14.9971859,40.4214837],[14.99719,40.4214791],[14.9972018,40.4214655],[14.9972478,40.4214127],[14.9972046,40.4213909],[14.9971539,40.4214489],[14.9970057,40.4213741],[14.9969831,40.4214],[14.9968712,40.4213435],[14.9968057,40.4214186],[14.9967849,40.4214081],[14.9967579,40.421439],[14.9967772,40.4214488],[14.996716,40.4215191],[14.9967957,40.4215593],[14.996825,40.4215256],[14.9968707,40.4215487],[14.9968812,40.4215366],[14.9969329,40.4214773],[14.9969583,40.4214901],[14.99697,40.4214768],[14.9970676,40.4215261]]]},"properties":{"site":"paestum","name":null,"category":"other","historic":null,"building":"yes","osm_id":146715901}},{"type":"Feature","geometry":{"type":"Polygon","coordinates":[[[15.0039639,40.4175339],[15.0043797,40.4176524],[15.0044977,40.4174196],[15.0043877,40.4173767],[15.0043958,40.4173379],[15.0041141,40.4172521],[15.0039639,40.4175339]]]},"properties":{"site":"paestum","name":null,"category":"other","historic":null,"building":"yes","osm_id":173535107}},{"type":"Feature","geometry":{"type":"Polygon","coordinates":[[[15.0147018,40.4214535],[15.0147049,40.4213418],[15.014802,40.4213433],[15.0147989,40.421455],[15.0147018,40.4214535]]]},"properties":{"site":"paestum","name":"Paestum","category":"other","historic":null,"building":"train_station","osm_id":173535108}},{"type":"Feature","geometry":{"type":"Polygon","coordinates":[[[15.0054522,40.4220757],[15.0055147,40.422078],[15.0056187,40.4220818],[15.0056258,40.4219699],[15.0056333,40.4218497],[15.0056338,40.4218422],[15.0056157,40.4218415],[15.0056174,40.4218146],[15.0054858,40.4218098],[15.0054841,40.4218367],[15.0054673,40.4218361],[15.0054522,40.4220757]]]},"properties":{"site":"paestum","name":"Tempio di Mens Bona","category":"temple","historic":"archaeological_site","building":"yes","osm_id":215267869}},{"type":"Feature","geometry":{"type":"Polygon","coordinates":[[[15.0048653,40.4232879],[15.0049137,40.4232886],[15.0049145,40.4232565],[15.0048661,40.4232558],[15.0048653,40.4232879]]]},"properties":{"site":"paestum","name":"Heroon","category":"other","historic":"yes","building":"yes","osm_id":215267870}},{"type":"Feature","geometry":{"type":"Polygon","coordinates":[[[15.0050449,40.420042],[15.0050296,40.4198082],[15.0057531,40.4197781],[15.0057731,40.4200117],[15.0050449,40.420042]]]},"properties":{"site":"paestum","name":"Tempio di Hera II - di Nettuno","category":"temple","historic":"archaeological_site","building":"yes","osm_id":255691054}},{"type":"Feature","geometry":{"type":"Polygon","coordinates":[[[15.0050882,40.4193948],[15.0057284,40.4193704],[15.0057134,40.4191417],[15.0050732,40.4191661],[15.0050882,40.4193948]]]},"properties":{"site":"paestum","name":"Tempio di Hera I - Basilica","category":"temple","historic":"archaeological_site","building":"yes","osm_id":255770715}},{"type":"Feature","geometry":{"type":"Polygon","coordinates":[[[15.0149547,40.4217154],[15.0149761,40.4217159],[15.0149825,40.4215759],[15.0149611,40.4215753],[15.0149547,40.4217154]]]},"properties":{"site":"paestum","name":null,"category":"other","historic":null,"building":"yes","osm_id":381953779}},{"type":"Feature","geometry":{"type":"Polygon","coordinates":[[[15.0148052,40.4212129],[15.0148113,40.4211227],[15.0147144,40.4211189],[15.0147084,40.4212091],[15.0148052,40.4212129]]]},"properties":{"site":"paestum","name":null,"category":"other","historic":null,"building":"yes","osm_id":381953782}},{"type":"Feature","geometry":{"type":"Polygon","coordinates":[[[15.0048545,40.4268362],[15.0049784,40.4268423],[15.0050765,40.4268383],[15.0050731,40.4267541],[15.00498,40.4267523],[15.0049796,40.4267658],[15.0048611,40.426764],[15.0048545,40.4268362]]]},"properties":{"site":"paestum","name":null,"category":"other","historic":null,"building":"yes","osm_id":533426675}},{"type":"Feature","geometry":{"type":"Polygon","coordinates":[[[15.0049065,40.4270804],[15.0049172,40.4268956],[15.0046772,40.4268864],[15.0046678,40.4270134],[15.0046638,40.4270682],[15.0049065,40.4270804]]]},"properties":{"site":"paestum","name":null,"category":"other","historic":null,"building":"yes","osm_id":533426676}},{"type":"Feature","geometry":{"type":"Polygon","coordinates":[[[15.0046772,40.4268864],[15.0045028,40.4268844],[15.0045002,40.4269662],[15.0044988,40.4270079],[15.0046678,40.4270134],[15.0046772,40.4268864]]]},"properties":{"site":"paestum","name":null,"category":"other","historic":null,"building":"yes","osm_id":533426677}},{"type":"Feature","geometry":{"type":"Polygon","coordinates":[[[15.0042923,40.4269579],[15.0045002,40.4269662],[15.0045028,40.4268844],[15.004299,40.4268732],[15.0042923,40.4269579]]]},"properties":{"site":"paestum","name":null,"category":"other","historic":null,"building":"yes","osm_id":533426678}},{"type":"Feature","geometry":{"type":"Polygon","coordinates":[[[15.0037411,40.4269222],[15.0037531,40.4268467],[15.0039999,40.426862],[15.0039919,40.4269375],[15.0037411,40.4269222]]]},"properties":{"site":"paestum","name":null,"category":"other","historic":null,"building":"yes","osm_id":533426679}},{"type":"Feature","geometry":{"type":"Polygon","coordinates":[[[15.0035627,40.4269059],[15.0037411,40.4269222],[15.0037531,40.4268467],[15.0035708,40.4268344],[15.0035627,40.4269059]]]},"properties":{"site":"paestum","name":null,"category":"other","historic":null,"building":"yes","osm_id":533426680}},{"type":"Feature","geometry":{"type":"Polygon","coordinates":[[[15.0033361,40.4268855],[15.0035627,40.4269059],[15.0035708,40.4268344],[15.0033441,40.426815],[15.0033361,40.4268855]]]},"properties":{"site":"paestum","name":null,"category":"other","historic":null,"building":"yes","osm_id":533426681}},{"type":"Feature","geometry":{"type":"Polygon","coordinates":[[[15.0029762,40.4265306],[15.0031306,40.4265378],[15.0031428,40.4263857],[15.0029884,40.4263785],[15.0029762,40.4265306]]]},"properties":{"site":"paestum","name":null,"category":"other","historic":null,"building":"yes","osm_id":533426682}},{"type":"Feature","geometry":{"type":"Polygon","coordinates":[[[15.0022927,40.4270549],[15.0024255,40.4270886],[15.0025207,40.4268569],[15.0023906,40.426824],[15.0022927,40.4270549]]]},"properties":{"site":"paestum","name":null,"category":"other","historic":null,"building":"yes","osm_id":533426683}},{"type":"Feature","geometry":{"type":"Polygon","coordinates":[[[15.0025059,40.4268364],[15.0026695,40.4268456],[15.0026722,40.4267752],[15.0025167,40.4267619],[15.0025059,40.4268364]]]},"properties":{"site":"paestum","name":null,"category":"other","historic":null,"building":"yes","osm_id":533426684}},{"type":"Feature","geometry":{"type":"Polygon","coordinates":[[[15.0026695,40.4268456],[15.0027728,40.4268517],[15.0027822,40.4267833],[15.0026722,40.4267752],[15.0026695,40.4268456]]]},"properties":{"site":"paestum","name":null,"category":"other","historic":null,"building":"yes","osm_id":533426685}},{"type":"Feature","geometry":{"type":"Polygon","coordinates":[[[15.0027728,40.4268517],[15.0030437,40.4268711],[15.0030491,40.4268038],[15.0027822,40.4267833],[15.0027728,40.4268517]]]},"properties":{"site":"paestum","name":null,"category":"other","historic":null,"building":"yes","osm_id":533426686}},{"type":"Feature","geometry":{"type":"Polygon","coordinates":[[[15.0030437,40.4268711],[15.0031993,40.4268783],[15.0032046,40.4268078],[15.0030491,40.4268038],[15.0030437,40.4268711]]]},"properties":{"site":"paestum","name":null,"category":"other","historic":null,"building":"yes","osm_id":533426687}},{"type":"Feature","geometry":{"type":"Polygon","coordinates":[[[15.0015374,40.4269436],[15.0016303,40.426961],[15.0016799,40.4267993],[15.0017211,40.4266876],[15.0016269,40.4266666],[15.0015374,40.4269436]]]},"properties":{"site":"paestum","name":null,"category":"other","historic":null,"building":"yes","osm_id":533426689}},{"type":"Feature","geometry":{"type":"Polygon","coordinates":[[[15.0016799,40.4267993],[15.0019708,40.4268616],[15.002012,40.4267499],[15.0017211,40.4266876],[15.0016799,40.4267993]]]},"properties":{"site":"paestum","name":null,"category":"other","historic":null,"building":"yes","osm_id":533426690}},{"type":"Feature","geometry":{"type":"Polygon","coordinates":[[[15.0020647,40.4268915],[15.0022942,40.4269222],[15.0023249,40.4267896],[15.0020954,40.4267588],[15.0020647,40.4268915]]]},"properties":{"site":"paestum","name":null,"category":"other","historic":null,"building":"yes","osm_id":533426691}},{"type":"Feature","geometry":{"type":"Polygon","coordinates":[[[15.0017869,40.4275701],[15.0019902,40.4276387],[15.0020838,40.427478],[15.0018805,40.4274094],[15.0017869,40.4275701]]]},"properties":{"site":"paestum","name":null,"category":"other","historic":null,"building":"yes","osm_id":533426839}},{"type":"Feature","geometry":{"type":"Polygon","coordinates":[[[15.0027735,40.4274413],[15.0030331,40.4274944],[15.0030693,40.4273919],[15.0028097,40.4273388],[15.0027735,40.4274413]]]},"properties":{"site":"paestum","name":null,"category":"other","historic":null,"building":"yes","osm_id":533426840}},{"type":"Feature","geometry":{"type":"Polygon","coordinates":[[[14.9968812,40.4215366],[14.9969032,40.4215459],[14.9968854,40.4215677],[14.9968902,40.421571],[14.9969899,40.4216202],[14.9970676,40.4215261],[14.99697,40.4214768],[14.9969583,40.4214901],[14.9969329,40.4214773],[14.9968812,40.4215366]]]},"properties":{"site":"paestum","name":null,"category":"other","historic":null,"building":"roof","osm_id":978434306}},{"type":"Feature","geometry":{"type":"Polygon","coordinates":[[[15.0086865,40.41879],[15.0086849,40.4188267],[15.0087877,40.4188292],[15.0087881,40.4188187],[15.0087908,40.4187516],[15.0086881,40.4187492],[15.0086865,40.41879]]]},"properties":{"site":"paestum","name":"Torre Laura","category":"other","historic":"tower","building":"yes","osm_id":980857117}},{"type":"Feature","geometry":{"type":"Polygon","coordinates":[[[15.0136382,40.4190986],[15.0136234,40.4191092],[15.0135556,40.4191577],[15.0134765,40.4190936],[15.0135384,40.4190494],[15.0135592,40.4190345],[15.0136382,40.4190986]]]},"properties":{"site":"paestum","name":"Torre 28","category":"other","historic":"tower","building":"yes","osm_id":980857118}},{"type":"Feature","geometry":{"type":"Polygon","coordinates":[[[15.0066141,40.4198467],[15.0066141,40.4198182],[15.0065669,40.4198182],[15.0065669,40.4198467],[15.0066141,40.4198467]]]},"properties":{"site":"paestum","name":null,"category":"other","historic":null,"building":"yes","osm_id":981300409}},{"type":"Feature","geometry":{"type":"Polygon","coordinates":[[[15.004722,40.4184849],[15.004726,40.4184318],[15.0046855,40.41843],[15.0046814,40.4184831],[15.0047061,40.4184842],[15.004722,40.4184849]]]},"properties":{"site":"paestum","name":null,"category":"other","historic":null,"building":"yes","osm_id":981300412}},{"type":"Feature","geometry":{"type":"Polygon","coordinates":[[[15.0057904,40.4202317],[15.0058,40.4201905],[15.0057793,40.4201856],[15.0057836,40.420174],[15.0058557,40.4201754],[15.0058404,40.4202352],[15.0057904,40.4202317]]]},"properties":{"site":"paestum","name":null,"category":"archaeological","historic":"ruins","building":null,"osm_id":981541915}},{"type":"Feature","geometry":{"type":"Polygon","coordinates":[[[15.0052125,40.4209698],[15.0052114,40.4209346],[15.0052825,40.4209333],[15.0052836,40.4209685],[15.0052125,40.4209698]]]},"properties":{"site":"paestum","name":null,"category":"archaeological","historic":"ruins","building":null,"osm_id":982717207}},{"type":"Feature","geometry":{"type":"Polygon","coordinates":[[[15.0065005,40.4222044],[15.0065074,40.4221112],[15.0065016,40.422111],[15.0064949,40.4221107],[15.0064814,40.4221103],[15.0064685,40.42211],[15.0064528,40.4221097],[15.0064396,40.4221093],[15.0064252,40.4221095],[15.0064113,40.4221101],[15.0063932,40.4221115],[15.0063766,40.4221134],[15.0063608,40.4221153],[15.0063439,40.4221179],[15.0063273,40.4221199],[15.0063095,40.4221235],[15.0062924,40.4221272],[15.0062735,40.4221321],[15.0062562,40.4221376],[15.0062374,40.4221439],[15.0062172,40.4221514],[15.0061972,40.4221579],[15.0061792,40.4221648],[15.0061578,40.4221739],[15.0061379,40.4221856],[15.0061177,40.4222004],[15.0061022,40.4222125],[15.0060854,40.4222274],[15.0060699,40.4222441],[15.006056,40.4222622],[15.0060469,40.4222775],[15.0060408,40.4222944],[15.0060373,40.4223118],[15.006037,40.4223279],[15.0060361,40.4223378],[15.0060536,40.4223419],[15.0060548,40.4223661],[15.0060562,40.4223941],[15.0060383,40.422407],[15.0060392,40.4224208],[15.0060441,40.4224373],[15.0060489,40.4224499],[15.0060575,40.4224641],[15.0060744,40.4224869],[15.0060867,40.4224998],[15.0060996,40.4225118],[15.0061131,40.4225226],[15.0061302,40.4225352],[15.0061497,40.4225469],[15.0061691,40.4225574],[15.0061942,40.4225679],[15.0062193,40.4225784],[15.0062408,40.4225864],[15.0062657,40.4225956],[15.0062945,40.4226046],[15.006318,40.4226106],[15.0063414,40.4226151],[15.0063678,40.4226197],[15.0063667,40.4226447],[15.0064019,40.4226465],[15.0064081,40.422655],[15.0064124,40.422662],[15.0064147,40.4226685],[15.0064311,40.422667],[15.0064335,40.4226189],[15.0064556,40.4226197],[15.0064639,40.4225288],[15.0064552,40.422529],[15.0064453,40.4225287],[15.0064355,40.4225276],[15.0064244,40.4225263],[15.006415,40.4225256],[15.0064042,40.4225241],[15.0063931,40.4225226],[15.0063819,40.4225208],[15.0063702,40.4225189],[15.0063577,40.4225164],[15.0063451,40.4225134],[15.0063308,40.4225099],[15.0063165,40.4225058],[15.0063004,40.4225],[15.0062859,40.4224947],[15.0062703,40.4224893],[15.0062536,40.4224814],[15.0062347,40.4224726],[15.0062197,40.4224628],[15.0062076,40.4224524],[15.0061955,40.4224416],[15.0061828,40.4224282],[15.0061741,40.4224151],[15.0061688,40.422406],[15.006165,40.4223956],[15.0061624,40.4223867],[15.006137,40.4223867],[15.0061354,40.422383],[15.0061064,40.4223834],[15.006107,40.4223666],[15.0061066,40.422351],[15.0061336,40.4223513],[15.0061345,40.4223479],[15.0061587,40.4223484],[15.0061602,40.4223429],[15.0061623,40.4223354],[15.0061656,40.4223274],[15.0061697,40.422319],[15.0061772,40.4223074],[15.0061855,40.4222966],[15.0061932,40.4222857],[15.0062033,40.422276],[15.0062129,40.422268],[15.0062259,40.4222591],[15.0062386,40.4222531],[15.0062539,40.4222471],[15.0062731,40.4222385],[15.0062914,40.4222313],[15.0063145,40.422224],[15.0063372,40.4222175],[15.0063584,40.4222131],[15.0063785,40.4222104],[15.006405,40.4222077],[15.0064265,40.4222062],[15.0064504,40.4222046],[15.0064726,40.4222036],[15.0064931,40.4222038],[15.0065005,40.4222044]]]},"properties":{"site":"paestum","name":"Anfiteatro","category":"theater","historic":"archaeological_site","building":null,"osm_id":983585532}},{"type":"Feature","geometry":{"type":"Polygon","coordinates":[[[15.005664,40.422144],[15.0056468,40.4221312],[15.0056344,40.4221186],[15.0056254,40.4221043],[15.0056206,40.4220948],[15.0056187,40.4220818],[15.0055147,40.422078],[15.0055109,40.4221379],[15.0055522,40.4221399],[15.0056347,40.4221429],[15.005664,40.422144]]]},"properties":{"site":"paestum","name":null,"category":"other","historic":"yes","building":"yes","osm_id":983585535}},{"type":"Feature","geometry":{"type":"Polygon","coordinates":[[[15.0056258,40.4219699],[15.0056441,40.42196],[15.0056613,40.4219509],[15.0056776,40.4219421],[15.0056923,40.4219352],[15.0057076,40.4219295],[15.0057226,40.4219256],[15.005739,40.4219231],[15.0057521,40.4219226],[15.0057562,40.4218542],[15.0056333,40.4218497],[15.0056258,40.4219699]]]},"properties":{"site":"paestum","name":null,"category":"other","historic":"yes","building":"yes","osm_id":983585536}},{"type":"Feature","geometry":{"type":"Polygon","coordinates":[[[15.0057847,40.4219234],[15.0057866,40.4218553],[15.0060154,40.4218637],[15.0060044,40.4220382],[15.0059156,40.4220376],[15.0059142,40.4220264],[15.0059126,40.4220173],[15.005909,40.4220065],[15.0059055,40.421996],[15.0058996,40.4219853],[15.0058903,40.4219743],[15.0058791,40.4219636],[15.0058683,40.421955],[15.0058522,40.4219452],[15.0058365,40.4219382],[15.0058189,40.421932],[15.0058009,40.4219261],[15.0057847,40.4219234]]]},"properties":{"site":"paestum","name":null,"category":"other","historic":"yes","building":"yes","osm_id":983585537}},{"type":"Feature","geometry":{"type":"Polygon","coordinates":[[[15.005997,40.4221561],[15.0060029,40.4220612],[15.0059148,40.4220593],[15.0059126,40.4220683],[15.0059095,40.4220786],[15.0059042,40.4220893],[15.0058973,40.4220994],[15.0058889,40.4221104],[15.0058799,40.4221204],[15.005871,40.4221293],[15.0058611,40.4221388],[15.0058521,40.4221461],[15.0058438,40.4221505],[15.005997,40.4221561]]]},"properties":{"site":"paestum","name":null,"category":"other","historic":"yes","building":"yes","osm_id":983585538}},{"type":"Feature","geometry":{"type":"Polygon","coordinates":[[[15.0061046,40.4232069],[15.0061019,40.4231845],[15.0061061,40.4231623],[15.0061171,40.4231414],[15.0061341,40.423123],[15.0061563,40.4231082],[15.0061824,40.4230977],[15.0062043,40.4230934],[15.0062111,40.4230921],[15.0062406,40.4230918],[15.0062694,40.4230967],[15.0062959,40.4231065],[15.0063187,40.4231209],[15.0063365,40.4231388],[15.0063483,40.4231594],[15.0063535,40.4231828],[15.0063511,40.4232065],[15.006341,40.4232289],[15.0063241,40.4232488],[15.0063012,40.423265],[15.0062738,40.4232763],[15.0062436,40.4232822],[15.0062124,40.4232823],[15.0061822,40.4232765],[15.0061548,40.4232652],[15.0061318,40.4232492],[15.0061147,40.4232293],[15.0061046,40.4232069]]]},"properties":{"site":"paestum","name":"Ekklesiasterion","category":"archaeological","historic":"archaeological_site","building":null,"osm_id":985473414}},{"type":"Feature","geometry":{"type":"Polygon","coordinates":[[[15.0062043,40.4230934],[15.0062052,40.4231193],[15.0062512,40.423117],[15.0062487,40.4231012],[15.0062406,40.4230918],[15.0062111,40.4230921],[15.0062043,40.4230934]]]},"properties":{"site":"paestum","name":null,"category":"archaeological","historic":"ruins","building":"yes","osm_id":985473439}},{"type":"Feature","geometry":{"type":"Polygon","coordinates":[[[15.0082738,40.4207178],[15.0082794,40.4206461],[15.0082291,40.4206438],[15.0082308,40.4206217],[15.0081999,40.4206203],[15.0081981,40.4206437],[15.0082121,40.4206443],[15.0082066,40.4207148],[15.0082738,40.4207178]]]},"properties":{"site":"paestum","name":null,"category":"archaeological","historic":null,"building":"ruins","osm_id":985800894}},{"type":"Feature","geometry":{"type":"Polygon","coordinates":[[[15.0085339,40.4204457],[15.0085393,40.4203699],[15.0085414,40.4203414],[15.0086748,40.420347],[15.008668,40.4204408],[15.0086672,40.4204513],[15.0085339,40.4204457]]]},"properties":{"site":"paestum","name":null,"category":"archaeological","historic":null,"building":"ruins","osm_id":985800895}},{"type":"Feature","geometry":{"type":"Polygon","coordinates":[[[15.0085303,40.4205288],[15.0085362,40.420463],[15.0086782,40.4204705],[15.0086722,40.4205362],[15.0085303,40.4205288]]]},"properties":{"site":"paestum","name":null,"category":"archaeological","historic":null,"building":"ruins","osm_id":985800896}},{"type":"Feature","geometry":{"type":"Polygon","coordinates":[[[15.0085029,40.4208097],[15.008512,40.4207142],[15.0085143,40.4206906],[15.0086493,40.4206982],[15.0087856,40.4207058],[15.0087741,40.4208249],[15.0086425,40.4208175],[15.0085029,40.4208097]]]},"properties":{"site":"paestum","name":null,"category":"archaeological","historic":null,"building":"ruins","osm_id":985800897}},{"type":"Feature","geometry":{"type":"Polygon","coordinates":[[[15.0084903,40.4209664],[15.0084954,40.4208606],[15.0086315,40.4208643],[15.0087571,40.4208678],[15.0087541,40.4209313],[15.0087521,40.4209737],[15.0085902,40.4209692],[15.0084903,40.4209664]]]},"properties":{"site":"paestum","name":null,"category":"archaeological","historic":null,"building":"ruins","osm_id":985800898}},{"type":"Feature","geometry":{"type":"Polygon","coordinates":[[[15.0091072,40.4209584],[15.0091038,40.4209808],[15.0091019,40.4209938],[15.0091525,40.4209982],[15.0091538,40.4209896],[15.0091578,40.4209628],[15.0091072,40.4209584]]]},"properties":{"site":"paestum","name":null,"category":"archaeological","historic":null,"building":"ruins","osm_id":985800900}},{"type":"Feature","geometry":{"type":"Polygon","coordinates":[[[15.0073871,40.4207225],[15.0073855,40.4206632],[15.0073597,40.4206638],[15.0073607,40.4206446],[15.0073192,40.4206436],[15.0073192,40.4206349],[15.0072653,40.4206325],[15.0072571,40.4207408],[15.0073174,40.4207434],[15.0073179,40.4207255],[15.0073871,40.4207225]]]},"properties":{"site":"paestum","name":null,"category":"other","historic":null,"building":"yes","osm_id":985800901}},{"type":"Feature","geometry":{"type":"Polygon","coordinates":[[[15.0072571,40.4207408],[15.0072568,40.4207447],[15.007194,40.4207415],[15.0072027,40.4206263],[15.0072656,40.4206283],[15.0072653,40.4206325],[15.0072571,40.4207408]]]},"properties":{"site":"paestum","name":null,"category":"other","historic":null,"building":"roof","osm_id":985800902}},{"type":"Feature","geometry":{"type":"Polygon","coordinates":[[[15.0059144,40.425889],[15.0058767,40.4258774],[15.0058995,40.4258344],[15.0059373,40.4258461],[15.0059144,40.425889]]]},"properties":{"site":"paestum","name":null,"category":"other","historic":null,"building":"yes","osm_id":985987481}},{"type":"Feature","geometry":{"type":"Polygon","coordinates":[[[15.0059518,40.4258148],[15.0059534,40.425812],[15.0059826,40.4257587],[15.0059175,40.4257381],[15.005907,40.4257347],[15.0058763,40.4257909],[15.0059518,40.4258148]]]},"properties":{"site":"paestum","name":null,"category":"other","historic":null,"building":"yes","osm_id":985987482}},{"type":"Feature","geometry":{"type":"Polygon","coordinates":[[[15.0117636,40.426729],[15.0117615,40.4266871],[15.0116872,40.4266892],[15.0116892,40.4267311],[15.0117636,40.426729]]]},"properties":{"site":"paestum","name":null,"category":"archaeological","historic":null,"building":"ruins","osm_id":986210699}},{"type":"Feature","geometry":{"type":"Polygon","coordinates":[[[15.0062784,40.4250652],[15.0062551,40.4251247],[15.0062221,40.4251331],[15.0062197,40.4251392],[15.00618,40.425166],[15.0061932,40.4251796],[15.0062098,40.4251877],[15.0062271,40.4252317],[15.0063417,40.4252268],[15.006404,40.4250949],[15.0062784,40.4250652]]]},"properties":{"site":"paestum","name":null,"category":"other","historic":null,"building":"yes","osm_id":987324641}},{"type":"Feature","geometry":{"type":"Polygon","coordinates":[[[15.0064731,40.4249412],[15.0065104,40.4248539],[15.0062653,40.4247931],[15.006228,40.4248803],[15.0063423,40.4249087],[15.0064731,40.4249412]]]},"properties":{"site":"paestum","name":null,"category":"other","historic":null,"building":"yes","osm_id":987371933}},{"type":"Feature","geometry":{"type":"Polygon","coordinates":[[[15.0066006,40.4249742],[15.0066164,40.4249377],[15.0067217,40.4249641],[15.0067362,40.4249305],[15.0069116,40.4249744],[15.0068989,40.425004],[15.0068747,40.4249979],[15.0068572,40.4250385],[15.0067149,40.4250029],[15.0066194,40.4249789],[15.0066006,40.4249742]]]},"properties":{"site":"paestum","name":null,"category":"other","historic":null,"building":"yes","osm_id":987371934}},{"type":"Feature","geometry":{"type":"Polygon","coordinates":[[[15.0063897,40.4247965],[15.0064047,40.4247632],[15.0062588,40.424725],[15.0062774,40.4246838],[15.0062841,40.4246855],[15.0065034,40.4247429],[15.0064697,40.4248174],[15.0063897,40.4247965]]]},"properties":{"site":"paestum","name":null,"category":"other","historic":null,"building":"yes","osm_id":987371936}},{"type":"Feature","geometry":{"type":"Polygon","coordinates":[[[15.0043917,40.4184185],[15.0044046,40.4183744],[15.0043687,40.4183684],[15.0043558,40.4184125],[15.0043917,40.4184185]]]},"properties":{"site":"paestum","name":null,"category":"other","historic":null,"building":"yes","osm_id":987450388}},{"type":"Feature","geometry":{"type":"Polygon","coordinates":[[[15.0040279,40.4181787],[15.0040291,40.4181752],[15.0040479,40.4181171],[15.003798,40.4180709],[15.0037966,40.4180952],[15.0037912,40.4181343],[15.0040279,40.4181787]]]},"properties":{"site":"paestum","name":null,"category":"other","historic":null,"building":"yes","osm_id":987450402}},{"type":"Feature","geometry":{"type":"Polygon","coordinates":[[[15.0036159,40.418257],[15.0036258,40.4181897],[15.0036681,40.4181936],[15.0036715,40.4181705],[15.003785,40.4181796],[15.0037704,40.4182638],[15.0037698,40.4182686],[15.0036159,40.418257]]]},"properties":{"site":"paestum","name":null,"category":"other","historic":null,"building":"yes","osm_id":987450403}},{"type":"Feature","geometry":{"type":"Polygon","coordinates":[[[15.0036159,40.418257],[15.003465,40.4182441],[15.003475,40.4181768],[15.0036258,40.4181897],[15.0036159,40.418257]]]},"properties":{"site":"paestum","name":null,"category":"archaeological","historic":null,"building":"ruins","osm_id":987450404}},{"type":"Feature","geometry":{"type":"Polygon","coordinates":[[[15.0037966,40.4180952],[15.003798,40.4180709],[15.003805,40.4180188],[15.003753,40.4180147],[15.0037266,40.4180129],[15.003726,40.4180185],[15.0037037,40.418017],[15.0036943,40.418087],[15.0037966,40.4180952]]]},"properties":{"site":"paestum","name":null,"category":"other","historic":null,"building":"yes","osm_id":987450408}},{"type":"Feature","geometry":{"type":"Polygon","coordinates":[[[15.003753,40.4180147],[15.0037566,40.4179828],[15.0037352,40.4179814],[15.0037383,40.4179539],[15.0036221,40.417942],[15.003615,40.4180025],[15.0036102,40.4180422],[15.0036751,40.4180463],[15.0036785,40.4180154],[15.0037037,40.418017],[15.003726,40.4180185],[15.0037266,40.4180129],[15.003753,40.4180147]]]},"properties":{"site":"paestum","name":null,"category":"other","historic":null,"building":"yes","osm_id":987450410}},{"type":"Feature","geometry":{"type":"Polygon","coordinates":[[[15.003615,40.4180025],[15.0035028,40.4179946],[15.0035108,40.4179336],[15.0036221,40.417942],[15.003615,40.4180025]]]},"properties":{"site":"paestum","name":null,"category":"other","historic":null,"building":"yes","osm_id":987450411}},{"type":"Feature","geometry":{"type":"Polygon","coordinates":[[[15.0035028,40.4179946],[15.0034454,40.4179905],[15.0034234,40.4179889],[15.0034305,40.4179277],[15.0034354,40.4178896],[15.0035154,40.4178968],[15.0035108,40.4179336],[15.0035028,40.4179946]]]},"properties":{"site":"paestum","name":null,"category":"other","historic":null,"building":"yes","osm_id":987450412}},{"type":"Feature","geometry":{"type":"Polygon","coordinates":[[[15.0034234,40.4179889],[15.0033509,40.4179839],[15.003358,40.4179229],[15.0034305,40.4179277],[15.0034234,40.4179889]]]},"properties":{"site":"paestum","name":null,"category":"other","historic":null,"building":"yes","osm_id":987450413}},{"type":"Feature","geometry":{"type":"Polygon","coordinates":[[[15.0034355,40.4180715],[15.0034454,40.4179905],[15.0034234,40.4179889],[15.0033509,40.4179839],[15.0033412,40.4180649],[15.0034355,40.4180715]]]},"properties":{"site":"paestum","name":null,"category":"other","historic":null,"building":"yes","osm_id":987450414}},{"type":"Feature","geometry":{"type":"Polygon","coordinates":[[[15.0036102,40.4180422],[15.003522,40.418036],[15.003517,40.4180772],[15.0034355,40.4180715],[15.0034454,40.4179905],[15.0035028,40.4179946],[15.003615,40.4180025],[15.0036102,40.4180422]]]},"properties":{"site":"paestum","name":null,"category":"other","historic":null,"building":"yes","osm_id":987450415}},{"type":"Feature","geometry":{"type":"Polygon","coordinates":[[[15.0034367,40.4182374],[15.0034469,40.4181709],[15.0033001,40.4181579],[15.0032899,40.4182244],[15.0034367,40.4182374]]]},"properties":{"site":"paestum","name":null,"category":"other","historic":null,"building":"yes","osm_id":987450421}},{"type":"Feature","geometry":{"type":"Polygon","coordinates":[[[15.0065332,40.4239443],[15.00655,40.4238182],[15.0064748,40.4238123],[15.0064585,40.4239383],[15.0065332,40.4239443]]]},"properties":{"site":"paestum","name":null,"category":"other","historic":null,"building":"yes","osm_id":989696123}},{"type":"Feature","geometry":{"type":"Polygon","coordinates":[[[15.0064585,40.4239383],[15.0064396,40.4240761],[15.0066584,40.4240934],[15.0066773,40.4239557],[15.0065332,40.4239443],[15.0064585,40.4239383]]]},"properties":{"site":"paestum","name":null,"category":"other","historic":null,"building":"yes","osm_id":989696124}},{"type":"Feature","geometry":{"type":"Polygon","coordinates":[[[15.0064631,40.4243255],[15.0064638,40.4243199],[15.0064486,40.4243189],[15.0064561,40.4242492],[15.0064742,40.4242504],[15.0064833,40.4241662],[15.0064893,40.4241104],[15.0066351,40.4241196],[15.0066342,40.4241278],[15.0066606,40.4241294],[15.0066523,40.4242065],[15.0067063,40.4242099],[15.0067069,40.4242044],[15.0068411,40.4242128],[15.0068474,40.4241543],[15.006903,40.4241578],[15.0068959,40.4242238],[15.0068537,40.4242211],[15.0068482,40.4242712],[15.0066332,40.4242577],[15.00655,40.4242525],[15.0065416,40.4243304],[15.0064631,40.4243255]]]},"properties":{"site":"paestum","name":null,"category":"other","historic":null,"building":"yes","osm_id":989696125}},{"type":"Feature","geometry":{"type":"Polygon","coordinates":[[[15.0065619,40.4238196],[15.0066234,40.4238241],[15.0066821,40.4238285],[15.0066738,40.4238933],[15.0065536,40.4238845],[15.0065619,40.4238196]]]},"properties":{"site":"paestum","name":null,"category":"other","historic":null,"building":"yes","osm_id":989696130}},{"type":"Feature","geometry":{"type":"Polygon","coordinates":[[[15.0067147,40.4238326],[15.0068503,40.423843],[15.0068308,40.4239899],[15.0067034,40.4239801],[15.0067096,40.4239327],[15.0067015,40.423932],[15.0067147,40.4238326]]]},"properties":{"site":"paestum","name":null,"category":"other","historic":null,"building":"yes","osm_id":989696131}},{"type":"Feature","geometry":{"type":"Polygon","coordinates":[[[15.0071058,40.4238799],[15.0072321,40.4238783],[15.0072459,40.4238781],[15.0072457,40.4238689],[15.0073216,40.4238679],[15.0073195,40.423774],[15.0072514,40.4237749],[15.0072498,40.4237036],[15.0071019,40.4237056],[15.0071038,40.4237907],[15.0071058,40.4238799]]]},"properties":{"site":"paestum","name":"Palazzo De Maria","category":"other","historic":"castle","building":"yes","osm_id":989696133}},{"type":"Feature","geometry":{"type":"Polygon","coordinates":[[[15.0064833,40.4237203],[15.0064989,40.4235507],[15.0065491,40.4235534],[15.0068336,40.4235686],[15.0068265,40.4236383],[15.0067695,40.4236352],[15.0067261,40.4236325],[15.0067221,40.4236763],[15.0066923,40.4236747],[15.0066902,40.4236971],[15.0066871,40.4237311],[15.0066548,40.4237294],[15.0064833,40.4237203]]]},"properties":{"site":"paestum","name":null,"category":"other","historic":null,"building":"yes","osm_id":989696137}},{"type":"Feature","geometry":{"type":"Polygon","coordinates":[[[15.0068265,40.4236383],[15.0068212,40.4236956],[15.0068153,40.4237586],[15.0067582,40.4237555],[15.0067586,40.4237513],[15.0067695,40.4236352],[15.0068265,40.4236383]]]},"properties":{"site":"paestum","name":null,"category":"other","historic":null,"building":"yes","osm_id":989696140}},{"type":"Feature","geometry":{"type":"Polygon","coordinates":[[[15.0069145,40.4240513],[15.0069194,40.4240269],[15.0069362,40.4239429],[15.0070663,40.4239549],[15.0070652,40.4239667],[15.0070618,40.4240039],[15.0070776,40.4240046],[15.0071781,40.4240092],[15.0072017,40.4240103],[15.0071964,40.4240892],[15.0070086,40.4240839],[15.0070132,40.4240598],[15.0069145,40.4240513]]]},"properties":{"site":"paestum","name":null,"category":"other","historic":null,"building":"yes","osm_id":989696142}},{"type":"Feature","geometry":{"type":"Polygon","coordinates":[[[15.0068529,40.4240375],[15.0068612,40.4239955],[15.0068386,40.4239929],[15.0068303,40.4240349],[15.0068529,40.4240375]]]},"properties":{"site":"paestum","name":null,"category":"other","historic":null,"building":"yes","osm_id":990086189}},{"type":"Feature","geometry":{"type":"Polygon","coordinates":[[[15.0080848,40.4214176],[15.008085,40.4213692],[15.0080112,40.421369],[15.008011,40.4214174],[15.0080848,40.4214176]]]},"properties":{"site":"paestum","name":null,"category":"archaeological","historic":null,"building":"ruins","osm_id":990504093}},{"type":"Feature","geometry":{"type":"Polygon","coordinates":[[[15.0075882,40.4207168],[15.0075883,40.4206738],[15.0076604,40.4206739],[15.0076604,40.4207169],[15.0075882,40.4207168]]]},"properties":{"site":"paestum","name":null,"category":"other","historic":null,"building":"yes","osm_id":990504099}},{"type":"Feature","geometry":{"type":"Polygon","coordinates":[[[15.0119675,40.4235252],[15.0119714,40.4234622],[15.0120298,40.4234643],[15.012026,40.4235272],[15.0119675,40.4235252]]]},"properties":{"site":"paestum","name":null,"category":"other","historic":null,"building":"yes","osm_id":993852341}},{"type":"Feature","geometry":{"type":"Polygon","coordinates":[[[15.0067329,40.4214449],[15.006911,40.4214513],[15.0069052,40.4215464],[15.0069656,40.4215485],[15.0070724,40.4215523],[15.007068,40.4216238],[15.0068971,40.4216142],[15.0067238,40.4216066],[15.0067329,40.4214449]]]},"properties":{"site":"paestum","name":null,"category":"other","historic":null,"building":"yes","osm_id":999050733}},{"type":"Feature","geometry":{"type":"Polygon","coordinates":[[[15.0070724,40.4215523],[15.0070764,40.4214956],[15.0070782,40.4214707],[15.0069707,40.4214668],[15.0069656,40.4215485],[15.0070724,40.4215523]]]},"properties":{"site":"paestum","name":null,"category":"other","historic":null,"building":"roof","osm_id":999050734}},{"type":"Feature","geometry":{"type":"Polygon","coordinates":[[[15.0068971,40.4216142],[15.0068962,40.4216514],[15.0068702,40.4216504],[15.0068613,40.4217944],[15.0068872,40.4217953],[15.0068857,40.42182],[15.0067086,40.4218124],[15.0067238,40.4216066],[15.0068971,40.4216142]]]},"properties":{"site":"paestum","name":null,"category":"other","historic":null,"building":"yes","osm_id":999050735}},{"type":"Feature","geometry":{"type":"Polygon","coordinates":[[[15.0067086,40.4218124],[15.0066758,40.421811],[15.006691,40.4216052],[15.0067238,40.4216066],[15.0067086,40.4218124]]]},"properties":{"site":"paestum","name":null,"category":"other","historic":null,"building":"roof","osm_id":999050742}},{"type":"Feature","geometry":{"type":"Polygon","coordinates":[[[15.006691,40.4216052],[15.0067034,40.4214438],[15.0067329,40.4214449],[15.0067238,40.4216066],[15.006691,40.4216052]]]},"properties":{"site":"paestum","name":null,"category":"other","historic":null,"building":"roof","osm_id":999050743}},{"type":"Feature","geometry":{"type":"Polygon","coordinates":[[[15.0067671,40.4225866],[15.0067848,40.4225031],[15.0068743,40.4225141],[15.0068567,40.4225976],[15.0067671,40.4225866]]]},"properties":{"site":"paestum","name":null,"category":"other","historic":null,"building":"yes","osm_id":999050752}},{"type":"Feature","geometry":{"type":"Polygon","coordinates":[[[15.0060764,40.4245543],[15.0059362,40.4245561],[15.005932,40.4243973],[15.0060716,40.4243954],[15.0060764,40.4245543]]]},"properties":{"site":"paestum","name":null,"category":"archaeological","historic":"ruins","building":null,"osm_id":1052564529}},{"type":"Feature","geometry":{"type":"Polygon","coordinates":[[[15.0060032,40.4247232],[15.0059657,40.4247263],[15.0059646,40.4247222],[15.0059122,40.4247246],[15.0059119,40.4247199],[15.0059394,40.4247188],[15.0059378,40.4246938],[15.0059087,40.4246938],[15.0059088,40.4246892],[15.0059414,40.4246884],[15.005961,40.4246883],[15.0059757,40.4246883],[15.0059917,40.4246875],[15.0059997,40.4246866],[15.0060032,40.4247232]]]},"properties":{"site":"paestum","name":null,"category":"archaeological","historic":"ruins","building":null,"osm_id":1052564530}},{"type":"Feature","geometry":{"type":"Polygon","coordinates":[[[15.0060869,40.4247441],[15.0060795,40.424744],[15.0060794,40.4247481],[15.0060082,40.4247517],[15.0060037,40.4246525],[15.0060666,40.4246529],[15.0060675,40.4246474],[15.0060741,40.4246471],[15.0060748,40.4246513],[15.0060807,40.4246517],[15.0060826,40.4246594],[15.0060847,40.4246635],[15.0060823,40.4246667],[15.0060857,40.4246716],[15.0060865,40.4246856],[15.0060885,40.4246892],[15.0060869,40.4247441]]]},"properties":{"site":"paestum","name":null,"category":"archaeological","historic":"ruins","building":null,"osm_id":1052564531}},{"type":"Feature","geometry":{"type":"Polygon","coordinates":[[[15.0053967,40.4212443],[15.0057563,40.4212557],[15.0057615,40.4210871],[15.0054055,40.4210757],[15.0053967,40.4212443]]]},"properties":{"site":"paestum","name":"Basilica romana","category":"basilica","historic":"archaeological_site","building":null,"osm_id":1179821891}},{"type":"Feature","geometry":{"type":"Polygon","coordinates":[[[15.0057962,40.4212604],[15.0060614,40.4212695],[15.006067,40.4210412],[15.0058101,40.4210337],[15.0057962,40.4212604]]]},"properties":{"site":"paestum","name":"Macellum","category":"archaeological","historic":"archaeological_site","building":null,"osm_id":1179822097}},{"type":"Feature","geometry":{"type":"Polygon","coordinates":[[[15.0051348,40.4210272],[15.0060542,40.4210689],[15.0060343,40.4208575],[15.0054636,40.4208811],[15.0054601,40.4208569],[15.0051533,40.4208511],[15.0051348,40.4210272]]]},"properties":{"site":"paestum","name":"Giardino romano","category":"archaeological","historic":"archaeological_site","building":null,"osm_id":1179825612}},{"type":"Feature","geometry":{"type":"Polygon","coordinates":[[[15.0099217,40.4300791],[15.0099549,40.4299756],[15.0100678,40.4299965],[15.0100567,40.4300311],[15.0101282,40.4300443],[15.0101104,40.4300999],[15.0100676,40.430092],[15.0100652,40.4300995],[15.0100271,40.4300924],[15.0100252,40.4300983],[15.0099217,40.4300791]]]},"properties":{"site":"paestum","name":null,"category":"other","historic":null,"building":"yes","osm_id":1220423785}},{"type":"Feature","geometry":{"type":"Polygon","coordinates":[[[15.0102263,40.43003],[15.0102405,40.4299931],[15.0102992,40.4300062],[15.010285,40.4300431],[15.0102263,40.43003]]]},"properties":{"site":"paestum","name":null,"category":"other","historic":null,"building":"yes","osm_id":1220423787}},{"type":"Feature","geometry":{"type":"Polygon","coordinates":[[[15.0084012,40.4298704],[15.0084618,40.4297274],[15.0085634,40.4297523],[15.0085534,40.429776],[15.0088376,40.4298458],[15.008787,40.4299651],[15.0084012,40.4298704]]]},"properties":{"site":"paestum","name":null,"category":"other","historic":null,"building":"yes","osm_id":1220423789}},{"type":"Feature","geometry":{"type":"Polygon","coordinates":[[[15.0085834,40.4297284],[15.0086271,40.429624],[15.0089054,40.4296916],[15.0088617,40.4297959],[15.0085834,40.4297284]]]},"properties":{"site":"paestum","name":null,"category":"other","historic":null,"building":"yes","osm_id":1220423790}},{"type":"Feature","geometry":{"type":"Polygon","coordinates":[[[15.0090984,40.4297733],[15.0091151,40.4297156],[15.0091796,40.4297264],[15.009163,40.429784],[15.0090984,40.4297733]]]},"properties":{"site":"paestum","name":null,"category":"other","historic":null,"building":"yes","osm_id":1220423791}},{"type":"Feature","geometry":{"type":"Polygon","coordinates":[[[15.0090871,40.4296236],[15.0091239,40.4295122],[15.0092269,40.4295319],[15.0091901,40.4296433],[15.0090871,40.4296236]]]},"properties":{"site":"paestum","name":null,"category":"other","historic":null,"building":"yes","osm_id":1220423792}},{"type":"Feature","geometry":{"type":"Polygon","coordinates":[[[15.0091597,40.4299089],[15.0092011,40.4297892],[15.0092898,40.4298069],[15.0092484,40.4299267],[15.0091597,40.4299089]]]},"properties":{"site":"paestum","name":null,"category":"other","historic":null,"building":"yes","osm_id":1220423793}},{"type":"Feature","geometry":{"type":"Polygon","coordinates":[[[15.0092554,40.42968],[15.0093156,40.429695],[15.0093452,40.4296259],[15.0092851,40.4296109],[15.0092554,40.42968]]]},"properties":{"site":"paestum","name":null,"category":"other","historic":null,"building":"yes","osm_id":1220423794}},{"type":"Feature","geometry":{"type":"Polygon","coordinates":[[[15.0093646,40.4296913],[15.0094086,40.4295772],[15.0095084,40.4295995],[15.0095398,40.4295181],[15.0096717,40.4295476],[15.0096181,40.4296865],[15.0095125,40.4296629],[15.0094907,40.4297195],[15.0093646,40.4296913]]]},"properties":{"site":"paestum","name":null,"category":"other","historic":null,"building":"yes","osm_id":1220423795}},{"type":"Feature","geometry":{"type":"Polygon","coordinates":[[[15.0094915,40.4297387],[15.0095208,40.4296728],[15.0096621,40.4297092],[15.0096328,40.4297751],[15.0094915,40.4297387]]]},"properties":{"site":"paestum","name":null,"category":"other","historic":null,"building":"yes","osm_id":1220423796}},{"type":"Feature","geometry":{"type":"Polygon","coordinates":[[[15.0096696,40.4296859],[15.0097391,40.4295052],[15.0098146,40.429522],[15.0097451,40.4297027],[15.0096696,40.4296859]]]},"properties":{"site":"paestum","name":null,"category":"other","historic":null,"building":"yes","osm_id":1220423797}},{"type":"Feature","geometry":{"type":"Polygon","coordinates":[[[15.0154652,40.4236812],[15.0154932,40.4234241],[15.0156825,40.4234361],[15.0156544,40.4236932],[15.0154652,40.4236812]]]},"properties":{"site":"paestum","name":null,"category":"other","historic":null,"building":"yes","osm_id":1220423798}},{"type":"Feature","geometry":{"type":"Polygon","coordinates":[[[15.0157532,40.4236568],[15.015776,40.4234367],[15.0159367,40.4234464],[15.0159139,40.4236664],[15.0157532,40.4236568]]]},"properties":{"site":"paestum","name":null,"category":"other","historic":null,"building":"yes","osm_id":1220423799}},{"type":"Feature","geometry":{"type":"Polygon","coordinates":[[[15.0157215,40.4231661],[15.0157434,40.4229716],[15.0159678,40.4229862],[15.0159459,40.4231808],[15.0157215,40.4231661]]]},"properties":{"site":"paestum","name":null,"category":"other","historic":null,"building":"yes","osm_id":1220423800}},{"type":"Feature","geometry":{"type":"Polygon","coordinates":[[[15.0154765,40.4227844],[15.0155036,40.4226289],[15.0156803,40.4226467],[15.0156533,40.4228022],[15.0154765,40.4227844]]]},"properties":{"site":"paestum","name":null,"category":"other","historic":null,"building":"yes","osm_id":1220423801}},{"type":"Feature","geometry":{"type":"Polygon","coordinates":[[[15.0034578,40.4156975],[15.003542,40.4157005],[15.0035615,40.4153829],[15.0034773,40.4153799],[15.0034578,40.4156975]]]},"properties":{"site":"paestum","name":null,"category":"other","historic":null,"building":"yes","osm_id":1236657943}},{"type":"Feature","geometry":{"type":"Polygon","coordinates":[[[15.0032231,40.4131172],[15.0032622,40.4132435],[15.0033816,40.413222],[15.0033425,40.4130958],[15.0032231,40.4131172]]]},"properties":{"site":"paestum","name":null,"category":"other","historic":null,"building":"yes","osm_id":1236657944}},{"type":"Feature","geometry":{"type":"Polygon","coordinates":[[[15.0161003,40.4137093],[15.0161662,40.4138065],[15.0163755,40.4137242],[15.016268,40.4135656],[15.0160939,40.4136341],[15.0159295,40.4133916],[15.0157945,40.4134446],[15.0158199,40.413482],[15.0158705,40.4134621],[15.0160512,40.4137286],[15.0161003,40.4137093]]]},"properties":{"site":"paestum","name":null,"category":"other","historic":null,"building":"yes","osm_id":1237033733}},{"type":"Feature","geometry":{"type":"Polygon","coordinates":[[[15.0159958,40.413349],[15.0160437,40.4133971],[15.0165497,40.413105],[15.0165684,40.4131238],[15.0166196,40.4130942],[15.0165712,40.4130251],[15.0165671,40.4130192],[15.0159958,40.413349]]]},"properties":{"site":"paestum","name":null,"category":"other","historic":null,"building":"yes","osm_id":1237033735}},{"type":"Feature","geometry":{"type":"Polygon","coordinates":[[[15.0050059,40.426971],[15.0049994,40.4270094],[15.0049377,40.4269992],[15.0049458,40.4269635],[15.0050059,40.426971]]]},"properties":{"site":"paestum","name":null,"category":"other","historic":null,"building":"yes","osm_id":1240188531}},{"type":"Feature","geometry":{"type":"Polygon","coordinates":[[[15.0050804,40.4269818],[15.0050799,40.4270196],[15.0049994,40.4270094],[15.0050059,40.426971],[15.0050804,40.4269818]]]},"properties":{"site":"paestum","name":null,"category":"other","historic":null,"building":"yes","osm_id":1240188532}},{"type":"Feature","geometry":{"type":"Polygon","coordinates":[[[15.004978,40.4269058],[15.0049744,40.4269665],[15.0050059,40.426971],[15.0050804,40.4269818],[15.0050846,40.4269094],[15.004978,40.4269058]]]},"properties":{"site":"paestum","name":null,"category":"other","historic":null,"building":"yes","osm_id":1240188533}},{"type":"Feature","geometry":{"type":"Polygon","coordinates":[[[15.001788,40.4275775],[15.001708,40.4277128],[15.0019945,40.4278111],[15.0020746,40.4276758],[15.001788,40.4275775]]]},"properties":{"site":"paestum","name":null,"category":"other","historic":null,"building":"yes","osm_id":1240188536}},{"type":"Feature","geometry":{"type":"Polygon","coordinates":[[[15.0087839,40.4180863],[15.008013,40.4172762],[15.0077368,40.4176616],[15.0076696,40.4181747],[15.008146,40.4182079],[15.0087342,40.4181814],[15.0087855,40.4181548],[15.0088012,40.4181243],[15.0087839,40.4180863]]]},"properties":{"site":"paestum","name":"Sanctuary of Santa Venera","category":"temple","historic":"archaeological_site","building":null,"osm_id":1240630911}},{"type":"Feature","geometry":{"type":"Polygon","coordinates":[[[15.0145917,40.4270212],[15.0145957,40.4269201],[15.0145271,40.4269185],[15.0145231,40.4270196],[15.0145917,40.4270212]]]},"properties":{"site":"paestum","name":null,"category":"other","historic":null,"building":"yes","osm_id":1240765580}},{"type":"Feature","geometry":{"type":"Polygon","coordinates":[[[15.0146614,40.4228037],[15.0147515,40.4228064],[15.0147562,40.4227145],[15.0146661,40.4227118],[15.0146614,40.4228037]]]},"properties":{"site":"paestum","name":null,"category":"archaeological","historic":null,"building":"ruins","osm_id":1240768253}},{"type":"Feature","geometry":{"type":"Polygon","coordinates":[[[15.0141223,40.4226782],[15.014243,40.4226649],[15.01423,40.4225967],[15.0141093,40.42261],[15.0141223,40.4226782]]]},"properties":{"site":"paestum","name":null,"category":"archaeological","historic":null,"building":"ruins","osm_id":1240768256}},{"type":"Feature","geometry":{"type":"Polygon","coordinates":[[[15.0161386,40.4221498],[15.016138,40.4221018],[15.0161289,40.4220778],[15.0161004,40.4220707],[15.0159708,40.4220732],[15.0159696,40.4220926],[15.0159704,40.4221494],[15.0161386,40.4221498]]]},"properties":{"site":"paestum","name":null,"category":"other","historic":null,"building":"yes","osm_id":1240809615}},{"type":"Feature","geometry":{"type":"Polygon","coordinates":[[[15.0158409,40.4220896],[15.015839,40.4221468],[15.0159704,40.4221494],[15.0159696,40.4220926],[15.0158409,40.4220896]]]},"properties":{"site":"paestum","name":null,"category":"other","historic":null,"building":"yes","osm_id":1240809616}},{"type":"Feature","geometry":{"type":"Polygon","coordinates":[[[15.0045923,40.420282],[15.0045979,40.4201986],[15.0045373,40.4201962],[15.0044912,40.4201945],[15.0044775,40.4201939],[15.0044073,40.4201912],[15.0044066,40.4202016],[15.0043009,40.4201976],[15.0041991,40.4201936],[15.0041935,40.4202776],[15.0041915,40.4203076],[15.0041889,40.4203463],[15.0041869,40.4203767],[15.0041835,40.4204266],[15.0041827,40.4204388],[15.0041812,40.420462],[15.0041741,40.4205682],[15.004171,40.4206142],[15.0041898,40.420615],[15.004236,40.4206168],[15.0043609,40.4206216],[15.0043718,40.420622],[15.0043704,40.4206419],[15.0044001,40.420643],[15.0044163,40.4206436],[15.0044607,40.4206454],[15.0044617,40.4206302],[15.004503,40.4206318],[15.0045688,40.4206343],[15.0045714,40.4205951],[15.0045723,40.4205814],[15.004573,40.4205717],[15.0045756,40.4205332],[15.0045798,40.4204701],[15.0045826,40.4204284],[15.004586,40.4203774],[15.0045873,40.4203578],[15.0045923,40.420282]]]},"properties":{"site":"paestum","name":"Casa con peristilio","category":"archaeological","historic":"archaeological_site","building":null,"osm_id":1365533659}},{"type":"Feature","geometry":{"type":"Polygon","coordinates":[[[15.0056333,40.4218497],[15.0056258,40.4219699],[15.0056187,40.4220818],[15.0055147,40.422078],[15.0055109,40.4221379],[15.0055078,40.4221868],[15.0055014,40.4222889],[15.0057388,40.4222976],[15.0059875,40.4223067],[15.0059938,40.4222059],[15.005997,40.4221561],[15.0060029,40.4220612],[15.0060044,40.4220382],[15.0060154,40.4218637],[15.0057866,40.4218553],[15.0057562,40.4218542],[15.0056333,40.4218497]]]},"properties":{"site":"paestum","name":"Comitium","category":"archaeological","historic":"archaeological_site","building":null,"osm_id":1365551040}},{"type":"Feature","geometry":{"type":"Polygon","coordinates":[[[15.0045164,40.4213847],[15.0045154,40.4214],[15.0045134,40.4214293],[15.0045113,40.4214603],[15.0045093,40.4214909],[15.0045072,40.4215222],[15.0045052,40.4215527],[15.0045023,40.421596],[15.0044992,40.4216433],[15.0044955,40.4216982],[15.0044947,40.4217101],[15.004494,40.4217206],[15.0044882,40.4218084],[15.0043304,40.4218023],[15.0043056,40.4218013],[15.0042693,40.4217999],[15.0042126,40.4217977],[15.004213,40.4217915],[15.004217,40.4217316],[15.00422,40.421686],[15.0042793,40.4216883],[15.0042829,40.4216345],[15.0042844,40.4216129],[15.0042855,40.4215961],[15.0042599,40.4215951],[15.004261,40.4215785],[15.0042766,40.4215791],[15.004279,40.4215426],[15.0042795,40.4215362],[15.0042812,40.42151],[15.0042835,40.4214762],[15.004285,40.4214527],[15.0042853,40.4214492],[15.004287,40.4214223],[15.0043042,40.421423],[15.0043073,40.4213767],[15.0043184,40.4213771],[15.0043591,40.4213787],[15.0043942,40.42138],[15.0044376,40.4213817],[15.0044713,40.421383],[15.0044963,40.421384],[15.0045164,40.4213847]]]},"properties":{"site":"paestum","name":"Casa con impluvio di marmo","category":"archaeological","historic":"archaeological_site","building":null,"osm_id":1365551046}},{"type":"Feature","geometry":{"type":"Polygon","coordinates":[[[15.0048337,40.4219112],[15.004839,40.4219114],[15.0048595,40.4219121],[15.0048983,40.4219134],[15.0049239,40.4219142],[15.0049349,40.4219146],[15.0049636,40.4219156],[15.0049717,40.4219158],[15.0049818,40.4219162],[15.0050279,40.4219177],[15.0050411,40.4219182],[15.0050529,40.4219186],[15.0050948,40.42192],[15.0051133,40.4219206],[15.0051277,40.4219211],[15.0051803,40.4219228],[15.0051949,40.4219233],[15.0052249,40.4219243],[15.0052499,40.4219252],[15.0052889,40.4219265],[15.0053108,40.4219272],[15.0053245,40.4219277],[15.0053544,40.4219287],[15.0053723,40.4219293],[15.0054165,40.4219309],[15.0054175,40.4218848],[15.0054179,40.421866],[15.0054183,40.4218436],[15.0053553,40.4218412],[15.0052899,40.4218387],[15.0052303,40.4218364],[15.0052139,40.4218358],[15.0051911,40.4218349],[15.0051644,40.4218339],[15.0050995,40.4218314],[15.0050608,40.4218299],[15.0050327,40.4218288],[15.0049983,40.4218275],[15.0049674,40.4218263],[15.0049035,40.4218239],[15.0048559,40.421822],[15.0048382,40.4218214],[15.0048361,40.4218631],[15.0048349,40.4218864],[15.0048337,40.4219112]]]},"properties":{"site":"paestum","name":"Shops","category":"taberna","historic":"archaeological_site","building":null,"osm_id":1365555303}},{"type":"Feature","geometry":{"type":"Polygon","coordinates":[[[15.0051472,40.421936],[15.0054098,40.4219446],[15.0054016,40.4221067],[15.0053973,40.4221922],[15.005395,40.4222367],[15.0053902,40.4223326],[15.0051762,40.4223234],[15.0051556,40.4223226],[15.0050166,40.4223166],[15.0045964,40.4222871],[15.0046155,40.4219186],[15.0047926,40.4219244],[15.0049853,40.4219307],[15.0050067,40.4219314],[15.0051472,40.421936]]]},"properties":{"site":"paestum","name":"Sanctuary with a pool","category":"temple","historic":"archaeological_site","building":null,"osm_id":1365560250}},{"type":"Feature","geometry":{"type":"Polygon","coordinates":[[[15.0047278,40.4239309],[15.0046956,40.4248226],[15.0060562,40.4248231],[15.0060825,40.4247739],[15.0061754,40.4245833],[15.0062263,40.424448],[15.0062551,40.4243481],[15.0062855,40.4241885],[15.0063056,40.4239931],[15.0047278,40.4239309]]]},"properties":{"site":"paestum","name":"Northern sanctuary","category":"temple","historic":"archaeological_site","building":null,"osm_id":1365575287}},{"type":"Feature","geometry":{"type":"Polygon","coordinates":[[[15.0063,40.4183258],[15.006494,40.4183695],[15.006508,40.4183212],[15.0064726,40.418301],[15.0064698,40.4182754],[15.0063224,40.4182605],[15.0063,40.4183258]]]},"properties":{"site":"paestum","name":null,"category":"other","historic":null,"building":"roof","osm_id":1411985794}},{"type":"Feature","geometry":{"type":"Polygon","coordinates":[[[14.9972018,40.4168469],[14.9972414,40.4167011],[14.9973314,40.4167152],[14.9973226,40.4167475],[14.9974442,40.4167667],[14.9974575,40.4167181],[14.9975912,40.4167391],[14.9975548,40.4168733],[14.9974929,40.4168636],[14.9974853,40.4168916],[14.9972018,40.4168469]]]},"properties":{"site":"paestum","name":null,"category":"other","historic":null,"building":"yes","osm_id":1448045322}},{"type":"Feature","geometry":{"type":"Polygon","coordinates":[[[14.9973802,40.4163918],[14.9973921,40.416354],[14.9977518,40.4164197],[14.9977399,40.4164575],[14.9973802,40.4163918]]]},"properties":{"site":"paestum","name":null,"category":"other","historic":null,"building":"roof","osm_id":1448045323}},{"type":"Feature","geometry":{"type":"Polygon","coordinates":[[[14.9976965,40.4167457],[14.9977218,40.4166438],[14.9977989,40.4166549],[14.9977736,40.4167568],[14.9976965,40.4167457]]]},"properties":{"site":"paestum","name":null,"category":"other","historic":null,"building":"yes","osm_id":1448045324}},{"type":"Feature","geometry":{"type":"Polygon","coordinates":[[[15.0146973,40.4216163],[15.0147018,40.4214535],[15.0147989,40.421455],[15.0147945,40.4216179],[15.0147794,40.4216176],[15.0146973,40.4216163]]]},"properties":{"site":"paestum","name":null,"category":"other","historic":null,"building":"roof","osm_id":1448064588}},{"type":"Feature","geometry":{"type":"Polygon","coordinates":[[[15.0034736,40.4159335],[15.0034751,40.4159742],[15.0035434,40.4159728],[15.003542,40.4159321],[15.0036033,40.4158956],[15.0035992,40.4157801],[15.0034055,40.415784],[15.0033288,40.4157856],[15.0033314,40.4158604],[15.0034082,40.4158588],[15.0034096,40.4158996],[15.0034736,40.4159335]]]},"properties":{"site":"paestum","name":null,"category":"other","historic":null,"building":"yes","osm_id":1448071631}},{"type":"Feature","geometry":{"type":"Polygon","coordinates":[[[15.0145762,40.4154162],[15.01473,40.4154129],[15.0147253,40.4152873],[15.0145715,40.4152906],[15.0145762,40.4154162]]]},"properties":{"site":"paestum","name":null,"category":"other","historic":null,"building":"yes","osm_id":1461799965}},{"type":"Feature","geometry":{"type":"Polygon","coordinates":[[[15.0141753,40.4139688],[15.0142276,40.413809],[15.0141059,40.4137859],[15.0140917,40.4138294],[15.0140625,40.4138238],[15.0140384,40.4138976],[15.0140675,40.4139031],[15.0140536,40.4139457],[15.0141753,40.4139688]]]},"properties":{"site":"paestum","name":null,"category":"other","historic":null,"building":"yes","osm_id":1461799966}},{"type":"Feature","geometry":{"type":"Polygon","coordinates":[[[15.0131701,40.4143037],[15.0132476,40.4142714],[15.0132232,40.4142375],[15.0132426,40.4142294],[15.0131141,40.4140509],[15.0130172,40.4140913],[15.0131701,40.4143037]]]},"properties":{"site":"paestum","name":null,"category":"other","historic":null,"building":"yes","osm_id":1503649818}},{"type":"Feature","geometry":{"type":"Polygon","coordinates":[[[15.0052817,40.4157087],[15.0053304,40.415701],[15.0052043,40.4152405],[15.0051557,40.4152482],[15.0052817,40.4157087]]]},"properties":{"site":"paestum","name":null,"category":"other","historic":null,"building":"yes","osm_id":1503649819}},{"type":"Feature","geometry":{"type":"Polygon","coordinates":[[[15.0071499,40.4143395],[15.0072237,40.4143778],[15.0075013,40.4140673],[15.0074275,40.4140291],[15.0071499,40.4143395]]]},"properties":{"site":"paestum","name":null,"category":"other","historic":null,"building":"yes","osm_id":1503649820}},{"type":"Feature","geometry":{"type":"Polygon","coordinates":[[[15.0144802,40.4166752],[15.0146669,40.4166196],[15.0145789,40.4164513],[15.0145295,40.4164644],[15.0145145,40.4164219],[15.0144137,40.4164399],[15.0143407,40.416466],[15.01436,40.4165167],[15.0143472,40.4165412],[15.0143751,40.4165837],[15.0144137,40.4165722],[15.0144244,40.416618],[15.0144437,40.4166131],[15.0144802,40.4166752]]]},"properties":{"site":"paestum","name":null,"category":"other","historic":null,"building":"yes","osm_id":1539723725}},{"type":"Feature","geometry":{"type":"Polygon","coordinates":[[[15.0141449,40.4167707],[15.0142945,40.4167819],[15.0143026,40.4167509],[15.0143742,40.4167546],[15.0143774,40.4166221],[15.014249,40.4166197],[15.0142408,40.416559],[15.01414,40.4165578],[15.01414,40.4166271],[15.0140522,40.4166271],[15.0140424,40.4166902],[15.0141384,40.4167076],[15.0141449,40.4167707]]]},"properties":{"site":"paestum","name":null,"category":"other","historic":null,"building":"yes","osm_id":1539723726}},{"type":"Feature","geometry":{"type":"Polygon","coordinates":[[[15.0138636,40.4167719],[15.0139367,40.4167781],[15.0139449,40.4167187],[15.0138668,40.4167125],[15.0138636,40.4167719]]]},"properties":{"site":"paestum","name":null,"category":"other","historic":null,"building":"yes","osm_id":1539723727}},{"type":"Feature","geometry":{"type":"Polygon","coordinates":[[[15.0133513,40.4166803],[15.0135172,40.4166915],[15.0135269,40.4165776],[15.0133725,40.4165664],[15.0133513,40.4166803]]]},"properties":{"site":"paestum","name":null,"category":"other","historic":null,"building":"yes","osm_id":1539723728}},{"type":"Feature","geometry":{"type":"Polygon","coordinates":[[[15.014633,40.4156562],[15.0146415,40.4155775],[15.0148213,40.415598],[15.0148086,40.4156712],[15.014633,40.4156562]]]},"properties":{"site":"paestum","name":null,"category":"other","historic":null,"building":"yes","osm_id":1539723729}},{"type":"Feature","geometry":{"type":"Polygon","coordinates":[[[15.014152,40.4154984],[15.014226,40.4155017],[15.0142947,40.4155082],[15.0143162,40.4154314],[15.0142357,40.4154167],[15.0142411,40.4153873],[15.0141606,40.4153792],[15.014152,40.4154984]]]},"properties":{"site":"paestum","name":null,"category":"other","historic":null,"building":"yes","osm_id":1539723730}},{"type":"Feature","geometry":{"type":"Polygon","coordinates":[[[15.0142116,40.4153342],[15.0143661,40.4153571],[15.0143822,40.4152926],[15.0143607,40.4152795],[15.014262,40.4152607],[15.0142706,40.415228],[15.0142169,40.4152231],[15.0142127,40.4152501],[15.0142373,40.4152681],[15.0142116,40.4153342]]]},"properties":{"site":"paestum","name":null,"category":"other","historic":null,"building":"yes","osm_id":1539723731}},{"type":"Feature","geometry":{"type":"Polygon","coordinates":[[[15.0146619,40.4155646],[15.0148343,40.415577],[15.0148408,40.4155523],[15.014875,40.4155535],[15.0148896,40.4155673],[15.0148912,40.4154861],[15.0148197,40.4154725],[15.0146684,40.4154614],[15.0146619,40.4155646]]]},"properties":{"site":"paestum","name":null,"category":"other","historic":null,"building":"yes","osm_id":1539723732}},{"type":"Feature","geometry":{"type":"Polygon","coordinates":[[[15.0146619,40.4149252],[15.0148603,40.4149426],[15.0148668,40.4148571],[15.0148164,40.414851],[15.0148392,40.4147952],[15.0146457,40.4147742],[15.0146245,40.4148311],[15.0146766,40.4148361],[15.0146619,40.4149252]]]},"properties":{"site":"paestum","name":null,"category":"other","historic":null,"building":"yes","osm_id":1539723733}},{"type":"Feature","geometry":{"type":"Polygon","coordinates":[[[15.0145906,40.4147275],[15.014689,40.4147343],[15.0146955,40.4147244],[15.0147435,40.4147299],[15.0147931,40.4147305],[15.0147866,40.4147528],[15.014876,40.4147665],[15.0148801,40.4147225],[15.0148077,40.4147206],[15.014754,40.4146946],[15.0147597,40.414686],[15.0148134,40.4146909],[15.0148231,40.4146513],[15.0147768,40.4146383],[15.0147809,40.4146104],[15.0146987,40.4146036],[15.0146971,40.4146234],[15.0146508,40.4146166],[15.0146312,40.4146216],[15.0146215,40.4146618],[15.0145987,40.4146668],[15.0145906,40.4147275]]]},"properties":{"site":"paestum","name":null,"category":"other","historic":null,"building":"yes","osm_id":1539723734}},{"type":"Feature","geometry":{"type":"Polygon","coordinates":[[[15.0139039,40.4148238],[15.0139974,40.414834],[15.0140072,40.4147591],[15.0139131,40.4147479],[15.0139039,40.4148238]]]},"properties":{"site":"paestum","name":"Volksbank","category":"other","historic":null,"building":"yes","osm_id":1539723735}},{"type":"Feature","geometry":{"type":"Polygon","coordinates":[[[15.0139505,40.415126],[15.0141104,40.4151424],[15.0141265,40.4150345],[15.0139795,40.4150215],[15.0139688,40.4150443],[15.013958,40.415046],[15.0139505,40.415126]]]},"properties":{"site":"paestum","name":null,"category":"other","historic":null,"building":"yes","osm_id":1539723736}},{"type":"Feature","geometry":{"type":"Polygon","coordinates":[[[15.0138861,40.415211],[15.0140524,40.4152314],[15.0140599,40.415193],[15.0138969,40.4151775],[15.0138861,40.415211]]]},"properties":{"site":"paestum","name":null,"category":"other","historic":null,"building":"yes","osm_id":1539723737}},{"type":"Feature","geometry":{"type":"Polygon","coordinates":[[[15.0140845,40.4150198],[15.0140963,40.4149479],[15.0143034,40.4149651],[15.0142905,40.4150517],[15.0140845,40.4150198]]]},"properties":{"site":"paestum","name":null,"category":"other","historic":null,"building":"yes","osm_id":1539723738}}]}