{"type":"FeatureCollection","features":[{"type":"Feature","geometry":{"type":"Polygon","coordinates":[[[38.2653544,34.5493334],[38.2667483,34.5492552],[38.267536,34.5490167],[38.2709907,34.5485705],[38.2713233,34.5486367],[38.2715111,34.5488179],[38.2714735,34.5489858],[38.2706796,34.5508901],[38.2703363,34.5513717],[38.2702558,34.5516147],[38.2702558,34.5517782],[38.2703543,34.5519015],[38.271216,34.5530683],[38.2705937,34.5533731],[38.270593,34.5535762],[38.2706425,34.5536899],[38.2704832,34.5539668],[38.2703204,34.554063],[38.2705186,34.5542758],[38.2707841,34.5540951],[38.2713362,34.5547014],[38.272037,34.5542641],[38.2725796,34.55501],[38.2730362,34.555421],[38.2735842,34.5557885],[38.2732214,34.556202],[38.2724841,34.5566102],[38.2722752,34.556721],[38.2715108,34.5569979],[38.2711816,34.5571028],[38.2707782,34.5571728],[38.2703818,34.5572165],[38.2656784,34.5573429],[38.2632429,34.5568657],[38.2589836,34.556636],[38.2543487,34.5547893],[38.2525141,34.5543651],[38.2502532,34.5571243],[38.2445089,34.5543816],[38.2483406,34.5522533],[38.2540116,34.5510223],[38.255695,34.5505734],[38.2565095,34.5504892],[38.2579641,34.5505924],[38.2587078,34.550905],[38.2591777,34.5507559],[38.2594616,34.5505272],[38.2595926,34.5502555],[38.2595942,34.5500266],[38.2594271,34.549557],[38.259376,34.5493537],[38.2594954,34.5491102],[38.2599964,34.5492706],[38.2637786,34.5493009],[38.2653544,34.5493334]]]},"properties":{"site":"palmyra","name":"تدمر","category":"archaeological","historic":"archaeological_site","building":null,"osm_id":91460784}},{"type":"Feature","geometry":{"type":"Polygon","coordinates":[[[38.2727162,34.5465111],[38.2749148,34.5463657],[38.2750917,34.5481816],[38.2728485,34.5483299],[38.2727733,34.5475588],[38.2726686,34.5475657],[38.2726582,34.5474594],[38.2726307,34.5474612],[38.2726244,34.5473968],[38.2726457,34.5473954],[38.2726301,34.5472354],[38.2727596,34.5471131],[38.2727345,34.546857],[38.2726796,34.5468606],[38.2726688,34.5467497],[38.272739,34.546745],[38.2727162,34.5465111]]]},"properties":{"site":"palmyra","name":"معبد بعل","category":"archaeological","historic":"ruins","building":null,"osm_id":226891786}},{"type":"Feature","geometry":{"type":"Polygon","coordinates":[[[38.2696016,34.550733],[38.2703436,34.550351],[38.2706286,34.5507267],[38.2698867,34.5511087],[38.2696016,34.550733]]]},"properties":{"site":"palmyra","name":"حامات ديوكليسيان","category":"archaeological","historic":"archaeological_site","building":null,"osm_id":226891787}},{"type":"Feature","geometry":{"type":"Polygon","coordinates":[[[38.2602891,34.5548912],[38.2620432,34.5539811],[38.2627406,34.5547587],[38.2615497,34.5552888],[38.2614209,34.5551165],[38.2606056,34.5554656],[38.2602891,34.5548912]]]},"properties":{"site":"palmyra","name":null,"category":"archaeological","historic":"ruins","building":null,"osm_id":226891794}},{"type":"Feature","geometry":{"type":"Polygon","coordinates":[[[38.2666281,34.550431],[38.2671133,34.5500702],[38.2677796,34.5506021],[38.2672889,34.5509728],[38.2666281,34.550431]]]},"properties":{"site":"palmyra","name":"Agora","category":"forum","historic":"archaeological_site","building":null,"osm_id":226891795}},{"type":"Feature","geometry":{"type":"Polygon","coordinates":[[[38.2703003,34.5500396],[38.2700455,34.5492846],[38.2703605,34.5491709],[38.2707215,34.5498181],[38.2703003,34.5500396]]]},"properties":{"site":"palmyra","name":"معبد نبو","category":"archaeological","historic":"archaeological_site","building":null,"osm_id":226891800}},{"type":"Feature","geometry":{"type":"Polygon","coordinates":[[[38.2741567,34.5474804],[38.2741394,34.5471424],[38.2739876,34.5471477],[38.274005,34.5474857],[38.2741567,34.5474804]]]},"properties":{"site":"palmyra","name":"معبد بل","category":"archaeological","historic":"ruins","building":"yes","osm_id":303071536}},{"type":"Feature","geometry":{"type":"Polygon","coordinates":[[[38.2745661,34.5532127],[38.2748413,34.5535328],[38.2754046,34.5532324],[38.2750559,34.5527817],[38.2749271,34.5528436],[38.2749915,34.5529408],[38.2747775,34.5530956],[38.2745661,34.5532127]]]},"properties":{"site":"palmyra","name":"market","category":"archaeological","historic":"ruins","building":null,"osm_id":367183424}},{"type":"Feature","geometry":{"type":"Polygon","coordinates":[[[38.2755775,34.5467674],[38.2761301,34.546816],[38.2764037,34.5473286],[38.2761891,34.5473993],[38.2756634,34.5469751],[38.2755775,34.5467674]]]},"properties":{"site":"palmyra","name":null,"category":"archaeological","historic":"ruins","building":null,"osm_id":389745874}},{"type":"Feature","geometry":{"type":"Polygon","coordinates":[[[38.2736594,34.5548563],[38.2740503,34.5548859],[38.2741177,34.5546275],[38.2737268,34.5545979],[38.2736594,34.5548563]]]},"properties":{"site":"palmyra","name":null,"category":"archaeological","historic":"ruins","building":null,"osm_id":389947193}},{"type":"Feature","geometry":{"type":"Polygon","coordinates":[[[38.2744949,34.5554407],[38.2747501,34.5553763],[38.2747541,34.555387],[38.2749684,34.555333],[38.2749636,34.55532],[38.2752166,34.5552561],[38.2751562,34.5550938],[38.2749099,34.555156],[38.2749049,34.5551425],[38.2746879,34.5551973],[38.2746924,34.5552094],[38.2744331,34.5552749],[38.2744949,34.5554407]]]},"properties":{"site":"palmyra","name":"متحف تدمر","category":"other","historic":null,"building":"yes","osm_id":389947194}},{"type":"Feature","geometry":{"type":"Polygon","coordinates":[[[38.2694332,34.5529983],[38.2697517,34.5527855],[38.2705551,34.5536454],[38.270587,34.5537183],[38.2704348,34.5538436],[38.2704808,34.5539048],[38.2703145,34.5540127],[38.2702685,34.5539369],[38.2701764,34.5539864],[38.2695677,34.553418],[38.2697517,34.5533014],[38.2694332,34.5529983]]]},"properties":{"site":"palmyra","name":"معبد بعل شامين","category":"archaeological","historic":"archaeological_site","building":null,"osm_id":389978856}},{"type":"Feature","geometry":{"type":"Polygon","coordinates":[[[38.2688708,34.5500783],[38.2689808,34.5497901],[38.269312,34.5498758],[38.269202,34.5501641],[38.2688708,34.5500783]]]},"properties":{"site":"palmyra","name":null,"category":"archaeological","historic":"archaeological_site","building":null,"osm_id":389978857}},{"type":"Feature","geometry":{"type":"Polygon","coordinates":[[[38.2712222,34.5482912],[38.2713139,34.5479265],[38.271633,34.547981],[38.2715414,34.5483456],[38.2712222,34.5482912]]]},"properties":{"site":"palmyra","name":null,"category":"archaeological","historic":"ruins","building":null,"osm_id":389978869}},{"type":"Feature","geometry":{"type":"Polygon","coordinates":[[[38.2683724,34.5530005],[38.2679142,34.5525618],[38.2676006,34.5522615],[38.2678407,34.5520914],[38.2686125,34.5528304],[38.2683724,34.5530005]]]},"properties":{"site":"palmyra","name":null,"category":"archaeological","historic":"ruins","building":null,"osm_id":389978873}},{"type":"Feature","geometry":{"type":"Polygon","coordinates":[[[38.2680063,34.5512477],[38.2678071,34.5510167],[38.268177,34.5508124],[38.268421,34.5510468],[38.2680063,34.5512477]]]},"properties":{"site":"palmyra","name":"Caesareum","category":"archaeological","historic":"archaeological_site","building":null,"osm_id":389978879}},{"type":"Feature","geometry":{"type":"Polygon","coordinates":[[[38.2659278,34.5539869],[38.2658308,34.5538936],[38.2657209,34.5537878],[38.2659275,34.5536422],[38.2661343,34.5538413],[38.2659278,34.5539869]]]},"properties":{"site":"palmyra","name":"Early Christian Church","category":"medieval","historic":"ruins","building":null,"osm_id":389978894}},{"type":"Feature","geometry":{"type":"Polygon","coordinates":[[[38.2671283,34.554271],[38.2669652,34.5540927],[38.2672714,34.5539028],[38.2674344,34.5540812],[38.2673106,34.554158],[38.2671283,34.554271]]]},"properties":{"site":"palmyra","name":"Basilica","category":"basilica","historic":"ruins","building":null,"osm_id":389978896}},{"type":"Feature","geometry":{"type":"Polygon","coordinates":[[[38.2667033,34.5538839],[38.2665742,34.5537395],[38.2668192,34.553591],[38.2669482,34.5537354],[38.2667033,34.5538839]]]},"properties":{"site":"palmyra","name":null,"category":"archaeological","historic":"ruins","building":null,"osm_id":389978904}},{"type":"Feature","geometry":{"type":"Polygon","coordinates":[[[38.2615255,34.5551448],[38.2613585,34.554899],[38.2618022,34.5546945],[38.2619692,34.5549402],[38.2615255,34.5551448]]]},"properties":{"site":"palmyra","name":"معبد اللات","category":"archaeological","historic":"ruins","building":null,"osm_id":389984237}},{"type":"Feature","geometry":{"type":"Polygon","coordinates":[[[38.2606294,34.5553193],[38.2603198,34.5548994],[38.260458,34.5548212],[38.2607776,34.5552539],[38.2606294,34.5553193]]]},"properties":{"site":"palmyra","name":null,"category":"archaeological","historic":"ruins","building":null,"osm_id":389984238}},{"type":"Feature","geometry":{"type":"Polygon","coordinates":[[[38.2607776,34.5552539],[38.260458,34.5548212],[38.2606213,34.5547387],[38.2606699,34.5548044],[38.2607983,34.5547399],[38.2609585,34.5549564],[38.2608972,34.5549872],[38.2610088,34.5551381],[38.2607776,34.5552539]]]},"properties":{"site":"palmyra","name":null,"category":"archaeological","historic":"ruins","building":null,"osm_id":389984239}},{"type":"Feature","geometry":{"type":"Polygon","coordinates":[[[38.268799,34.5481308],[38.2695607,34.5479231],[38.2695875,34.5474415],[38.2680587,34.5472692],[38.2680318,34.5478745],[38.268799,34.5481308]]]},"properties":{"site":"palmyra","name":null,"category":"archaeological","historic":"ruins","building":null,"osm_id":389987175}},{"type":"Feature","geometry":{"type":"Polygon","coordinates":[[[38.262804,34.5505936],[38.2633879,34.5506461],[38.2633879,34.5502963],[38.2632782,34.5501768],[38.2629031,34.5501564],[38.262804,34.5505936]]]},"properties":{"site":"palmyra","name":null,"category":"archaeological","historic":"ruins","building":null,"osm_id":389987176}},{"type":"Feature","geometry":{"type":"Polygon","coordinates":[[[38.263119,34.5500747],[38.2630871,34.5498182],[38.2632216,34.5497745],[38.2632959,34.5500776],[38.263119,34.5500747]]]},"properties":{"site":"palmyra","name":null,"category":"archaeological","historic":"ruins","building":null,"osm_id":389987177}},{"type":"Feature","geometry":{"type":"Polygon","coordinates":[[[38.2772342,34.5548728],[38.2773501,34.554843],[38.277363,34.554877],[38.2774517,34.5548542],[38.2775088,34.5550044],[38.2773043,34.5550571],[38.2772342,34.5548728]]]},"properties":{"site":"palmyra","name":null,"category":"other","historic":null,"building":"yes","osm_id":404319079}},{"type":"Feature","geometry":{"type":"Polygon","coordinates":[[[38.2677988,34.5516141],[38.2659693,34.5530838],[38.2677988,34.5516141]]]},"properties":{"site":"palmyra","name":null,"category":"archaeological","historic":"ruins","building":null,"osm_id":416450488}},{"type":"Feature","geometry":{"type":"Polygon","coordinates":[[[38.2656928,34.5531024],[38.2677028,34.5515396],[38.2656928,34.5531024]]]},"properties":{"site":"palmyra","name":null,"category":"archaeological","historic":"ruins","building":null,"osm_id":416450489}},{"type":"Feature","geometry":{"type":"Polygon","coordinates":[[[38.2710211,34.5542701],[38.2710634,34.5543104],[38.2710991,34.5542851],[38.2710568,34.5542448],[38.2710211,34.5542701]]]},"properties":{"site":"palmyra","name":null,"category":"other","historic":null,"building":"yes","osm_id":474978359}},{"type":"Feature","geometry":{"type":"Polygon","coordinates":[[[38.2710071,34.5542232],[38.2709702,34.5542458],[38.2709929,34.5542709],[38.2710297,34.5542482],[38.2710071,34.5542232]]]},"properties":{"site":"palmyra","name":null,"category":"other","historic":null,"building":"yes","osm_id":474978361}},{"type":"Feature","geometry":{"type":"Polygon","coordinates":[[[38.2714825,34.5544217],[38.2715314,34.5543886],[38.2715091,34.5543662],[38.2714601,34.5543993],[38.2714825,34.5544217]]]},"properties":{"site":"palmyra","name":null,"category":"other","historic":null,"building":"yes","osm_id":474978362}},{"type":"Feature","geometry":{"type":"Polygon","coordinates":[[[38.2713236,34.5544187],[38.2714074,34.5543695],[38.2713861,34.554345],[38.2713023,34.5543941],[38.2713236,34.5544187]]]},"properties":{"site":"palmyra","name":null,"category":"other","historic":null,"building":"yes","osm_id":474978364}},{"type":"Feature","geometry":{"type":"Polygon","coordinates":[[[38.2712887,34.5543878],[38.2713584,34.5543408],[38.2713347,34.5543169],[38.271265,34.5543638],[38.2712887,34.5543878]]]},"properties":{"site":"palmyra","name":null,"category":"other","historic":null,"building":"yes","osm_id":474978365}},{"type":"Feature","geometry":{"type":"Polygon","coordinates":[[[38.2714986,34.55448],[38.2714748,34.5544529],[38.2713896,34.5545037],[38.2714134,34.5545308],[38.2714986,34.55448]]]},"properties":{"site":"palmyra","name":null,"category":"other","historic":null,"building":"yes","osm_id":474978367}},{"type":"Feature","geometry":{"type":"Polygon","coordinates":[[[38.2715931,34.5544198],[38.2715749,34.5543995],[38.2714951,34.5544481],[38.2715133,34.5544684],[38.2715931,34.5544198]]]},"properties":{"site":"palmyra","name":null,"category":"other","historic":null,"building":"yes","osm_id":474978368}},{"type":"Feature","geometry":{"type":"Polygon","coordinates":[[[38.2716293,34.5544797],[38.2716803,34.5544488],[38.2716517,34.5544169],[38.2716008,34.5544478],[38.2716293,34.5544797]]]},"properties":{"site":"palmyra","name":null,"category":"other","historic":null,"building":"yes","osm_id":474978370}},{"type":"Feature","geometry":{"type":"Polygon","coordinates":[[[38.2715883,34.5539639],[38.2716718,34.553912],[38.271791,34.5540422],[38.2718432,34.5540097],[38.2717242,34.5538798],[38.271714,34.5538862],[38.2716331,34.5537979],[38.2715076,34.5538758],[38.2715883,34.5539639]]]},"properties":{"site":"palmyra","name":null,"category":"other","historic":null,"building":"yes","osm_id":474978371}},{"type":"Feature","geometry":{"type":"Polygon","coordinates":[[[38.2714845,34.554155],[38.2715596,34.5541064],[38.271533,34.5540785],[38.2714579,34.5541271],[38.2714845,34.554155]]]},"properties":{"site":"palmyra","name":null,"category":"other","historic":null,"building":"yes","osm_id":474978373}},{"type":"Feature","geometry":{"type":"Polygon","coordinates":[[[38.2713061,34.5537336],[38.2712808,34.5537876],[38.2713573,34.5538119],[38.2713826,34.5537579],[38.2713061,34.5537336]]]},"properties":{"site":"palmyra","name":null,"category":"other","historic":null,"building":"yes","osm_id":474978374}},{"type":"Feature","geometry":{"type":"Polygon","coordinates":[[[38.271392,34.5536353],[38.2713456,34.5536996],[38.2715373,34.5537935],[38.2715837,34.5537292],[38.271392,34.5536353]]]},"properties":{"site":"palmyra","name":null,"category":"other","historic":null,"building":"yes","osm_id":474978376}},{"type":"Feature","geometry":{"type":"Polygon","coordinates":[[[38.271223,34.5540677],[38.2712552,34.554092],[38.2712926,34.5540584],[38.2712604,34.5540341],[38.271223,34.5540677]]]},"properties":{"site":"palmyra","name":null,"category":"other","historic":null,"building":"yes","osm_id":474978377}},{"type":"Feature","geometry":{"type":"Polygon","coordinates":[[[38.2716548,34.554324],[38.2717541,34.5542599],[38.2717166,34.5542205],[38.2716173,34.5542846],[38.2716548,34.554324]]]},"properties":{"site":"palmyra","name":null,"category":"other","historic":null,"building":"yes","osm_id":474978379}},{"type":"Feature","geometry":{"type":"Polygon","coordinates":[[[38.2710822,34.5543118],[38.2711908,34.5544289],[38.2712514,34.5543907],[38.2711428,34.5542737],[38.2710822,34.5543118]]]},"properties":{"site":"palmyra","name":null,"category":"other","historic":null,"building":"yes","osm_id":474978380}},{"type":"Feature","geometry":{"type":"Polygon","coordinates":[[[38.2717299,34.5538744],[38.2718037,34.5538258],[38.2716989,34.5537179],[38.2716251,34.5537665],[38.2717299,34.5538744]]]},"properties":{"site":"palmyra","name":null,"category":"other","historic":null,"building":"yes","osm_id":474978381}},{"type":"Feature","geometry":{"type":"Polygon","coordinates":[[[38.270939,34.5541574],[38.2710257,34.5542269],[38.2710759,34.5541843],[38.2709893,34.5541149],[38.270939,34.5541574]]]},"properties":{"site":"palmyra","name":null,"category":"other","historic":null,"building":"yes","osm_id":474978383}},{"type":"Feature","geometry":{"type":"Polygon","coordinates":[[[38.27175,34.5542052],[38.2718726,34.5543287],[38.2719759,34.5542591],[38.2718533,34.5541357],[38.27175,34.5542052]]]},"properties":{"site":"palmyra","name":null,"category":"other","historic":null,"building":"yes","osm_id":474978385}},{"type":"Feature","geometry":{"type":"Polygon","coordinates":[[[38.2707493,34.553902],[38.2707402,34.5538921],[38.2704641,34.5540645],[38.2705405,34.5541475],[38.2707913,34.553991],[38.2708961,34.5541049],[38.2709655,34.5540615],[38.2709287,34.5540215],[38.2710138,34.5539684],[38.2709442,34.5538927],[38.2709598,34.5538829],[38.2708942,34.5538116],[38.2707493,34.553902]]]},"properties":{"site":"palmyra","name":null,"category":"other","historic":null,"building":"yes","osm_id":474978386}},{"type":"Feature","geometry":{"type":"Polygon","coordinates":[[[38.2678771,34.5548758],[38.2680194,34.5547781],[38.26796,34.5547193],[38.268142,34.5545944],[38.2681998,34.5546515],[38.2682365,34.5546284],[38.2683071,34.5546379],[38.2683255,34.5546947],[38.2682708,34.5547339],[38.2683258,34.5547881],[38.2682344,34.5548509],[38.2681418,34.5549144],[38.2680087,34.5550058],[38.2678771,34.5548758]]]},"properties":{"site":"palmyra","name":"البازيليكا البيزنطينية","category":"archaeological","historic":"ruins","building":null,"osm_id":498019445}},{"type":"Feature","geometry":{"type":"Polygon","coordinates":[[[38.2642557,34.5518765],[38.2643576,34.5520025],[38.2644421,34.5519627],[38.2644743,34.5519903],[38.264548,34.5519881],[38.2645601,34.5519528],[38.2646365,34.5519296],[38.2645306,34.5517495],[38.264485,34.5517705],[38.2644595,34.5517407],[38.2643308,34.5518058],[38.2642369,34.5518147],[38.2642302,34.5518533],[38.2642557,34.5518765]]]},"properties":{"site":"palmyra","name":null,"category":"archaeological","historic":"ruins","building":null,"osm_id":498020468}},{"type":"Feature","geometry":{"type":"Polygon","coordinates":[[[38.2735816,34.5591854],[38.2733905,34.558553],[38.2739284,34.5584014],[38.2741656,34.5590164],[38.2735816,34.5591854]]]},"properties":{"site":"palmyra","name":"شعبة حزب البعث","category":"other","historic":null,"building":"yes","osm_id":632949306}},{"type":"Feature","geometry":{"type":"Polygon","coordinates":[[[38.2726454,34.5495919],[38.272648,34.5495169],[38.2726072,34.5495158],[38.2724931,34.5495129],[38.2723631,34.5495095],[38.2723641,34.5494883],[38.2723766,34.5492177],[38.2723993,34.5492185],[38.2725006,34.5492217],[38.2726013,34.5492245],[38.2726199,34.5492252],[38.2726051,34.5494962],[38.2726492,34.5494979],[38.2726683,34.5491752],[38.2726041,34.5491728],[38.2725026,34.5491685],[38.272402,34.5491647],[38.2723365,34.5491625],[38.2723196,34.549487],[38.2723185,34.5495082],[38.2723145,34.5495831],[38.2723601,34.5495848],[38.2724917,34.5495883],[38.2726041,34.5495913],[38.2726454,34.5495919]]]},"properties":{"site":"palmyra","name":"مركز زوار تدمر","category":"other","historic":null,"building":"yes","osm_id":1193271037}},{"type":"Feature","geometry":{"type":"Polygon","coordinates":[[[38.2727519,34.5495036],[38.2728139,34.5495053],[38.2728091,34.5496259],[38.272747,34.5496242],[38.2727519,34.5495036]]]},"properties":{"site":"palmyra","name":null,"category":"other","historic":null,"building":"yes","osm_id":1193271042}},{"type":"Feature","geometry":{"type":"Polygon","coordinates":[[[38.2726663,34.5494817],[38.2727244,34.5494834],[38.2727227,34.5495222],[38.2726646,34.5495204],[38.2726663,34.5494817]]]},"properties":{"site":"palmyra","name":null,"category":"other","historic":null,"building":"yes","osm_id":1193271043}},{"type":"Feature","geometry":{"type":"Polygon","coordinates":[[[38.272746,34.5496367],[38.2728088,34.5496383],[38.2728071,34.5496874],[38.2727442,34.5496859],[38.272746,34.5496367]]]},"properties":{"site":"palmyra","name":null,"category":"other","historic":null,"building":"yes","osm_id":1193271044}},{"type":"Feature","geometry":{"type":"Polygon","coordinates":[[[38.272653,34.5496349],[38.2727374,34.5496362],[38.2727363,34.5496862],[38.2726519,34.5496849],[38.272653,34.5496349]]]},"properties":{"site":"palmyra","name":null,"category":"other","historic":null,"building":"yes","osm_id":1193271045}},{"type":"Feature","geometry":{"type":"Polygon","coordinates":[[[38.2677833,34.5498249],[38.2678639,34.5497679],[38.2678816,34.5497837],[38.2678944,34.5497748],[38.2679096,34.5497642],[38.2678919,34.5497479],[38.2679661,34.5496957],[38.2678876,34.5496289],[38.2678759,34.5496366],[38.267842,34.5496019],[38.2677698,34.5496454],[38.2677523,34.5496275],[38.2677372,34.549636],[38.2677239,34.5496435],[38.2677414,34.5496603],[38.2676622,34.5497039],[38.2677833,34.5498249]]]},"properties":{"site":"palmyra","name":"بوابة المسرح","category":"archaeological","historic":"ruins","building":null,"osm_id":1193276194}},{"type":"Feature","geometry":{"type":"Polygon","coordinates":[[[38.267138,34.5500587],[38.2674607,34.5498312],[38.2675554,34.5499061],[38.2681314,34.5503615],[38.2679392,34.5505243],[38.2679027,34.5505553],[38.2678595,34.5505224],[38.2678129,34.5505615],[38.2675508,34.5503662],[38.2675176,34.5503415],[38.2672582,34.5501483],[38.267138,34.5500587]]]},"properties":{"site":"palmyra","name":null,"category":"archaeological","historic":"ruins","building":null,"osm_id":1193280481}},{"type":"Feature","geometry":{"type":"Polygon","coordinates":[[[38.2679392,34.5505243],[38.2681626,34.5506943],[38.2681534,34.5506511],[38.2681518,34.5506143],[38.2681534,34.5505725],[38.2681595,34.5505357],[38.2681672,34.5504951],[38.2681826,34.5504557],[38.2682042,34.5504113],[38.2681314,34.5503615],[38.2679392,34.5505243]]]},"properties":{"site":"palmyra","name":null,"category":"archaeological","historic":"ruins","building":null,"osm_id":1193280487}},{"type":"Feature","geometry":{"type":"Polygon","coordinates":[[[38.2651226,34.5589604],[38.2651125,34.558859],[38.2652363,34.5588506],[38.2652464,34.5589519],[38.2651226,34.5589604]]]},"properties":{"site":"palmyra","name":null,"category":"archaeological","historic":"ruins","building":null,"osm_id":1197958934}},{"type":"Feature","geometry":{"type":"Polygon","coordinates":[[[38.2662658,34.5596793],[38.2663896,34.5596133],[38.2663122,34.5595148],[38.2661884,34.5595808],[38.2662658,34.5596793]]]},"properties":{"site":"palmyra","name":null,"category":"archaeological","historic":"ruins","building":null,"osm_id":1197958935}},{"type":"Feature","geometry":{"type":"Polygon","coordinates":[[[38.2677389,34.5587982],[38.2677148,34.5586485],[38.2678634,34.5586323],[38.2678875,34.558782],[38.2677389,34.5587982]]]},"properties":{"site":"palmyra","name":null,"category":"archaeological","historic":"ruins","building":null,"osm_id":1197958936}},{"type":"Feature","geometry":{"type":"Polygon","coordinates":[[[38.2589637,34.5465491],[38.2589733,34.5466264],[38.2591034,34.5466153],[38.2590938,34.5465381],[38.2589637,34.5465491]]]},"properties":{"site":"palmyra","name":null,"category":"other","historic":null,"building":"yes","osm_id":1309128625}},{"type":"Feature","geometry":{"type":"Polygon","coordinates":[[[38.259362,34.5462299],[38.2594018,34.5463941],[38.2599395,34.5463057],[38.2598998,34.5461415],[38.259362,34.5462299]]]},"properties":{"site":"palmyra","name":null,"category":"other","historic":null,"building":"yes","osm_id":1309128626}},{"type":"Feature","geometry":{"type":"Polygon","coordinates":[[[38.2678576,34.5515087],[38.2680343,34.5513835],[38.2681874,34.5515302],[38.2680108,34.5516553],[38.2678576,34.5515087]]]},"properties":{"site":"palmyra","name":"تيترابيلون","category":"archaeological","historic":"archaeological_site","building":null,"osm_id":1340739509}},{"type":"Feature","geometry":{"type":"Polygon","coordinates":[[[38.2701361,34.5502946],[38.2701354,34.5502964],[38.2701339,34.550298],[38.2701319,34.5502991],[38.2701296,34.5502997],[38.2701272,34.5502996],[38.270125,34.5502989],[38.270123,34.5502976],[38.2701217,34.5502958],[38.2701212,34.5502937],[38.2701215,34.5502916],[38.2701227,34.5502897],[38.2701245,34.5502883],[38.2701269,34.5502874],[38.2701294,34.5502873],[38.2701319,34.5502878],[38.270134,34.550289],[38.2701355,34.5502907],[38.2701362,34.5502926],[38.2701361,34.5502946]]]},"properties":{"site":"palmyra","name":null,"category":"archaeological","historic":"ruins","building":"yes","osm_id":1340739527}},{"type":"Feature","geometry":{"type":"Polygon","coordinates":[[[38.2700974,34.550319],[38.2700966,34.5503209],[38.2700952,34.5503224],[38.2700932,34.5503236],[38.2700909,34.5503241],[38.2700885,34.550324],[38.2700863,34.5503233],[38.2700843,34.550322],[38.270083,34.5503202],[38.2700824,34.5503182],[38.2700828,34.5503161],[38.2700839,34.5503142],[38.2700858,34.5503127],[38.2700881,34.5503119],[38.2700907,34.5503117],[38.2700932,34.5503123],[38.2700953,34.5503135],[38.2700968,34.5503152],[38.2700975,34.5503171],[38.2700974,34.550319]]]},"properties":{"site":"palmyra","name":null,"category":"archaeological","historic":"ruins","building":"yes","osm_id":1340739528}},{"type":"Feature","geometry":{"type":"Polygon","coordinates":[[[38.2700541,34.5503427],[38.2700533,34.5503446],[38.2700518,34.5503461],[38.2700498,34.5503472],[38.2700475,34.5503478],[38.2700452,34.5503477],[38.2700429,34.550347],[38.2700409,34.5503457],[38.2700396,34.5503439],[38.2700391,34.5503418],[38.2700394,34.5503397],[38.2700406,34.5503379],[38.2700424,34.5503364],[38.2700448,34.5503356],[38.2700473,34.5503354],[38.2700498,34.550336],[38.2700519,34.5503372],[38.2700534,34.5503389],[38.2700541,34.5503407],[38.2700541,34.5503427]]]},"properties":{"site":"palmyra","name":null,"category":"archaeological","historic":"ruins","building":"yes","osm_id":1340739529}},{"type":"Feature","geometry":{"type":"Polygon","coordinates":[[[38.270016,34.5503675],[38.2700152,34.5503693],[38.2700138,34.5503709],[38.2700118,34.550372],[38.2700095,34.5503726],[38.2700071,34.5503725],[38.2700049,34.5503718],[38.2700029,34.5503705],[38.2700016,34.5503687],[38.270001,34.5503666],[38.2700014,34.5503645],[38.2700025,34.5503627],[38.2700044,34.5503612],[38.2700067,34.5503604],[38.2700093,34.5503602],[38.2700117,34.5503607],[38.2700139,34.5503619],[38.2700154,34.5503636],[38.2700161,34.5503655],[38.270016,34.5503675]]]},"properties":{"site":"palmyra","name":null,"category":"archaeological","historic":"ruins","building":"yes","osm_id":1340739530}},{"type":"Feature","geometry":{"type":"Polygon","coordinates":[[[38.2670801,34.5511222],[38.2670793,34.5511241],[38.2670779,34.5511256],[38.2670759,34.5511267],[38.2670736,34.5511273],[38.2670712,34.5511272],[38.267069,34.5511265],[38.267067,34.5511252],[38.2670657,34.5511234],[38.2670651,34.5511213],[38.2670655,34.5511193],[38.2670666,34.5511174],[38.2670685,34.5511159],[38.2670708,34.5511151],[38.2670734,34.5511149],[38.2670759,34.5511155],[38.267078,34.5511167],[38.2670795,34.5511184],[38.2670802,34.5511202],[38.2670801,34.5511222]]]},"properties":{"site":"palmyra","name":null,"category":"archaeological","historic":"ruins","building":"yes","osm_id":1340739531}},{"type":"Feature","geometry":{"type":"Polygon","coordinates":[[[38.2671099,34.5511333],[38.2671091,34.5511351],[38.2671076,34.5511367],[38.2671057,34.5511378],[38.2671034,34.5511383],[38.267101,34.5511383],[38.2670987,34.5511376],[38.2670968,34.5511363],[38.2670954,34.5511345],[38.2670949,34.5511324],[38.2670952,34.5511303],[38.2670964,34.5511284],[38.2670983,34.551127],[38.2671006,34.5511261],[38.2671032,34.551126],[38.2671056,34.5511265],[38.2671077,34.5511277],[38.2671092,34.5511294],[38.2671099,34.5511313],[38.2671099,34.5511333]]]},"properties":{"site":"palmyra","name":null,"category":"archaeological","historic":"ruins","building":"yes","osm_id":1340739532}},{"type":"Feature","geometry":{"type":"Polygon","coordinates":[[[38.2671391,34.5511429],[38.2671383,34.5511447],[38.2671368,34.5511463],[38.2671349,34.5511474],[38.2671326,34.551148],[38.2671302,34.5511479],[38.2671279,34.5511472],[38.267126,34.5511459],[38.2671246,34.5511441],[38.2671241,34.551142],[38.2671244,34.5511399],[38.2671256,34.551138],[38.2671275,34.5511366],[38.2671298,34.5511357],[38.2671323,34.5511356],[38.2671348,34.5511361],[38.2671369,34.5511373],[38.2671384,34.551139],[38.2671391,34.5511409],[38.2671391,34.5511429]]]},"properties":{"site":"palmyra","name":null,"category":"archaeological","historic":"ruins","building":"yes","osm_id":1340739533}},{"type":"Feature","geometry":{"type":"Polygon","coordinates":[[[38.26717,34.5511549],[38.2671692,34.5511568],[38.2671678,34.5511583],[38.2671658,34.5511594],[38.2671635,34.55116],[38.2671611,34.5511599],[38.2671589,34.5511592],[38.2671569,34.5511579],[38.2671556,34.5511561],[38.267155,34.551154],[38.2671554,34.5511519],[38.2671565,34.5511501],[38.2671584,34.5511486],[38.2671607,34.5511478],[38.2671633,34.5511476],[38.2671658,34.5511482],[38.2671679,34.5511494],[38.2671694,34.5511511],[38.2671701,34.5511529],[38.26717,34.5511549]]]},"properties":{"site":"palmyra","name":null,"category":"archaeological","historic":"ruins","building":"yes","osm_id":1340739534}},{"type":"Feature","geometry":{"type":"Polygon","coordinates":[[[38.267201,34.551165],[38.2672002,34.5511669],[38.2671987,34.5511684],[38.2671967,34.5511695],[38.2671944,34.5511701],[38.2671921,34.55117],[38.2671898,34.5511693],[38.2671878,34.551168],[38.2671865,34.5511662],[38.267186,34.5511641],[38.2671863,34.551162],[38.2671875,34.5511602],[38.2671893,34.5511587],[38.2671917,34.5511579],[38.2671942,34.5511577],[38.2671967,34.5511583],[38.2671988,34.5511594],[38.2672003,34.5511612],[38.267201,34.551163],[38.267201,34.551165]]]},"properties":{"site":"palmyra","name":null,"category":"archaeological","historic":"ruins","building":"yes","osm_id":1340739535}},{"type":"Feature","geometry":{"type":"Polygon","coordinates":[[[38.2672249,34.5511737],[38.2672241,34.5511755],[38.2672226,34.5511771],[38.2672207,34.5511782],[38.2672184,34.5511787],[38.267216,34.5511787],[38.2672137,34.551178],[38.2672118,34.5511766],[38.2672104,34.5511748],[38.2672099,34.5511728],[38.2672102,34.5511707],[38.2672114,34.5511688],[38.2672133,34.5511674],[38.2672156,34.5511665],[38.2672182,34.5511664],[38.2672206,34.5511669],[38.2672227,34.5511681],[38.2672242,34.5511698],[38.2672249,34.5511717],[38.2672249,34.5511737]]]},"properties":{"site":"palmyra","name":null,"category":"archaeological","historic":"ruins","building":"yes","osm_id":1340739536}},{"type":"Feature","geometry":{"type":"Polygon","coordinates":[[[38.2672506,34.5511818],[38.2672498,34.5511837],[38.2672483,34.5511852],[38.2672464,34.5511864],[38.2672441,34.5511869],[38.2672417,34.5511868],[38.2672394,34.5511861],[38.2672374,34.5511848],[38.2672361,34.551183],[38.2672356,34.551181],[38.2672359,34.5511789],[38.2672371,34.551177],[38.267239,34.5511755],[38.2672413,34.5511747],[38.2672438,34.5511745],[38.2672463,34.5511751],[38.2672484,34.5511763],[38.2672499,34.551178],[38.2672506,34.5511799],[38.2672506,34.5511818]]]},"properties":{"site":"palmyra","name":null,"category":"archaeological","historic":"ruins","building":"yes","osm_id":1340739537}},{"type":"Feature","geometry":{"type":"Polygon","coordinates":[[[38.2672753,34.5511923],[38.2672746,34.5511941],[38.2672731,34.5511957],[38.2672711,34.5511968],[38.2672688,34.5511973],[38.2672664,34.5511973],[38.2672642,34.5511966],[38.2672622,34.5511952],[38.2672609,34.5511934],[38.2672604,34.5511914],[38.2672607,34.5511893],[38.2672619,34.5511874],[38.2672637,34.551186],[38.2672661,34.5511851],[38.2672686,34.551185],[38.2672711,34.5511855],[38.2672732,34.5511867],[38.2672747,34.5511884],[38.2672754,34.5511903],[38.2672753,34.5511923]]]},"properties":{"site":"palmyra","name":null,"category":"archaeological","historic":"ruins","building":"yes","osm_id":1340739538}},{"type":"Feature","geometry":{"type":"Polygon","coordinates":[[[38.2673028,34.5512024],[38.267302,34.5512042],[38.2673005,34.5512058],[38.2672986,34.5512069],[38.2672963,34.5512074],[38.2672939,34.5512074],[38.2672916,34.5512067],[38.2672897,34.5512053],[38.2672883,34.5512035],[38.2672878,34.5512015],[38.2672881,34.5511994],[38.2672893,34.5511975],[38.2672912,34.5511961],[38.2672935,34.5511952],[38.267296,34.5511951],[38.2672985,34.5511956],[38.2673006,34.5511968],[38.2673021,34.5511985],[38.2673028,34.5512004],[38.2673028,34.5512024]]]},"properties":{"site":"palmyra","name":null,"category":"archaeological","historic":"ruins","building":"yes","osm_id":1340739539}},{"type":"Feature","geometry":{"type":"Polygon","coordinates":[[[38.2673279,34.5512115],[38.2673271,34.5512133],[38.2673256,34.5512149],[38.2673237,34.551216],[38.2673214,34.5512166],[38.267319,34.5512165],[38.2673167,34.5512158],[38.2673148,34.5512145],[38.2673134,34.5512127],[38.2673129,34.5512106],[38.2673132,34.5512085],[38.2673144,34.5512067],[38.2673163,34.5512052],[38.2673186,34.5512044],[38.2673211,34.5512042],[38.2673236,34.5512047],[38.2673257,34.5512059],[38.2673272,34.5512076],[38.2673279,34.5512095],[38.2673279,34.5512115]]]},"properties":{"site":"palmyra","name":null,"category":"archaeological","historic":"ruins","building":"yes","osm_id":1340739540}},{"type":"Feature","geometry":{"type":"Polygon","coordinates":[[[38.2673571,34.5512211],[38.2673563,34.551223],[38.2673548,34.5512245],[38.2673528,34.5512256],[38.2673506,34.5512262],[38.2673482,34.5512261],[38.2673459,34.5512254],[38.2673439,34.5512241],[38.2673426,34.5512223],[38.2673421,34.5512202],[38.2673424,34.5512181],[38.2673436,34.5512163],[38.2673454,34.5512148],[38.2673478,34.551214],[38.2673503,34.5512138],[38.2673528,34.5512144],[38.2673549,34.5512155],[38.2673564,34.5512173],[38.2673571,34.5512191],[38.2673571,34.5512211]]]},"properties":{"site":"palmyra","name":null,"category":"archaeological","historic":"ruins","building":"yes","osm_id":1340739541}},{"type":"Feature","geometry":{"type":"Polygon","coordinates":[[[38.2673839,34.5512317],[38.2673831,34.5512335],[38.2673817,34.5512351],[38.2673797,34.5512362],[38.2673774,34.5512368],[38.267375,34.5512367],[38.2673728,34.551236],[38.2673708,34.5512347],[38.2673695,34.5512329],[38.2673689,34.5512308],[38.2673693,34.5512287],[38.2673704,34.5512268],[38.2673723,34.5512254],[38.2673746,34.5512245],[38.2673772,34.5512244],[38.2673797,34.5512249],[38.2673818,34.5512261],[38.2673833,34.5512278],[38.267384,34.5512297],[38.2673839,34.5512317]]]},"properties":{"site":"palmyra","name":null,"category":"archaeological","historic":"ruins","building":"yes","osm_id":1340739542}},{"type":"Feature","geometry":{"type":"Polygon","coordinates":[[[38.2674125,34.5512413],[38.2674117,34.5512432],[38.2674103,34.5512447],[38.2674083,34.5512458],[38.267406,34.5512464],[38.2674036,34.5512463],[38.2674014,34.5512456],[38.2673994,34.5512443],[38.2673981,34.5512425],[38.2673975,34.5512404],[38.2673979,34.5512383],[38.267399,34.5512365],[38.2674009,34.551235],[38.2674032,34.5512342],[38.2674058,34.551234],[38.2674083,34.5512345],[38.2674104,34.5512357],[38.2674119,34.5512374],[38.2674126,34.5512393],[38.2674125,34.5512413]]]},"properties":{"site":"palmyra","name":null,"category":"archaeological","historic":"ruins","building":"yes","osm_id":1340739543}},{"type":"Feature","geometry":{"type":"Polygon","coordinates":[[[38.2674376,34.5512514],[38.2674368,34.5512533],[38.2674354,34.5512548],[38.2674334,34.5512559],[38.2674311,34.5512565],[38.2674287,34.5512564],[38.2674265,34.5512557],[38.2674245,34.5512544],[38.2674232,34.5512526],[38.2674226,34.5512505],[38.267423,34.5512484],[38.2674241,34.5512466],[38.267426,34.5512451],[38.2674283,34.5512443],[38.2674309,34.5512441],[38.2674334,34.5512446],[38.2674355,34.5512458],[38.267437,34.5512475],[38.2674377,34.5512494],[38.2674376,34.5512514]]]},"properties":{"site":"palmyra","name":null,"category":"archaeological","historic":"ruins","building":"yes","osm_id":1340739544}},{"type":"Feature","geometry":{"type":"Polygon","coordinates":[[[38.2674651,34.551262],[38.2674643,34.5512638],[38.2674628,34.5512654],[38.2674608,34.5512665],[38.2674585,34.551267],[38.2674562,34.551267],[38.2674539,34.5512663],[38.2674519,34.551265],[38.2674506,34.5512632],[38.2674501,34.5512611],[38.2674504,34.551259],[38.2674516,34.5512571],[38.2674534,34.5512557],[38.2674558,34.5512548],[38.2674583,34.5512547],[38.2674608,34.5512552],[38.2674629,34.5512564],[38.2674644,34.5512581],[38.2674651,34.55126],[38.2674651,34.551262]]]},"properties":{"site":"palmyra","name":null,"category":"archaeological","historic":"ruins","building":"yes","osm_id":1340739545}},{"type":"Feature","geometry":{"type":"Polygon","coordinates":[[[38.2674943,34.5512721],[38.2674935,34.5512739],[38.267492,34.5512755],[38.26749,34.5512766],[38.2674877,34.5512771],[38.2674853,34.5512771],[38.2674831,34.5512764],[38.2674811,34.5512751],[38.2674798,34.5512733],[38.2674793,34.5512712],[38.2674796,34.5512691],[38.2674808,34.5512672],[38.2674826,34.5512658],[38.267485,34.5512649],[38.2674875,34.5512648],[38.26749,34.5512653],[38.2674921,34.5512665],[38.2674936,34.5512682],[38.2674943,34.5512701],[38.2674943,34.5512721]]]},"properties":{"site":"palmyra","name":null,"category":"archaeological","historic":"ruins","building":"yes","osm_id":1340739546}},{"type":"Feature","geometry":{"type":"Polygon","coordinates":[[[38.2675229,34.5512817],[38.2675221,34.5512835],[38.2675206,34.5512851],[38.2675186,34.5512862],[38.2675163,34.5512868],[38.2675139,34.5512867],[38.2675117,34.551286],[38.2675097,34.5512847],[38.2675084,34.5512829],[38.2675079,34.5512808],[38.2675082,34.5512787],[38.2675094,34.5512768],[38.2675112,34.5512754],[38.2675136,34.5512745],[38.2675161,34.5512744],[38.2675186,34.5512749],[38.2675207,34.5512761],[38.2675222,34.5512778],[38.2675229,34.5512797],[38.2675229,34.5512817]]]},"properties":{"site":"palmyra","name":null,"category":"archaeological","historic":"ruins","building":"yes","osm_id":1340739547}},{"type":"Feature","geometry":{"type":"Polygon","coordinates":[[[38.2675515,34.5512918],[38.2675507,34.5512936],[38.2675492,34.5512952],[38.2675472,34.5512963],[38.2675449,34.5512969],[38.2675426,34.5512968],[38.2675403,34.5512961],[38.2675383,34.5512948],[38.267537,34.551293],[38.2675365,34.5512909],[38.2675368,34.5512888],[38.267538,34.5512869],[38.2675398,34.5512855],[38.2675422,34.5512846],[38.2675447,34.5512845],[38.2675472,34.551285],[38.2675493,34.5512862],[38.2675508,34.5512879],[38.2675515,34.5512898],[38.2675515,34.5512918]]]},"properties":{"site":"palmyra","name":null,"category":"archaeological","historic":"ruins","building":"yes","osm_id":1340739548}},{"type":"Feature","geometry":{"type":"Polygon","coordinates":[[[38.267576,34.5513009],[38.2675752,34.5513028],[38.2675737,34.5513043],[38.2675718,34.5513054],[38.2675695,34.551306],[38.2675671,34.5513059],[38.2675648,34.5513052],[38.2675628,34.5513039],[38.2675615,34.5513021],[38.267561,34.5513],[38.2675613,34.551298],[38.2675625,34.5512961],[38.2675644,34.5512946],[38.2675667,34.5512938],[38.2675692,34.5512936],[38.2675717,34.5512942],[38.2675738,34.5512954],[38.2675753,34.5512971],[38.267576,34.5512989],[38.267576,34.5513009]]]},"properties":{"site":"palmyra","name":null,"category":"archaeological","historic":"ruins","building":"yes","osm_id":1340739549}},{"type":"Feature","geometry":{"type":"Polygon","coordinates":[[[38.2676034,34.5513105],[38.2676026,34.5513124],[38.2676012,34.5513139],[38.2675992,34.5513151],[38.2675969,34.5513156],[38.2675945,34.5513155],[38.2675923,34.5513148],[38.2675903,34.5513135],[38.267589,34.5513117],[38.2675884,34.5513097],[38.2675888,34.5513076],[38.2675899,34.5513057],[38.2675918,34.5513042],[38.2675941,34.5513034],[38.2675967,34.5513032],[38.2675991,34.5513038],[38.2676013,34.551305],[38.2676028,34.5513067],[38.2676035,34.5513086],[38.2676034,34.5513105]]]},"properties":{"site":"palmyra","name":null,"category":"archaeological","historic":"ruins","building":"yes","osm_id":1340739550}},{"type":"Feature","geometry":{"type":"Polygon","coordinates":[[[38.2676338,34.5513211],[38.267633,34.551323],[38.2676315,34.5513245],[38.2676295,34.5513256],[38.2676273,34.5513262],[38.2676249,34.5513261],[38.2676226,34.5513254],[38.2676206,34.5513241],[38.2676193,34.5513223],[38.2676188,34.5513202],[38.2676191,34.5513181],[38.2676203,34.5513163],[38.2676221,34.5513148],[38.2676245,34.551314],[38.267627,34.5513138],[38.2676295,34.5513144],[38.2676316,34.5513156],[38.2676331,34.5513173],[38.2676338,34.5513191],[38.2676338,34.5513211]]]},"properties":{"site":"palmyra","name":null,"category":"archaeological","historic":"ruins","building":"yes","osm_id":1340739551}},{"type":"Feature","geometry":{"type":"Polygon","coordinates":[[[38.2815676,34.5496581],[38.2818818,34.5496168],[38.2818581,34.5494945],[38.2815439,34.5495357],[38.2815676,34.5496581]]]},"properties":{"site":"palmyra","name":null,"category":"other","historic":null,"building":"yes","osm_id":1453979426}},{"type":"Feature","geometry":{"type":"Polygon","coordinates":[[[38.276233,34.5561823],[38.2761921,34.556069],[38.2760112,34.5561132],[38.2760521,34.5562265],[38.276233,34.5561823]]]},"properties":{"site":"palmyra","name":null,"category":"other","historic":null,"building":"yes","osm_id":1454208280}},{"type":"Feature","geometry":{"type":"Polygon","coordinates":[[[38.2761125,34.5580358],[38.2763243,34.5579818],[38.2762545,34.5577962],[38.2760426,34.5578502],[38.2761125,34.5580358]]]},"properties":{"site":"palmyra","name":null,"category":"other","historic":null,"building":"yes","osm_id":1454469845}}]}