{"type":"FeatureCollection","features":[{"type":"Feature","geometry":{"type":"LineString","coordinates":[[38.2712877,34.5538611],[38.2710825,34.5536687],[38.2709905,34.5535871],[38.270817,34.5535783],[38.2707917,34.5534687],[38.270752,34.5533775],[38.2711919,34.5531478],[38.2715701,34.5529997]]},"properties":{"site":"palmyra","name":"","highway":"service"}},{"type":"Feature","geometry":{"type":"LineString","coordinates":[[38.2595166,34.5489811],[38.2594478,34.5490765],[38.2594022,34.5491494],[38.2593922,34.5493006],[38.2593861,34.5494366],[38.2593948,34.5495304],[38.2594264,34.5496265],[38.2594612,34.5497304],[38.2595397,34.5499103],[38.2595819,34.5500507],[38.2595903,34.5501713],[38.2595685,34.5502606],[38.2595336,34.5503357],[38.2594735,34.5504229],[38.2593879,34.5505225],[38.2593137,34.5505941],[38.2591984,34.5506781],[38.259076,34.5507438],[38.258957,34.5507885],[38.2588424,34.5507954],[38.2587343,34.5507731],[38.2586563,34.550737],[38.2583948,34.5505793],[38.2583159,34.5505433],[38.2582355,34.5505168],[38.2581321,34.5504898],[38.2580289,34.5504749],[38.2579082,34.5504638],[38.2577527,34.5504572],[38.2576346,34.5504528],[38.2574603,34.5504329],[38.2572135,34.5503975],[38.2570553,34.5503821],[38.25689,34.5503681],[38.2567247,34.5503599],[38.2565778,34.5503556],[38.2564464,34.5503556],[38.2563366,34.5503628],[38.256106,34.5503925],[38.2559019,34.5504263],[38.2557018,34.5504629],[38.2554567,34.5505168],[38.2552362,34.5505679],[38.2550088,34.5506251],[38.2548425,34.5506693],[38.2546322,34.550727],[38.2541156,34.5508858],[38.254009,34.5509198],[38.2538635,34.5509564],[38.2537508,34.5509785],[38.2532465,34.5510647],[38.2531339,34.551089],[38.2530193,34.5511142],[38.2529005,34.5511486],[38.2527369,34.5512061],[38.252584,34.5512635],[38.2524553,34.5513011],[38.2522843,34.5513484],[38.2513992,34.5515803]]},"properties":{"site":"palmyra","name":"","highway":"service"}},{"type":"Feature","geometry":{"type":"LineString","coordinates":[[38.2721684,34.5479687],[38.2724071,34.5479201],[38.2725144,34.5477875],[38.2725466,34.5473633],[38.2726002,34.5471159],[38.2726835,34.5469945],[38.2729271,34.5469426],[38.2737628,34.5468665],[38.2744725,34.5467489],[38.27459,34.5467385]]},"properties":{"site":"palmyra","name":"","highway":"track"}},{"type":"Feature","geometry":{"type":"LineString","coordinates":[[38.2827741,34.5575492],[38.2825385,34.5568821]]},"properties":{"site":"palmyra","name":"","highway":"service"}},{"type":"Feature","geometry":{"type":"LineString","coordinates":[[38.2816509,34.5567409],[38.281248,34.5568424]]},"properties":{"site":"palmyra","name":"","highway":"service"}},{"type":"Feature","geometry":{"type":"LineString","coordinates":[[38.2823239,34.5561907],[38.2821569,34.5557671],[38.2820268,34.5554359],[38.2817856,34.5548222],[38.2816181,34.5543961]]},"properties":{"site":"palmyra","name":"","highway":"service"}},{"type":"Feature","geometry":{"type":"LineString","coordinates":[[38.2809686,34.5572617],[38.2813709,34.5571678],[38.2817746,34.5570637],[38.2821194,34.5569816],[38.2825385,34.5568821],[38.2830162,34.5567625],[38.2833733,34.5566754],[38.2837102,34.5565932]]},"properties":{"site":"palmyra","name":"","highway":"service"}},{"type":"Feature","geometry":{"type":"LineString","coordinates":[[38.272505,34.5567419],[38.2722437,34.5568479],[38.2716933,34.5570412],[38.2713225,34.5571406],[38.2708807,34.557181],[38.2704879,34.5572248],[38.2692279,34.5573122],[38.2688139,34.5573618],[38.2684169,34.5574491],[38.2679556,34.5575463],[38.2672612,34.5576762],[38.2669963,34.5577295],[38.2663924,34.5578614],[38.2661243,34.5579249],[38.2659795,34.5579528],[38.265887,34.5579658],[38.2657113,34.5579886],[38.265619,34.5579986],[38.2654952,34.5580108],[38.2653915,34.5580212],[38.2652658,34.5580361],[38.2643825,34.5581507],[38.2640509,34.558195],[38.2638291,34.5582354],[38.2637726,34.5582494],[38.2637262,34.5582649],[38.2636738,34.5582872],[38.2635979,34.5583321],[38.2635558,34.5583623],[38.2634297,34.5584683],[38.2633546,34.5585567],[38.2633037,34.5586406],[38.2632554,34.5587312],[38.2632393,34.5588107],[38.2632312,34.55893],[38.2632235,34.5594823],[38.2632106,34.5604289],[38.2632153,34.5605279],[38.263231,34.5606262],[38.2632575,34.5607229],[38.2632946,34.5608171],[38.2633421,34.5609082],[38.2644472,34.562863],[38.265233,34.5643155]]},"properties":{"site":"palmyra","name":"","highway":"service"}},{"type":"Feature","geometry":{"type":"LineString","coordinates":[[38.274812,34.5604529],[38.2749576,34.560409],[38.2747828,34.5599369],[38.2744087,34.5596791],[38.2742827,34.559341],[38.2742624,34.5589492],[38.2740568,34.5582846]]},"properties":{"site":"palmyra","name":"","highway":"service"}},{"type":"Feature","geometry":{"type":"LineString","coordinates":[[38.2816993,34.5507644],[38.2817261,34.5514183],[38.2817153,34.552112],[38.2817875,34.5526442],[38.2818665,34.5531523]]},"properties":{"site":"palmyra","name":"","highway":"track"}},{"type":"Feature","geometry":{"type":"LineString","coordinates":[[38.2721622,34.5482081],[38.27228,34.5485003],[38.2724302,34.5486461],[38.2728755,34.5488272],[38.2739055,34.549353],[38.2740273,34.5496071],[38.2740863,34.5498898],[38.2740806,34.5504115],[38.2740756,34.5508663],[38.2739576,34.5511225],[38.2738771,34.5513125],[38.2739208,34.551626],[38.2739307,34.551745],[38.2739522,34.5520018],[38.2738136,34.5520899],[38.2739115,34.5525431],[38.2740538,34.5527473],[38.2745661,34.5532127],[38.2749347,34.5532298],[38.2749822,34.5534244],[38.2750937,34.5535159],[38.2752995,34.5536849],[38.2755133,34.5538188],[38.2758451,34.5547011]]},"properties":{"site":"palmyra","name":"","highway":"track"}},{"type":"Feature","geometry":{"type":"LineString","coordinates":[[38.2815852,34.5520937],[38.2814739,34.5525936],[38.2817875,34.5526442]]},"properties":{"site":"palmyra","name":"","highway":"track"}},{"type":"Feature","geometry":{"type":"LineString","coordinates":[[38.2713565,34.5497746],[38.2710365,34.5497481],[38.2709909,34.549848],[38.2694924,34.5506963]]},"properties":{"site":"palmyra","name":"Via Recta","highway":"path"}},{"type":"Feature","geometry":{"type":"LineString","coordinates":[[38.2662489,34.5508442],[38.2678173,34.5513965]]},"properties":{"site":"palmyra","name":"","highway":"path"}},{"type":"Feature","geometry":{"type":"LineString","coordinates":[[38.2678246,34.5515242],[38.2658996,34.5530655],[38.2658169,34.5532272],[38.265452,34.553538],[38.2651599,34.5537867],[38.2647183,34.5541285],[38.2644852,34.5543088],[38.2634645,34.5550987],[38.2632609,34.5553286]]},"properties":{"site":"palmyra","name":"Via Recta","highway":"path"}},{"type":"Feature","geometry":{"type":"LineString","coordinates":[[38.2755133,34.5538188],[38.2755196,34.5537554],[38.2756215,34.5536715],[38.2758441,34.5534749],[38.2759022,34.5533957],[38.2759407,34.5532142],[38.2759371,34.5530621],[38.2758709,34.5529536],[38.2758426,34.5528411],[38.2762248,34.5522953],[38.2764036,34.552081],[38.2765324,34.5518443],[38.2766743,34.5515617],[38.2769249,34.5510285],[38.2771354,34.5505608],[38.2775217,34.5495529],[38.2771761,34.5495998],[38.2765337,34.5497639],[38.2758873,34.5499447],[38.2756993,34.549757],[38.2756108,34.5496178],[38.2754784,34.5494988],[38.2752719,34.549194],[38.2752165,34.5490832],[38.2749071,34.5488891],[38.2746344,34.5487695],[38.2741704,34.5487805],[38.2738035,34.5487742],[38.2735031,34.548836],[38.2728755,34.5488272],[38.2725483,34.5488051],[38.2719796,34.5486902],[38.2718165,34.5486568]]},"properties":{"site":"palmyra","name":"","highway":"track"}},{"type":"Feature","geometry":{"type":"LineString","coordinates":[[38.2678246,34.5515242],[38.2677672,34.5514612],[38.2678173,34.5513965],[38.2679991,34.5513179],[38.2681192,34.5513864],[38.2681778,34.5514879],[38.2680853,34.5515615],[38.2679405,34.55163],[38.2678246,34.5515242]]},"properties":{"site":"palmyra","name":"","highway":"path"}},{"type":"Feature","geometry":{"type":"LineString","coordinates":[[38.2683965,34.5512316],[38.2691886,34.5521432],[38.270122,34.5531019],[38.2705566,34.5535967]]},"properties":{"site":"palmyra","name":"","highway":"path"}},{"type":"Feature","geometry":{"type":"LineString","coordinates":[[38.2619762,34.5534863],[38.2624938,34.5540471],[38.2634645,34.5550987]]},"properties":{"site":"palmyra","name":"Decumanus","highway":"path"}},{"type":"Feature","geometry":{"type":"LineString","coordinates":[[38.2775217,34.5495529],[38.277603,34.5495228],[38.2778632,34.54963],[38.2779851,34.5498175],[38.2784283,34.5500184],[38.2788072,34.5502477],[38.2798664,34.5508853],[38.2802588,34.5511252],[38.2803152,34.5513697],[38.2804547,34.5518425],[38.2805934,34.5521211],[38.28068,34.5521253],[38.2809053,34.5520987],[38.2810287,34.5520501],[38.2814034,34.552068],[38.2815852,34.5520937],[38.2817153,34.552112]]},"properties":{"site":"palmyra","name":"","highway":"track"}},{"type":"Feature","geometry":{"type":"LineString","coordinates":[[38.2636736,34.5448997],[38.2641836,34.5450605],[38.264458,34.5451045],[38.2648434,34.5451444],[38.2653163,34.545237],[38.2656106,34.5451842],[38.2671394,34.5452019],[38.2677241,34.5452417],[38.268138,34.5453431],[38.2681916,34.54529],[38.2683518,34.5451665],[38.2685832,34.5451752],[38.2687863,34.545383],[38.268948,34.5454977],[38.2693718,34.5455065],[38.2697634,34.5455993],[38.2700684,34.5457498],[38.2702079,34.545847],[38.270434,34.5461207],[38.2704731,34.5461424],[38.2709374,34.5463993],[38.271244,34.546567],[38.2714532,34.5465891],[38.2716938,34.5467219],[38.2724252,34.5463493]]},"properties":{"site":"palmyra","name":"","highway":"track"}},{"type":"Feature","geometry":{"type":"LineString","coordinates":[[38.2752897,34.5503599],[38.2755824,34.5503231],[38.2758873,34.5499447]]},"properties":{"site":"palmyra","name":"","highway":"track"}},{"type":"Feature","geometry":{"type":"LineString","coordinates":[[38.2766621,34.5443312],[38.2757769,34.5448879],[38.27533,34.5450953],[38.2746155,34.5456838],[38.2745081,34.5458108],[38.2742232,34.5458146],[38.2738823,34.5458069],[38.27356,34.5458377],[38.2732939,34.5458108],[38.2730697,34.5458415]]},"properties":{"site":"palmyra","name":"","highway":"track"}},{"type":"Feature","geometry":{"type":"LineString","coordinates":[[38.2769909,34.5456469],[38.2771548,34.5455819],[38.2772898,34.5455705],[38.2774096,34.5455951],[38.27757,34.545665]]},"properties":{"site":"palmyra","name":"","highway":"track"}},{"type":"Feature","geometry":{"type":"LineString","coordinates":[[38.2745081,34.5458108],[38.2747684,34.5459793],[38.2749508,34.5461296],[38.2750788,34.5463242],[38.2752611,34.5464612],[38.2754327,34.5465332]]},"properties":{"site":"palmyra","name":"","highway":"track"}},{"type":"Feature","geometry":{"type":"LineString","coordinates":[[38.2771913,34.5419097],[38.2776223,34.5418126],[38.2784047,34.5412472],[38.2787113,34.5409421],[38.2790707,34.5405179],[38.2796769,34.5400053],[38.2808088,34.5392497],[38.2813506,34.5387768],[38.2829492,34.5373937],[38.2831093,34.5370581],[38.2830238,34.5361667]]},"properties":{"site":"palmyra","name":"","highway":"track"}},{"type":"Feature","geometry":{"type":"LineString","coordinates":[[38.2723813,34.5403058],[38.2726272,34.5402353],[38.2727989,34.5401602],[38.2729276,34.5401955],[38.2731537,34.5400406],[38.2735722,34.5398904],[38.2741247,34.5396562],[38.27435,34.5396076],[38.2746657,34.5395327],[38.2754328,34.5394487],[38.275895,34.5394264]]},"properties":{"site":"palmyra","name":"","highway":"track"}},{"type":"Feature","geometry":{"type":"LineString","coordinates":[[38.2730697,34.5458415],[38.2731024,34.5456954],[38.2734246,34.545403],[38.2732664,34.5452061],[38.2736097,34.5449586],[38.2738128,34.5447865],[38.2739852,34.5444991],[38.2739799,34.5443489],[38.2735883,34.5436419],[38.2734971,34.5433856],[38.2735078,34.5432796],[38.2733093,34.5432619],[38.2731966,34.5431426],[38.2728748,34.542471],[38.2727031,34.5418567],[38.2724832,34.5409332],[38.2722954,34.5404472],[38.2723813,34.5403058],[38.2722418,34.540129],[38.2719521,34.5392673],[38.2716785,34.5384587],[38.2715337,34.537893],[38.2714318,34.5377693],[38.2711957,34.5377207],[38.2711635,34.5374909],[38.2712118,34.5371462],[38.2710241,34.5366734],[38.2706156,34.5354009]]},"properties":{"site":"palmyra","name":"","highway":"track"}},{"type":"Feature","geometry":{"type":"LineString","coordinates":[[38.2826878,34.5456863],[38.2825008,34.545271],[38.2827447,34.5451203],[38.2827854,34.5448792],[38.2831228,34.544685],[38.2839725,34.5438412],[38.2847328,34.5433489],[38.2849791,34.5432927]]},"properties":{"site":"palmyra","name":"","highway":"track"}},{"type":"Feature","geometry":{"type":"LineString","coordinates":[[38.2847328,34.5433489],[38.2837449,34.5434661],[38.2831757,34.5436101],[38.2825676,34.5440455],[38.282157,34.5441854],[38.2818314,34.5444099],[38.2816085,34.544404],[38.2813572,34.5443836],[38.2812439,34.5444419],[38.2810847,34.5445061],[38.2809536,34.5445941],[38.2808543,34.5446051],[38.2807953,34.5445477],[38.2807149,34.5445543],[38.2806371,34.5446184],[38.2805432,34.5446228],[38.2804708,34.5445521],[38.2802196,34.5444051]]},"properties":{"site":"palmyra","name":"","highway":"track"}},{"type":"Feature","geometry":{"type":"LineString","coordinates":[[38.2781285,34.5474259],[38.2786671,34.5472199],[38.2791997,34.5470056],[38.2797322,34.5467947],[38.2801876,34.54651],[38.2804722,34.5463493],[38.2808909,34.5461115],[38.2809929,34.5460916],[38.2810454,34.5460814],[38.2814763,34.5459575],[38.2822447,34.5457398],[38.2826878,34.5456863],[38.2830415,34.5456595],[38.2838749,34.5454217],[38.2843343,34.5451974],[38.2851434,34.5448324],[38.2854908,34.5446532],[38.2858315,34.5444499]]},"properties":{"site":"palmyra","name":"","highway":"track"}},{"type":"Feature","geometry":{"type":"LineString","coordinates":[[38.2788529,34.5479689],[38.279389,34.5476898],[38.2798358,34.5474842],[38.2800237,34.5474436],[38.2805044,34.5474208],[38.2808833,34.5474462],[38.2813024,34.5473751],[38.2814934,34.5473751],[38.2817892,34.547403],[38.2831078,34.5476263],[38.2836059,34.5476649],[38.2841358,34.5476649],[38.2849862,34.5476903],[38.2870793,34.5477578],[38.2876796,34.5479232],[38.2887116,34.5481079],[38.2889311,34.5480848],[38.2891559,34.5480703],[38.2914705,34.5475631],[38.2922916,34.5473124],[38.2928013,34.547225],[38.2933392,34.5471725],[38.294531,34.5472438],[38.2958856,34.5475042],[38.2982086,34.5477686],[38.2995815,34.5481077],[38.2998929,34.5481369],[38.3034605,34.5474023],[38.3041683,34.5472391],[38.3064263,34.5466968],[38.3077712,34.5463179],[38.3080968,34.5461546],[38.3083658,34.5460205],[38.3086489,34.5457582],[38.311018,34.5444097],[38.3122518,34.5436767],[38.3129243,34.5433152],[38.3157372,34.5415315],[38.316465,34.5411046],[38.3189225,34.5396632],[38.3194969,34.5394082],[38.3200287,34.5392139],[38.3204301,34.5392677]]},"properties":{"site":"palmyra","name":"","highway":"track"}},{"type":"Feature","geometry":{"type":"LineString","coordinates":[[38.2752825,34.5478544],[38.2752557,34.5475672],[38.2752396,34.5470546],[38.2752879,34.5467365],[38.2754327,34.5465332],[38.2756902,34.5463344],[38.2760335,34.5461444],[38.2767899,34.545844],[38.2769909,34.5456469],[38.277282,34.54538],[38.2773194,34.5452453],[38.2772634,34.5451145],[38.2771466,34.5447722],[38.2769084,34.5443914],[38.2766621,34.5443312],[38.2766889,34.5442075],[38.2766084,34.5440528],[38.2765333,34.5439203],[38.2765149,34.5439116],[38.2763456,34.5438319],[38.2763134,34.5437524],[38.276485,34.5434254],[38.2765162,34.5433513]]},"properties":{"site":"palmyra","name":"","highway":"track"}},{"type":"Feature","geometry":{"type":"LineString","coordinates":[[38.2696335,34.5340547],[38.2697036,34.5351623],[38.2699029,34.5360989],[38.2700155,34.536616],[38.269945,34.5368592],[38.2699673,34.5374909],[38.2699396,34.5380435],[38.2700201,34.5391438],[38.2701489,34.5404916],[38.2703535,34.5418744],[38.2704501,34.5424975],[38.270401,34.5430103],[38.2705405,34.5433328],[38.2706271,34.5437966],[38.2706646,34.5440749],[38.2714371,34.5448172],[38.271641,34.5450691],[38.272064,34.5456968],[38.2724673,34.5462993]]},"properties":{"site":"palmyra","name":"","highway":"track"}},{"type":"Feature","geometry":{"type":"LineString","coordinates":[[38.2812439,34.5444419],[38.2814124,34.5446028],[38.2816162,34.5447818],[38.2817735,34.5450163],[38.2820699,34.5454586],[38.2825008,34.545271]]},"properties":{"site":"palmyra","name":"","highway":"track"}},{"type":"Feature","geometry":{"type":"LineString","coordinates":[[38.2739307,34.551745],[38.2742944,34.5517236],[38.2746968,34.5516264],[38.2749506,34.5517085],[38.2750374,34.5517038],[38.2755079,34.5516066]]},"properties":{"site":"palmyra","name":"","highway":"track"}},{"type":"Feature","geometry":{"type":"LineString","coordinates":[[38.2704731,34.5461424],[38.2703642,34.5462886],[38.2703911,34.5464742],[38.2705405,34.5468809],[38.2705895,34.5472474],[38.2705413,34.5475081],[38.2706754,34.5478749],[38.2709536,34.548297],[38.2711034,34.5484379]]},"properties":{"site":"palmyra","name":"","highway":"track"}},{"type":"Feature","geometry":{"type":"LineString","coordinates":[[38.256732,34.5332791],[38.2569761,34.5340679],[38.2577785,34.5355203],[38.2590445,34.5371376],[38.2604349,34.5386388],[38.260965,34.5383086],[38.2612289,34.5381007],[38.26207,34.5389582],[38.2617061,34.5392629],[38.2610411,34.5396474],[38.2603652,34.5401864],[38.2610133,34.5410086],[38.2607354,34.5411409],[38.2604232,34.5413311],[38.2601399,34.541627],[38.2603588,34.541826],[38.2605315,34.5419495],[38.2609918,34.542427],[38.2607582,34.5426086],[38.2608253,34.5427032],[38.2608641,34.5427272],[38.2612235,34.5428863],[38.261808,34.5433238],[38.262323,34.5437568],[38.2629184,34.5441368],[38.2633154,34.5445256],[38.2636096,34.5448131],[38.2636736,34.5448997],[38.2638349,34.5451179],[38.2643714,34.5456393],[38.2646189,34.5459263],[38.2646189,34.5459815],[38.2646189,34.5460147],[38.2648274,34.546333],[38.26515,34.5466863],[38.2654067,34.5468632],[38.2659547,34.547],[38.2663884,34.5471593],[38.2668505,34.54738],[38.267118,34.5476188],[38.2674827,34.548043],[38.267961,34.5483123],[38.2682077,34.5485509],[38.2684393,34.5488168]]},"properties":{"site":"palmyra","name":"","highway":"track"}},{"type":"Feature","geometry":{"type":"LineString","coordinates":[[38.2781073,34.5474754],[38.2781285,34.5474259],[38.2780462,34.5473489],[38.2780248,34.5472009],[38.2781016,34.5467616],[38.2780757,34.5465669],[38.2779818,34.5463217],[38.2778826,34.5461272],[38.277719,34.5459174],[38.27757,34.545665],[38.2775312,34.5455992],[38.2773944,34.5453871],[38.2773194,34.5452453]]},"properties":{"site":"palmyra","name":"","highway":"track"}},{"type":"Feature","geometry":{"type":"LineString","coordinates":[[38.2740806,34.5504115],[38.2744753,34.5504689],[38.2745816,34.5504427],[38.2747774,34.5503521],[38.27522,34.5503411],[38.2752897,34.5503599],[38.2755079,34.5516066],[38.2758218,34.5515138],[38.2760193,34.5515053],[38.2761105,34.5515539],[38.2762151,34.5517417],[38.2765324,34.5518443]]},"properties":{"site":"palmyra","name":"","highway":"track"}},{"type":"Feature","geometry":{"type":"LineString","coordinates":[[38.2577322,34.5447057],[38.2581282,34.5444856],[38.2587183,34.5444547],[38.2591582,34.5442117],[38.2593457,34.5441522],[38.2596729,34.5438208],[38.2601021,34.5434939],[38.260314,34.5433414],[38.2604561,34.5432729],[38.2603918,34.5431293],[38.2605634,34.5429614],[38.2608253,34.5427032]]},"properties":{"site":"palmyra","name":"","highway":"track"}},{"type":"Feature","geometry":{"type":"LineString","coordinates":[[38.2604349,34.5386388],[38.2605822,34.5388077],[38.2599626,34.5392099],[38.2592116,34.5399765],[38.2585866,34.5405444],[38.2584928,34.5406504],[38.2586349,34.5407653],[38.2590399,34.5409354],[38.259335,34.5410724],[38.2596729,34.5412646],[38.2598795,34.5413905],[38.2601399,34.541627]]},"properties":{"site":"palmyra","name":"","highway":"track"}},{"type":"Feature","geometry":{"type":"LineString","coordinates":[[38.2769601,34.543845],[38.2769813,34.5438977],[38.277102,34.5439794],[38.2773326,34.5442047],[38.2774077,34.5442887],[38.2774353,34.5442755],[38.2775687,34.5442114],[38.2777859,34.5441517],[38.2779147,34.5440346],[38.2781829,34.5439529],[38.278545,34.5438093],[38.2789152,34.5436303],[38.2791029,34.5435751],[38.2792531,34.5438137],[38.2793792,34.5441959],[38.2795133,34.5442423],[38.2800635,34.5443277],[38.2802196,34.5444051],[38.2802638,34.5444926],[38.2806049,34.5449117],[38.2802992,34.5450796],[38.2804923,34.5452387],[38.280621,34.5453249],[38.2807567,34.545549],[38.2809929,34.5460916]]},"properties":{"site":"palmyra","name":"","highway":"track"}},{"type":"Feature","geometry":{"type":"LineString","coordinates":[[38.2810454,34.5460814],[38.2811628,34.54624],[38.2812567,34.5465029],[38.2812915,34.5467879],[38.2813988,34.5468011],[38.2814042,34.547042],[38.2815061,34.5470972],[38.2814934,34.5473751]]},"properties":{"site":"palmyra","name":"","highway":"track"}},{"type":"Feature","geometry":{"type":"LineString","coordinates":[[38.2774353,34.5442755],[38.2775392,34.5444831],[38.2777055,34.5445693],[38.2779361,34.5446289],[38.2780166,34.544989]]},"properties":{"site":"palmyra","name":"","highway":"track"}},{"type":"Feature","geometry":{"type":"LineString","coordinates":[[38.2802455,34.5430007],[38.2802884,34.543036],[38.2803523,34.543295],[38.2803582,34.5433188],[38.2804199,34.5433983],[38.2804345,34.5434855],[38.2808415,34.5439082],[38.2810326,34.5440131]]},"properties":{"site":"palmyra","name":"","highway":"track"}},{"type":"Feature","geometry":{"type":"LineString","coordinates":[[38.2791029,34.5435751],[38.2793068,34.5434735],[38.279296,34.5434227],[38.2792236,34.5431708]]},"properties":{"site":"palmyra","name":"","highway":"track"}},{"type":"Feature","geometry":{"type":"LineString","coordinates":[[38.2586269,34.541828],[38.2591392,34.542071],[38.2595576,34.5423759],[38.2598178,34.5425637],[38.2599787,34.5427869],[38.260086,34.5429592],[38.2603918,34.5431293]]},"properties":{"site":"palmyra","name":"","highway":"track"}},{"type":"Feature","geometry":{"type":"LineString","coordinates":[[38.2608799,34.5479058],[38.2610221,34.5478417],[38.2612152,34.5475125],[38.2615451,34.5471635],[38.2619743,34.5469713],[38.262213,34.5468873],[38.2625,34.546715],[38.2627629,34.5466112],[38.2632054,34.5464366],[38.2640476,34.5461892],[38.2643748,34.5461185],[38.2646189,34.5459815]]},"properties":{"site":"palmyra","name":"","highway":"track"}},{"type":"Feature","geometry":{"type":"LineString","coordinates":[[38.258295,34.5461753],[38.2589373,34.5461776],[38.2598921,34.5459964],[38.2600888,34.5462972],[38.26029,34.5465115],[38.2605366,34.5466995],[38.2608209,34.5469293],[38.2608666,34.5470373],[38.2608987,34.547444],[38.2608799,34.5479058],[38.2607378,34.548098],[38.2606279,34.5482877],[38.2604071,34.5484531],[38.260619,34.5489104]]},"properties":{"site":"palmyra","name":"","highway":"track"}},{"type":"Feature","geometry":{"type":"LineString","coordinates":[[38.2793068,34.5434735],[38.279473,34.5434933],[38.2799666,34.5434271],[38.2802911,34.5433188],[38.2803523,34.543295]]},"properties":{"site":"palmyra","name":"","highway":"track"}},{"type":"Feature","geometry":{"type":"LineString","coordinates":[[38.2765149,34.5439116],[38.2766621,34.5438181],[38.2769601,34.543845],[38.2770054,34.543849],[38.277228,34.5438822],[38.2773595,34.5438115],[38.2774989,34.5436127],[38.2776733,34.5433917],[38.2778905,34.5429786],[38.2780381,34.5428107],[38.2782205,34.5427687],[38.2787676,34.5427819],[38.278891,34.5428747],[38.2792236,34.5431708],[38.2793175,34.5431399],[38.2795937,34.5429918],[38.2798968,34.54293],[38.2802455,34.5430007],[38.2817843,34.5422603]]},"properties":{"site":"palmyra","name":"","highway":"track"}},{"type":"Feature","geometry":{"type":"LineString","coordinates":[[38.2571956,34.5426486],[38.2576076,34.5428819],[38.2577661,34.5428308],[38.2579888,34.5427271],[38.2583053,34.5427756],[38.2585008,34.5428377],[38.2586537,34.5429791],[38.2589436,34.5433058],[38.2591341,34.5434185],[38.2595791,34.5434961],[38.2598581,34.5435003],[38.2601021,34.5434939]]},"properties":{"site":"palmyra","name":"","highway":"track"}},{"type":"Feature","geometry":{"type":"LineString","coordinates":[[38.2603197,34.5588867],[38.2603114,34.5588382],[38.2601668,34.5586172],[38.259724,34.5582594],[38.2593699,34.5579524],[38.2591795,34.5577205],[38.2591419,34.5576144],[38.25915,34.557451],[38.2592144,34.5571771],[38.2593538,34.5568922],[38.2596384,34.5565143],[38.2597564,34.5563817],[38.2597806,34.5562978],[38.2597725,34.5562028],[38.2597028,34.55611],[38.2594587,34.5559819],[38.2593675,34.5558714]]},"properties":{"site":"palmyra","name":"","highway":"track"}},{"type":"Feature","geometry":{"type":"LineString","coordinates":[[38.2501976,34.5528837],[38.25013,34.5529931],[38.2501541,34.5530792],[38.2502024,34.5531521],[38.250366,34.553256],[38.2507496,34.5533752],[38.2510178,34.5534305],[38.2513075,34.553426],[38.2517205,34.5533509],[38.2519539,34.5533333],[38.2520297,34.5533486],[38.2522489,34.5533929],[38.252533,34.5535522],[38.2525547,34.5535056],[38.2529007,34.553669],[38.2535981,34.5538877],[38.2541399,34.5540446],[38.2545717,34.5542478],[38.2548963,34.5544842],[38.255076,34.5547161],[38.2551806,34.5548686],[38.2553335,34.5549746],[38.2557251,34.5551469],[38.2559128,34.5552905],[38.2561942,34.5555955],[38.2565965,34.5559667],[38.2569401,34.556205],[38.2575138,34.5564858],[38.2580235,34.556795],[38.2583295,34.5570091],[38.258528,34.5571747],[38.2587182,34.5573008],[38.2588928,34.5574619],[38.2590483,34.5575989],[38.2591419,34.5576144]]},"properties":{"site":"palmyra","name":"","highway":"track"}},{"type":"Feature","geometry":{"type":"LineString","coordinates":[[38.254012,34.5622864],[38.2544052,34.5618003],[38.2545637,34.5615528],[38.2547273,34.5612215],[38.2548665,34.5609874],[38.2549982,34.5608128],[38.255073,34.5606296],[38.2551699,34.5603821],[38.2552959,34.5602032],[38.2555531,34.5599448],[38.2557439,34.5597283],[38.2559343,34.5595803],[38.2568138,34.5591276],[38.257361,34.5587896],[38.2575487,34.5586769],[38.257664,34.5586328],[38.2578303,34.5586018],[38.2580449,34.5585996],[38.2583805,34.558679],[38.2590778,34.5587873],[38.2598584,34.5588602],[38.2603197,34.5588867],[38.2611482,34.5589486],[38.2613068,34.5589861],[38.2614757,34.5590722],[38.2616393,34.5592003],[38.2617896,34.5592732],[38.2624065,34.5593439],[38.2632235,34.5594823]]},"properties":{"site":"palmyra","name":"","highway":"service"}},{"type":"Feature","geometry":{"type":"LineString","coordinates":[[38.2590054,34.547535],[38.2589372,34.5475198],[38.2588794,34.5474864],[38.2588388,34.5474387],[38.2588205,34.5473825],[38.2588266,34.5473245],[38.2588525,34.5472763],[38.2588953,34.5472372],[38.2589507,34.5472109],[38.2590133,34.5471999],[38.2590769,34.5472055],[38.2591352,34.5472271],[38.2591826,34.5472624],[38.2592144,34.5473082],[38.2592274,34.5473597],[38.2592204,34.5474121],[38.2591902,34.5474647],[38.25914,34.5475057],[38.2590759,34.5475301],[38.2590054,34.547535]]},"properties":{"site":"palmyra","name":"","highway":"service"}},{"type":"Feature","geometry":{"type":"LineString","coordinates":[[38.2591744,34.5486895],[38.2592225,34.5486578],[38.259252,34.5486368],[38.2592829,34.5485904],[38.2593865,34.54842],[38.2595207,34.5481803],[38.2596423,34.5479177],[38.2596561,34.5478809],[38.2596651,34.5478404],[38.2596574,34.5478113],[38.2596007,34.5476858]]},"properties":{"site":"palmyra","name":"","highway":"service"}},{"type":"Feature","geometry":{"type":"LineString","coordinates":[[38.2600531,34.5491194],[38.2603776,34.5489767],[38.260619,34.5489104],[38.2609677,34.5489016],[38.2613485,34.5489811],[38.2617935,34.5491278]]},"properties":{"site":"palmyra","name":"","highway":"service"}},{"type":"Feature","geometry":{"type":"LineString","coordinates":[[38.2602688,34.5479787],[38.2601838,34.5477531],[38.2600558,34.5474715]]},"properties":{"site":"palmyra","name":"","highway":"footway"}},{"type":"Feature","geometry":{"type":"LineString","coordinates":[[38.2603506,34.5477015],[38.2601838,34.5477531]]},"properties":{"site":"palmyra","name":"","highway":"footway"}},{"type":"Feature","geometry":{"type":"LineString","coordinates":[[38.2588266,34.5473245],[38.2587489,34.5471081],[38.2587978,34.5470127],[38.2596936,34.5467255]]},"properties":{"site":"palmyra","name":"","highway":"service"}},{"type":"Feature","geometry":{"type":"LineString","coordinates":[[38.2658234,34.5491856],[38.2656225,34.5489579],[38.2655152,34.5487281],[38.2655849,34.5485116],[38.2657405,34.5482995],[38.2658478,34.5478268],[38.2658478,34.547597]]},"properties":{"site":"palmyra","name":"","highway":"track"}},{"type":"Feature","geometry":{"type":"LineString","coordinates":[[38.2711919,34.5531478],[38.2709451,34.552812],[38.2703658,34.5519284],[38.2703765,34.5516942],[38.2705106,34.5513452]]},"properties":{"site":"palmyra","name":"","highway":"service"}},{"type":"Feature","geometry":{"type":"LineString","coordinates":[[38.2823448,34.5576535],[38.2823887,34.5577338],[38.2823995,34.557789],[38.2823995,34.5578486],[38.2823941,34.5579193],[38.28237,34.5579878],[38.2823431,34.5580541],[38.2823029,34.5581159],[38.2821527,34.5583324],[38.2821393,34.558392],[38.2821339,34.5584362],[38.2821536,34.5585117],[38.2824913,34.5594647],[38.2828452,34.5603545]]},"properties":{"site":"palmyra","name":"","highway":"service"}},{"type":"Feature","geometry":{"type":"LineString","coordinates":[[38.2819595,34.5595998],[38.2824913,34.5594647],[38.2826028,34.5594607]]},"properties":{"site":"palmyra","name":"","highway":"service"}},{"type":"Feature","geometry":{"type":"LineString","coordinates":[[38.270817,34.5535783],[38.270725,34.553727],[38.2705693,34.553931]]},"properties":{"site":"palmyra","name":"","highway":"service"}},{"type":"Feature","geometry":{"type":"LineString","coordinates":[[38.2817843,34.5422603],[38.2818862,34.5422586],[38.2822107,34.5422851],[38.2826372,34.5422542],[38.282959,34.5421283],[38.2832434,34.5419803],[38.2833238,34.5418897],[38.283584,34.5417328],[38.2837692,34.5414764],[38.2842895,34.5412665],[38.2849601,34.5412157],[38.2855529,34.5411494],[38.2861589,34.5409419],[38.2862447,34.5409794],[38.2865961,34.5411871],[38.2867786,34.5414742],[38.2870974,34.5416815]]},"properties":{"site":"palmyra","name":"","highway":"track"}},{"type":"Feature","geometry":{"type":"LineString","coordinates":[[38.2679772,34.5551824],[38.2663019,34.5535396],[38.2660325,34.5533661],[38.2658169,34.5532272]]},"properties":{"site":"palmyra","name":"","highway":"path"}},{"type":"Feature","geometry":{"type":"LineString","coordinates":[[38.2677373,34.5554001],[38.2660635,34.5537295],[38.2660325,34.5533661]]},"properties":{"site":"palmyra","name":"","highway":"path"}},{"type":"Feature","geometry":{"type":"LineString","coordinates":[[38.265452,34.553538],[38.2675503,34.5556277]]},"properties":{"site":"palmyra","name":"","highway":"path"}},{"type":"Feature","geometry":{"type":"LineString","coordinates":[[38.2647183,34.5541285],[38.266786,34.5561467]]},"properties":{"site":"palmyra","name":"","highway":"path"}},{"type":"Feature","geometry":{"type":"LineString","coordinates":[[38.2644852,34.5543088],[38.2664323,34.5561802]]},"properties":{"site":"palmyra","name":"","highway":"path"}},{"type":"Feature","geometry":{"type":"LineString","coordinates":[[38.2608972,34.5549872],[38.2610088,34.5551381],[38.2611572,34.5550636],[38.2608368,34.5546306],[38.2606213,34.5547387],[38.2606699,34.5548044],[38.2607983,34.5547399],[38.2609585,34.5549564],[38.2608972,34.5549872]]},"properties":{"site":"palmyra","name":"Paradeplatz","highway":"pedestrian"}},{"type":"Feature","geometry":{"type":"LineString","coordinates":[[38.2612836,34.5546333],[38.2616871,34.5544379],[38.2622808,34.5541614],[38.2624938,34.5540471]]},"properties":{"site":"palmyra","name":"Via Pretoria","highway":"path"}},{"type":"Feature","geometry":{"type":"LineString","coordinates":[[38.2620641,34.5549448],[38.2616871,34.5544379],[38.2613131,34.5539353]]},"properties":{"site":"palmyra","name":"Via Principalis","highway":"path"}},{"type":"Feature","geometry":{"type":"LineString","coordinates":[[38.2617684,34.5533189],[38.2616658,34.5531607],[38.2618383,34.5530848],[38.2619408,34.553243],[38.2617684,34.5533189]]},"properties":{"site":"palmyra","name":"","highway":"pedestrian"}},{"type":"Feature","geometry":{"type":"LineString","coordinates":[[38.2618899,34.5535196],[38.2620268,34.5534342],[38.2635034,34.5550406],[38.2633665,34.555126],[38.2618899,34.5535196]]},"properties":{"site":"palmyra","name":"Transversalkolonnade","highway":"pedestrian"}},{"type":"Feature","geometry":{"type":"LineString","coordinates":[[38.2652912,34.5497194],[38.2648598,34.5502066],[38.2639663,34.5507395],[38.2631406,34.5509984],[38.261674,34.551648],[38.2609407,34.5521149],[38.2599979,34.5524194],[38.2595131,34.5527304],[38.2586387,34.5529778],[38.2581881,34.553212],[38.2574639,34.5533445],[38.2566002,34.553424],[38.2560638,34.5535256],[38.2559841,34.5536255],[38.2554036,34.5535072]]},"properties":{"site":"palmyra","name":"","highway":"track"}},{"type":"Feature","geometry":{"type":"LineString","coordinates":[[38.2641142,34.5493235],[38.2633563,34.5496636],[38.2626784,34.5497448],[38.2619698,34.5498615],[38.261027,34.5502016],[38.2601273,34.5504299]]},"properties":{"site":"palmyra","name":"","highway":"track"}},{"type":"Feature","geometry":{"type":"LineString","coordinates":[[38.2592585,34.5510745],[38.2598562,34.5517647],[38.2600164,34.552191],[38.2599979,34.5524194]]},"properties":{"site":"palmyra","name":"","highway":"track"}},{"type":"Feature","geometry":{"type":"LineString","coordinates":[[38.271587,34.5492673],[38.2717303,34.5492218],[38.271932,34.5491606],[38.2721479,34.5491023],[38.2722127,34.5490863],[38.2722305,34.5490834],[38.2722835,34.5490749],[38.2723121,34.5490714],[38.2723462,34.5490681],[38.2725055,34.5490546],[38.2725424,34.549051],[38.272587,34.549047],[38.2726139,34.5490444],[38.2726381,34.5490419],[38.2726626,34.5490389],[38.2726827,34.5490359],[38.2727067,34.5490313],[38.2727262,34.5490266],[38.2727544,34.5490182],[38.2728017,34.5490027],[38.2728831,34.5489732]]},"properties":{"site":"palmyra","name":"","highway":"service"}},{"type":"Feature","geometry":{"type":"LineString","coordinates":[[38.2722305,34.5490834],[38.2721634,34.5490405],[38.2721203,34.5490147],[38.272068,34.5489864],[38.2720063,34.5489579],[38.2719539,34.5489365],[38.2718461,34.548901],[38.2718055,34.54889],[38.27175,34.5488786]]},"properties":{"site":"palmyra","name":"","highway":"service"}},{"type":"Feature","geometry":{"type":"LineString","coordinates":[[38.2725026,34.5491685],[38.2725055,34.5490546]]},"properties":{"site":"palmyra","name":"","highway":"footway"}},{"type":"Feature","geometry":{"type":"LineString","coordinates":[[38.2724995,34.5492661],[38.2723977,34.549263],[38.2723884,34.5494667],[38.2724945,34.54947]]},"properties":{"site":"palmyra","name":"","highway":"footway"}},{"type":"Feature","geometry":{"type":"LineString","coordinates":[[38.2725006,34.5492217],[38.2724995,34.5492661]]},"properties":{"site":"palmyra","name":"","highway":"footway"}},{"type":"Feature","geometry":{"type":"LineString","coordinates":[[38.2724945,34.54947],[38.2725835,34.5494727],[38.2725927,34.549269],[38.2724995,34.5492661]]},"properties":{"site":"palmyra","name":"","highway":"footway"}},{"type":"Feature","geometry":{"type":"LineString","coordinates":[[38.2724945,34.54947],[38.2724931,34.5495129]]},"properties":{"site":"palmyra","name":"","highway":"footway"}},{"type":"Feature","geometry":{"type":"LineString","coordinates":[[38.2728017,34.5490027],[38.2728771,34.5491303],[38.2729301,34.5492377],[38.2729709,34.5493317],[38.2729831,34.5494022],[38.2729872,34.5495331],[38.2729826,34.5496906],[38.2729733,34.5497466],[38.2729424,34.5497974],[38.2728837,34.5498407],[38.2728251,34.5498483],[38.2727787,34.5498432],[38.2727139,34.5498178],[38.2726243,34.549772],[38.2725409,34.5497237],[38.272488,34.5496993],[38.2724081,34.5496626],[38.2723,34.549627],[38.2722012,34.5496092],[38.2720962,34.5496066],[38.2720097,34.5496194],[38.2718146,34.5496852],[38.2716586,34.5497319],[38.2714812,34.5497699],[38.2714102,34.5497787],[38.2713565,34.5497746]]},"properties":{"site":"palmyra","name":"","highway":"track"}},{"type":"Feature","geometry":{"type":"LineString","coordinates":[[38.2724917,34.5495883],[38.272488,34.5496993]]},"properties":{"site":"palmyra","name":"","highway":"footway"}},{"type":"Feature","geometry":{"type":"LineString","coordinates":[[38.2685396,34.5503321],[38.2678944,34.5497748],[38.267821,34.5497125],[38.2677372,34.549636]]},"properties":{"site":"palmyra","name":"","highway":"pedestrian"}},{"type":"Feature","geometry":{"type":"LineString","coordinates":[[38.2690169,34.5505425],[38.2691595,34.5504743],[38.2691858,34.5504607],[38.2692379,34.5504309],[38.2692689,34.5504094],[38.2692852,34.5503965],[38.2693309,34.5503626],[38.2693715,34.5503287],[38.269402,34.5502986],[38.2694284,34.5502584],[38.2694531,34.5502051],[38.2694834,34.5501186],[38.2694986,34.5500588],[38.2695072,34.5499903],[38.2695099,34.5499152],[38.2694991,34.5498511],[38.2694723,34.5497914],[38.2694348,34.5497406],[38.2693811,34.5496898],[38.2693087,34.549639],[38.2692443,34.5495993],[38.2691719,34.5495617],[38.2690851,34.5495192],[38.2690119,34.549484],[38.2689611,34.5494555],[38.268933,34.5494384],[38.2689057,34.5494171],[38.2688717,34.5493841],[38.2688452,34.5493551],[38.2688093,34.5493181],[38.268776,34.5492849],[38.2686973,34.5492122],[38.2686365,34.5491526],[38.2685829,34.5490925],[38.2685359,34.5490333],[38.2684965,34.5489684],[38.268468,34.5489112],[38.2684512,34.5488649],[38.2684393,34.5488168]]},"properties":{"site":"palmyra","name":"","highway":"service"}},{"type":"Feature","geometry":{"type":"LineString","coordinates":[[38.2694834,34.5501186],[38.2694215,34.5501978],[38.2694,34.5502203],[38.2693668,34.5502487],[38.2693147,34.5502849],[38.2692686,34.5503119],[38.2692324,34.55033],[38.2692031,34.5503433],[38.2691748,34.5503523],[38.2691467,34.5503569],[38.2691157,34.5503591],[38.2690848,34.5503587],[38.2690379,34.5503568],[38.268986,34.5503443]]},"properties":{"site":"palmyra","name":"","highway":"service"}},{"type":"Feature","geometry":{"type":"LineString","coordinates":[[38.2690379,34.5503568],[38.2690722,34.5503694],[38.269105,34.5503789],[38.2691424,34.5503876],[38.2691828,34.5503963],[38.2692689,34.5504094]]},"properties":{"site":"palmyra","name":"","highway":"service"}},{"type":"Feature","geometry":{"type":"LineString","coordinates":[[38.2692689,34.5504094],[38.2694924,34.5506963]]},"properties":{"site":"palmyra","name":"","highway":"pedestrian"}},{"type":"Feature","geometry":{"type":"LineString","coordinates":[[38.2685896,34.5511706],[38.2684168,34.5509896],[38.2683813,34.5509411],[38.268362,34.5509077],[38.268349,34.5508796],[38.2683419,34.5508412],[38.2683379,34.5507497],[38.2683378,34.5506674],[38.2683482,34.550586],[38.2683677,34.5505277],[38.2684009,34.5504608],[38.2684443,34.5503968],[38.2684881,34.5503589],[38.2685396,34.5503321],[38.2685503,34.5503265],[38.2686175,34.5503048],[38.268713,34.5502952],[38.2688141,34.5503011],[38.2689027,34.5503199],[38.268986,34.5503443]]},"properties":{"site":"palmyra","name":"","highway":"service"}},{"type":"Feature","geometry":{"type":"LineString","coordinates":[[38.2685785,34.5507797],[38.268349,34.5508796]]},"properties":{"site":"palmyra","name":"","highway":"service"}},{"type":"Feature","geometry":{"type":"LineString","coordinates":[[38.2685896,34.5511706],[38.2683965,34.5512316],[38.2681192,34.5513864]]},"properties":{"site":"palmyra","name":"Via Recta","highway":"path"}},{"type":"Feature","geometry":{"type":"LineString","coordinates":[[38.2694924,34.5506963],[38.2685896,34.5511706]]},"properties":{"site":"palmyra","name":"Via Recta","highway":"pedestrian"}},{"type":"Feature","geometry":{"type":"LineString","coordinates":[[38.2632235,34.5594823],[38.2636802,34.5595406],[38.266116,34.5598232],[38.2673093,34.5599139],[38.2689857,34.5600089],[38.2695975,34.5600728],[38.2700424,34.5601216],[38.2705496,34.5601369],[38.2712577,34.5601877],[38.2719471,34.5602407],[38.2724752,34.5602894],[38.2728429,34.5603247],[38.2732665,34.5603093],[38.2733883,34.5602918],[38.2735211,34.5602781],[38.2736374,34.5602445]]},"properties":{"site":"palmyra","name":"","highway":"service"}},{"type":"Feature","geometry":{"type":"LineString","coordinates":[[38.2757342,34.5577426],[38.2756097,34.5574041],[38.2754847,34.5570645]]},"properties":{"site":"palmyra","name":"","highway":"service"}},{"type":"Feature","geometry":{"type":"LineString","coordinates":[[38.2815564,34.5553895],[38.2816205,34.5555435],[38.281761,34.5558793],[38.2821569,34.5557671]]},"properties":{"site":"palmyra","name":"","highway":"service"}},{"type":"Feature","geometry":{"type":"LineString","coordinates":[[38.2779864,34.5571957],[38.2785306,34.5570619]]},"properties":{"site":"palmyra","name":"","highway":"service"}},{"type":"Feature","geometry":{"type":"LineString","coordinates":[[38.2786066,34.5572724],[38.2780646,34.5574075]]},"properties":{"site":"palmyra","name":"","highway":"service"}},{"type":"Feature","geometry":{"type":"LineString","coordinates":[[38.2594022,34.5491494],[38.2593861,34.5490499],[38.2593593,34.548977],[38.2593244,34.5489174],[38.2592497,34.5487536]]},"properties":{"site":"palmyra","name":"","highway":"service"}}]}