{"type":"FeatureCollection","features":[{"type":"Feature","geometry":{"type":"LineString","coordinates":[[12.2391634,41.7680397],[12.2388502,41.7681164],[12.2387211,41.7680464],[12.2386586,41.7681601],[12.2382988,41.7683416],[12.2380883,41.7685513],[12.238006,41.7688222],[12.2380078,41.7690352],[12.2384179,41.7692492],[12.2387237,41.7693256],[12.2389926,41.7693305],[12.2393369,41.7692965],[12.2397646,41.7691955],[12.2400959,41.7690025],[12.2403401,41.7687826],[12.2404055,41.7685713],[12.2403726,41.7684181],[12.2402857,41.7682544],[12.2400577,41.7681123],[12.2396521,41.7680248],[12.2391634,41.7680397]]},"properties":{"site":"portus","name":"","highway":"footway"}},{"type":"Feature","geometry":{"type":"LineString","coordinates":[[12.2410961,41.7683994],[12.239845,41.7696343]]},"properties":{"site":"portus","name":"","highway":"footway"}},{"type":"Feature","geometry":{"type":"LineString","coordinates":[[12.2654635,41.7743294],[12.2657639,41.7739773]]},"properties":{"site":"portus","name":"","highway":"track"}},{"type":"Feature","geometry":{"type":"LineString","coordinates":[[12.2683446,41.7737219],[12.2673878,41.7746895]]},"properties":{"site":"portus","name":"Via Domenico Siciliani","highway":"track"}},{"type":"Feature","geometry":{"type":"LineString","coordinates":[[12.2629976,41.7706991],[12.2637213,41.7699199],[12.2645872,41.7690466],[12.2641655,41.7688482],[12.2639786,41.7687602]]},"properties":{"site":"portus","name":"Via Pal Piccolo","highway":"track"}},{"type":"Feature","geometry":{"type":"LineString","coordinates":[[12.2818693,41.7566196],[12.282149,41.7568842],[12.2824494,41.7573772],[12.2826554,41.7578446],[12.2827841,41.7584016],[12.2826897,41.7590739],[12.2824148,41.7595531],[12.2821584,41.7599122],[12.2813201,41.7608196],[12.280785,41.7613818],[12.2801721,41.7620541],[12.2800279,41.7622053],[12.2799669,41.7623332],[12.2793681,41.7630177],[12.278424,41.7640052],[12.2777201,41.7651688],[12.277557,41.7655529],[12.277188,41.7670574],[12.2771339,41.7675218],[12.277135,41.7677035],[12.2771518,41.7678507],[12.2772127,41.7680214],[12.2771539,41.7680762],[12.2771009,41.7680714],[12.2769465,41.7699449],[12.2769047,41.7708023],[12.2771193,41.7731131],[12.277042,41.773222],[12.2770484,41.773546],[12.2771152,41.774382],[12.2770678,41.774515],[12.276879,41.7746174],[12.2766472,41.7746622],[12.2716948,41.7749246],[12.2707074,41.7749774],[12.2693173,41.7750271],[12.2687765,41.7749631],[12.2673878,41.7746895],[12.2654635,41.7743294]]},"properties":{"site":"portus","name":"","highway":"track"}},{"type":"Feature","geometry":{"type":"LineString","coordinates":[[12.2766472,41.7746622],[12.273681,41.7729102],[12.2707839,41.7713058]]},"properties":{"site":"portus","name":"","highway":"track"}},{"type":"Feature","geometry":{"type":"LineString","coordinates":[[12.2607681,41.77276],[12.2608532,41.772388],[12.2608924,41.7723609],[12.2609632,41.7723621],[12.2610144,41.7723349],[12.2610493,41.7722839],[12.2610654,41.7722059],[12.2610457,41.7721386],[12.2609739,41.7719953],[12.261034,41.7716997]]},"properties":{"site":"portus","name":"Via Val d'Astico","highway":"track"}},{"type":"Feature","geometry":{"type":"LineString","coordinates":[[12.2601036,41.7690542],[12.2611194,41.7696288],[12.2625139,41.7699654],[12.2625911,41.770114],[12.2625789,41.7702443],[12.2625301,41.7704475],[12.2622252,41.7708083],[12.2618593,41.7712267]]},"properties":{"site":"portus","name":"Via Valle Sarca","highway":"track"}},{"type":"Feature","geometry":{"type":"LineString","coordinates":[[12.2716948,41.7749246],[12.2728229,41.7737512],[12.272852,41.7737209],[12.273681,41.7729102],[12.2744496,41.7721354],[12.2751995,41.7713895],[12.2752408,41.7713682],[12.2753412,41.7713915],[12.2754205,41.7713862],[12.2754906,41.7713451],[12.2761364,41.7706562]]},"properties":{"site":"portus","name":"Via Ottorino Baldacconi","highway":"track"}},{"type":"Feature","geometry":{"type":"LineString","coordinates":[[12.2625301,41.7704475],[12.2629976,41.7706991],[12.2659273,41.7723754]]},"properties":{"site":"portus","name":"Via Pal Grande","highway":"track"}},{"type":"Feature","geometry":{"type":"LineString","coordinates":[[12.2552526,41.7871523],[12.2549116,41.7871838],[12.254658,41.7870453],[12.2546051,41.7868016]]},"properties":{"site":"portus","name":"","highway":"service"}},{"type":"Feature","geometry":{"type":"LineString","coordinates":[[12.2665075,41.7701241],[12.2645872,41.7690466]]},"properties":{"site":"portus","name":"Via Plava","highway":"track"}},{"type":"Feature","geometry":{"type":"LineString","coordinates":[[12.2373876,41.7683424],[12.2387211,41.7680464],[12.2399194,41.7677705],[12.2406813,41.7675943],[12.2408951,41.7675863],[12.2409163,41.7676393],[12.2418083,41.7681282],[12.2418111,41.7682274],[12.2414382,41.7685964],[12.2401975,41.769816],[12.2400822,41.7698342],[12.239845,41.7696343],[12.2397201,41.7694943],[12.239568,41.7694132],[12.2394064,41.7694018],[12.2384235,41.7695034]]},"properties":{"site":"portus","name":"","highway":"footway"}},{"type":"Feature","geometry":{"type":"LineString","coordinates":[[12.2619953,41.7855087],[12.2620712,41.7855601],[12.2621224,41.7856071],[12.2621562,41.7856495],[12.262174,41.7857009],[12.2621797,41.7857593],[12.2621713,41.7858803]]},"properties":{"site":"portus","name":"","highway":"service"}},{"type":"Feature","geometry":{"type":"LineString","coordinates":[[12.2643436,41.7764136],[12.2643164,41.7763041],[12.2641821,41.7761055],[12.2639997,41.7758735],[12.2638777,41.7757475],[12.2638052,41.7756955],[12.2637248,41.7756475],[12.2636242,41.7756135],[12.26347,41.7755875],[12.2631336,41.7755848]]},"properties":{"site":"portus","name":"","highway":"service"}},{"type":"Feature","geometry":{"type":"LineString","coordinates":[[12.2550973,41.7715178],[12.2550664,41.7715642],[12.254971,41.7716845],[12.2544588,41.7714866],[12.2544378,41.771451],[12.2544622,41.7714041],[12.2544795,41.771384]]},"properties":{"site":"portus","name":"","highway":"service"}},{"type":"Feature","geometry":{"type":"LineString","coordinates":[[12.2459703,41.7873242],[12.2460074,41.7870647],[12.2460135,41.7870026],[12.2459973,41.786951],[12.2459607,41.7869207],[12.2459139,41.7869025],[12.2448772,41.7866661],[12.244804,41.7866479],[12.244741,41.7866267],[12.2446922,41.7865994],[12.2446557,41.78656],[12.2445418,41.7863357],[12.2445052,41.7862857],[12.2444605,41.7862538],[12.2443975,41.7862311],[12.2431169,41.785931],[12.2430437,41.7859128],[12.2429746,41.7859022],[12.2429217,41.7859037],[12.2428729,41.7859234],[12.2428364,41.7859537],[12.2428059,41.7859977],[12.2423791,41.7870162],[12.2419909,41.7879528],[12.2419696,41.7880069],[12.2419608,41.7880518],[12.2419696,41.7880901],[12.2419927,41.7881297],[12.2420351,41.7881613],[12.2420889,41.7881822],[12.244363,41.7888268],[12.2444775,41.7888561],[12.2445847,41.7888793],[12.244699,41.7888984],[12.2448313,41.7889139],[12.2457055,41.7889915],[12.2460912,41.7890227],[12.2462281,41.7890403],[12.2463903,41.7890618],[12.2473052,41.7891364]]},"properties":{"site":"portus","name":"","highway":"service"}},{"type":"Feature","geometry":{"type":"LineString","coordinates":[[12.2488896,41.7768561],[12.248893,41.7768584],[12.2488949,41.7768615],[12.2488952,41.7768649],[12.2488936,41.7768681],[12.2488906,41.7768706],[12.2488864,41.776872],[12.2488818,41.7768722],[12.2488775,41.7768711],[12.2488741,41.7768687],[12.2488722,41.7768657],[12.248872,41.7768622],[12.2488736,41.7768591],[12.2488767,41.7768566],[12.2488808,41.7768551],[12.2488853,41.776855],[12.2488896,41.7768561]]},"properties":{"site":"portus","name":"","highway":"pedestrian"}},{"type":"Feature","geometry":{"type":"LineString","coordinates":[[12.2519604,41.774303],[12.251976,41.77424],[12.2519858,41.7742],[12.2520927,41.7737649]]},"properties":{"site":"portus","name":"","highway":"service"}},{"type":"Feature","geometry":{"type":"LineString","coordinates":[[12.2533167,41.7745034],[12.2533424,41.7744397],[12.2533558,41.7744063],[12.2534652,41.7741344]]},"properties":{"site":"portus","name":"","highway":"service"}},{"type":"Feature","geometry":{"type":"LineString","coordinates":[[12.2470378,41.77359],[12.2470603,41.7735008],[12.2470938,41.7733682]]},"properties":{"site":"portus","name":"","highway":"service"}},{"type":"Feature","geometry":{"type":"LineString","coordinates":[[12.250392,41.7740766],[12.2504051,41.7740231],[12.250414,41.7739866],[12.2504801,41.7737154]]},"properties":{"site":"portus","name":"","highway":"service"}},{"type":"Feature","geometry":{"type":"LineString","coordinates":[[12.2420861,41.7718297],[12.2420954,41.7717875],[12.242111,41.7717165],[12.2424185,41.771761]]},"properties":{"site":"portus","name":"","highway":"service"}},{"type":"Feature","geometry":{"type":"LineString","coordinates":[[12.2639786,41.7687602],[12.263892,41.7687859],[12.2636878,41.7689278],[12.2629855,41.7694378],[12.2626968,41.7696834]]},"properties":{"site":"portus","name":"","highway":"track"}},{"type":"Feature","geometry":{"type":"LineString","coordinates":[[12.2454305,41.7790072],[12.2449627,41.7787917],[12.2444917,41.7785981]]},"properties":{"site":"portus","name":"","highway":"service"}},{"type":"Feature","geometry":{"type":"LineString","coordinates":[[12.2446994,41.7798644],[12.2447803,41.7798248],[12.2454305,41.7790072],[12.2460377,41.778248]]},"properties":{"site":"portus","name":"","highway":"service"}},{"type":"Feature","geometry":{"type":"LineString","coordinates":[[12.2652453,41.7766014],[12.2652713,41.7765403],[12.2653157,41.7764361],[12.2654605,41.776078],[12.2656939,41.7754839],[12.2658094,41.7751789]]},"properties":{"site":"portus","name":"","highway":"track"}},{"type":"Feature","geometry":{"type":"LineString","coordinates":[[12.2591598,41.7752068],[12.2591908,41.7753484]]},"properties":{"site":"portus","name":"","highway":"service"}},{"type":"Feature","geometry":{"type":"LineString","coordinates":[[12.2584369,41.7751198],[12.2584425,41.7750481],[12.259145,41.7750526],[12.2591613,41.7750527],[12.2591598,41.7752068]]},"properties":{"site":"portus","name":"","highway":"service"}},{"type":"Feature","geometry":{"type":"LineString","coordinates":[[12.2528472,41.776302],[12.2527828,41.776351],[12.2523732,41.7767601],[12.252298,41.7768524],[12.2519243,41.7773619],[12.2518437,41.7775121],[12.2517116,41.7778049],[12.2516569,41.7779811],[12.2515832,41.7783686],[12.2515565,41.7786506],[12.2515534,41.7788015],[12.2515753,41.7788425],[12.2516161,41.7788615],[12.2516734,41.7788626],[12.251747,41.7788433],[12.2518194,41.7787982],[12.2520038,41.7786801],[12.2521904,41.7785124],[12.2523532,41.7783513],[12.2525884,41.7781393],[12.2526756,41.7780757],[12.2528017,41.7780055]]},"properties":{"site":"portus","name":"","highway":"track"}},{"type":"Feature","geometry":{"type":"LineString","coordinates":[[12.2570489,41.7798274],[12.2571669,41.7799974],[12.2572098,41.7800794],[12.2572366,41.7801794],[12.2572447,41.7802914],[12.2572259,41.7803954],[12.2571508,41.7805434],[12.2570408,41.7807194],[12.2567538,41.7810434],[12.2566921,41.7811554],[12.2566707,41.7812774],[12.2566975,41.7813634],[12.2567619,41.7814195],[12.2570864,41.7815955],[12.2573359,41.7817415],[12.2574646,41.7817875],[12.2575639,41.7817855],[12.2576677,41.7817574],[12.2581988,41.7815942],[12.2588737,41.7814235],[12.2589779,41.7814057],[12.2590612,41.781415],[12.2591265,41.7814423],[12.2592117,41.7815181],[12.2593069,41.7816469],[12.2599326,41.7828209],[12.2604054,41.7832922],[12.2605015,41.7834068],[12.2606171,41.7835448],[12.2607312,41.78363],[12.2633847,41.7847489],[12.2641478,41.7850302],[12.2643585,41.7850614],[12.2645573,41.7850571],[12.2648586,41.7850326],[12.2651882,41.7850026]]},"properties":{"site":"portus","name":"","highway":"track"}},{"type":"Feature","geometry":{"type":"LineString","coordinates":[[12.253159,41.7783536],[12.2532948,41.7784102],[12.2534118,41.778424],[12.253568,41.7784087],[12.2536894,41.7783788],[12.2538333,41.7783218],[12.2541969,41.7781351],[12.2543056,41.7780681],[12.2544116,41.7780248],[12.2545318,41.7780052],[12.254663,41.7780032],[12.2548293,41.7780452],[12.2549715,41.7781012],[12.2550949,41.7781752],[12.255178,41.7782552],[12.2554112,41.7784816],[12.2554536,41.7785015],[12.2555911,41.7785472],[12.2564842,41.7787693],[12.2567817,41.7788503],[12.2571212,41.7789692],[12.2574074,41.7790702],[12.2577959,41.7792073],[12.2579336,41.7792417],[12.2580433,41.7792493],[12.258133,41.7792368],[12.2582289,41.7792092],[12.2582858,41.7791621],[12.2583383,41.7791044],[12.2583599,41.7790418],[12.258345,41.7789789],[12.2582921,41.7789113],[12.2582062,41.7788413],[12.258056,41.7787613],[12.2578763,41.7786693],[12.2577985,41.7786212],[12.2577422,41.7785692],[12.2577047,41.7785112],[12.2577133,41.7784586]]},"properties":{"site":"portus","name":"","highway":"track"}},{"type":"Feature","geometry":{"type":"LineString","coordinates":[[12.2523987,41.7834447],[12.2524205,41.7835087],[12.2524522,41.7835595],[12.2524979,41.7836026],[12.2525147,41.7836256],[12.2525305,41.7836582],[12.252537,41.7837751],[12.2525314,41.7837959],[12.2525137,41.7838168],[12.2524699,41.7838425],[12.2524475,41.7838648],[12.2524199,41.7839311]]},"properties":{"site":"portus","name":"","highway":"service"}},{"type":"Feature","geometry":{"type":"LineString","coordinates":[[12.2524317,41.7841979],[12.2525613,41.7842744],[12.2525641,41.7844601],[12.2525372,41.7844839],[12.2523871,41.7846171]]},"properties":{"site":"portus","name":"","highway":"service"}},{"type":"Feature","geometry":{"type":"LineString","coordinates":[[12.2517764,41.784255],[12.2516752,41.784163],[12.2515774,41.7840741],[12.2516026,41.7839308],[12.2518011,41.7838585]]},"properties":{"site":"portus","name":"","highway":"service"}},{"type":"Feature","geometry":{"type":"LineString","coordinates":[[12.249267,41.7689784],[12.249409,41.7688407],[12.2494761,41.7688791],[12.2492825,41.7690669],[12.2492154,41.7690284],[12.249267,41.7689784]]},"properties":{"site":"portus","name":"","highway":"service"}},{"type":"Feature","geometry":{"type":"LineString","coordinates":[[12.2731628,41.7689479],[12.2721575,41.7699516],[12.2715938,41.7705034],[12.2710085,41.7711072],[12.2707839,41.7713058],[12.2699806,41.7721015],[12.2683446,41.7737219]]},"properties":{"site":"portus","name":"Via Domenico Siciliani","highway":"track"}},{"type":"Feature","geometry":{"type":"LineString","coordinates":[[12.2582583,41.7878517],[12.2581269,41.7877769],[12.2581028,41.787727],[12.2581108,41.787689],[12.258886,41.786931],[12.2589235,41.786921],[12.2589691,41.786923],[12.2590147,41.786951],[12.259024,41.786991],[12.2590067,41.787029],[12.2582422,41.787769],[12.2581925,41.7877869],[12.2581269,41.7877769]]},"properties":{"site":"portus","name":"","highway":"service"}},{"type":"Feature","geometry":{"type":"LineString","coordinates":[[12.2583574,41.7752285],[12.2584369,41.7751198]]},"properties":{"site":"portus","name":"","highway":"service"}},{"type":"Feature","geometry":{"type":"LineString","coordinates":[[12.2703591,41.7707316],[12.2697561,41.7703936]]},"properties":{"site":"portus","name":"","highway":"service"}},{"type":"Feature","geometry":{"type":"LineString","coordinates":[[12.2648309,41.7737538],[12.2647121,41.7740475]]},"properties":{"site":"portus","name":"","highway":"service"}},{"type":"Feature","geometry":{"type":"LineString","coordinates":[[12.2653239,41.7738719],[12.2659245,41.7732924]]},"properties":{"site":"portus","name":"Via della Basilica di Sant' Ippolito","highway":"service"}},{"type":"Feature","geometry":{"type":"LineString","coordinates":[[12.2728229,41.7737512],[12.2743888,41.7746371]]},"properties":{"site":"portus","name":"","highway":"service"}},{"type":"Feature","geometry":{"type":"LineString","coordinates":[[12.2702319,41.7821345],[12.2710696,41.781116],[12.2711801,41.7808832],[12.2711993,41.7807114],[12.2715018,41.7806827],[12.2716986,41.7806899],[12.2718907,41.7807687],[12.2722412,41.7811267],[12.2743011,41.782097],[12.2807352,41.7852084],[12.2809177,41.7854303],[12.2823629,41.7871524],[12.2834961,41.7880618],[12.2830351,41.7886078]]},"properties":{"site":"portus","name":"","highway":"track"}},{"type":"Feature","geometry":{"type":"LineString","coordinates":[[12.2545822,41.7692722],[12.2547998,41.7690744]]},"properties":{"site":"portus","name":"","highway":"service"}},{"type":"Feature","geometry":{"type":"LineString","coordinates":[[12.2706028,41.7824945],[12.2705548,41.7825302],[12.2705282,41.78255],[12.2704786,41.782534],[12.2704156,41.782519],[12.2703042,41.7825169],[12.2700092,41.7824804],[12.2699577,41.7824728],[12.2698979,41.7824709],[12.2698415,41.7824647],[12.2697568,41.7824524],[12.2693937,41.782441],[12.2693118,41.782444],[12.2692555,41.782452],[12.2691938,41.782469],[12.2691067,41.782498],[12.268758,41.782623],[12.2684928,41.7827201],[12.2682497,41.7828091],[12.268078,41.7828611],[12.2679198,41.7828891],[12.2677883,41.7828971],[12.2676355,41.7828931],[12.2674703,41.7828745],[12.2673378,41.7828413],[12.2672311,41.7827919],[12.2671559,41.7827447]]},"properties":{"site":"portus","name":"","highway":"service"}},{"type":"Feature","geometry":{"type":"LineString","coordinates":[[12.269403,41.782564],[12.2694661,41.782551],[12.2695814,41.782548],[12.2697267,41.7825527],[12.2699653,41.7825772],[12.2701966,41.7826103],[12.2703942,41.7826477],[12.2705364,41.7827153]]},"properties":{"site":"portus","name":"","highway":"service"}},{"type":"Feature","geometry":{"type":"LineString","coordinates":[[12.2697267,41.7825527],[12.269602,41.7827161]]},"properties":{"site":"portus","name":"","highway":"service"}},{"type":"Feature","geometry":{"type":"LineString","coordinates":[[12.2699653,41.7825772],[12.2697874,41.7828]]},"properties":{"site":"portus","name":"","highway":"service"}},{"type":"Feature","geometry":{"type":"LineString","coordinates":[[12.2701966,41.7826103],[12.2699783,41.7828825]]},"properties":{"site":"portus","name":"","highway":"service"}},{"type":"Feature","geometry":{"type":"LineString","coordinates":[[12.2705282,41.78255],[12.2704786,41.782567],[12.2704431,41.7825918],[12.2703942,41.7826477],[12.2701427,41.7829608]]},"properties":{"site":"portus","name":"","highway":"service"}},{"type":"Feature","geometry":{"type":"LineString","coordinates":[[12.2705282,41.78255],[12.2705752,41.782611],[12.2705872,41.782657],[12.2705364,41.7827153],[12.2702868,41.7830261]]},"properties":{"site":"portus","name":"","highway":"service"}},{"type":"Feature","geometry":{"type":"LineString","coordinates":[[12.267919,41.7816333],[12.2693705,41.7821544],[12.2694342,41.7821821],[12.2694866,41.7822097],[12.2695301,41.7822325],[12.2695814,41.782264],[12.2697269,41.7823955],[12.2697393,41.7824102],[12.2697464,41.782424],[12.2697568,41.7824524]]},"properties":{"site":"portus","name":"","highway":"service"}},{"type":"Feature","geometry":{"type":"LineString","coordinates":[[12.2649077,41.7854131],[12.2651882,41.7850026],[12.266404,41.7832234],[12.2667906,41.782647],[12.2673511,41.781817],[12.2678268,41.7812047],[12.2683114,41.7805649],[12.2683142,41.7803923],[12.2675283,41.7800519],[12.2675241,41.7800098],[12.2675172,41.7799707],[12.2673601,41.7799183],[12.2673435,41.7798957],[12.2673132,41.779836]]},"properties":{"site":"portus","name":"","highway":"service"}},{"type":"Feature","geometry":{"type":"LineString","coordinates":[[12.2691018,41.7842379],[12.2696083,41.7844673],[12.2697059,41.7845115]]},"properties":{"site":"portus","name":"","highway":"service"}},{"type":"Feature","geometry":{"type":"LineString","coordinates":[[12.2703244,41.7832471],[12.2695688,41.7842786]]},"properties":{"site":"portus","name":"","highway":"service"}},{"type":"Feature","geometry":{"type":"LineString","coordinates":[[12.2680566,41.7862961],[12.2693615,41.7845701],[12.2693856,41.7845501],[12.2694138,41.7845411],[12.2694567,41.7845511],[12.2695265,41.7845855],[12.2696183,41.7846309]]},"properties":{"site":"portus","name":"","highway":"service"}},{"type":"Feature","geometry":{"type":"LineString","coordinates":[[12.2675617,41.7860671],[12.2691018,41.7842379],[12.2692547,41.7840563]]},"properties":{"site":"portus","name":"","highway":"service"}},{"type":"Feature","geometry":{"type":"LineString","coordinates":[[12.266404,41.7832234],[12.267378,41.7836071],[12.2685139,41.7840781],[12.268597,41.7841091],[12.2686587,41.7841231],[12.2687137,41.7841261],[12.2687888,41.7841261],[12.2688505,41.7841151],[12.2690959,41.7840461],[12.2691576,41.7840341],[12.2691952,41.7840341],[12.2692341,41.7840431],[12.2692547,41.7840563],[12.2693306,41.7841051],[12.2695036,41.7842331],[12.2695688,41.7842786],[12.2695881,41.7842921],[12.2696565,41.7843311],[12.2697019,41.7843517],[12.2697929,41.784393]]},"properties":{"site":"portus","name":"","highway":"service"}},{"type":"Feature","geometry":{"type":"LineString","coordinates":[[12.2697059,41.7845115],[12.2707254,41.7849771],[12.2708541,41.7850231],[12.2709855,41.7850451],[12.2711277,41.7850451],[12.271243,41.7850231],[12.2713476,41.7849771],[12.2714791,41.7848931],[12.2716266,41.7847311],[12.2725224,41.7836111]]},"properties":{"site":"portus","name":"","highway":"service"}},{"type":"Feature","geometry":{"type":"LineString","coordinates":[[12.2460377,41.778248],[12.246092,41.778228],[12.2461463,41.7781503],[12.2462283,41.7781046]]},"properties":{"site":"portus","name":"","highway":"service"}},{"type":"Feature","geometry":{"type":"LineString","coordinates":[[12.2456878,41.7780961],[12.2457407,41.7780318],[12.2457657,41.7779432],[12.2457359,41.7778366]]},"properties":{"site":"portus","name":"","highway":"service"}},{"type":"Feature","geometry":{"type":"LineString","coordinates":[[12.2535594,41.7768197],[12.2536715,41.776818],[12.254108,41.7768459],[12.2541977,41.7768672],[12.2550331,41.7771706],[12.2553618,41.7772944],[12.2554658,41.7773427],[12.2555239,41.7773807],[12.2556433,41.7774667],[12.255756,41.7775437],[12.25587,41.7776017],[12.2561006,41.7776957],[12.2562524,41.7777459],[12.2563755,41.7777867],[12.2568261,41.7779187],[12.2570883,41.7779772],[12.2571155,41.777982],[12.2571306,41.7779847],[12.2571809,41.7779882],[12.2572245,41.7779854]]},"properties":{"site":"portus","name":"","highway":"track"}},{"type":"Feature","geometry":{"type":"LineString","coordinates":[[12.2577959,41.7792073],[12.2577127,41.7792071],[12.2575956,41.7792222],[12.2575177,41.7792388],[12.2574743,41.7792575],[12.2573635,41.7794252],[12.2581171,41.7797141],[12.2586261,41.7790322]]},"properties":{"site":"portus","name":"","highway":"path"}},{"type":"Feature","geometry":{"type":"LineString","coordinates":[[12.2544567,41.7753983],[12.253523,41.7767576]]},"properties":{"site":"portus","name":"","highway":"path"}},{"type":"Feature","geometry":{"type":"LineString","coordinates":[[12.2544567,41.7753983],[12.2551955,41.7756827],[12.2552216,41.7757456],[12.2551301,41.7758681],[12.2550903,41.7759209],[12.2550377,41.7760014],[12.2549679,41.7760196],[12.2549026,41.7760175],[12.2548643,41.7760485],[12.2548635,41.776181],[12.2548011,41.7762185],[12.2547736,41.776249],[12.2547652,41.7762871],[12.254793,41.7763245],[12.2548285,41.7763513],[12.254856,41.7763709],[12.2548963,41.7763965],[12.255949,41.7768228],[12.2569944,41.7772646],[12.257016,41.7773126],[12.2569976,41.7773428],[12.2568659,41.7773762],[12.2566524,41.7774281],[12.2563278,41.7774806],[12.2561397,41.7774701],[12.2560915,41.7774674],[12.2557603,41.7773589],[12.2556196,41.7773369],[12.255536,41.7773333],[12.2554658,41.7773427]]},"properties":{"site":"portus","name":"","highway":"path"}},{"type":"Feature","geometry":{"type":"LineString","coordinates":[[12.2591061,41.7788344],[12.2603253,41.7770264],[12.2607745,41.7764808],[12.260834,41.7764461],[12.2609529,41.776425],[12.2611291,41.7764672],[12.2619579,41.7767423],[12.262133,41.7767499],[12.262391,41.7767276],[12.2625909,41.7767554],[12.2627517,41.7768041],[12.262866,41.7768905],[12.2629276,41.776964],[12.2630479,41.7770016],[12.2632807,41.7770451],[12.264627,41.7770416],[12.2647717,41.7770715]]},"properties":{"site":"portus","name":"","highway":"track"}},{"type":"Feature","geometry":{"type":"LineString","coordinates":[[12.2544738,41.7765299],[12.254327,41.7764425],[12.2542889,41.7764108],[12.2542571,41.7763925],[12.2541954,41.7763682],[12.2541394,41.7763582]]},"properties":{"site":"portus","name":"","highway":"path"}},{"type":"Feature","geometry":{"type":"LineString","coordinates":[[12.2544738,41.7765299],[12.2544288,41.7765861],[12.254355,41.7766967],[12.2543283,41.7767151],[12.254278,41.7767395],[12.2541928,41.7767677],[12.254108,41.7768459]]},"properties":{"site":"portus","name":"","highway":"path"}},{"type":"Feature","geometry":{"type":"LineString","coordinates":[[12.2573635,41.7794252],[12.2572909,41.7795181],[12.2570489,41.7798274]]},"properties":{"site":"portus","name":"","highway":"path"}},{"type":"Feature","geometry":{"type":"LineString","coordinates":[[12.2612405,41.7756558],[12.2612545,41.775539],[12.26129,41.7752429],[12.2612322,41.7751954],[12.2612026,41.7751866],[12.2611492,41.7751899],[12.2611077,41.7752064],[12.2610855,41.7754539],[12.2612545,41.775539]]},"properties":{"site":"portus","name":"","highway":"service"}},{"type":"Feature","geometry":{"type":"LineString","coordinates":[[12.2614119,41.7724522],[12.2615361,41.772434],[12.2617265,41.7719199],[12.2616154,41.7718877]]},"properties":{"site":"portus","name":"Piazza dei Bonificatori di Isola Sacra","highway":"service"}},{"type":"Feature","geometry":{"type":"LineString","coordinates":[[12.2471587,41.7858735],[12.2474643,41.7859866],[12.247565,41.7860285],[12.247776,41.7861272],[12.2483514,41.7864018],[12.2484141,41.7864365],[12.2484757,41.7864767],[12.2486383,41.7866048],[12.2486664,41.7866361],[12.2486865,41.7866752],[12.2486957,41.7867177],[12.2486973,41.7867682],[12.2486919,41.7868241],[12.2485893,41.7875121]]},"properties":{"site":"portus","name":"","highway":"service"}},{"type":"Feature","geometry":{"type":"LineString","coordinates":[[12.2475767,41.7874351],[12.2476266,41.787112],[12.2476348,41.7870079],[12.2476401,41.7868616],[12.2476373,41.7867184],[12.2476197,41.7865449],[12.2475954,41.7864025],[12.2475635,41.7863038],[12.2475297,41.7862248],[12.2474794,41.7861374],[12.2474333,41.7860717],[12.2473578,41.7860017],[12.2472762,41.7859437],[12.2471587,41.7858735],[12.245889,41.7852699],[12.2448394,41.7847956],[12.2443718,41.7845619],[12.2442973,41.7845247],[12.2439625,41.7843487],[12.2437676,41.7841461],[12.2436734,41.7839287],[12.2436647,41.7838261],[12.243667,41.7837407],[12.243682,41.7836251],[12.243716,41.7835238],[12.2437973,41.7833361],[12.2440372,41.7827394],[12.2440537,41.7825122],[12.2438942,41.7820182],[12.2437536,41.7815124],[12.2437546,41.781411],[12.2437711,41.7812729],[12.2438188,41.781092],[12.2438778,41.780946],[12.2439209,41.7808758],[12.2440308,41.7807206],[12.2443032,41.7803823],[12.2443372,41.7803401],[12.2446713,41.7799187],[12.2446994,41.7798644],[12.2447344,41.7797652],[12.2447221,41.779671],[12.2444917,41.7785981],[12.2444776,41.7785279],[12.244388,41.778083],[12.2443512,41.7779107],[12.2442851,41.7777382],[12.2442198,41.7776627],[12.2441363,41.777584],[12.2413875,41.7763619],[12.241143,41.7762635],[12.2410304,41.7762678],[12.2409567,41.7762982],[12.2407959,41.7766446],[12.2406187,41.7769906],[12.2399245,41.7783231],[12.2382279,41.7815778],[12.2381534,41.7817207],[12.2366567,41.7846],[12.235292,41.7872309],[12.2340689,41.7895704],[12.2323883,41.7928121],[12.2319046,41.793737],[12.2304541,41.7965239],[12.228602,41.8000721],[12.2283062,41.8006371],[12.2272329,41.8027073],[12.2260171,41.8050356],[12.2243969,41.8081528],[12.2240978,41.8087356],[12.2230598,41.8108108],[12.2228209,41.8112801],[12.2219045,41.8130223],[12.2210458,41.8146575],[12.2209981,41.8147595],[12.2209448,41.8149043],[12.2209633,41.8150672],[12.2211316,41.8154812],[12.2215132,41.8163755],[12.2216054,41.8165961],[12.2217072,41.8168375],[12.2217421,41.8169203],[12.2219077,41.8173132],[12.2221222,41.8177867],[12.222271,41.8179768],[12.2223811,41.8180511],[12.2225894,41.8181443],[12.2258048,41.819087],[12.2260156,41.8191313],[12.2260935,41.8191354],[12.2262783,41.8191386],[12.2264037,41.819116],[12.2266512,41.8190234],[12.226906,41.8188821],[12.2277277,41.8183883],[12.2291066,41.8173763],[12.2295091,41.8170809],[12.2307858,41.8161552],[12.2313501,41.8157376],[12.2315797,41.8155561],[12.2316574,41.8154818],[12.2317572,41.815329],[12.2321306,41.8144752],[12.2327421,41.8130148],[12.2329232,41.8125824],[12.2349039,41.8078376],[12.2366854,41.8035739],[12.2367642,41.8033979],[12.2368996,41.8032484],[12.2370747,41.8031504],[12.2372086,41.8031301],[12.2372682,41.8031211],[12.2373551,41.8031541],[12.2375699,41.8032763],[12.2378703,41.8035143],[12.2380512,41.8036111],[12.2383584,41.8037027],[12.244165,41.805298],[12.2447813,41.805467],[12.246674,41.8059861],[12.2472281,41.806138],[12.247887,41.8063249],[12.2480796,41.8063786]]},"properties":{"site":"portus","name":"Strada Perimetrale Aeroporto di Fiumicino","highway":"service"}},{"type":"Feature","geometry":{"type":"LineString","coordinates":[[12.2596647,41.768851],[12.2593287,41.7691732]]},"properties":{"site":"portus","name":"","highway":"service"}},{"type":"Feature","geometry":{"type":"LineString","coordinates":[[12.2581745,41.7703776],[12.2582646,41.7703322],[12.258461,41.7701824],[12.2584734,41.7701298],[12.2584569,41.7700864],[12.2584098,41.7700652],[12.2583374,41.7700648],[12.2581052,41.770215],[12.2580611,41.7702957]]},"properties":{"site":"portus","name":"","highway":"service"}},{"type":"Feature","geometry":{"type":"LineString","coordinates":[[12.2579106,41.7701771],[12.2579681,41.7702305],[12.2580611,41.7702957],[12.2581745,41.7703776],[12.2581827,41.7704546],[12.2580912,41.7705174],[12.2580024,41.7705309],[12.2577347,41.7702848]]},"properties":{"site":"portus","name":"","highway":"service"}},{"type":"Feature","geometry":{"type":"LineString","coordinates":[[12.2576159,41.772075],[12.2575343,41.7723189]]},"properties":{"site":"portus","name":"","highway":"service"}},{"type":"Feature","geometry":{"type":"LineString","coordinates":[[12.2463761,41.7867178],[12.2463661,41.7867995],[12.2463608,41.7868251],[12.2463514,41.7868511],[12.2463354,41.7868841],[12.2462682,41.7869923],[12.2462487,41.7870319],[12.2462346,41.7870728],[12.2462266,41.7871058],[12.2462222,41.7871348],[12.2461918,41.7873395]]},"properties":{"site":"portus","name":"","highway":"service"}},{"type":"Feature","geometry":{"type":"LineString","coordinates":[[12.2550304,41.7718928],[12.2553228,41.7717408],[12.2553985,41.7715844]]},"properties":{"site":"portus","name":"","highway":"service"}},{"type":"Feature","geometry":{"type":"LineString","coordinates":[[12.2615898,41.7738099],[12.2621207,41.7737543],[12.2624265,41.7737503],[12.2626518,41.7738784],[12.2626411,41.7740864],[12.2625499,41.7742304],[12.2619491,41.7742144],[12.2619276,41.7741304],[12.2617613,41.7740904]]},"properties":{"site":"portus","name":"Via Col Moschin n. 12","highway":"service"}},{"type":"Feature","geometry":{"type":"LineString","coordinates":[[12.2641655,41.7688482],[12.2641429,41.7688804],[12.2640911,41.7689508],[12.2640073,41.7689258],[12.2639342,41.7689281],[12.2638532,41.7689482],[12.263793,41.7689761],[12.2637623,41.7690344],[12.2636938,41.7691363],[12.2635514,41.7693254],[12.2633699,41.7695426],[12.2633421,41.7696047],[12.263292,41.7696587],[12.2632636,41.7696802],[12.26324,41.7696901],[12.2631984,41.7696968],[12.2631575,41.7696846],[12.2631139,41.7696615],[12.2630727,41.7696608],[12.263047,41.7696799],[12.262877,41.7698781],[12.2628328,41.7699684],[12.2628584,41.7700431],[12.2629189,41.7700882],[12.2630237,41.7701229],[12.2631261,41.770149]]},"properties":{"site":"portus","name":"","highway":"footway"}},{"type":"Feature","geometry":{"type":"LineString","coordinates":[[12.2541051,41.7816973],[12.2539213,41.781695],[12.2535458,41.781551],[12.2532025,41.781495],[12.2530469,41.781499]]},"properties":{"site":"portus","name":"","highway":"service"}},{"type":"Feature","geometry":{"type":"LineString","coordinates":[[12.2497856,41.7741394],[12.2499199,41.774172],[12.2499939,41.7742011],[12.2500558,41.7742577],[12.2500721,41.774316],[12.2500406,41.7744378]]},"properties":{"site":"portus","name":"","highway":"service"}},{"type":"Feature","geometry":{"type":"LineString","coordinates":[[12.254317,41.7748148],[12.2543959,41.7748018],[12.2544482,41.774818],[12.2544888,41.774906],[12.254555,41.7751224],[12.2545727,41.7751699],[12.2545763,41.7752154],[12.254559,41.7752614],[12.2544567,41.7753983]]},"properties":{"site":"portus","name":"","highway":"path"}},{"type":"Feature","geometry":{"type":"LineString","coordinates":[[12.2574743,41.7792575],[12.2574747,41.7792271],[12.257463,41.7791785],[12.2574453,41.7791313],[12.2574074,41.7790702]]},"properties":{"site":"portus","name":"","highway":"path"}},{"type":"Feature","geometry":{"type":"LineString","coordinates":[[12.257741,41.7783879],[12.2577538,41.7783244],[12.2577466,41.7782718],[12.2577234,41.7782172],[12.2576825,41.7781612],[12.2576182,41.7781203],[12.257522,41.7780937],[12.2573711,41.7780652],[12.2572992,41.7780462],[12.2572674,41.7780337],[12.2572419,41.7780112],[12.2572245,41.7779854],[12.2574422,41.7775887],[12.2576095,41.777362],[12.2577744,41.7770971],[12.25784,41.7770026],[12.2580788,41.7768126],[12.2582558,41.7767106],[12.2584033,41.7766486],[12.2584374,41.7766233],[12.2584596,41.7765915],[12.2584678,41.7765561],[12.2584613,41.7765206],[12.2584406,41.7764882],[12.2584077,41.7764621],[12.2583657,41.7764445],[12.2582844,41.7764073],[12.2581941,41.7763845],[12.2581491,41.7763778],[12.2581091,41.7763611],[12.2580778,41.7763361],[12.2580583,41.7763051],[12.2580524,41.7762712],[12.2580607,41.7762375],[12.2580823,41.7762074],[12.2581154,41.7761836],[12.2581565,41.7761685],[12.2582798,41.7761485],[12.258406,41.7761465],[12.2584794,41.7761495],[12.258551,41.7761372],[12.2586152,41.7761105],[12.258763,41.7760609],[12.2589183,41.7760265],[12.25915,41.7760154],[12.259271,41.7760075],[12.2594192,41.7760107],[12.2595419,41.7760081],[12.2596514,41.7760503],[12.2597133,41.7760851],[12.2597515,41.7761437],[12.2597479,41.7761979],[12.2597186,41.7762634],[12.2595555,41.7765306],[12.2595643,41.7765659],[12.2595877,41.7766059],[12.2596403,41.7766481],[12.2596825,41.7766965],[12.2597125,41.7768251],[12.2597478,41.7770201],[12.2597756,41.7771611],[12.2597639,41.7772841],[12.2597317,41.7773708],[12.2596505,41.7774037],[12.2595396,41.7774196],[12.2593039,41.7774062],[12.2591463,41.7773907],[12.2590068,41.7773567],[12.2588524,41.7773003],[12.2587064,41.7772326],[12.2585762,41.77715],[12.2585441,41.7770906],[12.2585481,41.7770276],[12.2586259,41.7769406],[12.258719,41.7768114],[12.2587681,41.7767366],[12.2588335,41.7766684],[12.258893,41.7766064],[12.2589828,41.776496],[12.2590485,41.7764085],[12.2591074,41.7763418],[12.2591511,41.7762774],[12.2591788,41.7762016],[12.2591909,41.7761107],[12.2591549,41.7760385],[12.25915,41.7760154]]},"properties":{"site":"portus","name":"","highway":"track"}},{"type":"Feature","geometry":{"type":"LineString","coordinates":[[12.2577133,41.7784586],[12.257741,41.7783879]]},"properties":{"site":"portus","name":"","highway":"track"}},{"type":"Feature","geometry":{"type":"LineString","coordinates":[[12.2590286,41.7789606],[12.2588493,41.7789628]]},"properties":{"site":"portus","name":"","highway":"track"}},{"type":"Feature","geometry":{"type":"LineString","coordinates":[[12.2542721,41.7747853],[12.2542822,41.7747908],[12.254317,41.7748148],[12.2543157,41.7748508],[12.2542553,41.7749558],[12.2542343,41.7749845],[12.2541172,41.7751538],[12.2539791,41.7753056],[12.2538766,41.7753839],[12.2537071,41.7754943],[12.2535733,41.7756001],[12.2528754,41.776256],[12.2528472,41.776302],[12.2528418,41.776351],[12.2528646,41.776406],[12.2529143,41.7764461],[12.2529451,41.776471],[12.2531181,41.776537],[12.253163,41.7765546],[12.2533447,41.776626]]},"properties":{"site":"portus","name":"","highway":"track"}},{"type":"Feature","geometry":{"type":"LineString","coordinates":[[12.2530698,41.7782832],[12.253159,41.7783536]]},"properties":{"site":"portus","name":"","highway":"footway"}},{"type":"Feature","geometry":{"type":"LineString","coordinates":[[12.2604776,41.7828607],[12.2582839,41.7799409],[12.2590286,41.7789606],[12.2590727,41.77888]]},"properties":{"site":"portus","name":"","highway":"track"}},{"type":"Feature","geometry":{"type":"LineString","coordinates":[[12.2590727,41.77888],[12.2591061,41.7788344]]},"properties":{"site":"portus","name":"","highway":"track"}},{"type":"Feature","geometry":{"type":"LineString","coordinates":[[12.2647717,41.7770715],[12.2649318,41.777169]]},"properties":{"site":"portus","name":"","highway":"track"}},{"type":"Feature","geometry":{"type":"LineString","coordinates":[[12.2554536,41.7785015],[12.2554167,41.7786372],[12.2553935,41.7787674],[12.2553971,41.7788284],[12.2554007,41.7788893],[12.2554704,41.7789893],[12.2556796,41.7790613],[12.2563455,41.7792653],[12.2566117,41.7793653],[12.2567458,41.7794673],[12.2568638,41.7795753],[12.2569443,41.7796913],[12.2570489,41.7798274]]},"properties":{"site":"portus","name":"","highway":"track"}},{"type":"Feature","geometry":{"type":"LineString","coordinates":[[12.2605015,41.7834068],[12.2608289,41.7828563]]},"properties":{"site":"portus","name":"","highway":"track"}},{"type":"Feature","geometry":{"type":"LineString","coordinates":[[12.2621115,41.7828401],[12.2608289,41.7828563],[12.2608223,41.7828563]]},"properties":{"site":"portus","name":"","highway":"track"}},{"type":"Feature","geometry":{"type":"LineString","coordinates":[[12.2608223,41.7828563],[12.2604776,41.7828607]]},"properties":{"site":"portus","name":"","highway":"track"}},{"type":"Feature","geometry":{"type":"LineString","coordinates":[[12.251795,41.7798027],[12.2530054,41.7803463],[12.2543384,41.7809302],[12.255294,41.7813633],[12.2562648,41.7817795],[12.2564053,41.7818141],[12.2567567,41.7818406],[12.2569252,41.7818298],[12.2570323,41.7818301],[12.2570976,41.7818395],[12.2571606,41.7818485],[12.2574863,41.7819458],[12.2577712,41.7821258],[12.2577907,41.7821598],[12.2577915,41.7822024],[12.257759,41.7822873],[12.2577537,41.7823694],[12.2577819,41.7824202],[12.2578423,41.7824593],[12.2579359,41.7824851],[12.2607312,41.78363]]},"properties":{"site":"portus","name":"","highway":"track"}},{"type":"Feature","geometry":{"type":"LineString","coordinates":[[12.2488514,41.7777451],[12.2489027,41.7777543],[12.2490391,41.7777786],[12.2490945,41.7777884],[12.2491437,41.7778109],[12.2491793,41.7778604],[12.2491972,41.7778941]]},"properties":{"site":"portus","name":"","highway":"track"}},{"type":"Feature","geometry":{"type":"LineString","coordinates":[[12.2570976,41.7818395],[12.2569167,41.7816855],[12.2567759,41.7815905],[12.2566523,41.7815346],[12.2565236,41.7814946],[12.2564656,41.7814572],[12.2564373,41.7813995],[12.2563422,41.7811227],[12.2563447,41.7810786],[12.2563722,41.7810496],[12.2565306,41.7809717]]},"properties":{"site":"portus","name":"","highway":"track"}},{"type":"Feature","geometry":{"type":"LineString","coordinates":[[12.2533969,41.7787885],[12.2535556,41.7788028],[12.2537004,41.7788217],[12.2537766,41.7788333],[12.2538695,41.7788552]]},"properties":{"site":"portus","name":"","highway":"track"}},{"type":"Feature","geometry":{"type":"LineString","coordinates":[[12.2517992,41.7792857],[12.2518476,41.7792785]]},"properties":{"site":"portus","name":"","highway":"track"}},{"type":"Feature","geometry":{"type":"LineString","coordinates":[[12.2518118,41.7844661],[12.2517929,41.7845079],[12.2517642,41.7845464],[12.2517267,41.7845805],[12.2516817,41.7846091],[12.2516321,41.7846306],[12.2515659,41.7846475],[12.2514899,41.7846533],[12.2513139,41.7846485],[12.2512245,41.7846806]]},"properties":{"site":"portus","name":"","highway":"service"}},{"type":"Feature","geometry":{"type":"LineString","coordinates":[[12.2511827,41.7845655],[12.2513274,41.7845847],[12.251453,41.7845912],[12.2515409,41.7845897],[12.2516222,41.7845611],[12.2516891,41.7845009],[12.2517076,41.7844473],[12.2517066,41.7843884],[12.2516752,41.784163]]},"properties":{"site":"portus","name":"","highway":"footway"}},{"type":"Feature","geometry":{"type":"LineString","coordinates":[[12.251351,41.7857657],[12.2514266,41.7856254],[12.2515577,41.785028],[12.2515249,41.7849696],[12.2515135,41.7848718],[12.2514722,41.7848016],[12.251428,41.7847538],[12.2513453,41.7847176],[12.2511173,41.7847028],[12.251026,41.7846815],[12.2509291,41.7846284]]},"properties":{"site":"portus","name":"","highway":"footway"}},{"type":"Feature","geometry":{"type":"LineString","coordinates":[[12.2529205,41.7857168],[12.2527779,41.78562],[12.2527024,41.785551],[12.2526468,41.7854787],[12.2525926,41.785399],[12.2525285,41.7852693],[12.2524158,41.7849664],[12.2523959,41.7849005],[12.2523916,41.7848452],[12.2524002,41.7847804],[12.2524315,41.7846985],[12.2524857,41.7846082],[12.2525285,41.7845593],[12.2525372,41.7844839]]},"properties":{"site":"portus","name":"","highway":"footway"}},{"type":"Feature","geometry":{"type":"LineString","coordinates":[[12.2475232,41.7786317],[12.2473743,41.7785689],[12.2472348,41.7785107],[12.2470952,41.7784561],[12.2469419,41.7783982],[12.2467604,41.7783385],[12.2465937,41.7782823],[12.2464108,41.7782193],[12.2464373,41.7781798],[12.2464582,41.7781488]]},"properties":{"site":"portus","name":"","highway":"footway"}},{"type":"Feature","geometry":{"type":"LineString","coordinates":[[12.2408617,41.7726929],[12.2409176,41.7718654],[12.2409847,41.7717704],[12.2410236,41.7717153],[12.2414259,41.7715753]]},"properties":{"site":"portus","name":"","highway":"service"}},{"type":"Feature","geometry":{"type":"LineString","coordinates":[[12.2414176,41.7727714],[12.2413888,41.7728619],[12.241273,41.7732266]]},"properties":{"site":"portus","name":"","highway":"service"}},{"type":"Feature","geometry":{"type":"LineString","coordinates":[[12.2409396,41.7727039],[12.2409932,41.7725723],[12.2410642,41.7725305],[12.2413516,41.7725638],[12.2414176,41.7727714]]},"properties":{"site":"portus","name":"","highway":"service"}},{"type":"Feature","geometry":{"type":"LineString","coordinates":[[12.2397784,41.7725397],[12.239839,41.7723234],[12.2402548,41.7723764],[12.2402749,41.7724594],[12.2402329,41.772604]]},"properties":{"site":"portus","name":"","highway":"service"}},{"type":"Feature","geometry":{"type":"LineString","coordinates":[[12.2640911,41.7689508],[12.2631261,41.770149],[12.262872,41.7704669]]},"properties":{"site":"portus","name":"Via Severiana","highway":"pedestrian"}},{"type":"Feature","geometry":{"type":"LineString","coordinates":[[12.2554963,41.7821736],[12.2550913,41.7820159],[12.2549299,41.7819621],[12.2548427,41.7819419],[12.2548157,41.7819501],[12.2547475,41.7819404],[12.2547234,41.7819247],[12.2546092,41.7819172],[12.254522,41.7819187],[12.2544568,41.7819299],[12.2544067,41.7819434],[12.2543636,41.7819546],[12.2543185,41.7819598],[12.2541692,41.7819593]]},"properties":{"site":"portus","name":"","highway":"footway"}},{"type":"Feature","geometry":{"type":"LineString","coordinates":[[12.2541657,41.7819159],[12.2541692,41.7819593],[12.2541741,41.7820189],[12.2541561,41.7821086],[12.2539386,41.7823956]]},"properties":{"site":"portus","name":"","highway":"service"}},{"type":"Feature","geometry":{"type":"LineString","coordinates":[[12.2517544,41.7804702],[12.2516946,41.7805474],[12.2515817,41.7806925],[12.2515592,41.7813206],[12.2515898,41.7813626],[12.2516316,41.781377],[12.2518056,41.781371],[12.2518362,41.7813518],[12.2518571,41.781323],[12.2517299,41.7808438]]},"properties":{"site":"portus","name":"","highway":"service"}},{"type":"Feature","geometry":{"type":"LineString","coordinates":[[12.2592878,41.771025],[12.2600718,41.7712403],[12.260128,41.7714311]]},"properties":{"site":"portus","name":"","highway":"service"}},{"type":"Feature","geometry":{"type":"LineString","coordinates":[[12.2564318,41.7707998],[12.2565402,41.7707337],[12.2568243,41.7705605],[12.2569209,41.7706486],[12.2570098,41.7707298]]},"properties":{"site":"portus","name":"","highway":"service"}},{"type":"Feature","geometry":{"type":"LineString","coordinates":[[12.2565402,41.7707337],[12.2566284,41.7708183],[12.2569209,41.7706486]]},"properties":{"site":"portus","name":"","highway":"service"}},{"type":"Feature","geometry":{"type":"LineString","coordinates":[[12.2542343,41.7749845],[12.2542647,41.7750384],[12.2541922,41.7751544],[12.2538435,41.7754884],[12.2536987,41.7757225],[12.2533983,41.7760625],[12.2532883,41.7763645],[12.2532088,41.7764038]]},"properties":{"site":"portus","name":"","highway":"path"}},{"type":"Feature","geometry":{"type":"LineString","coordinates":[[12.2533447,41.776626],[12.2534331,41.7766865],[12.2534949,41.7767316],[12.253523,41.7767576],[12.2535594,41.7768197],[12.2535591,41.7768729],[12.2535291,41.7769475],[12.2533173,41.7771883],[12.2531129,41.7773955],[12.253013,41.7774953],[12.2528819,41.7776613],[12.2528263,41.7777798],[12.2528016,41.7778938],[12.2528017,41.7780055],[12.2528204,41.7780412],[12.2529223,41.7781452],[12.2530698,41.7782832]]},"properties":{"site":"portus","name":"","highway":"track"}},{"type":"Feature","geometry":{"type":"LineString","coordinates":[[12.2588737,41.7814235],[12.2581458,41.780865],[12.2582155,41.7805609],[12.2579969,41.7802479]]},"properties":{"site":"portus","name":"","highway":"track"}},{"type":"Feature","geometry":{"type":"LineString","coordinates":[[12.239256,41.7892418],[12.2397213,41.7881421],[12.2408822,41.7853982],[12.2417058,41.7834514]]},"properties":{"site":"portus","name":"","highway":"service"}},{"type":"Feature","geometry":{"type":"LineString","coordinates":[[12.2408822,41.7853982],[12.2417659,41.7856178]]},"properties":{"site":"portus","name":"","highway":"track"}},{"type":"Feature","geometry":{"type":"LineString","coordinates":[[12.2451875,41.775116],[12.2455072,41.7751679],[12.2456628,41.7751759]]},"properties":{"site":"portus","name":"","highway":"service"}},{"type":"Feature","geometry":{"type":"LineString","coordinates":[[12.2457379,41.7749281],[12.2456628,41.7751759],[12.2455989,41.7754968],[12.2455448,41.7757797],[12.2455126,41.7759357],[12.2462118,41.7760249]]},"properties":{"site":"portus","name":"","highway":"service"}},{"type":"Feature","geometry":{"type":"LineString","coordinates":[[12.2457379,41.7749281],[12.2458076,41.7746682],[12.2458345,41.7745202],[12.245872,41.7743923],[12.2459149,41.7742644],[12.2459364,41.7741284],[12.2459632,41.7740365],[12.24599,41.7739365],[12.2459847,41.7738925],[12.2459579,41.7738725],[12.2458774,41.7738485],[12.2456789,41.7738166],[12.2454858,41.7737846]]},"properties":{"site":"portus","name":"","highway":"service"}},{"type":"Feature","geometry":{"type":"LineString","coordinates":[[12.2457379,41.7749281],[12.2465104,41.77504]]},"properties":{"site":"portus","name":"","highway":"service"}},{"type":"Feature","geometry":{"type":"LineString","coordinates":[[12.2465801,41.7747641],[12.2458076,41.7746682],[12.2452873,41.7745922]]},"properties":{"site":"portus","name":"","highway":"service"}},{"type":"Feature","geometry":{"type":"LineString","coordinates":[[12.2451875,41.775116],[12.2452497,41.7747122],[12.2452873,41.7745922],[12.2453248,41.7744643],[12.245357,41.7743163],[12.2454268,41.7740564]]},"properties":{"site":"portus","name":"","highway":"service"}},{"type":"Feature","geometry":{"type":"LineString","coordinates":[[12.2453248,41.7744643],[12.2458345,41.7745202]]},"properties":{"site":"portus","name":"","highway":"service"}},{"type":"Feature","geometry":{"type":"LineString","coordinates":[[12.2474635,41.7746369],[12.2466552,41.7745082],[12.245872,41.7743923],[12.2454751,41.7743403],[12.245357,41.7743163]]},"properties":{"site":"portus","name":"","highway":"service"}},{"type":"Feature","geometry":{"type":"LineString","coordinates":[[12.2466552,41.7745082],[12.2465801,41.7747641],[12.2465104,41.77504],[12.2464836,41.7751599],[12.2471273,41.7752639]]},"properties":{"site":"portus","name":"","highway":"service"}},{"type":"Feature","geometry":{"type":"LineString","coordinates":[[12.2466552,41.7745082],[12.2467251,41.7742497],[12.2467893,41.7739725],[12.2468589,41.7737325]]},"properties":{"site":"portus","name":"","highway":"service"}},{"type":"Feature","geometry":{"type":"LineString","coordinates":[[12.24754,41.774386],[12.2467251,41.7742497],[12.2459364,41.7741284],[12.2454268,41.7740564]]},"properties":{"site":"portus","name":"","highway":"service"}},{"type":"Feature","geometry":{"type":"LineString","coordinates":[[12.2475989,41.7741076],[12.24754,41.774386],[12.2474635,41.7746369],[12.2473741,41.7748881]]},"properties":{"site":"portus","name":"","highway":"service"}},{"type":"Feature","geometry":{"type":"LineString","coordinates":[[12.2467893,41.7739725],[12.2475989,41.7741076],[12.2484579,41.7742487],[12.2483895,41.7745208],[12.2482661,41.775011]]},"properties":{"site":"portus","name":"","highway":"service"}},{"type":"Feature","geometry":{"type":"LineString","coordinates":[[12.2489711,41.7744171],[12.2485033,41.774354],[12.2483295,41.7750518],[12.2482207,41.7754955],[12.2480822,41.7758796],[12.2480232,41.776153],[12.247991,41.7762975]]},"properties":{"site":"portus","name":"","highway":"service"}},{"type":"Feature","geometry":{"type":"LineString","coordinates":[[12.2484579,41.7742487],[12.2485491,41.77398],[12.2476777,41.7738515],[12.2475989,41.7741076]]},"properties":{"site":"portus","name":"","highway":"service"}},{"type":"Feature","geometry":{"type":"LineString","coordinates":[[12.24754,41.774386],[12.2483895,41.7745208]]},"properties":{"site":"portus","name":"","highway":"service"}},{"type":"Feature","geometry":{"type":"LineString","coordinates":[[12.2451875,41.775116],[12.2451175,41.7754348],[12.2455989,41.7754968]]},"properties":{"site":"portus","name":"","highway":"service"}},{"type":"Feature","geometry":{"type":"LineString","coordinates":[[12.2455448,41.7757797],[12.2462332,41.7759039]]},"properties":{"site":"portus","name":"","highway":"service"}},{"type":"Feature","geometry":{"type":"LineString","coordinates":[[12.2496296,41.773924],[12.249658,41.7738935],[12.2496693,41.7738657],[12.2496704,41.7738495],[12.2496793,41.7738036],[12.2496954,41.7737336],[12.2497072,41.7736872],[12.2497275,41.773625],[12.2497455,41.7735538],[12.2497674,41.7734696],[12.2497881,41.7733977],[12.2498106,41.7733087],[12.2498302,41.7732375],[12.2498505,41.7731597],[12.2498727,41.7730821],[12.2498927,41.7730081],[12.2499165,41.7729182],[12.2499416,41.7728323],[12.2499695,41.772768],[12.2499942,41.772684],[12.2500355,41.7726052],[12.2500872,41.7725594],[12.2501525,41.7725527],[12.2502469,41.7725723],[12.2503312,41.7725948],[12.2503625,41.7725608],[12.250382,41.7725282],[12.2504205,41.7724661],[12.2504055,41.7724166],[12.2503507,41.772382],[12.2502698,41.7723566],[12.2501972,41.7723549],[12.2501508,41.7723616],[12.2501022,41.7724045],[12.250081,41.7724545],[12.250071,41.7725173],[12.2500872,41.7725594]]},"properties":{"site":"portus","name":"","highway":"service"}},{"type":"Feature","geometry":{"type":"LineString","coordinates":[[12.2503312,41.7725948],[12.2504267,41.772614],[12.2505546,41.7726781]]},"properties":{"site":"portus","name":"","highway":"service"}},{"type":"Feature","geometry":{"type":"LineString","coordinates":[[12.2503312,41.7725948],[12.2503731,41.7726339],[12.2504222,41.7726718],[12.2504753,41.7727243]]},"properties":{"site":"portus","name":"","highway":"service"}},{"type":"Feature","geometry":{"type":"LineString","coordinates":[[12.2503764,41.7727115],[12.2504753,41.7727243],[12.2505524,41.77274]]},"properties":{"site":"portus","name":"","highway":"service"}},{"type":"Feature","geometry":{"type":"LineString","coordinates":[[12.2503764,41.7727115],[12.2503657,41.7727118],[12.2503521,41.7727154],[12.2503415,41.7727248]]},"properties":{"site":"portus","name":"","highway":"footway"}},{"type":"Feature","geometry":{"type":"LineString","coordinates":[[12.2503415,41.7727248],[12.250332,41.7727552]]},"properties":{"site":"portus","name":"","highway":"steps"}},{"type":"Feature","geometry":{"type":"LineString","coordinates":[[12.250332,41.7727552],[12.2503353,41.7727593],[12.2503585,41.7727624],[12.2503947,41.7727677],[12.2504432,41.7727745],[12.2505124,41.7727855]]},"properties":{"site":"portus","name":"","highway":"footway"}},{"type":"Feature","geometry":{"type":"LineString","coordinates":[[12.2402338,41.7755381],[12.2401585,41.7754874],[12.2401358,41.7754754],[12.2401088,41.7754639],[12.2400747,41.7754551],[12.2400344,41.7754495],[12.2399158,41.7754349],[12.2398885,41.7754278],[12.2398729,41.7754171],[12.2398661,41.775402],[12.2398641,41.7753717],[12.2398656,41.7752238],[12.2398616,41.7752058],[12.2398547,41.7751926],[12.2398415,41.7751827],[12.2398222,41.7751779],[12.23906,41.7751384],[12.239034,41.7751351],[12.2390067,41.7751281],[12.2389826,41.7751149],[12.2389666,41.775094],[12.2389618,41.7750675],[12.2389649,41.7750413],[12.2389744,41.7750135],[12.2389878,41.7749938],[12.2390094,41.7749786],[12.2390349,41.7749708],[12.239062,41.7749689],[12.2390926,41.7749695],[12.2398983,41.7750091],[12.2399227,41.7750135],[12.2399448,41.7750223],[12.2399607,41.7750357],[12.2399748,41.7750548],[12.2399804,41.7750734],[12.2399817,41.7751016],[12.2399624,41.7753735],[12.2399679,41.7753892],[12.2399796,41.7754028],[12.2399992,41.7754126],[12.240027,41.7754176],[12.2400597,41.7754214],[12.2400971,41.775422],[12.2402066,41.775415],[12.240253,41.7754069]]},"properties":{"site":"portus","name":"Piazzale Traiano Imperatore","highway":"service"}},{"type":"Feature","geometry":{"type":"LineString","coordinates":[[12.2532779,41.7767588],[12.2534949,41.7767316]]},"properties":{"site":"portus","name":"","highway":"path"}},{"type":"Feature","geometry":{"type":"LineString","coordinates":[[12.2531448,41.7764225],[12.2530915,41.7764311],[12.2529143,41.7764461]]},"properties":{"site":"portus","name":"","highway":"path"}},{"type":"Feature","geometry":{"type":"LineString","coordinates":[[12.2584033,41.7766486],[12.2586896,41.7765682],[12.2589828,41.776496]]},"properties":{"site":"portus","name":"","highway":"track"}},{"type":"Feature","geometry":{"type":"LineString","coordinates":[[12.253088,41.7767681],[12.2532158,41.7767649]]},"properties":{"site":"portus","name":"","highway":"path"}},{"type":"Feature","geometry":{"type":"LineString","coordinates":[[12.2593217,41.7778457],[12.2591542,41.778113]]},"properties":{"site":"portus","name":"","highway":"footway"}},{"type":"Feature","geometry":{"type":"LineString","coordinates":[[12.2586896,41.7765682],[12.2587745,41.7766129],[12.2588335,41.7766684]]},"properties":{"site":"portus","name":"","highway":"track"}},{"type":"Feature","geometry":{"type":"LineString","coordinates":[[12.2531181,41.776537],[12.2529682,41.7767181],[12.253088,41.7767681]]},"properties":{"site":"portus","name":"","highway":"footway"}},{"type":"Feature","geometry":{"type":"LineString","coordinates":[[12.2532088,41.7764038],[12.2531448,41.7764225]]},"properties":{"site":"portus","name":"","highway":"path"}},{"type":"Feature","geometry":{"type":"LineString","coordinates":[[12.2597125,41.7768251],[12.2596132,41.7769187],[12.2596121,41.7770247],[12.2595833,41.7771525],[12.2595396,41.7774196]]},"properties":{"site":"portus","name":"","highway":"path"}},{"type":"Feature","geometry":{"type":"LineString","coordinates":[[12.2562524,41.7777459],[12.2563879,41.7775634]]},"properties":{"site":"portus","name":"","highway":"path"}},{"type":"Feature","geometry":{"type":"LineString","coordinates":[[12.2561397,41.7774701],[12.2563879,41.7775634],[12.256829,41.7777417]]},"properties":{"site":"portus","name":"","highway":"path"}},{"type":"Feature","geometry":{"type":"LineString","coordinates":[[12.2595396,41.7774196],[12.2593217,41.7778457]]},"properties":{"site":"portus","name":"","highway":"path"}},{"type":"Feature","geometry":{"type":"LineString","coordinates":[[12.2532158,41.7767649],[12.2532779,41.7767588]]},"properties":{"site":"portus","name":"","highway":"path"}},{"type":"Feature","geometry":{"type":"LineString","coordinates":[[12.2565673,41.7709999],[12.2566671,41.7710846],[12.2567213,41.7710546],[12.2569513,41.7709272],[12.2570446,41.7710078],[12.2568656,41.7711228],[12.2567213,41.7710546]]},"properties":{"site":"portus","name":"","highway":"service"}},{"type":"Feature","geometry":{"type":"LineString","coordinates":[[12.2566671,41.7710846],[12.2565866,41.7712013]]},"properties":{"site":"portus","name":"","highway":"service"}},{"type":"Feature","geometry":{"type":"LineString","coordinates":[[12.2427754,41.7706181],[12.2425788,41.770644],[12.2423508,41.7706525],[12.2421455,41.7706897],[12.2411391,41.771267]]},"properties":{"site":"portus","name":"","highway":"track"}},{"type":"Feature","geometry":{"type":"LineString","coordinates":[[12.2705548,41.7825302],[12.2703454,41.7824303],[12.2696118,41.7820717],[12.2681861,41.7813767],[12.2678268,41.7812047],[12.2672857,41.780949]]},"properties":{"site":"portus","name":"","highway":"service"}},{"type":"Feature","geometry":{"type":"LineString","coordinates":[[12.2671559,41.7827447],[12.2671579,41.7826961],[12.2671698,41.7826953],[12.2671698,41.7825656],[12.2671806,41.7824211],[12.2671846,41.7824101],[12.2672202,41.782357],[12.2672429,41.7823651],[12.2672854,41.7823997],[12.2673408,41.7824278],[12.2673467,41.7824425]]},"properties":{"site":"portus","name":"","highway":"footway"}},{"type":"Feature","geometry":{"type":"LineString","coordinates":[[12.2684928,41.7827201],[12.2683857,41.7825826]]},"properties":{"site":"portus","name":"","highway":"service"}},{"type":"Feature","geometry":{"type":"LineString","coordinates":[[12.2678921,41.7815439],[12.2679127,41.7815531],[12.2679282,41.7815668],[12.2679372,41.7815833],[12.2679386,41.7816012],[12.2679323,41.7816185],[12.267919,41.7816333],[12.267899,41.7816447],[12.2678751,41.7816504],[12.2678501,41.7816499],[12.2678266,41.7816432],[12.2678075,41.7816311],[12.2677948,41.781615],[12.2677901,41.7815966],[12.2677938,41.7815781],[12.2678055,41.7815616],[12.267823,41.7815494],[12.2678449,41.7815419],[12.2678687,41.78154],[12.2678921,41.7815439]]},"properties":{"site":"portus","name":"","highway":"service"}},{"type":"Feature","geometry":{"type":"LineString","coordinates":[[12.2406236,41.7784938],[12.2401965,41.7783908],[12.2399457,41.7783288],[12.2399245,41.7783231]]},"properties":{"site":"portus","name":"","highway":"service"}},{"type":"Feature","geometry":{"type":"LineString","coordinates":[[12.2444776,41.7785279],[12.2445403,41.7784748],[12.2448206,41.7781277],[12.2448548,41.7780622],[12.2448642,41.7780167],[12.2448575,41.7779622],[12.2448159,41.7779087],[12.2447153,41.7778467],[12.2442781,41.7776552],[12.2442198,41.7776627]]},"properties":{"site":"portus","name":"","highway":"service"}},{"type":"Feature","geometry":{"type":"LineString","coordinates":[[12.2443089,41.7808386],[12.244541,41.7805559],[12.2445584,41.7805184],[12.2445383,41.7804919],[12.2444934,41.7804674],[12.2443593,41.7804089],[12.2443032,41.7803823]]},"properties":{"site":"portus","name":"","highway":"service"}},{"type":"Feature","geometry":{"type":"LineString","coordinates":[[12.244669,41.7804949],[12.2446851,41.7805449],[12.2446758,41.7805919],[12.2444759,41.780846],[12.2444348,41.780895]]},"properties":{"site":"portus","name":"","highway":"service"}},{"type":"Feature","geometry":{"type":"LineString","coordinates":[[12.2443372,41.7803401],[12.244427,41.7803814],[12.244669,41.7804949],[12.244838,41.7805789],[12.2448508,41.7806074],[12.2448347,41.7806504],[12.2446188,41.780911],[12.24458,41.78096]]},"properties":{"site":"portus","name":"","highway":"service"}},{"type":"Feature","geometry":{"type":"LineString","coordinates":[[12.2449292,41.781449],[12.2450419,41.781234],[12.2450687,41.781179]]},"properties":{"site":"portus","name":"","highway":"service"}},{"type":"Feature","geometry":{"type":"LineString","coordinates":[[12.2440308,41.7807206],[12.2441044,41.780747],[12.2443089,41.7808386],[12.2444348,41.780895],[12.24458,41.78096],[12.2450687,41.781179],[12.2451089,41.781194],[12.2453986,41.781297],[12.2455072,41.781343],[12.2457084,41.781453],[12.2460249,41.781617],[12.2462301,41.781744]]},"properties":{"site":"portus","name":"","highway":"service"}},{"type":"Feature","geometry":{"type":"LineString","coordinates":[[12.2463389,41.7811485],[12.2463132,41.78124],[12.2460249,41.781617]]},"properties":{"site":"portus","name":"","highway":"service"}},{"type":"Feature","geometry":{"type":"LineString","coordinates":[[12.2466834,41.781173],[12.2463389,41.7811485],[12.2459646,41.781122],[12.2457084,41.781453]]},"properties":{"site":"portus","name":"","highway":"service"}},{"type":"Feature","geometry":{"type":"LineString","coordinates":[[12.2454764,41.7836881],[12.2453973,41.7837491],[12.2453047,41.7837861],[12.2451934,41.7838021],[12.2450915,41.7838161]]},"properties":{"site":"portus","name":"","highway":"track"}},{"type":"Feature","geometry":{"type":"LineString","coordinates":[[12.2437973,41.7833361],[12.2439475,41.7833831],[12.24426,41.7835111],[12.2447911,41.7837121],[12.2450915,41.7838161],[12.2459887,41.7841351],[12.2464339,41.7842861],[12.2465949,41.7843311],[12.246729,41.7843631],[12.247134,41.7844121],[12.248282,41.7845611],[12.2494219,41.7846991],[12.2504143,41.7848371],[12.2505082,41.7848261],[12.2505806,41.7847941],[12.250649,41.7847181],[12.2507469,41.7845761],[12.2508059,41.7844191],[12.2508314,41.7843101],[12.2508596,41.7839051],[12.2508824,41.7833761],[12.2509012,41.782735],[12.250932,41.78238],[12.2509266,41.782266],[12.2509105,41.782209],[12.250873,41.7821],[12.2508207,41.782027],[12.2507617,41.781989],[12.2506678,41.781944],[12.2502869,41.781796],[12.2499812,41.781656],[12.2496794,41.781508],[12.249383,41.781381],[12.2492704,41.781348],[12.2491094,41.781326],[12.2485757,41.781286],[12.2466834,41.781173]]},"properties":{"site":"portus","name":"","highway":"track"}},{"type":"Feature","geometry":{"type":"LineString","coordinates":[[12.2430953,41.783429],[12.2434224,41.7835642],[12.2434889,41.7836481],[12.2435895,41.7837651],[12.2436647,41.7838261]]},"properties":{"site":"portus","name":"","highway":"service"}},{"type":"Feature","geometry":{"type":"LineString","coordinates":[[12.2435425,41.782132],[12.2437142,41.78207],[12.2438228,41.78203],[12.2438942,41.7820182]]},"properties":{"site":"portus","name":"","highway":"service"}},{"type":"Feature","geometry":{"type":"LineString","coordinates":[[12.2432247,41.781835],[12.2432703,41.781727],[12.2433253,41.781595],[12.2433601,41.78154],[12.2433937,41.781505],[12.24345,41.781471],[12.2435077,41.781445],[12.2435868,41.781425],[12.243686,41.781411],[12.2437546,41.781411]]},"properties":{"site":"portus","name":"","highway":"service"}},{"type":"Feature","geometry":{"type":"LineString","coordinates":[[12.2425492,41.7729394],[12.2427055,41.7723093],[12.2427312,41.7722878],[12.2430495,41.7723302],[12.2430752,41.7723464],[12.2429004,41.7729926]]},"properties":{"site":"portus","name":"","highway":"service"}},{"type":"Feature","geometry":{"type":"LineString","coordinates":[[12.2471273,41.7752639],[12.2471829,41.7752744],[12.2471961,41.7752837],[12.247105,41.7756204],[12.2470957,41.775636],[12.247035,41.7756273],[12.2470015,41.775632],[12.2469346,41.7758729],[12.2469641,41.7759942]]},"properties":{"site":"portus","name":"","highway":"service"}},{"type":"Feature","geometry":{"type":"LineString","coordinates":[[12.2480372,41.7788593],[12.2480094,41.7788868],[12.2477659,41.7788027],[12.2477319,41.7787909],[12.2477872,41.778747],[12.2480038,41.7788443],[12.2480372,41.7788593]]},"properties":{"site":"portus","name":"","highway":"pedestrian"}},{"type":"Feature","geometry":{"type":"LineString","coordinates":[[12.2407122,41.7751814],[12.2407474,41.7750927],[12.2407827,41.7750221]]},"properties":{"site":"portus","name":"","highway":"service"}},{"type":"Feature","geometry":{"type":"LineString","coordinates":[[12.241,41.7750522],[12.2410295,41.7750192],[12.2411317,41.7748344],[12.2411632,41.774811],[12.2412389,41.7748007]]},"properties":{"site":"portus","name":"","highway":"service"}},{"type":"Feature","geometry":{"type":"LineString","coordinates":[[12.2412389,41.7748007],[12.2411346,41.7749972],[12.241112,41.7750214],[12.2410983,41.7750375],[12.2410678,41.7750573],[12.241,41.7750522]]},"properties":{"site":"portus","name":"","highway":"service"}},{"type":"Feature","geometry":{"type":"LineString","coordinates":[[12.2413145,41.774817],[12.2412389,41.7748007]]},"properties":{"site":"portus","name":"","highway":"service"}},{"type":"Feature","geometry":{"type":"LineString","coordinates":[[12.24053,41.774844],[12.2405467,41.7748762],[12.2405802,41.7749077],[12.2406401,41.7749466],[12.2407827,41.7750221],[12.2409479,41.7750661],[12.2409724,41.7750632],[12.241,41.7750522]]},"properties":{"site":"portus","name":"","highway":"service"}},{"type":"Feature","geometry":{"type":"LineString","coordinates":[[12.24053,41.774844],[12.2406696,41.7745749],[12.240475,41.7745111],[12.2403324,41.7747743],[12.24053,41.774844]]},"properties":{"site":"portus","name":"","highway":"service"}}]}