{"type":"FeatureCollection","features":[{"type":"Feature","geometry":{"type":"Polygon","coordinates":[[[12.4802499,32.8076917],[12.4789254,32.8076658],[12.4785772,32.8064394],[12.480068,32.8032908],[12.4817532,32.8035201],[12.4826502,32.8030358],[12.4840093,32.803291],[12.4844173,32.8032552],[12.4852758,32.8031828],[12.4860351,32.8031792],[12.4870125,32.8028404],[12.4898696,32.802582],[12.4920866,32.8024893],[12.494207,32.8022523],[12.4946283,32.8030769],[12.4951063,32.804185],[12.4957617,32.8056256],[12.4955921,32.806],[12.4943552,32.8063771],[12.4924639,32.8065467],[12.4913419,32.8066515],[12.4896344,32.8067169],[12.489245,32.8072444],[12.4892262,32.807446],[12.4890256,32.8075931],[12.4888521,32.8077174],[12.4886232,32.8076746],[12.4882023,32.8077704],[12.4879491,32.8078427],[12.4878462,32.8079486],[12.4878038,32.8080955],[12.487682,32.8081227],[12.4874446,32.8081279],[12.4873826,32.8080943],[12.4873725,32.8079985],[12.487235,32.807968],[12.4871837,32.8080268],[12.4869826,32.8079399],[12.4866271,32.8079209],[12.4864362,32.8078428],[12.485845,32.8073729],[12.4841241,32.8070993],[12.4829121,32.8074522],[12.4827292,32.8074874],[12.4825737,32.8075696],[12.4825801,32.8076241],[12.4824459,32.8077292],[12.4822686,32.8078178],[12.4821381,32.8078535],[12.4819494,32.8078937],[12.4817208,32.8078948],[12.481513,32.8078845],[12.4802499,32.8076917]]]},"properties":{"site":"sabratha","name":"موقع سبراطة الأثري","category":"archaeological","historic":"archaeological_site","building":null,"osm_id":33174023}},{"type":"Feature","geometry":{"type":"Polygon","coordinates":[[[12.4828749,32.8037292],[12.483032,32.8037836],[12.4830412,32.803825],[12.4830782,32.8038509],[12.4831337,32.8038639],[12.4831737,32.8038665],[12.4832169,32.8038458],[12.483374,32.8039027],[12.4834264,32.8037914],[12.4832569,32.8037344],[12.4833894,32.8034651],[12.4832353,32.8034185],[12.4830967,32.80368],[12.4829242,32.803623],[12.4828749,32.8037292]]]},"properties":{"site":"sabratha","name":null,"category":"other","historic":null,"building":"yes","osm_id":564439896}},{"type":"Feature","geometry":{"type":"Polygon","coordinates":[[[12.4819228,32.8044275],[12.4819198,32.8042801],[12.4817182,32.804283],[12.4817172,32.8042377],[12.4815358,32.8042404],[12.4815386,32.8043756],[12.481719,32.804373],[12.4817201,32.8044304],[12.4819228,32.8044275]]]},"properties":{"site":"sabratha","name":null,"category":"other","historic":null,"building":"yes","osm_id":564439905}},{"type":"Feature","geometry":{"type":"Polygon","coordinates":[[[12.4821893,32.8044135],[12.4823892,32.8044091],[12.4823857,32.8043302],[12.4821857,32.8043317],[12.4821893,32.8044135]]]},"properties":{"site":"sabratha","name":null,"category":"other","historic":null,"building":"yes","osm_id":564439906}},{"type":"Feature","geometry":{"type":"Polygon","coordinates":[[[12.477721,32.8071283],[12.4784323,32.8070745],[12.4784567,32.8072746],[12.4785849,32.8072669],[12.4785971,32.8074362],[12.4787559,32.8074234],[12.4787131,32.8070437],[12.4785452,32.8070539],[12.478533,32.8068692],[12.4786398,32.8068615],[12.4786368,32.8068076],[12.4777881,32.8068666],[12.4777851,32.8068179],[12.4776996,32.806823],[12.477721,32.8071283]]]},"properties":{"site":"sabratha","name":null,"category":"other","historic":null,"building":"yes","osm_id":564721544}},{"type":"Feature","geometry":{"type":"Polygon","coordinates":[[[12.4773792,32.8072901],[12.4776047,32.8072754],[12.4775755,32.8069595],[12.4773482,32.8069744],[12.4773611,32.8071132],[12.477491,32.8071047],[12.4774964,32.8071633],[12.4773682,32.8071717],[12.4773792,32.8072901]]]},"properties":{"site":"sabratha","name":null,"category":"other","historic":null,"building":"yes","osm_id":564721546}},{"type":"Feature","geometry":{"type":"Polygon","coordinates":[[[12.4779931,32.8075256],[12.4776696,32.8075507],[12.4776451,32.8073276],[12.477719,32.8073219],[12.4777253,32.8073791],[12.4779749,32.8073597],[12.4779931,32.8075256]]]},"properties":{"site":"sabratha","name":null,"category":"other","historic":null,"building":"yes","osm_id":598045590}},{"type":"Feature","geometry":{"type":"Polygon","coordinates":[[[12.4849895,32.8054472],[12.4849956,32.8055248],[12.4850157,32.8055235],[12.485028,32.8055158],[12.4850696,32.80553],[12.4850696,32.8055507],[12.4851112,32.8055494],[12.4851127,32.8055287],[12.4851512,32.8055197],[12.4851867,32.8055158],[12.4852005,32.8055326],[12.485199,32.8055481],[12.4852606,32.8055494],[12.4852591,32.8055235],[12.4852806,32.8055145],[12.485313,32.8055028],[12.4853392,32.8055067],[12.4853607,32.8055197],[12.4853623,32.8055378],[12.48541,32.8055417],[12.4854162,32.8055145],[12.4854393,32.8055054],[12.4854424,32.8055287],[12.4854763,32.8055274],[12.4854686,32.805451],[12.4854501,32.8054342],[12.4854362,32.805442],[12.4854224,32.8054355],[12.4854116,32.8054523],[12.48537,32.8054523],[12.4852298,32.8054523],[12.4851297,32.8054601],[12.4850819,32.8054562],[12.4850295,32.8054595],[12.4849981,32.8054498],[12.4849895,32.8054472]]]},"properties":{"site":"sabratha","name":null,"category":"other","historic":null,"building":"yes","osm_id":598045684}},{"type":"Feature","geometry":{"type":"Polygon","coordinates":[[[12.4853809,32.8053817],[12.4853755,32.8053558],[12.4853098,32.805358],[12.4852951,32.8053152],[12.4852642,32.805287],[12.4852307,32.8052735],[12.4851851,32.8052633],[12.4851462,32.8052667],[12.4850872,32.8052915],[12.4850617,32.8053208],[12.485051,32.8053558],[12.4850496,32.8053659],[12.484996,32.8053682],[12.4849987,32.8053907],[12.4849142,32.805402],[12.4849142,32.8053648],[12.4849142,32.8053569],[12.4848994,32.8053535],[12.4849209,32.8052735],[12.4849343,32.8052633],[12.484945,32.8052352],[12.4850121,32.8051743],[12.4850912,32.8051292],[12.4851636,32.8051168],[12.4852521,32.8051179],[12.4853179,32.8051393],[12.4853769,32.8051653],[12.4854493,32.8052228],[12.4854734,32.8052622],[12.4854909,32.8053096],[12.4854976,32.8053377],[12.4854935,32.8053603],[12.4854935,32.8053794],[12.4853809,32.8053817]]]},"properties":{"site":"sabratha","name":"Teatro de Sabratha","category":"theater","historic":null,"building":"yes","osm_id":598045685}},{"type":"Feature","geometry":{"type":"Polygon","coordinates":[[[12.4846801,32.803791],[12.484857,32.8037852],[12.4848447,32.8035195],[12.4847641,32.8035222],[12.4847604,32.8034411],[12.4846641,32.8034442],[12.4846801,32.803791]]]},"properties":{"site":"sabratha","name":null,"category":"other","historic":null,"building":"yes","osm_id":598045758}},{"type":"Feature","geometry":{"type":"Polygon","coordinates":[[[12.4818663,32.8041237],[12.4819808,32.8041076],[12.4819336,32.8038701],[12.4818191,32.8038862],[12.4818663,32.8041237]]]},"properties":{"site":"sabratha","name":null,"category":"other","historic":null,"building":"yes","osm_id":598045761}},{"type":"Feature","geometry":{"type":"Polygon","coordinates":[[[12.4813394,32.8041834],[12.4812138,32.8041715],[12.4812439,32.8040094],[12.4812793,32.8040154],[12.4812775,32.8040317],[12.4813058,32.8040392],[12.481297,32.8040972],[12.4813518,32.8041002],[12.4813394,32.8041834]]]},"properties":{"site":"sabratha","name":null,"category":"other","historic":null,"building":"yes","osm_id":598045762}},{"type":"Feature","geometry":{"type":"Polygon","coordinates":[[[12.4858586,32.8040303],[12.4859455,32.8040239],[12.4859399,32.8039698],[12.485853,32.8039762],[12.4858586,32.8040303]]]},"properties":{"site":"sabratha","name":null,"category":"other","historic":null,"building":"house","osm_id":598045768}},{"type":"Feature","geometry":{"type":"Polygon","coordinates":[[[12.4807627,32.8042119],[12.4805469,32.8041938],[12.4805525,32.8041468],[12.4805801,32.8041491],[12.4805903,32.8040631],[12.4805508,32.8040598],[12.4805584,32.8039953],[12.4807672,32.8040128],[12.4807491,32.8041647],[12.4807681,32.8041663],[12.4807627,32.8042119]]]},"properties":{"site":"sabratha","name":null,"category":"other","historic":null,"building":"yes","osm_id":598045769}},{"type":"Feature","geometry":{"type":"Polygon","coordinates":[[[12.4825232,32.8042399],[12.4826276,32.8042251],[12.4826187,32.804173],[12.4825143,32.8041879],[12.4825232,32.8042399]]]},"properties":{"site":"sabratha","name":null,"category":"other","historic":null,"building":"yes","osm_id":598045772}},{"type":"Feature","geometry":{"type":"Polygon","coordinates":[[[12.4916484,32.7999474],[12.4920156,32.7998363],[12.4920637,32.7998837],[12.4917161,32.8000669],[12.4916484,32.7999474]]]},"properties":{"site":"sabratha","name":null,"category":"other","historic":null,"building":"yes","osm_id":947706776}},{"type":"Feature","geometry":{"type":"Polygon","coordinates":[[[12.4780481,32.8075572],[12.4780493,32.8075877],[12.4781127,32.8075859],[12.4781111,32.8075455],[12.4781321,32.8075396],[12.4781277,32.8074768],[12.4780151,32.8074825],[12.47802,32.8075513],[12.4780481,32.8075572]]]},"properties":{"site":"sabratha","name":null,"category":"other","historic":null,"building":"yes","osm_id":951641366}},{"type":"Feature","geometry":{"type":"Polygon","coordinates":[[[12.4771204,32.8073893],[12.4771821,32.8073867],[12.4771747,32.8072612],[12.4771129,32.8072637],[12.4771204,32.8073893]]]},"properties":{"site":"sabratha","name":null,"category":"other","historic":null,"building":"yes","osm_id":951641367}},{"type":"Feature","geometry":{"type":"Polygon","coordinates":[[[12.4773049,32.8074223],[12.477364,32.8074203],[12.4773559,32.8072497],[12.4772968,32.8072517],[12.4773049,32.8074223]]]},"properties":{"site":"sabratha","name":null,"category":"other","historic":null,"building":"yes","osm_id":951641368}},{"type":"Feature","geometry":{"type":"Polygon","coordinates":[[[12.4771308,32.8075217],[12.4771821,32.8075202],[12.4771792,32.8074477],[12.4771279,32.8074491],[12.4771308,32.8075217]]]},"properties":{"site":"sabratha","name":null,"category":"other","historic":null,"building":"yes","osm_id":951641369}},{"type":"Feature","geometry":{"type":"Polygon","coordinates":[[[12.4772452,32.8075728],[12.4773258,32.8075702],[12.4773217,32.8074809],[12.4772755,32.8074824],[12.4772745,32.8074616],[12.47724,32.8074628],[12.4772452,32.8075728]]]},"properties":{"site":"sabratha","name":null,"category":"other","historic":null,"building":"yes","osm_id":951641370}},{"type":"Feature","geometry":{"type":"Polygon","coordinates":[[[12.4771364,32.8076522],[12.4771957,32.8076496],[12.4771906,32.8075673],[12.4771313,32.8075698],[12.4771364,32.8076522]]]},"properties":{"site":"sabratha","name":null,"category":"other","historic":null,"building":"yes","osm_id":951641371}},{"type":"Feature","geometry":{"type":"Polygon","coordinates":[[[12.4770891,32.8080459],[12.4771967,32.8080072],[12.4771764,32.8079674],[12.4770688,32.8080061],[12.4770891,32.8080459]]]},"properties":{"site":"sabratha","name":null,"category":"other","historic":null,"building":"yes","osm_id":951641379}},{"type":"Feature","geometry":{"type":"Polygon","coordinates":[[[12.4769502,32.8079817],[12.4770547,32.8079543],[12.4770162,32.807851],[12.4769117,32.8078785],[12.4769502,32.8079817]]]},"properties":{"site":"sabratha","name":null,"category":"other","historic":null,"building":"yes","osm_id":951641380}},{"type":"Feature","geometry":{"type":"Polygon","coordinates":[[[12.4895473,32.8009026],[12.489574,32.8007776],[12.4897684,32.8008],[12.4897532,32.8009298],[12.4895473,32.8009026]]]},"properties":{"site":"sabratha","name":null,"category":"other","historic":null,"building":"yes","osm_id":951792595}},{"type":"Feature","geometry":{"type":"Polygon","coordinates":[[[12.4908398,32.8000089],[12.4906646,32.7999966],[12.4906205,32.7999935],[12.4905323,32.7998793],[12.4904694,32.7997828],[12.4904823,32.7997657],[12.490779,32.7997998],[12.490849,32.7998447],[12.4908398,32.8000089]]]},"properties":{"site":"sabratha","name":null,"category":"other","historic":null,"building":"yes","osm_id":952344594}},{"type":"Feature","geometry":{"type":"Polygon","coordinates":[[[12.4904639,32.7999166],[12.4904186,32.7998581],[12.4903854,32.7998763],[12.4903986,32.7998934],[12.4903628,32.7999129],[12.4904746,32.8000577],[12.4905938,32.7999927],[12.4906157,32.8000211],[12.4906388,32.8000262],[12.4906646,32.7999966],[12.4906205,32.7999935],[12.4905323,32.7998793],[12.4904639,32.7999166]]]},"properties":{"site":"sabratha","name":null,"category":"other","historic":null,"building":"yes","osm_id":952344655}},{"type":"Feature","geometry":{"type":"Polygon","coordinates":[[[12.4894104,32.8002593],[12.4894328,32.8001419],[12.4892065,32.8001137],[12.4892149,32.8000667],[12.4891087,32.8000503],[12.4890948,32.8000644],[12.4889942,32.8000479],[12.4890054,32.799954],[12.4888769,32.7999399],[12.4888322,32.8001137],[12.4886618,32.8000972],[12.4886339,32.800217],[12.4888853,32.8002452],[12.4888545,32.800332],[12.4891115,32.8003743],[12.4891562,32.8002287],[12.4894104,32.8002593]]]},"properties":{"site":"sabratha","name":null,"category":"other","historic":null,"building":"yes","osm_id":952345707}},{"type":"Feature","geometry":{"type":"Polygon","coordinates":[[[12.4882862,32.8000304],[12.4881787,32.8000198],[12.4881801,32.8000069],[12.488113,32.8000057],[12.4881172,32.7999306],[12.4881312,32.7999318],[12.4881396,32.7998707],[12.4881591,32.7998707],[12.4881968,32.7998695],[12.488229,32.7998824],[12.4882555,32.7998731],[12.4882792,32.7998942],[12.48831,32.7998836],[12.4883407,32.799913],[12.4882974,32.7999458],[12.4883002,32.799974],[12.4883155,32.7999787],[12.4883099,32.8000288],[12.4882862,32.8000304]]]},"properties":{"site":"sabratha","name":null,"category":"other","historic":null,"building":"yes","osm_id":952348093}},{"type":"Feature","geometry":{"type":"Polygon","coordinates":[[[12.4866255,32.8002514],[12.4864612,32.8001951],[12.4864996,32.8001159],[12.4864864,32.8001114],[12.4865081,32.8000666],[12.486551,32.8000813],[12.486534,32.8001163],[12.4865843,32.8001335],[12.4866097,32.800081],[12.4866941,32.8001099],[12.4866255,32.8002514]]]},"properties":{"site":"sabratha","name":null,"category":"other","historic":null,"building":"yes","osm_id":952364602}},{"type":"Feature","geometry":{"type":"Polygon","coordinates":[[[12.4866156,32.8003165],[12.4865071,32.8002832],[12.4865288,32.8002332],[12.4866374,32.8002664],[12.4866156,32.8003165]]]},"properties":{"site":"sabratha","name":null,"category":"other","historic":null,"building":"yes","osm_id":952364766}},{"type":"Feature","geometry":{"type":"Polygon","coordinates":[[[12.4863176,32.8004131],[12.4862765,32.8003998],[12.4863107,32.8003255],[12.4863518,32.8003388],[12.4863176,32.8004131]]]},"properties":{"site":"sabratha","name":null,"category":"other","historic":null,"building":"yes","osm_id":952365023}},{"type":"Feature","geometry":{"type":"Polygon","coordinates":[[[12.4867133,32.8005196],[12.4866844,32.8005093],[12.4866895,32.8004992],[12.4866028,32.8004682],[12.4865941,32.8004854],[12.4865535,32.8004709],[12.4866526,32.8002749],[12.4868088,32.8003307],[12.4867133,32.8005196]]]},"properties":{"site":"sabratha","name":null,"category":"other","historic":null,"building":"yes","osm_id":952365048}},{"type":"Feature","geometry":{"type":"Polygon","coordinates":[[[12.4870923,32.8006148],[12.4870518,32.8006032],[12.4870569,32.8005906],[12.4869852,32.80057],[12.4869778,32.8005778],[12.4869176,32.8005564],[12.4869755,32.8004411],[12.487033,32.8004616],[12.4870406,32.8004465],[12.4871194,32.8004746],[12.4871243,32.8004648],[12.487131,32.8004672],[12.4871467,32.8004366],[12.4872182,32.8004625],[12.487206,32.8004862],[12.4871769,32.8004757],[12.4871378,32.8005517],[12.4871577,32.8005589],[12.4871448,32.800584],[12.4871321,32.8005794],[12.4871197,32.8006033],[12.4870976,32.8006018],[12.4870923,32.8006148]]]},"properties":{"site":"sabratha","name":null,"category":"other","historic":null,"building":"yes","osm_id":952365144}},{"type":"Feature","geometry":{"type":"Polygon","coordinates":[[[12.4873441,32.8004873],[12.4871566,32.8004347],[12.4872345,32.8002385],[12.4872614,32.800246],[12.4872682,32.8002288],[12.4874288,32.8002738],[12.4873441,32.8004873]]]},"properties":{"site":"sabratha","name":null,"category":"other","historic":null,"building":"yes","osm_id":952365172}},{"type":"Feature","geometry":{"type":"Polygon","coordinates":[[[12.4873464,32.8001143],[12.4874304,32.8001228],[12.4874274,32.8001439],[12.4874602,32.8001472],[12.4874628,32.8001294],[12.4874727,32.8001304],[12.4874985,32.8001609],[12.4875294,32.8001424],[12.4875433,32.8001589],[12.4875538,32.8001526],[12.4875442,32.8001412],[12.4875761,32.8001222],[12.4875853,32.8000576],[12.4874783,32.8000467],[12.4874799,32.8000354],[12.4874013,32.8000274],[12.4874,32.8000364],[12.4873581,32.8000322],[12.4873464,32.8001143]]]},"properties":{"site":"sabratha","name":null,"category":"other","historic":null,"building":"yes","osm_id":952365281}},{"type":"Feature","geometry":{"type":"Polygon","coordinates":[[[12.4877016,32.8006032],[12.4875639,32.8005532],[12.4876434,32.8003987],[12.4877811,32.8004488],[12.4877016,32.8006032]]]},"properties":{"site":"sabratha","name":null,"category":"other","historic":null,"building":"yes","osm_id":952365482}},{"type":"Feature","geometry":{"type":"Polygon","coordinates":[[[12.4880049,32.8003112],[12.4878611,32.8002901],[12.4878669,32.8002623],[12.4877931,32.8002516],[12.4878184,32.8001291],[12.488036,32.8001609],[12.4880049,32.8003112]]]},"properties":{"site":"sabratha","name":null,"category":"other","historic":null,"building":"yes","osm_id":952365552}},{"type":"Feature","geometry":{"type":"Polygon","coordinates":[[[12.4879154,32.8008793],[12.4878625,32.800858],[12.4878554,32.8008704],[12.4878003,32.8008482],[12.4878106,32.8008301],[12.4877681,32.800813],[12.4878044,32.8007492],[12.4878199,32.8007554],[12.4878618,32.8006818],[12.4879751,32.8007274],[12.4879359,32.8007963],[12.4879576,32.800805],[12.4879154,32.8008793]]]},"properties":{"site":"sabratha","name":null,"category":"other","historic":null,"building":"yes","osm_id":952365616}},{"type":"Feature","geometry":{"type":"Polygon","coordinates":[[[12.487189,32.8008572],[12.4871426,32.8008412],[12.4871157,32.8008962],[12.48708,32.8008839],[12.4871283,32.800785],[12.4872104,32.8008133],[12.487189,32.8008572]]]},"properties":{"site":"sabratha","name":null,"category":"other","historic":null,"building":"yes","osm_id":952365649}},{"type":"Feature","geometry":{"type":"Polygon","coordinates":[[[12.4896938,32.8013682],[12.4895621,32.8013485],[12.4896065,32.8011221],[12.489684,32.8011312],[12.4897423,32.8011389],[12.4896938,32.8013682]]]},"properties":{"site":"sabratha","name":null,"category":"other","historic":null,"building":"yes","osm_id":952365855}},{"type":"Feature","geometry":{"type":"Polygon","coordinates":[[[12.489684,32.8011312],[12.4896892,32.8010995],[12.4896117,32.8010905],[12.4896065,32.8011221],[12.489684,32.8011312]]]},"properties":{"site":"sabratha","name":null,"category":"other","historic":null,"building":"yes","osm_id":952365896}},{"type":"Feature","geometry":{"type":"Polygon","coordinates":[[[12.4893959,32.80144],[12.4894099,32.8013779],[12.4893594,32.8013684],[12.4893445,32.8014332],[12.4893959,32.80144]]]},"properties":{"site":"sabratha","name":null,"category":"other","historic":null,"building":"yes","osm_id":952365907}},{"type":"Feature","geometry":{"type":"Polygon","coordinates":[[[12.4893959,32.80144],[12.489662,32.8014823],[12.4896759,32.8014203],[12.4894099,32.8013779],[12.4893959,32.80144]]]},"properties":{"site":"sabratha","name":null,"category":"other","historic":null,"building":"yes","osm_id":952365950}},{"type":"Feature","geometry":{"type":"Polygon","coordinates":[[[12.4855516,32.8029567],[12.4855606,32.8029128],[12.48561,32.8029199],[12.4857389,32.8028934],[12.4857875,32.8028647],[12.4858021,32.8027973],[12.4858362,32.8027625],[12.4857997,32.8027176],[12.4857608,32.8027564],[12.4856951,32.8027421],[12.4856124,32.8027442],[12.4856003,32.8027728],[12.4854714,32.8028218],[12.4854429,32.8027907],[12.485379,32.802832],[12.4853202,32.802807],[12.4852957,32.8028475],[12.4853594,32.8028974],[12.4854695,32.8029447],[12.4855516,32.8029567]]]},"properties":{"site":"sabratha","name":null,"category":"other","historic":null,"building":"yes","osm_id":952366148}},{"type":"Feature","geometry":{"type":"Polygon","coordinates":[[[12.4852326,32.8026937],[12.4852329,32.8026478],[12.4853364,32.8026482],[12.4853361,32.8026941],[12.4852326,32.8026937]]]},"properties":{"site":"sabratha","name":null,"category":"other","historic":null,"building":"yes","osm_id":952366241}},{"type":"Feature","geometry":{"type":"Polygon","coordinates":[[[12.4854051,32.8035509],[12.4853396,32.8034973],[12.4854507,32.8034012],[12.4853811,32.8033443],[12.4854011,32.803327],[12.4855362,32.8034374],[12.4854051,32.8035509]]]},"properties":{"site":"sabratha","name":null,"category":"other","historic":null,"building":"yes","osm_id":952366267}},{"type":"Feature","geometry":{"type":"Polygon","coordinates":[[[12.4846176,32.8031138],[12.4845317,32.8031087],[12.4845361,32.8030575],[12.4846219,32.8030626],[12.4846176,32.8031138]]]},"properties":{"site":"sabratha","name":null,"category":"other","historic":null,"building":"yes","osm_id":952366404}},{"type":"Feature","geometry":{"type":"Polygon","coordinates":[[[12.4847498,32.8031727],[12.4847495,32.803201],[12.4846799,32.8032005],[12.48468,32.8031906],[12.4846922,32.8031906],[12.4846924,32.8031737],[12.4846707,32.8031735],[12.4846711,32.8031391],[12.4847004,32.8031393],[12.4847005,32.8031249],[12.4847417,32.8031252],[12.4847416,32.8031343],[12.4847873,32.8031347],[12.4847869,32.8031729],[12.4847498,32.8031727]]]},"properties":{"site":"sabratha","name":null,"category":"other","historic":null,"building":"yes","osm_id":952366532}},{"type":"Feature","geometry":{"type":"Polygon","coordinates":[[[12.484416,32.8033369],[12.4842383,32.803335],[12.4842395,32.8032533],[12.4844173,32.8032552],[12.484416,32.8033369]]]},"properties":{"site":"sabratha","name":null,"category":"other","historic":null,"building":"yes","osm_id":952366641}},{"type":"Feature","geometry":{"type":"Polygon","coordinates":[[[12.4843087,32.803387],[12.4843093,32.8033471],[12.4844193,32.8033483],[12.4844187,32.8033883],[12.4843087,32.803387]]]},"properties":{"site":"sabratha","name":null,"category":"other","historic":null,"building":"yes","osm_id":952366675}},{"type":"Feature","geometry":{"type":"Polygon","coordinates":[[[12.4829995,32.8029546],[12.4828753,32.8029266],[12.4828885,32.8028854],[12.4830127,32.8029134],[12.4829995,32.8029546]]]},"properties":{"site":"sabratha","name":null,"category":"other","historic":null,"building":"yes","osm_id":952366731}},{"type":"Feature","geometry":{"type":"Polygon","coordinates":[[[12.4837217,32.8031343],[12.483596,32.8031178],[12.4836043,32.8030838],[12.48373,32.8030967],[12.4837217,32.8031343]]]},"properties":{"site":"sabratha","name":null,"category":"other","historic":null,"building":"yes","osm_id":952366754}},{"type":"Feature","geometry":{"type":"Polygon","coordinates":[[[12.4841222,32.803331],[12.484012,32.803327],[12.4840167,32.8032358],[12.4841269,32.8032398],[12.4841222,32.803331]]]},"properties":{"site":"sabratha","name":null,"category":"other","historic":null,"building":"yes","osm_id":952366811}},{"type":"Feature","geometry":{"type":"Polygon","coordinates":[[[12.4857291,32.8047306],[12.4857041,32.8046846],[12.4857729,32.8046582],[12.4857979,32.8047041],[12.4857291,32.8047306]]]},"properties":{"site":"sabratha","name":null,"category":"other","historic":null,"building":"yes","osm_id":952366982}},{"type":"Feature","geometry":{"type":"Polygon","coordinates":[[[12.4860162,32.8054273],[12.4859802,32.8054276],[12.485979,32.8053434],[12.4860151,32.8053431],[12.4860162,32.8054273]]]},"properties":{"site":"sabratha","name":null,"category":"other","historic":null,"building":"yes","osm_id":952367180}},{"type":"Feature","geometry":{"type":"Polygon","coordinates":[[[12.4808275,32.8003738],[12.4808875,32.8002464],[12.4811049,32.8003186],[12.481045,32.8004461],[12.4808275,32.8003738]]]},"properties":{"site":"sabratha","name":null,"category":"other","historic":null,"building":"yes","osm_id":958825957}},{"type":"Feature","geometry":{"type":"Polygon","coordinates":[[[12.4848374,32.8035057],[12.4849659,32.8033633],[12.4853917,32.8036349],[12.4852633,32.8037772],[12.4848374,32.8035057]]]},"properties":{"site":"sabratha","name":null,"category":"other","historic":null,"building":"yes","osm_id":958825962}},{"type":"Feature","geometry":{"type":"Polygon","coordinates":[[[12.4844494,32.8037835],[12.4844608,32.8037155],[12.4846545,32.8037384],[12.4846431,32.8038064],[12.4844494,32.8037835]]]},"properties":{"site":"sabratha","name":null,"category":"other","historic":null,"building":"yes","osm_id":958825963}},{"type":"Feature","geometry":{"type":"Polygon","coordinates":[[[12.489413,32.8017794],[12.4893685,32.8016806],[12.4894576,32.8016523],[12.4895021,32.8017511],[12.489413,32.8017794]]]},"properties":{"site":"sabratha","name":null,"category":"other","historic":null,"building":"yes","osm_id":958825967}},{"type":"Feature","geometry":{"type":"Polygon","coordinates":[[[12.4913576,32.8001654],[12.4913588,32.8],[12.491626,32.8000012],[12.4916248,32.8001714],[12.4915146,32.8001709],[12.4915148,32.8001411],[12.4914531,32.8001408],[12.4914529,32.8001658],[12.4913576,32.8001654]]]},"properties":{"site":"sabratha","name":null,"category":"other","historic":null,"building":"yes","osm_id":958825968}},{"type":"Feature","geometry":{"type":"Polygon","coordinates":[[[12.4770316,32.8037822],[12.4768194,32.8037524],[12.4768535,32.8035811],[12.4770656,32.8036109],[12.4770316,32.8037822]]]},"properties":{"site":"sabratha","name":null,"category":"other","historic":null,"building":"yes","osm_id":969207320}},{"type":"Feature","geometry":{"type":"Polygon","coordinates":[[[12.4770436,32.803495],[12.4769644,32.8034906],[12.4769622,32.8035179],[12.4768282,32.8035104],[12.4768387,32.8033777],[12.4768613,32.8033708],[12.4768701,32.8032596],[12.4771384,32.8032746],[12.4771289,32.8033948],[12.4770519,32.8033905],[12.4770436,32.803495]]]},"properties":{"site":"sabratha","name":null,"category":"other","historic":null,"building":"yes","osm_id":969207321}},{"type":"Feature","geometry":{"type":"Polygon","coordinates":[[[12.476991,32.8028087],[12.476853,32.8026745],[12.4769048,32.8026368],[12.4770428,32.8027711],[12.476991,32.8028087]]]},"properties":{"site":"sabratha","name":null,"category":"other","historic":null,"building":"yes","osm_id":969207322}},{"type":"Feature","geometry":{"type":"Polygon","coordinates":[[[12.4782114,32.8056552],[12.4780771,32.8055797],[12.4781742,32.8054577],[12.4783085,32.8055332],[12.4782114,32.8056552]]]},"properties":{"site":"sabratha","name":null,"category":"other","historic":null,"building":"yes","osm_id":969210290}},{"type":"Feature","geometry":{"type":"Polygon","coordinates":[[[12.4782473,32.805398],[12.4781147,32.8053182],[12.4781954,32.8052235],[12.478328,32.8053032],[12.4782473,32.805398]]]},"properties":{"site":"sabratha","name":null,"category":"other","historic":null,"building":"yes","osm_id":969210291}},{"type":"Feature","geometry":{"type":"Polygon","coordinates":[[[12.4785014,32.8053278],[12.4784103,32.8052592],[12.4784889,32.8051856],[12.47858,32.8052542],[12.4785014,32.8053278]]]},"properties":{"site":"sabratha","name":null,"category":"other","historic":null,"building":"yes","osm_id":969210292}},{"type":"Feature","geometry":{"type":"Polygon","coordinates":[[[12.478064,32.8058311],[12.4780024,32.8057882],[12.4781202,32.8056687],[12.4781818,32.8057117],[12.478064,32.8058311]]]},"properties":{"site":"sabratha","name":null,"category":"other","historic":null,"building":"yes","osm_id":969210975}},{"type":"Feature","geometry":{"type":"Polygon","coordinates":[[[12.4787085,32.8048487],[12.4786434,32.804813],[12.478651,32.8047769],[12.4786333,32.8047556],[12.4786688,32.8047097],[12.4787723,32.8047664],[12.4787085,32.8048487]]]},"properties":{"site":"sabratha","name":null,"category":"other","historic":null,"building":"yes","osm_id":969213385}},{"type":"Feature","geometry":{"type":"Polygon","coordinates":[[[12.4784537,32.8041676],[12.4783897,32.8041322],[12.478454,32.80405],[12.4785181,32.8040854],[12.4784537,32.8041676]]]},"properties":{"site":"sabratha","name":null,"category":"other","historic":null,"building":"yes","osm_id":969213635}},{"type":"Feature","geometry":{"type":"Polygon","coordinates":[[[12.4782746,32.8041877],[12.4781859,32.8041298],[12.4783427,32.8039599],[12.4784315,32.8040179],[12.4782746,32.8041877]]]},"properties":{"site":"sabratha","name":null,"category":"other","historic":null,"building":"yes","osm_id":969216477}},{"type":"Feature","geometry":{"type":"Polygon","coordinates":[[[12.4781572,32.8040401],[12.4780979,32.8039834],[12.4781838,32.8039199],[12.4782431,32.8039765],[12.4781572,32.8040401]]]},"properties":{"site":"sabratha","name":null,"category":"other","historic":null,"building":"yes","osm_id":969216478}},{"type":"Feature","geometry":{"type":"Polygon","coordinates":[[[12.4778687,32.8038055],[12.4777938,32.803747],[12.4778973,32.8036533],[12.4779722,32.8037118],[12.4778687,32.8038055]]]},"properties":{"site":"sabratha","name":null,"category":"other","historic":null,"building":"yes","osm_id":969216479}},{"type":"Feature","geometry":{"type":"Polygon","coordinates":[[[12.4774643,32.8037626],[12.4773805,32.8036836],[12.4775008,32.8035935],[12.4775845,32.8036725],[12.4774643,32.8037626]]]},"properties":{"site":"sabratha","name":null,"category":"other","historic":null,"building":"yes","osm_id":969216480}},{"type":"Feature","geometry":{"type":"Polygon","coordinates":[[[12.4789092,32.8036012],[12.4788247,32.8035406],[12.4787332,32.8036308],[12.4788177,32.8036914],[12.4789092,32.8036012]]]},"properties":{"site":"sabratha","name":null,"category":"other","historic":null,"building":"yes","osm_id":969216481}},{"type":"Feature","geometry":{"type":"Polygon","coordinates":[[[12.4789499,32.8035169],[12.4786748,32.8032878],[12.4787748,32.803203],[12.4790498,32.8034322],[12.4789499,32.8035169]]]},"properties":{"site":"sabratha","name":null,"category":"other","historic":null,"building":"yes","osm_id":969216482}},{"type":"Feature","geometry":{"type":"Polygon","coordinates":[[[12.4785244,32.8031317],[12.4782705,32.8029261],[12.4783795,32.802831],[12.4786334,32.8030366],[12.4785244,32.8031317]]]},"properties":{"site":"sabratha","name":null,"category":"other","historic":null,"building":"yes","osm_id":969216483}},{"type":"Feature","geometry":{"type":"Polygon","coordinates":[[[12.4790912,32.8031626],[12.4790106,32.8031342],[12.4790072,32.803102],[12.4789495,32.8030816],[12.479042,32.8028959],[12.4791074,32.802919],[12.4791705,32.8027925],[12.4792601,32.8028241],[12.4790912,32.8031626]]]},"properties":{"site":"sabratha","name":null,"category":"other","historic":null,"building":"yes","osm_id":969216484}},{"type":"Feature","geometry":{"type":"Polygon","coordinates":[[[12.479045,32.8024392],[12.4789234,32.802424],[12.4789511,32.802268],[12.4791094,32.8022878],[12.4790976,32.8023545],[12.4790608,32.8023499],[12.479045,32.8024392]]]},"properties":{"site":"sabratha","name":null,"category":"other","historic":null,"building":"yes","osm_id":969219125}},{"type":"Feature","geometry":{"type":"Polygon","coordinates":[[[12.4791421,32.8022237],[12.4789566,32.8022057],[12.4789734,32.8020828],[12.479159,32.8021009],[12.4791421,32.8022237]]]},"properties":{"site":"sabratha","name":null,"category":"other","historic":null,"building":"yes","osm_id":969219126}},{"type":"Feature","geometry":{"type":"Polygon","coordinates":[[[12.4797925,32.8020907],[12.4795648,32.8019879],[12.479527,32.8020471],[12.4794824,32.802027],[12.4794507,32.8020765],[12.4795032,32.8021002],[12.4795173,32.8020782],[12.4796845,32.8021536],[12.4796672,32.8021806],[12.4797199,32.8022044],[12.4797925,32.8020907]]]},"properties":{"site":"sabratha","name":null,"category":"other","historic":null,"building":"yes","osm_id":969219127}},{"type":"Feature","geometry":{"type":"Polygon","coordinates":[[[12.4797645,32.8028046],[12.4796433,32.8027605],[12.4797693,32.8025158],[12.4798906,32.8025599],[12.4797645,32.8028046]]]},"properties":{"site":"sabratha","name":null,"category":"other","historic":null,"building":"yes","osm_id":969219128}},{"type":"Feature","geometry":{"type":"Polygon","coordinates":[[[12.4795737,32.8034885],[12.4795282,32.8034729],[12.4795164,32.8034973],[12.4794457,32.803473],[12.4794772,32.8034081],[12.4795934,32.8034479],[12.4795737,32.8034885]]]},"properties":{"site":"sabratha","name":null,"category":"other","historic":null,"building":"yes","osm_id":969219129}},{"type":"Feature","geometry":{"type":"Polygon","coordinates":[[[12.4794143,32.8037747],[12.4793467,32.8037446],[12.4794074,32.8036483],[12.479475,32.8036784],[12.4794143,32.8037747]]]},"properties":{"site":"sabratha","name":null,"category":"other","historic":null,"building":"yes","osm_id":969219130}},{"type":"Feature","geometry":{"type":"Polygon","coordinates":[[[12.4785583,32.8018997],[12.4783622,32.8018448],[12.4784275,32.8016802],[12.4786236,32.8017351],[12.4785583,32.8018997]]]},"properties":{"site":"sabratha","name":null,"category":"other","historic":null,"building":"yes","osm_id":969219953}},{"type":"Feature","geometry":{"type":"Polygon","coordinates":[[[12.4777134,32.8018933],[12.4774926,32.8018919],[12.4774937,32.8017712],[12.4777145,32.8017726],[12.4777134,32.8018933]]]},"properties":{"site":"sabratha","name":null,"category":"other","historic":null,"building":"yes","osm_id":969219954}},{"type":"Feature","geometry":{"type":"Polygon","coordinates":[[[12.477871,32.802147],[12.4777498,32.8021337],[12.4777345,32.8022319],[12.4778168,32.8022409],[12.47782,32.8022204],[12.477859,32.8022246],[12.477871,32.802147]]]},"properties":{"site":"sabratha","name":null,"category":"other","historic":null,"building":"yes","osm_id":969219955}},{"type":"Feature","geometry":{"type":"Polygon","coordinates":[[[12.4786398,32.8014612],[12.4784799,32.8013955],[12.4785621,32.8012543],[12.478722,32.80132],[12.4786398,32.8014612]]]},"properties":{"site":"sabratha","name":null,"category":"other","historic":null,"building":"yes","osm_id":969219956}},{"type":"Feature","geometry":{"type":"Polygon","coordinates":[[[12.4802371,32.8016079],[12.480134,32.8015457],[12.4801046,32.8015801],[12.4800401,32.8015412],[12.4801823,32.8014398],[12.4803132,32.8015187],[12.4802371,32.8016079]]]},"properties":{"site":"sabratha","name":null,"category":"other","historic":null,"building":"house","osm_id":969309714}},{"type":"Feature","geometry":{"type":"Polygon","coordinates":[[[12.4795657,32.8013797],[12.4795022,32.8013062],[12.4795345,32.8012865],[12.4795358,32.8012673],[12.4795206,32.8012497],[12.479598,32.8012025],[12.4796871,32.8013057],[12.4795657,32.8013797]]]},"properties":{"site":"sabratha","name":null,"category":"other","historic":null,"building":"house","osm_id":969309715}},{"type":"Feature","geometry":{"type":"Polygon","coordinates":[[[12.4798063,32.8012619],[12.4797381,32.8011852],[12.4798908,32.8010892],[12.4799591,32.801166],[12.4798063,32.8012619]]]},"properties":{"site":"sabratha","name":null,"category":"other","historic":null,"building":"house","osm_id":969309716}},{"type":"Feature","geometry":{"type":"Polygon","coordinates":[[[12.4783744,32.801371],[12.4782752,32.8013383],[12.4783369,32.8012155],[12.4783704,32.8011704],[12.4785072,32.8012211],[12.478475,32.8013023],[12.4784442,32.8013],[12.4784308,32.8013361],[12.4783905,32.8013305],[12.4783744,32.801371]]]},"properties":{"site":"sabratha","name":null,"category":"other","historic":null,"building":"house","osm_id":969309717}},{"type":"Feature","geometry":{"type":"Polygon","coordinates":[[[12.4786185,32.8012572],[12.4786695,32.8012256],[12.4785712,32.8011844],[12.478546,32.8012268],[12.4786185,32.8012572]]]},"properties":{"site":"sabratha","name":null,"category":"other","historic":null,"building":"house","osm_id":969309718}},{"type":"Feature","geometry":{"type":"Polygon","coordinates":[[[12.4770684,32.8012695],[12.4770676,32.8012129],[12.4771747,32.8012118],[12.4771754,32.8012685],[12.4770684,32.8012695]]]},"properties":{"site":"sabratha","name":null,"category":"other","historic":null,"building":"yes","osm_id":969309719}},{"type":"Feature","geometry":{"type":"Polygon","coordinates":[[[12.4801065,32.800171],[12.4802289,32.800086],[12.4801905,32.800047],[12.4801627,32.8000187],[12.4801084,32.8000563],[12.4801361,32.8000845],[12.480068,32.8001318],[12.4801065,32.800171]]]},"properties":{"site":"sabratha","name":null,"category":"other","historic":null,"building":"yes","osm_id":971021907}},{"type":"Feature","geometry":{"type":"Polygon","coordinates":[[[12.479945,32.8000104],[12.4800415,32.800097],[12.4801267,32.8000299],[12.4800302,32.7999433],[12.479945,32.8000104]]]},"properties":{"site":"sabratha","name":null,"category":"other","historic":null,"building":"yes","osm_id":971021908}},{"type":"Feature","geometry":{"type":"Polygon","coordinates":[[[12.4796373,32.8001609],[12.4796869,32.8001288],[12.479655,32.8000939],[12.4796054,32.8001261],[12.4796373,32.8001609]]]},"properties":{"site":"sabratha","name":null,"category":"other","historic":null,"building":"yes","osm_id":971021909}},{"type":"Feature","geometry":{"type":"Polygon","coordinates":[[[12.4798398,32.8001727],[12.4799243,32.8002516],[12.4800061,32.8001898],[12.4799216,32.8001109],[12.4798398,32.8001727]]]},"properties":{"site":"sabratha","name":null,"category":"other","historic":null,"building":"yes","osm_id":971021910}},{"type":"Feature","geometry":{"type":"Polygon","coordinates":[[[12.4781919,32.8000798],[12.4781211,32.8000816],[12.4781208,32.800072],[12.4780758,32.8000732],[12.4780762,32.8000834],[12.4780228,32.8000848],[12.4780255,32.8001581],[12.4780982,32.8001562],[12.4780993,32.8001874],[12.4780279,32.8001893],[12.4780293,32.8002281],[12.4781972,32.8002237],[12.4781919,32.8000798]]]},"properties":{"site":"sabratha","name":null,"category":"other","historic":null,"building":"yes","osm_id":971021911}},{"type":"Feature","geometry":{"type":"Polygon","coordinates":[[[12.478242,32.8000628],[12.4782423,32.8001299],[12.4782357,32.8001299],[12.4782359,32.8001753],[12.4782424,32.8001753],[12.4783076,32.8001751],[12.4783075,32.8001525],[12.478341,32.8001524],[12.4783411,32.8001751],[12.4784127,32.8001749],[12.4784122,32.8000623],[12.478242,32.8000628]]]},"properties":{"site":"sabratha","name":null,"category":"other","historic":null,"building":"yes","osm_id":971021912}},{"type":"Feature","geometry":{"type":"Polygon","coordinates":[[[12.478382,32.7998143],[12.4782441,32.799821],[12.4782486,32.7998864],[12.4782362,32.799887],[12.478241,32.7999574],[12.4782534,32.7999568],[12.4782574,32.8000149],[12.4783954,32.8000082],[12.478382,32.7998143]]]},"properties":{"site":"sabratha","name":null,"category":"other","historic":null,"building":"yes","osm_id":971021913}},{"type":"Feature","geometry":{"type":"Polygon","coordinates":[[[12.4786131,32.8000708],[12.4784601,32.8001627],[12.4785126,32.8002244],[12.4785483,32.8002029],[12.4785702,32.8002287],[12.478588,32.8002179],[12.4786058,32.8002388],[12.4787053,32.8001791],[12.4786131,32.8000708]]]},"properties":{"site":"sabratha","name":null,"category":"other","historic":null,"building":"yes","osm_id":971021914}},{"type":"Feature","geometry":{"type":"Polygon","coordinates":[[[12.4787709,32.8001863],[12.4788675,32.8002979],[12.4790396,32.8001926],[12.4789431,32.800081],[12.4787709,32.8001863]]]},"properties":{"site":"sabratha","name":null,"category":"other","historic":null,"building":"yes","osm_id":971021915}},{"type":"Feature","geometry":{"type":"Polygon","coordinates":[[[12.4788951,32.8007202],[12.4789957,32.8006561],[12.4788996,32.8005496],[12.478799,32.8006138],[12.4788951,32.8007202]]]},"properties":{"site":"sabratha","name":null,"category":"other","historic":null,"building":"yes","osm_id":971021916}},{"type":"Feature","geometry":{"type":"Polygon","coordinates":[[[12.4790244,32.8004737],[12.4791208,32.8005683],[12.479271,32.8004601],[12.4791746,32.8003655],[12.4790244,32.8004737]]]},"properties":{"site":"sabratha","name":null,"category":"other","historic":null,"building":"yes","osm_id":971021917}},{"type":"Feature","geometry":{"type":"Polygon","coordinates":[[[12.4802676,32.800733],[12.4803333,32.8008074],[12.4802569,32.8009866],[12.4801201,32.8008243],[12.4802676,32.800733]]]},"properties":{"site":"sabratha","name":null,"category":"other","historic":null,"building":"yes","osm_id":971021918}},{"type":"Feature","geometry":{"type":"Polygon","coordinates":[[[12.4795809,32.800875],[12.4794122,32.8009912],[12.4795517,32.8011343],[12.4797204,32.8010182],[12.4795809,32.800875]]]},"properties":{"site":"sabratha","name":null,"category":"other","historic":null,"building":"yes","osm_id":971021919}},{"type":"Feature","geometry":{"type":"Polygon","coordinates":[[[12.4791719,32.8010193],[12.4792272,32.8010743],[12.4793653,32.8009763],[12.47931,32.8009213],[12.4791719,32.8010193]]]},"properties":{"site":"sabratha","name":null,"category":"other","historic":null,"building":"yes","osm_id":971021920}},{"type":"Feature","geometry":{"type":"Polygon","coordinates":[[[12.4908454,32.8005862],[12.4909683,32.8005304],[12.4910081,32.8005895],[12.4910818,32.800561],[12.4910506,32.8004953],[12.490967,32.8003835],[12.490768,32.8004677],[12.4908454,32.8005862]]]},"properties":{"site":"sabratha","name":null,"category":"other","historic":null,"building":"yes","osm_id":971684521}},{"type":"Feature","geometry":{"type":"Polygon","coordinates":[[[12.4907403,32.8007082],[12.4908675,32.8008475],[12.4909144,32.8008231],[12.4907832,32.800678],[12.4907403,32.8007082]]]},"properties":{"site":"sabratha","name":null,"category":"other","historic":null,"building":"yes","osm_id":971684522}},{"type":"Feature","geometry":{"type":"Polygon","coordinates":[[[12.4823016,32.8068587],[12.4823472,32.806763],[12.4820647,32.8066679],[12.4820191,32.8067637],[12.4823016,32.8068587]]]},"properties":{"site":"sabratha","name":"Antonine temple","category":"temple","historic":"archaeological_site","building":null,"osm_id":1163033856}},{"type":"Feature","geometry":{"type":"Polygon","coordinates":[[[12.4876849,32.8078886],[12.4876785,32.8074608],[12.4882393,32.8074375],[12.4882699,32.8076307],[12.4876849,32.8078886]]]},"properties":{"site":"sabratha","name":"Temple of Isis, Sabratha","category":"temple","historic":"archaeological_site","building":null,"osm_id":1539555526}},{"type":"Feature","geometry":{"type":"Polygon","coordinates":[[[12.4867777,32.8078019],[12.4867731,32.8074489],[12.4863785,32.8072337],[12.4862206,32.8072666],[12.4861818,32.8074321],[12.486227,32.8074972],[12.4863482,32.8076328],[12.4863837,32.8078347],[12.4865105,32.8078508],[12.4866016,32.8078952],[12.4867169,32.8078705],[12.4867777,32.8078019]]]},"properties":{"site":"sabratha","name":"Baths of Oceanus in Sabratha","category":"bath","historic":"archaeological_site","building":null,"osm_id":1539557517}}]}