{"type":"FeatureCollection","features":[{"type":"Feature","geometry":{"type":"LineString","coordinates":[[12.4827965,32.8045252],[12.4829458,32.8045375],[12.4830105,32.8045347],[12.4830732,32.8045276],[12.4832832,32.8044913],[12.4833776,32.8044693],[12.4834619,32.8044443],[12.4835285,32.8044095],[12.483621,32.8043532],[12.4836921,32.8042971],[12.4837464,32.8042269],[12.4838121,32.8041303],[12.4839164,32.803893],[12.4840415,32.8035838],[12.4841053,32.8034054],[12.4841222,32.803331],[12.4841348,32.8032673],[12.4841565,32.8031501]]},"properties":{"site":"sabratha","name":"","highway":"service"}},{"type":"Feature","geometry":{"type":"LineString","coordinates":[[12.4840392,32.8018952],[12.4841486,32.8019174],[12.484354,32.8019538],[12.4844934,32.8019831],[12.4848,32.8020482],[12.4849065,32.8020846],[12.4849816,32.8021308],[12.4850509,32.8022086],[12.485109,32.802841],[12.4851009,32.8029041],[12.48505,32.8029334],[12.4846154,32.8029582],[12.4845028,32.8029695],[12.4844144,32.8029907]]},"properties":{"site":"sabratha","name":"","highway":"service"}},{"type":"Feature","geometry":{"type":"LineString","coordinates":[[12.4844144,32.8029907],[12.4842768,32.8030096]]},"properties":{"site":"sabratha","name":"","highway":"service"}},{"type":"Feature","geometry":{"type":"LineString","coordinates":[[12.4827965,32.8045252],[12.4826906,32.8047027],[12.4826045,32.8048705],[12.4824781,32.8051168],[12.4823474,32.8053975],[12.4823033,32.8054804],[12.4822213,32.8056349]]},"properties":{"site":"sabratha","name":"","highway":"footway"}},{"type":"Feature","geometry":{"type":"LineString","coordinates":[[12.4822213,32.8056349],[12.4821466,32.8058233],[12.4820938,32.8059277],[12.4820672,32.8059803],[12.4820041,32.8060785],[12.4819691,32.8061001],[12.481829,32.8062767],[12.481766,32.8063768],[12.4817216,32.8064514],[12.4816375,32.8065554],[12.4815325,32.8066496],[12.4814951,32.8066771]]},"properties":{"site":"sabratha","name":"","highway":"footway"}},{"type":"Feature","geometry":{"type":"LineString","coordinates":[[12.4820938,32.8059277],[12.4823497,32.8060039],[12.4826229,32.8060961],[12.4829311,32.8062032],[12.4829732,32.8062178],[12.4833117,32.8063297],[12.4838021,32.8063513],[12.4842435,32.8063652],[12.4845469,32.8063748],[12.484568,32.8063757],[12.4848435,32.8063867],[12.4851263,32.806398],[12.4852825,32.8064043],[12.4854372,32.8064124],[12.4859549,32.8064396],[12.4865223,32.8064612],[12.4867885,32.806471]]},"properties":{"site":"sabratha","name":"","highway":"footway"}},{"type":"Feature","geometry":{"type":"LineString","coordinates":[[12.4867885,32.806471],[12.4869893,32.8064945],[12.4871808,32.8065279],[12.4872999,32.8065672],[12.487447,32.8070598],[12.487475,32.8072207],[12.4875101,32.8073326]]},"properties":{"site":"sabratha","name":"","highway":"track"}},{"type":"Feature","geometry":{"type":"LineString","coordinates":[[12.484568,32.8063757],[12.4845516,32.8065691],[12.4845539,32.8066672],[12.4845591,32.8067147],[12.4845633,32.8067536],[12.4845523,32.8067783],[12.4845353,32.8068164],[12.4844559,32.8068635],[12.4842411,32.8069224],[12.4837484,32.8070951]]},"properties":{"site":"sabratha","name":"","highway":"footway"}},{"type":"Feature","geometry":{"type":"LineString","coordinates":[[12.4829311,32.8062032],[12.4828424,32.8063964],[12.4826859,32.8067536],[12.4825085,32.8071599]]},"properties":{"site":"sabratha","name":"","highway":"footway"}},{"type":"Feature","geometry":{"type":"LineString","coordinates":[[12.4820938,32.8059277],[12.4819201,32.8058547],[12.481773,32.8058057],[12.4817426,32.8057684],[12.481759,32.8057134],[12.4818033,32.8056369],[12.4818383,32.8055741],[12.4815021,32.8054563],[12.4811752,32.8053464]]},"properties":{"site":"sabratha","name":"","highway":"footway"}},{"type":"Feature","geometry":{"type":"LineString","coordinates":[[12.4818383,32.8055741],[12.4818991,32.8054171],[12.4819351,32.8053549],[12.4819901,32.8052601],[12.4820625,32.8051168],[12.4820788,32.8050481],[12.4820929,32.8049755],[12.4821045,32.8049048],[12.4821372,32.804844],[12.4821629,32.804789],[12.4821699,32.8047302]]},"properties":{"site":"sabratha","name":"","highway":"footway"}},{"type":"Feature","geometry":{"type":"LineString","coordinates":[[12.4826045,32.8048705],[12.4821699,32.8047302],[12.4820532,32.8047007],[12.4819247,32.8046811],[12.481822,32.8046556],[12.4817052,32.8046046],[12.4815675,32.8045378],[12.4814671,32.804479],[12.4814601,32.8044652]]},"properties":{"site":"sabratha","name":"","highway":"footway"}},{"type":"Feature","geometry":{"type":"LineString","coordinates":[[12.4826045,32.8048705],[12.4829288,32.8049814],[12.4833771,32.805105],[12.483753,32.8052365],[12.4838558,32.805264],[12.4839095,32.8052934],[12.4839352,32.805317],[12.4839632,32.8053425],[12.4840496,32.8053562],[12.4842621,32.8053523],[12.48429,32.8053532],[12.4844644,32.8053586],[12.4845142,32.8053602]]},"properties":{"site":"sabratha","name":"Via del Teatro","highway":"footway"}},{"type":"Feature","geometry":{"type":"LineString","coordinates":[[12.48429,32.8053532],[12.4842878,32.8055211],[12.4842844,32.8055897],[12.4842714,32.8058587],[12.4842597,32.8061256],[12.4842457,32.8063356],[12.4842435,32.8063652]]},"properties":{"site":"sabratha","name":"","highway":"footway"}},{"type":"Feature","geometry":{"type":"LineString","coordinates":[[12.4848435,32.8063867],[12.4848388,32.8064612],[12.4848388,32.806573],[12.4848297,32.8066374],[12.4848271,32.8066555],[12.4848038,32.8066771],[12.4847104,32.8066771],[12.484645,32.8066849],[12.4845591,32.8067147]]},"properties":{"site":"sabratha","name":"","highway":"footway"}},{"type":"Feature","geometry":{"type":"LineString","coordinates":[[12.4848435,32.8063867],[12.4848599,32.8060747],[12.4848715,32.8058528]]},"properties":{"site":"sabratha","name":"","highway":"footway"}},{"type":"Feature","geometry":{"type":"LineString","coordinates":[[12.4848599,32.8060747],[12.4849742,32.8060785],[12.4851167,32.8060804],[12.4851516,32.8060787],[12.4852731,32.8060726],[12.4853338,32.8060431],[12.4853548,32.8059862],[12.4853619,32.8058999],[12.4853595,32.8058547]]},"properties":{"site":"sabratha","name":"","highway":"footway"}},{"type":"Feature","geometry":{"type":"LineString","coordinates":[[12.4851263,32.806398],[12.4851354,32.8062904],[12.4851516,32.8060787]]},"properties":{"site":"sabratha","name":"","highway":"footway"}},{"type":"Feature","geometry":{"type":"LineString","coordinates":[[12.484568,32.8063757],[12.484575,32.8062394],[12.4845856,32.8060765],[12.484589,32.8060235],[12.4845983,32.8058685],[12.4846053,32.8057546],[12.4846123,32.8056585],[12.4846123,32.8056232],[12.484575,32.8055996],[12.4845049,32.8055957],[12.4842844,32.8055897]]},"properties":{"site":"sabratha","name":"","highway":"footway"}},{"type":"Feature","geometry":{"type":"LineString","coordinates":[[12.4825085,32.8071599],[12.4824689,32.8072323],[12.4824222,32.8072853],[12.4823802,32.8073304],[12.4823312,32.807354],[12.4822658,32.8073697],[12.4821794,32.807352],[12.482138,32.8073453],[12.482107,32.8073402],[12.482037,32.8073559],[12.4819669,32.8074069],[12.4818852,32.8074462],[12.4817824,32.8074619],[12.481598,32.807509],[12.4815536,32.8074697],[12.4815116,32.8074069],[12.4814462,32.8073618],[12.4813505,32.8073088],[12.4812291,32.8072519],[12.4811543,32.8072185],[12.4810096,32.8073088],[12.4809302,32.8073579],[12.4808321,32.8074207],[12.4808017,32.8074815],[12.4807935,32.8075023],[12.4807784,32.8075404],[12.4807177,32.8075541],[12.4806079,32.80756],[12.4804935,32.8075384],[12.4803161,32.8075012],[12.4799728,32.8074933],[12.4798,32.8074953],[12.4796272,32.8074894],[12.4795012,32.8074815],[12.4794007,32.8074639]]},"properties":{"site":"sabratha","name":"","highway":"footway"}},{"type":"Feature","geometry":{"type":"LineString","coordinates":[[12.482037,32.8073559],[12.4818971,32.8073014],[12.4818334,32.807294]]},"properties":{"site":"sabratha","name":"","highway":"footway"}},{"type":"Feature","geometry":{"type":"LineString","coordinates":[[12.482138,32.8073453],[12.4821696,32.8072583],[12.482198,32.8071452],[12.4822156,32.8070783],[12.4822404,32.8069831],[12.4822776,32.8068849],[12.4823147,32.8067927],[12.4823554,32.806705],[12.4823802,32.8066395],[12.4823908,32.8066187],[12.4824192,32.8066291],[12.4824298,32.8066187],[12.482474,32.806461],[12.4825218,32.806461],[12.4825731,32.8064417],[12.4825997,32.8063986],[12.4826439,32.8062826]]},"properties":{"site":"sabratha","name":"","highway":"footway"}},{"type":"Feature","geometry":{"type":"LineString","coordinates":[[12.4823033,32.8054804],[12.4819351,32.8053549],[12.4817401,32.8052943],[12.481606,32.8052695],[12.4814236,32.8051997],[12.4808657,32.8049968]]},"properties":{"site":"sabratha","name":"","highway":"footway"}},{"type":"Feature","geometry":{"type":"LineString","coordinates":[[12.48429,32.8053532],[12.4842962,32.8052019],[12.4842989,32.8050712],[12.4842882,32.8050531],[12.4842426,32.8050373],[12.4841836,32.8050328],[12.4841487,32.8050058],[12.4841487,32.804972],[12.4841729,32.804893],[12.4842265,32.8047307],[12.484256,32.8046676],[12.4842828,32.804618]]},"properties":{"site":"sabratha","name":"","highway":"footway"}},{"type":"Feature","geometry":{"type":"LineString","coordinates":[[12.4817426,32.8057684],[12.4817187,32.8058252],[12.481672,32.8059234],[12.4816089,32.8060411]]},"properties":{"site":"sabratha","name":"","highway":"footway"}},{"type":"Feature","geometry":{"type":"LineString","coordinates":[[12.4807935,32.8075023],[12.4808458,32.8075553],[12.4809275,32.8075929],[12.4810461,32.8076421]]},"properties":{"site":"sabratha","name":"","highway":"footway"}},{"type":"Feature","geometry":{"type":"LineString","coordinates":[[12.4800571,32.8071048],[12.4801357,32.8069584],[12.4801705,32.8068865],[12.4801896,32.8068471],[12.4802034,32.8067875],[12.4801927,32.8067409],[12.4801464,32.8066386],[12.4800987,32.8065299],[12.4800633,32.8064172],[12.480034,32.8063551]]},"properties":{"site":"sabratha","name":"","highway":"footway"}},{"type":"Feature","geometry":{"type":"LineString","coordinates":[[12.4801705,32.8068865],[12.4800941,32.8068574],[12.4800124,32.8068471],[12.4798984,32.8068523],[12.4797582,32.8068743],[12.4796827,32.8069248],[12.4796211,32.8069688],[12.4795395,32.8070038],[12.479464,32.8070348],[12.4793284,32.8070814],[12.4793022,32.8070737],[12.4792499,32.8070387],[12.4792052,32.8069895],[12.4791528,32.8069118],[12.479085,32.806838],[12.4790142,32.8067694],[12.4789864,32.8067526],[12.4789726,32.8067267],[12.4790003,32.8066606],[12.4790049,32.8066153],[12.4789818,32.8064327],[12.4789587,32.8062864],[12.4789433,32.8061194],[12.4789572,32.8060559],[12.4789787,32.8059925],[12.4789787,32.8059407],[12.4789772,32.8058591],[12.4789864,32.8058151],[12.479276,32.8054008],[12.4794116,32.8051858],[12.4795302,32.8049644],[12.4796057,32.8047818],[12.4796442,32.8047171],[12.4796673,32.8046446],[12.4796843,32.8045863],[12.4797305,32.8045345],[12.4798229,32.8044698],[12.4799831,32.8044011],[12.4801187,32.8043597],[12.4802805,32.8043312],[12.4803667,32.8043209],[12.4804438,32.8043338],[12.4805146,32.8043571],[12.4805809,32.8043765],[12.4807103,32.8043934],[12.4809044,32.8044128],[12.4811971,32.804427],[12.4813819,32.8044465],[12.4814601,32.8044652]]},"properties":{"site":"sabratha","name":"","highway":"track"}},{"type":"Feature","geometry":{"type":"LineString","coordinates":[[12.4793022,32.8070737],[12.4793628,32.8071381],[12.4794353,32.8072147],[12.4794621,32.807244],[12.479446,32.8073094],[12.4794379,32.8073748],[12.4793923,32.8074244],[12.4794007,32.8074639]]},"properties":{"site":"sabratha","name":"","highway":"track"}},{"type":"Feature","geometry":{"type":"LineString","coordinates":[[12.4872999,32.8065672],[12.4874108,32.8065918],[12.4874886,32.8066392],[12.4875879,32.8067023],[12.4876469,32.8067226],[12.4878159,32.8067158],[12.4879044,32.8066843],[12.4879982,32.8066414],[12.4881189,32.8065986],[12.4881967,32.8065783],[12.488304,32.8065918],[12.4884998,32.8066256],[12.4887063,32.8066437],[12.4888458,32.806655],[12.4889504,32.8066459],[12.4890175,32.8065986],[12.4892508,32.806434],[12.4896478,32.8062199],[12.4897417,32.806186],[12.4899321,32.8061612],[12.4900421,32.8061229],[12.4901708,32.8060282],[12.490254,32.8059674],[12.4904256,32.8059178],[12.4905383,32.8058975],[12.4906563,32.8059178],[12.4907904,32.8059651],[12.4909567,32.8060034],[12.4910935,32.8060079]]},"properties":{"site":"sabratha","name":"","highway":"track"}},{"type":"Feature","geometry":{"type":"LineString","coordinates":[[12.4906563,32.8059178],[12.4907208,32.805779],[12.4907816,32.8056495],[12.4908423,32.8055867],[12.4910384,32.8054179],[12.4912532,32.8052256],[12.491468,32.8050843],[12.4916595,32.8049586],[12.491851,32.8048291],[12.4920985,32.8046564],[12.4925748,32.8042443],[12.4927336,32.804154],[12.4929017,32.804048],[12.4930278,32.8039185],[12.4931166,32.8038243],[12.4932426,32.8037379],[12.4934248,32.8036044],[12.4938591,32.8033061],[12.4940039,32.8032198]]},"properties":{"site":"sabratha","name":"","highway":"track"}},{"type":"Feature","geometry":{"type":"LineString","coordinates":[[12.4851692,32.807003],[12.4851728,32.80694],[12.4851818,32.8067829],[12.4851875,32.8066818]]},"properties":{"site":"sabratha","name":"","highway":"footway"}},{"type":"Feature","geometry":{"type":"LineString","coordinates":[[12.4848297,32.8066374],[12.4848318,32.8066972],[12.4848257,32.8067433],[12.4848237,32.8067826],[12.4848237,32.8068236],[12.4848298,32.8068612],[12.4848399,32.8069022],[12.4848237,32.8069227],[12.4847993,32.8069449],[12.4848162,32.8069598],[12.484844,32.8069842],[12.4848806,32.8070013],[12.4849538,32.8070064],[12.4850493,32.807015],[12.4851367,32.8070201],[12.4852384,32.8070252],[12.4853542,32.8070235],[12.4854071,32.8070321],[12.485462,32.8070628],[12.4855168,32.8071055],[12.4855982,32.8071551],[12.4856591,32.8071841],[12.485777,32.8072063],[12.4859295,32.8072149],[12.4860575,32.8072388],[12.4861531,32.8072695],[12.4862303,32.8072832],[12.4862852,32.8072952],[12.4862954,32.8073054]]},"properties":{"site":"sabratha","name":"","highway":"footway"}},{"type":"Feature","geometry":{"type":"LineString","coordinates":[[12.4851728,32.80694],[12.4852627,32.8069449],[12.4853542,32.8069432],[12.4854193,32.8069483],[12.4854884,32.8069603],[12.4855412,32.8069825],[12.4855799,32.8070235],[12.4856307,32.8070474],[12.4857221,32.8070543],[12.485773,32.8070662],[12.4858339,32.8070782],[12.4859295,32.8070987],[12.4859945,32.8071209],[12.4860819,32.8071602],[12.4861592,32.8071858],[12.4862181,32.8072114],[12.486332,32.807249],[12.4863747,32.8072678],[12.486395,32.8072815],[12.4864031,32.8073157]]},"properties":{"site":"sabratha","name":"","highway":"footway"}},{"type":"Feature","geometry":{"type":"LineString","coordinates":[[12.486395,32.8072815],[12.4864565,32.8073095],[12.4865476,32.8073497],[12.4865943,32.807386],[12.4866515,32.8074312],[12.4867064,32.8074724],[12.4867332,32.8075018],[12.4867367,32.8075224],[12.4867356,32.8075607],[12.4867379,32.8075754],[12.4867394,32.8075943],[12.4867449,32.8076657],[12.4867484,32.8077197],[12.4867601,32.8077354]]},"properties":{"site":"sabratha","name":"","highway":"footway"}},{"type":"Feature","geometry":{"type":"LineString","coordinates":[[12.4865511,32.8075156],[12.4865838,32.8075048],[12.4866281,32.8074891],[12.486676,32.8074763],[12.4867064,32.8074724],[12.4867729,32.8074851],[12.4869165,32.8075352],[12.4869761,32.8075538]]},"properties":{"site":"sabratha","name":"","highway":"footway"}},{"type":"Feature","geometry":{"type":"LineString","coordinates":[[12.4875101,32.8073326],[12.4875106,32.8073806],[12.4875121,32.8074388],[12.4875275,32.8074738],[12.487563,32.8075036],[12.4875876,32.8075036],[12.4876307,32.8074945],[12.4876508,32.8074777],[12.4876785,32.8074608],[12.4877109,32.8074518],[12.4877879,32.8074492],[12.4878649,32.8074479],[12.4879204,32.8074414]]},"properties":{"site":"sabratha","name":"","highway":"footway"}},{"type":"Feature","geometry":{"type":"LineString","coordinates":[[12.4875876,32.8075036],[12.4876061,32.8075515],[12.4876046,32.807589],[12.4876046,32.8076162],[12.487623,32.8076318],[12.4876369,32.8076719],[12.4876292,32.8077185],[12.48762,32.8077574],[12.4876323,32.8077936],[12.4876646,32.8078234],[12.4876985,32.8078493]]},"properties":{"site":"sabratha","name":"","highway":"footway"}},{"type":"Feature","geometry":{"type":"LineString","coordinates":[[12.4876646,32.8078234],[12.4876477,32.8078532],[12.4876169,32.8078907],[12.4875753,32.8079205],[12.4875352,32.8079296],[12.4874875,32.8079322],[12.487452,32.8079296],[12.4873889,32.8079166],[12.4873201,32.8078755]]},"properties":{"site":"sabratha","name":"","highway":"footway"}},{"type":"Feature","geometry":{"type":"LineString","coordinates":[[12.4873201,32.8078755],[12.4872672,32.8078519],[12.4871825,32.8078325],[12.48711,32.8078079],[12.4870407,32.807782],[12.4869745,32.8077496],[12.4869144,32.8077056],[12.4868574,32.8076758],[12.4868112,32.8076486],[12.4867711,32.8076214],[12.4867394,32.8075943]]},"properties":{"site":"sabratha","name":"","highway":"footway"}},{"type":"Feature","geometry":{"type":"LineString","coordinates":[[12.4848162,32.8069598],[12.48475,32.8069598],[12.4846683,32.8069261],[12.4846437,32.8068885],[12.4846144,32.8068303],[12.4845882,32.8067979],[12.4845523,32.8067783]]},"properties":{"site":"sabratha","name":"","highway":"footway"}},{"type":"Feature","geometry":{"type":"LineString","coordinates":[[12.4853542,32.8069432],[12.4853461,32.806908],[12.4853492,32.8068601],[12.4853415,32.8068277],[12.4853477,32.8068005],[12.4853723,32.8067655],[12.485377,32.8067332],[12.4853908,32.8066594],[12.4853954,32.8065804],[12.4854201,32.8064768],[12.485437,32.8064263],[12.4854372,32.8064124]]},"properties":{"site":"sabratha","name":"","highway":"footway"}},{"type":"Feature","geometry":{"type":"LineString","coordinates":[[12.4851875,32.8066818],[12.4851921,32.8066076],[12.4851936,32.8065402],[12.485189,32.806491]]},"properties":{"site":"sabratha","name":"","highway":"footway"}},{"type":"Feature","geometry":{"type":"LineString","coordinates":[[12.4848599,32.8060747],[12.4845856,32.8060765]]},"properties":{"site":"sabratha","name":"","highway":"footway"}},{"type":"Feature","geometry":{"type":"LineString","coordinates":[[12.4770328,32.8069136],[12.4770342,32.807023],[12.4770395,32.8071966],[12.4770355,32.8074333],[12.4770208,32.8076204],[12.4770114,32.8076768]]},"properties":{"site":"sabratha","name":"","highway":"service"}},{"type":"Feature","geometry":{"type":"LineString","coordinates":[[12.4761495,32.8076907],[12.4763717,32.8074851],[12.4766439,32.8072653],[12.4767941,32.8071278],[12.4769711,32.8069847],[12.4770328,32.8069136],[12.4771142,32.8068025]]},"properties":{"site":"sabratha","name":"","highway":"service"}},{"type":"Feature","geometry":{"type":"LineString","coordinates":[[12.48306,32.8039258],[12.483015,32.8040012],[12.4829631,32.8041046],[12.4829084,32.8042135],[12.4828721,32.8042857],[12.4828682,32.804298],[12.4827965,32.8045252]]},"properties":{"site":"sabratha","name":"","highway":"footway"}},{"type":"Feature","geometry":{"type":"LineString","coordinates":[[12.4831258,32.8039536],[12.48306,32.8039258],[12.4829736,32.8038894],[12.4828783,32.803954],[12.4828297,32.8040584],[12.4827787,32.804168],[12.4827469,32.8042364],[12.4827386,32.8042534],[12.4828682,32.804298],[12.4829977,32.8043399],[12.483037,32.8042579],[12.4830894,32.8041488],[12.4831392,32.8040449],[12.4831416,32.8040399],[12.4831258,32.8039536]]},"properties":{"site":"sabratha","name":"","highway":"footway"}},{"type":"Feature","geometry":{"type":"LineString","coordinates":[[12.4827787,32.804168],[12.4829084,32.8042135],[12.483037,32.8042579]]},"properties":{"site":"sabratha","name":"","highway":"footway"}},{"type":"Feature","geometry":{"type":"LineString","coordinates":[[12.4828297,32.8040584],[12.4829631,32.8041046],[12.4830894,32.8041488]]},"properties":{"site":"sabratha","name":"","highway":"footway"}},{"type":"Feature","geometry":{"type":"LineString","coordinates":[[12.4828783,32.803954],[12.483015,32.8040012],[12.4831392,32.8040449]]},"properties":{"site":"sabratha","name":"","highway":"footway"}},{"type":"Feature","geometry":{"type":"LineString","coordinates":[[12.4859322,32.8032543],[12.4857208,32.8035072],[12.4855582,32.8037942],[12.4855338,32.8040403],[12.485485,32.8043341],[12.4854606,32.8046485],[12.4855582,32.8049287],[12.4856883,32.8051201],[12.4857533,32.8051611],[12.4857858,32.8052739],[12.4858184,32.8055746],[12.4857248,32.8055677],[12.4855256,32.8055677],[12.4854403,32.8055916],[12.4851923,32.8056019],[12.4849768,32.8056053],[12.4848345,32.8056053],[12.4846383,32.8055853],[12.4846394,32.8054037],[12.4846434,32.8053593],[12.4844644,32.8053586]]},"properties":{"site":"sabratha","name":"","highway":"footway"}},{"type":"Feature","geometry":{"type":"LineString","coordinates":[[12.484354,32.8019538],[12.4842989,32.8021827],[12.484307,32.8023991],[12.4843714,32.8026358],[12.4845028,32.8029695]]},"properties":{"site":"sabratha","name":"","highway":"service"}}]}