{"type":"FeatureCollection","features":[{"type":"Feature","geometry":{"type":"LineString","coordinates":[[6.4685781,35.4888639],[6.4686178,35.4872083],[6.46867,35.4866615],[6.4686926,35.4864248],[6.4687161,35.4861784],[6.4687395,35.4859331],[6.4687619,35.4856984],[6.4687855,35.4854506],[6.468811,35.4851819],[6.4688337,35.4850285]]},"properties":{"site":"timgad","name":"Cardo","highway":"pedestrian"}},{"type":"Feature","geometry":{"type":"LineString","coordinates":[[6.4706878,35.4853044],[6.4706168,35.4852998],[6.4703143,35.4852801],[6.4700201,35.4852609],[6.4697232,35.4852415],[6.4694121,35.4852212],[6.4691406,35.4852035],[6.468811,35.4851819],[6.4684776,35.4851602],[6.4681952,35.4851417],[6.4678956,35.4851222],[6.4676076,35.4851034],[6.467314,35.4850842],[6.4672524,35.4850802]]},"properties":{"site":"timgad","name":"Decumano","highway":"pedestrian"}},{"type":"Feature","geometry":{"type":"LineString","coordinates":[[6.466628,35.4869204],[6.4667617,35.4868048],[6.4670576,35.48667],[6.4671586,35.4865579],[6.4672095,35.486075],[6.4672595,35.4856012],[6.4672865,35.4853444],[6.467314,35.4850842],[6.4673724,35.4845363],[6.467398,35.4842972],[6.467424,35.4840538],[6.4674503,35.4838071],[6.4674753,35.4835734]]},"properties":{"site":"timgad","name":"","highway":"footway"}},{"type":"Feature","geometry":{"type":"LineString","coordinates":[[6.467398,35.4842972],[6.467691,35.4843163],[6.4679779,35.484335],[6.4682832,35.4843497]]},"properties":{"site":"timgad","name":"","highway":"footway"}},{"type":"Feature","geometry":{"type":"LineString","coordinates":[[6.4677027,35.4869579],[6.4677404,35.4865978],[6.4677911,35.4861149],[6.4678415,35.4856346],[6.4678677,35.4853856],[6.4678956,35.4851222],[6.4679531,35.4845717],[6.4679779,35.484335],[6.4680035,35.4840922],[6.4680292,35.4838472],[6.468054,35.4836112],[6.4680634,35.4832443],[6.4677493,35.4824697],[6.4677193,35.4824063],[6.467554,35.4820567]]},"properties":{"site":"timgad","name":"","highway":"footway"}},{"type":"Feature","geometry":{"type":"LineString","coordinates":[[6.4674753,35.4835734],[6.4677681,35.4835925],[6.468054,35.4836112],[6.4683372,35.4836297],[6.4683632,35.4836314],[6.4687692,35.4836579]]},"properties":{"site":"timgad","name":"","highway":"footway"}},{"type":"Feature","geometry":{"type":"LineString","coordinates":[[6.4686312,35.4838889],[6.4683377,35.4838686],[6.4683137,35.4838669],[6.4680292,35.4838472],[6.4677431,35.4838274],[6.4674503,35.4838071]]},"properties":{"site":"timgad","name":"","highway":"footway"}},{"type":"Feature","geometry":{"type":"LineString","coordinates":[[6.4686973,35.4841381],[6.4683096,35.4841124],[6.4682896,35.4841111],[6.4680035,35.4840922],[6.4677169,35.4840732],[6.467424,35.4840538]]},"properties":{"site":"timgad","name":"","highway":"footway"}},{"type":"Feature","geometry":{"type":"LineString","coordinates":[[6.4687187,35.4839317],[6.4686973,35.4841381],[6.4686662,35.4844372]]},"properties":{"site":"timgad","name":"","highway":"footway"}},{"type":"Feature","geometry":{"type":"LineString","coordinates":[[6.4682561,35.4845936],[6.4679531,35.4845717],[6.4676657,35.4845542],[6.4673724,35.4845363]]},"properties":{"site":"timgad","name":"","highway":"footway"}},{"type":"Feature","geometry":{"type":"LineString","coordinates":[[6.4671586,35.4865579],[6.4674502,35.4865779],[6.4677404,35.4865978],[6.4680451,35.4866187],[6.468338,35.4866387],[6.46867,35.4866615],[6.468979,35.4866827],[6.4692675,35.4867025],[6.4695695,35.4867232],[6.469869,35.4867437],[6.4701633,35.4867639]]},"properties":{"site":"timgad","name":"","highway":"footway"}},{"type":"Feature","geometry":{"type":"LineString","coordinates":[[6.4701633,35.4867639],[6.4701882,35.4865207],[6.4702129,35.4862811],[6.4702382,35.4860345],[6.4702621,35.4858023]]},"properties":{"site":"timgad","name":"","highway":"footway"}},{"type":"Feature","geometry":{"type":"LineString","coordinates":[[6.4705567,35.485823],[6.4702621,35.4858023],[6.469967,35.4857818],[6.4696695,35.4857612],[6.469372,35.4857406],[6.4690838,35.4857207],[6.4687619,35.4856984],[6.4684291,35.4856753],[6.4681429,35.4856555],[6.4678415,35.4856346],[6.4675524,35.485618],[6.4672595,35.4856012]]},"properties":{"site":"timgad","name":"","highway":"footway"}},{"type":"Feature","geometry":{"type":"LineString","coordinates":[[6.4692675,35.4867025],[6.4692935,35.4864633],[6.4693199,35.4862198],[6.4693466,35.4859742],[6.469372,35.4857406],[6.4694121,35.4852212],[6.4694699,35.4846912],[6.4694775,35.4846667],[6.4695154,35.4845796],[6.4695271,35.4845528],[6.4695365,35.4844543],[6.4695605,35.4842045],[6.4695737,35.4840662]]},"properties":{"site":"timgad","name":"","highway":"footway"}},{"type":"Feature","geometry":{"type":"LineString","coordinates":[[6.4672524,35.4850802],[6.467167,35.4850757]]},"properties":{"site":"timgad","name":"","highway":"pedestrian"}},{"type":"Feature","geometry":{"type":"LineString","coordinates":[[6.467167,35.4850757],[6.4669754,35.485073],[6.4667247,35.4851324],[6.4662937,35.4853015],[6.4658605,35.4854714],[6.464856,35.4858655]]},"properties":{"site":"timgad","name":"","highway":"pedestrian"}},{"type":"Feature","geometry":{"type":"LineString","coordinates":[[6.4672095,35.486075],[6.4675016,35.486095],[6.4677911,35.4861149],[6.4680942,35.4861357],[6.4683837,35.4861556],[6.4687161,35.4861784],[6.4690316,35.4862],[6.4693199,35.4862198],[6.46962,35.4862404],[6.4699181,35.4862609],[6.4702129,35.4862811],[6.4705022,35.486301]]},"properties":{"site":"timgad","name":"","highway":"footway"}},{"type":"Feature","geometry":{"type":"LineString","coordinates":[[6.469869,35.4867437],[6.4698936,35.4865018],[6.4699181,35.4862609],[6.4699432,35.4860145],[6.469967,35.4857818],[6.4700201,35.4852609],[6.4700541,35.4849579],[6.4700792,35.4847361],[6.4701072,35.4844896],[6.4701346,35.4842483],[6.4701869,35.4837867]]},"properties":{"site":"timgad","name":"","highway":"footway"}},{"type":"Feature","geometry":{"type":"LineString","coordinates":[[6.468979,35.4866827],[6.4690049,35.4864448],[6.4690316,35.4862],[6.4690583,35.4859547],[6.4690838,35.4857207],[6.4691406,35.4852035]]},"properties":{"site":"timgad","name":"","highway":"footway"}},{"type":"Feature","geometry":{"type":"LineString","coordinates":[[6.4695695,35.4867232],[6.4695947,35.4864827],[6.46962,35.4862404],[6.4696454,35.4859944],[6.4696695,35.4857612],[6.4697232,35.4852415]]},"properties":{"site":"timgad","name":"","highway":"footway"}},{"type":"Feature","geometry":{"type":"LineString","coordinates":[[6.4705303,35.4860547],[6.4702382,35.4860345],[6.4699432,35.4860145],[6.4696454,35.4859944],[6.4693466,35.4859742],[6.4690583,35.4859547],[6.4687395,35.4859331],[6.4684068,35.4859106],[6.468119,35.4858912]]},"properties":{"site":"timgad","name":"","highway":"footway"}},{"type":"Feature","geometry":{"type":"LineString","coordinates":[[6.4680451,35.4866187],[6.4680942,35.4861357],[6.468119,35.4858912],[6.4681429,35.4856555],[6.4681682,35.4854069],[6.4681952,35.4851417],[6.4682561,35.4845936],[6.4682716,35.484454],[6.4682832,35.4843497],[6.4683096,35.4841124],[6.4683377,35.4838686],[6.4683632,35.4836314]]},"properties":{"site":"timgad","name":"","highway":"footway"}},{"type":"Feature","geometry":{"type":"LineString","coordinates":[[6.4672865,35.4853444],[6.4675793,35.4853652],[6.4678677,35.4853856],[6.4681682,35.4854069],[6.4684525,35.485427],[6.4687855,35.4854506]]},"properties":{"site":"timgad","name":"","highway":"footway"}},{"type":"Feature","geometry":{"type":"LineString","coordinates":[[6.470475,35.4865391],[6.4701882,35.4865207],[6.4698936,35.4865018],[6.4695947,35.4864827],[6.4692935,35.4864633],[6.4690049,35.4864448],[6.4686926,35.4864248]]},"properties":{"site":"timgad","name":"","highway":"footway"}},{"type":"Feature","geometry":{"type":"LineString","coordinates":[[6.4674502,35.4865779],[6.4675016,35.486095],[6.4675524,35.485618],[6.4675793,35.4853652],[6.4676076,35.4851034],[6.4676657,35.4845542],[6.467691,35.4843163],[6.4677169,35.4840732],[6.4677431,35.4838274],[6.4677681,35.4835925]]},"properties":{"site":"timgad","name":"","highway":"footway"}},{"type":"Feature","geometry":{"type":"LineString","coordinates":[[6.4706502,35.4850036],[6.4703519,35.4849807],[6.4700541,35.4849579],[6.4696762,35.4849289]]},"properties":{"site":"timgad","name":"","highway":"footway"}},{"type":"Feature","geometry":{"type":"LineString","coordinates":[[6.4707371,35.4842421],[6.4707312,35.4842938],[6.4707046,35.4845266],[6.4706755,35.4847818],[6.4706502,35.4850036],[6.4706168,35.4852998],[6.4705567,35.485823],[6.4705303,35.4860547],[6.4705022,35.486301],[6.470475,35.4865391]]},"properties":{"site":"timgad","name":"","highway":"footway"}},{"type":"Feature","geometry":{"type":"LineString","coordinates":[[6.4707312,35.4842938],[6.4701346,35.4842483],[6.4698439,35.4842261],[6.4695605,35.4842045]]},"properties":{"site":"timgad","name":"","highway":"footway"}},{"type":"Feature","geometry":{"type":"LineString","coordinates":[[6.4698439,35.4842261],[6.4698929,35.4837371]]},"properties":{"site":"timgad","name":"","highway":"footway"}},{"type":"Feature","geometry":{"type":"LineString","coordinates":[[6.468338,35.4866387],[6.4683837,35.4861556],[6.4684068,35.4859106],[6.4684291,35.4856753],[6.4684525,35.485427],[6.4684776,35.4851602]]},"properties":{"site":"timgad","name":"","highway":"footway"}},{"type":"Feature","geometry":{"type":"LineString","coordinates":[[6.4706755,35.4847818],[6.4703802,35.4847592],[6.4700792,35.4847361],[6.4694699,35.4846912]]},"properties":{"site":"timgad","name":"","highway":"footway"}},{"type":"Feature","geometry":{"type":"LineString","coordinates":[[6.4695365,35.4844543],[6.4701072,35.4844896],[6.4707046,35.4845266]]},"properties":{"site":"timgad","name":"","highway":"footway"}},{"type":"Feature","geometry":{"type":"LineString","coordinates":[[6.4703143,35.4852801],[6.4703519,35.4849807],[6.4703802,35.4847592]]},"properties":{"site":"timgad","name":"","highway":"footway"}},{"type":"Feature","geometry":{"type":"LineString","coordinates":[[6.4688602,35.483301],[6.4687397,35.4832862],[6.4680634,35.4832443],[6.4672975,35.4831746]]},"properties":{"site":"timgad","name":"","highway":"footway"}},{"type":"Feature","geometry":{"type":"LineString","coordinates":[[6.4642498,35.4861929],[6.4640025,35.4859245],[6.4642655,35.4856138],[6.4643406,35.4854576]]},"properties":{"site":"timgad","name":"","highway":"footway"}},{"type":"Feature","geometry":{"type":"LineString","coordinates":[[6.4680647,35.4800054],[6.4679963,35.4803051],[6.4679344,35.4803767],[6.4678432,35.4805729],[6.4677976,35.4807426],[6.4676967,35.4808248],[6.4676087,35.4809415],[6.4675306,35.4811431],[6.4675177,35.4812074],[6.4674687,35.4814507],[6.4674329,35.4816973],[6.4674003,35.4818459],[6.467554,35.4820567]]},"properties":{"site":"timgad","name":"","highway":"footway"}},{"type":"Feature","geometry":{"type":"LineString","coordinates":[[6.4746428,35.4847882],[6.4745851,35.4846085],[6.4745759,35.4845182],[6.4748463,35.4838162]]},"properties":{"site":"timgad","name":"","highway":"service"}},{"type":"Feature","geometry":{"type":"LineString","coordinates":[[6.4675251,35.4874951],[6.4680956,35.4875396],[6.4681301,35.4875383],[6.4681569,35.4875235],[6.4681705,35.4875006],[6.4682021,35.4871213]]},"properties":{"site":"timgad","name":"","highway":"footway"}},{"type":"Feature","geometry":{"type":"LineString","coordinates":[[6.4677193,35.4824063],[6.4675199,35.4828376],[6.4672975,35.4831746],[6.4671042,35.4834498],[6.4669828,35.4839252],[6.4669455,35.4842978],[6.4670108,35.4844842],[6.4669754,35.485073]]},"properties":{"site":"timgad","name":"","highway":"footway"}},{"type":"Feature","geometry":{"type":"LineString","coordinates":[[6.4675177,35.4812074],[6.4665022,35.4817646],[6.4655964,35.4823216],[6.465276,35.4826327],[6.4650418,35.4829939],[6.4648774,35.4833624],[6.4647522,35.4836914],[6.4643394,35.4840276],[6.4641545,35.4843086],[6.4633842,35.4846548]]},"properties":{"site":"timgad","name":"","highway":"footway"}},{"type":"Feature","geometry":{"type":"LineString","coordinates":[[6.4637589,35.4814388],[6.4640173,35.4814965],[6.4641978,35.4815166],[6.4643783,35.4815858],[6.4647959,35.4818596],[6.4655964,35.4823216]]},"properties":{"site":"timgad","name":"","highway":"footway"}},{"type":"Feature","geometry":{"type":"LineString","coordinates":[[6.4675177,35.4812074],[6.4682338,35.4812595],[6.4688882,35.4815435],[6.4697143,35.4820633]]},"properties":{"site":"timgad","name":"","highway":"footway"}},{"type":"Feature","geometry":{"type":"LineString","coordinates":[[6.4662937,35.4853015],[6.4661163,35.4849478],[6.4660668,35.4847731],[6.4660574,35.4845793],[6.4660551,35.484445],[6.4659807,35.4842758],[6.4656388,35.4837845],[6.4655563,35.4836981],[6.4653306,35.4835865],[6.4648774,35.4833624],[6.4644197,35.483194],[6.4638456,35.4830399]]},"properties":{"site":"timgad","name":"","highway":"footway"}},{"type":"Feature","geometry":{"type":"LineString","coordinates":[[6.464856,35.4858655],[6.4647294,35.4859195],[6.4646612,35.4859486],[6.4642498,35.4861929],[6.4638521,35.4865008]]},"properties":{"site":"timgad","name":"","highway":"footway"}},{"type":"Feature","geometry":{"type":"LineString","coordinates":[[6.4685574,35.484968],[6.4687696,35.4849811],[6.4687656,35.4850243],[6.4688337,35.4850285],[6.4691373,35.4850472],[6.4691786,35.4846033],[6.4685946,35.4845673],[6.4685574,35.484968]]},"properties":{"site":"timgad","name":"Forum","highway":"pedestrian"}},{"type":"Feature","geometry":{"type":"LineString","coordinates":[[6.4682716,35.484454],[6.468881,35.484488],[6.4689797,35.4845517],[6.4695154,35.4845796]]},"properties":{"site":"timgad","name":"","highway":"footway"}},{"type":"Feature","geometry":{"type":"LineString","coordinates":[[6.4686178,35.4872083],[6.4682021,35.4871213],[6.4680232,35.4870906],[6.4677993,35.487061],[6.4676393,35.4870565],[6.4672309,35.4870655],[6.4669328,35.4870205],[6.4667176,35.4869486],[6.466628,35.4869204],[6.4661455,35.4868683],[6.4656472,35.4869065],[6.4654722,35.4868915],[6.465364,35.4868335],[6.4652316,35.4867466],[6.4650978,35.4865565],[6.4649811,35.4864719],[6.4647689,35.4863734],[6.4647163,35.4863374],[6.4647092,35.4862945],[6.4647294,35.4859195],[6.4647355,35.4855481],[6.4647649,35.4854545],[6.4653798,35.4843139],[6.4654867,35.4842443],[6.4655856,35.4842268],[6.4657166,35.484229],[6.4659807,35.4842758],[6.466048,35.4842878],[6.4663154,35.4843161]]},"properties":{"site":"timgad","name":"","highway":"footway"}},{"type":"Feature","geometry":{"type":"LineString","coordinates":[[6.4642098,35.4835661],[6.4644197,35.483194],[6.4646781,35.4826707],[6.4648396,35.4824025]]},"properties":{"site":"timgad","name":"","highway":"footway"}},{"type":"Feature","geometry":{"type":"LineString","coordinates":[[6.4649369,35.4842872],[6.4650652,35.4841038],[6.4653306,35.4835865],[6.4655798,35.4830792],[6.4658198,35.4826616]]},"properties":{"site":"timgad","name":"","highway":"footway"}},{"type":"Feature","geometry":{"type":"LineString","coordinates":[[6.4658605,35.4854714],[6.4660826,35.4858108],[6.4662037,35.4860185],[6.466299,35.4862907]]},"properties":{"site":"timgad","name":"","highway":"footway"}}]}