{"type":"FeatureCollection","features":[{"type":"Feature","geometry":{"type":"Polygon","coordinates":[[[6.4687101,35.4886323],[6.4692763,35.4886251],[6.4693521,35.4883332],[6.4693988,35.4882643],[6.4698068,35.488008],[6.4700925,35.487887],[6.4702586,35.4877802],[6.4704015,35.4876283],[6.4709116,35.4870777],[6.4708329,35.4860927],[6.4708678,35.4851765],[6.4709536,35.4844262],[6.4707221,35.4838094],[6.4705181,35.4837263],[6.4703927,35.4834534],[6.4702441,35.4833371],[6.4702178,35.4830238],[6.4700875,35.4825736],[6.4699531,35.4823234],[6.4699243,35.4813343],[6.4694873,35.4792699],[6.4690696,35.4786678],[6.4683446,35.4786013],[6.467394,35.4787069],[6.4662657,35.4790119],[6.4659488,35.4791292],[6.4653966,35.4794419],[6.4648109,35.4796023],[6.464446,35.480001],[6.4640859,35.4805992],[6.4638218,35.4811388],[6.4637258,35.481432],[6.4634444,35.4823892],[6.4631064,35.4835393],[6.4633897,35.4841609],[6.4631929,35.4855215],[6.4630732,35.4860193],[6.4636734,35.4865085],[6.4650221,35.4872612],[6.4669715,35.4881799],[6.4673174,35.4883304],[6.4675583,35.4884242],[6.4677939,35.4885331],[6.4684436,35.4886204],[6.4684444,35.4888092],[6.4687054,35.4888032],[6.4687101,35.4886323]]]},"properties":{"site":"timgad","name":"Ruines Romaines de Timgad","category":"archaeological","historic":"archaeological_site","building":null,"osm_id":331768105}},{"type":"Feature","geometry":{"type":"Polygon","coordinates":[[[6.4706958,35.4853614],[6.4707051,35.4852532],[6.4707757,35.4852572],[6.4707664,35.4853655],[6.4706958,35.4853614]]]},"properties":{"site":"timgad","name":null,"category":"other","historic":null,"building":"yes","osm_id":331768770}},{"type":"Feature","geometry":{"type":"Polygon","coordinates":[[[6.4690204,35.4875613],[6.4690764,35.4875639],[6.4690899,35.4873772],[6.4690329,35.4873745],[6.4690279,35.4874442],[6.4689151,35.4874388],[6.468922,35.4873438],[6.4691235,35.4873535],[6.4691263,35.4873148],[6.4686856,35.4872936],[6.4686828,35.4873326],[6.4688745,35.4873418],[6.4688681,35.4874315],[6.4686621,35.4874216],[6.4686588,35.4874667],[6.469026,35.4874844],[6.4690204,35.4875613]]]},"properties":{"site":"timgad","name":null,"category":"other","historic":null,"building":"yes","osm_id":563928585}},{"type":"Feature","geometry":{"type":"Polygon","coordinates":[[[6.4658929,35.4866339],[6.4658964,35.4866927],[6.4657712,35.4866976],[6.4657678,35.4866387],[6.4658929,35.4866339]]]},"properties":{"site":"timgad","name":null,"category":"other","historic":null,"building":"yes","osm_id":563928586}},{"type":"Feature","geometry":{"type":"Polygon","coordinates":[[[6.4671763,35.4851617],[6.4672294,35.4851645],[6.4672402,35.4850276],[6.4671871,35.4850248],[6.4671763,35.4851617]]]},"properties":{"site":"timgad","name":"Arc de Trajan","category":"other","historic":null,"building":"yes","osm_id":563928587}},{"type":"Feature","geometry":{"type":"Polygon","coordinates":[[[6.474099,35.4847687],[6.4740197,35.4847769],[6.4740035,35.4846809],[6.4740929,35.4846743],[6.474099,35.4847687]]]},"properties":{"site":"timgad","name":null,"category":"other","historic":null,"building":"house","osm_id":572052917}},{"type":"Feature","geometry":{"type":"Polygon","coordinates":[[[6.4738148,35.484955],[6.4737965,35.4847392],[6.4738673,35.4847352],[6.473871,35.4847789],[6.4739762,35.484773],[6.473992,35.4849604],[6.4738776,35.4849668],[6.4738764,35.4849516],[6.4738148,35.484955]]]},"properties":{"site":"timgad","name":null,"category":"other","historic":null,"building":"yes","osm_id":572052918}},{"type":"Feature","geometry":{"type":"Polygon","coordinates":[[[6.4734973,35.4862236],[6.4738266,35.4863278],[6.4738828,35.4862131],[6.4739465,35.4860829],[6.4736213,35.4859769],[6.4734973,35.4862236]]]},"properties":{"site":"timgad","name":null,"category":"other","historic":null,"building":"yes","osm_id":572052919}},{"type":"Feature","geometry":{"type":"Polygon","coordinates":[[[6.4738828,35.4862131],[6.4740949,35.4862732],[6.47416,35.4861541],[6.4739465,35.4860829],[6.4738828,35.4862131]]]},"properties":{"site":"timgad","name":null,"category":"other","historic":null,"building":"yes","osm_id":572052920}},{"type":"Feature","geometry":{"type":"Polygon","coordinates":[[[6.4733399,35.48655],[6.4735193,35.4866039],[6.473578,35.4864745],[6.4733986,35.4864205],[6.4733399,35.48655]]]},"properties":{"site":"timgad","name":null,"category":"other","historic":null,"building":"yes","osm_id":572052921}},{"type":"Feature","geometry":{"type":"Polygon","coordinates":[[[6.47255,35.4870478],[6.4726964,35.4871091],[6.4727838,35.4869783],[6.4726415,35.4869154],[6.47255,35.4870478]]]},"properties":{"site":"timgad","name":null,"category":"other","historic":null,"building":"yes","osm_id":572052922}},{"type":"Feature","geometry":{"type":"Polygon","coordinates":[[[6.4760607,35.486977],[6.4761577,35.4869778],[6.4761598,35.4868161],[6.4760628,35.4868153],[6.4760607,35.486977]]]},"properties":{"site":"timgad","name":null,"category":"other","historic":null,"building":"yes","osm_id":771155377}},{"type":"Feature","geometry":{"type":"Polygon","coordinates":[[[6.4760638,35.4868114],[6.4761608,35.4868122],[6.4761629,35.4866505],[6.4760659,35.4866497],[6.4760638,35.4868114]]]},"properties":{"site":"timgad","name":null,"category":"other","historic":null,"building":"yes","osm_id":771155378}},{"type":"Feature","geometry":{"type":"Polygon","coordinates":[[[6.4760638,35.4866458],[6.4761608,35.4866466],[6.4761629,35.4864849],[6.4760659,35.4864841],[6.4760638,35.4866458]]]},"properties":{"site":"timgad","name":null,"category":"other","historic":null,"building":"yes","osm_id":771155379}},{"type":"Feature","geometry":{"type":"Polygon","coordinates":[[[6.4763682,35.4869228],[6.4765751,35.4868413],[6.4765336,35.4867714],[6.4763267,35.486853],[6.4763682,35.4869228]]]},"properties":{"site":"timgad","name":null,"category":"other","historic":null,"building":"yes","osm_id":771155380}},{"type":"Feature","geometry":{"type":"Polygon","coordinates":[[[6.4765824,35.48684],[6.4767893,35.4867585],[6.4767477,35.4866886],[6.4765408,35.4867702],[6.4765824,35.48684]]]},"properties":{"site":"timgad","name":null,"category":"other","historic":null,"building":"yes","osm_id":771155381}},{"type":"Feature","geometry":{"type":"Polygon","coordinates":[[[6.4767944,35.4867568],[6.4770009,35.4866966],[6.476967,35.4866188],[6.4767606,35.486684],[6.4767944,35.4867568]]]},"properties":{"site":"timgad","name":null,"category":"other","historic":null,"building":"yes","osm_id":771155382}},{"type":"Feature","geometry":{"type":"Polygon","coordinates":[[[6.4770181,35.4866862],[6.4772238,35.4866281],[6.4771919,35.4865535],[6.4769863,35.4866116],[6.4770181,35.4866862]]]},"properties":{"site":"timgad","name":null,"category":"other","historic":null,"building":"yes","osm_id":771155383}},{"type":"Feature","geometry":{"type":"Polygon","coordinates":[[[6.4762529,35.4864486],[6.4764348,35.4864635],[6.4764406,35.4863818],[6.4762612,35.4863727],[6.4762529,35.4864486]]]},"properties":{"site":"timgad","name":null,"category":"other","historic":null,"building":"yes","osm_id":771155384}},{"type":"Feature","geometry":{"type":"Polygon","coordinates":[[[6.4764348,35.4864635],[6.4766659,35.4864743],[6.4766716,35.4863926],[6.4764406,35.4863818],[6.4764348,35.4864635]]]},"properties":{"site":"timgad","name":null,"category":"other","historic":null,"building":"yes","osm_id":771155385}},{"type":"Feature","geometry":{"type":"Polygon","coordinates":[[[6.4772318,35.4864746],[6.4773153,35.4864803],[6.4773345,35.4862963],[6.4772509,35.4862905],[6.4772318,35.4864746]]]},"properties":{"site":"timgad","name":null,"category":"other","historic":null,"building":"yes","osm_id":771155386}},{"type":"Feature","geometry":{"type":"Polygon","coordinates":[[[6.4767458,35.4862171],[6.4769779,35.486229],[6.4769807,35.4861451],[6.4767517,35.4861369],[6.4767458,35.4862171]]]},"properties":{"site":"timgad","name":null,"category":"other","historic":null,"building":"yes","osm_id":771155387}},{"type":"Feature","geometry":{"type":"Polygon","coordinates":[[[6.4769779,35.486229],[6.4772103,35.4862341],[6.4772131,35.4861502],[6.4769807,35.4861451],[6.4769779,35.486229]]]},"properties":{"site":"timgad","name":null,"category":"other","historic":null,"building":"yes","osm_id":771155388}},{"type":"Feature","geometry":{"type":"Polygon","coordinates":[[[6.4665987,35.4874677],[6.4670587,35.4875456],[6.4671616,35.4871432],[6.4667016,35.4870652],[6.4665987,35.4874677]]]},"properties":{"site":"timgad","name":null,"category":"other","historic":"building","building":"yes","osm_id":911542226}},{"type":"Feature","geometry":{"type":"Polygon","coordinates":[[[6.4672736,35.4876578],[6.4681749,35.4876939],[6.4682036,35.4872191],[6.4679155,35.4872075],[6.4679222,35.4870974],[6.4676001,35.4870845],[6.4675934,35.4871946],[6.4673023,35.4871829],[6.4672736,35.4876578]]]},"properties":{"site":"timgad","name":"Great North Baths","category":"bath","historic":"archaeological_site","building":"yes","osm_id":911542227}},{"type":"Feature","geometry":{"type":"Polygon","coordinates":[[[6.4688008,35.4856647],[6.4688166,35.4854873],[6.4689451,35.4854904],[6.4689428,35.4855149],[6.4690142,35.4855149],[6.4690375,35.4855381],[6.4690473,35.4855552],[6.469051,35.4855773],[6.469051,35.4856054],[6.4690352,35.4856348],[6.4690074,35.4856556],[6.4689278,35.4856507],[6.4689241,35.4856703],[6.4688008,35.4856647]]]},"properties":{"site":"timgad","name":"Biblioteca","category":"library","historic":"library","building":"ruins","osm_id":1104059044}},{"type":"Feature","geometry":{"type":"Polygon","coordinates":[[[6.4686936,35.4866513],[6.4689586,35.4866686],[6.4689784,35.4864676],[6.4687133,35.4864504],[6.4686936,35.4866513]]]},"properties":{"site":"timgad","name":"Pequeña Terma norte","category":"archaeological","historic":"archaeological_site","building":null,"osm_id":1104422262}},{"type":"Feature","geometry":{"type":"Polygon","coordinates":[[[6.4700553,35.4853226],[6.4700243,35.4856161],[6.4702721,35.4856334],[6.470263,35.4857192],[6.4703676,35.4857265],[6.4703777,35.4856314],[6.4705612,35.4856442],[6.4705912,35.4853601],[6.4700553,35.4853226]]]},"properties":{"site":"timgad","name":"Terma este","category":"archaeological","historic":"archaeological_site","building":null,"osm_id":1104422391}},{"type":"Feature","geometry":{"type":"Polygon","coordinates":[[[6.46799,35.4829803],[6.4680435,35.4829498],[6.4681953,35.4828586],[6.4682326,35.4828415],[6.4682606,35.4828282],[6.4682828,35.4828177],[6.4683155,35.4828158],[6.4683459,35.4828253],[6.4683622,35.4828348],[6.4683774,35.48285],[6.4683844,35.4828671],[6.4683844,35.48289],[6.4684206,35.4828833],[6.4684591,35.4829166],[6.4684801,35.4829166],[6.4684953,35.482928],[6.4685257,35.4829042],[6.4685443,35.4829204],[6.4685642,35.482908],[6.4685852,35.4829023],[6.4686062,35.4829052],[6.4686249,35.4829109],[6.4686459,35.4829251],[6.4686588,35.4829432],[6.4686576,35.4829632],[6.4686541,35.4829765],[6.4686482,35.4829888],[6.4686366,35.4830012],[6.4686564,35.4830192],[6.4686459,35.4830268],[6.4686844,35.4830582],[6.4687148,35.4830839],[6.4687335,35.4831162],[6.4687381,35.483159],[6.4687288,35.4831913],[6.4687101,35.4832198],[6.4686774,35.4832436],[6.4686529,35.4832579],[6.4686424,35.4832607],[6.4686062,35.4832674],[6.4685618,35.4832636],[6.4685257,35.4832541],[6.4684895,35.483236],[6.4684393,35.4832265],[6.4684159,35.4832075],[6.4683809,35.4832322],[6.4683613,35.4832354],[6.4682968,35.4831752],[6.4682466,35.4832141],[6.4682128,35.4831913],[6.4681845,35.4832122],[6.4680088,35.4830533],[6.4680329,35.4830196],[6.46799,35.4829803]]]},"properties":{"site":"timgad","name":"Grand Thermes du sud","category":"bath","historic":"archaeological_site","building":null,"osm_id":1104422614}},{"type":"Feature","geometry":{"type":"Polygon","coordinates":[[[6.47591,35.4851659],[6.4758846,35.4851433],[6.4758627,35.4851596],[6.4758126,35.4851151],[6.4758972,35.485052],[6.4760468,35.485185],[6.4759673,35.4852444],[6.4758931,35.4851785],[6.47591,35.4851659]]]},"properties":{"site":"timgad","name":null,"category":"other","historic":null,"building":"yes","osm_id":1472206898}},{"type":"Feature","geometry":{"type":"Polygon","coordinates":[[[6.4752576,35.4871687],[6.4753862,35.4871383],[6.4753838,35.4871313],[6.4754704,35.4871109],[6.4754693,35.4871078],[6.4755484,35.4870892],[6.4755965,35.4872242],[6.475302,35.4872936],[6.4752576,35.4871687]]]},"properties":{"site":"timgad","name":null,"category":"other","historic":null,"building":"yes","osm_id":1472206899}},{"type":"Feature","geometry":{"type":"Polygon","coordinates":[[[6.4746837,35.4862421],[6.474613,35.4862365],[6.4746185,35.486191],[6.4746892,35.4861967],[6.4746837,35.4862421]]]},"properties":{"site":"timgad","name":null,"category":"other","historic":null,"building":"yes","osm_id":1472206900}},{"type":"Feature","geometry":{"type":"Polygon","coordinates":[[[6.4746467,35.4860793],[6.474648,35.4860607],[6.4747565,35.4860657],[6.4747494,35.4861692],[6.4745446,35.4861598],[6.4745504,35.4860749],[6.4746467,35.4860793]]]},"properties":{"site":"timgad","name":null,"category":"other","historic":null,"building":"yes","osm_id":1472206910}},{"type":"Feature","geometry":{"type":"Polygon","coordinates":[[[6.4750682,35.4868579],[6.4750211,35.4868602],[6.475011,35.4867253],[6.4750581,35.486723],[6.4750682,35.4868579]]]},"properties":{"site":"timgad","name":null,"category":"other","historic":null,"building":"yes","osm_id":1472206921}},{"type":"Feature","geometry":{"type":"Polygon","coordinates":[[[6.4766055,35.4854791],[6.4766528,35.4854735],[6.4766627,35.4855292],[6.4766154,35.4855347],[6.4766055,35.4854791]]]},"properties":{"site":"timgad","name":null,"category":"other","historic":null,"building":"yes","osm_id":1472206943}},{"type":"Feature","geometry":{"type":"Polygon","coordinates":[[[6.4759551,35.4839167],[6.4760415,35.4838896],[6.4760947,35.4840018],[6.4761006,35.4839999],[6.4761483,35.4841007],[6.476056,35.4841297],[6.4759551,35.4839167]]]},"properties":{"site":"timgad","name":null,"category":"other","historic":null,"building":"yes","osm_id":1472206944}},{"type":"Feature","geometry":{"type":"Polygon","coordinates":[[[6.474957,35.485488],[6.475056,35.485537],[6.4750233,35.4855809],[6.4750828,35.4856104],[6.4750596,35.4856415],[6.4748619,35.4855435],[6.4748952,35.4854989],[6.4749344,35.4855183],[6.474957,35.485488]]]},"properties":{"site":"timgad","name":null,"category":"other","historic":null,"building":"yes","osm_id":1472206953}},{"type":"Feature","geometry":{"type":"Polygon","coordinates":[[[6.4771897,35.4840207],[6.4772453,35.4841146],[6.477156,35.4841496],[6.4771602,35.4841567],[6.4771015,35.4841798],[6.4770417,35.4840787],[6.4771897,35.4840207]]]},"properties":{"site":"timgad","name":null,"category":"other","historic":null,"building":"yes","osm_id":1472206968}},{"type":"Feature","geometry":{"type":"Polygon","coordinates":[[[6.4768781,35.4840018],[6.4770547,35.4839328],[6.4771112,35.4840286],[6.4769346,35.4840976],[6.4768781,35.4840018]]]},"properties":{"site":"timgad","name":null,"category":"other","historic":null,"building":"yes","osm_id":1472206969}},{"type":"Feature","geometry":{"type":"Polygon","coordinates":[[[6.4775308,35.4857998],[6.4774918,35.4857157],[6.4775496,35.4856979],[6.4775558,35.4857113],[6.4775957,35.4856991],[6.4775921,35.4856914],[6.4776485,35.4856741],[6.4776564,35.4856913],[6.4776997,35.485678],[6.4777263,35.4857353],[6.4778788,35.4856884],[6.4779037,35.4857419],[6.4776914,35.4858072],[6.4776684,35.4857575],[6.4775308,35.4857998]]]},"properties":{"site":"timgad","name":null,"category":"other","historic":null,"building":"yes","osm_id":1472206977}},{"type":"Feature","geometry":{"type":"Polygon","coordinates":[[[6.4753014,35.4857154],[6.4754119,35.4857655],[6.4753691,35.485828],[6.4752586,35.4857778],[6.4753014,35.4857154]]]},"properties":{"site":"timgad","name":null,"category":"other","historic":null,"building":"yes","osm_id":1472206978}},{"type":"Feature","geometry":{"type":"Polygon","coordinates":[[[6.4770428,35.4858543],[6.477087,35.4859435],[6.4769647,35.4859837],[6.4769205,35.4858944],[6.4770428,35.4858543]]]},"properties":{"site":"timgad","name":null,"category":"other","historic":null,"building":"yes","osm_id":1472206983}},{"type":"Feature","geometry":{"type":"Polygon","coordinates":[[[6.4759305,35.4865296],[6.4757724,35.486525],[6.4757767,35.486429],[6.4759347,35.4864337],[6.4759305,35.4865296]]]},"properties":{"site":"timgad","name":null,"category":"other","historic":null,"building":"yes","osm_id":1472206984}},{"type":"Feature","geometry":{"type":"Polygon","coordinates":[[[6.4770479,35.4856707],[6.4769984,35.4856907],[6.476977,35.4856557],[6.4770265,35.4856357],[6.4770479,35.4856707]]]},"properties":{"site":"timgad","name":null,"category":"other","historic":null,"building":"yes","osm_id":1472206996}},{"type":"Feature","geometry":{"type":"Polygon","coordinates":[[[6.4736422,35.4859005],[6.4737007,35.4857604],[6.4736695,35.4857517],[6.4737258,35.4856166],[6.4738917,35.4856625],[6.4738926,35.4856606],[6.4739503,35.4856765],[6.4739013,35.485794],[6.4738484,35.4857794],[6.4738263,35.4858323],[6.4738682,35.4858438],[6.4738567,35.4858712],[6.4739712,35.4859029],[6.473938,35.4859823],[6.4736422,35.4859005]]]},"properties":{"site":"timgad","name":null,"category":"other","historic":null,"building":"yes","osm_id":1472207008}},{"type":"Feature","geometry":{"type":"Polygon","coordinates":[[[6.4733665,35.4872129],[6.4734452,35.4872384],[6.473424,35.4872818],[6.4733453,35.4872563],[6.4733665,35.4872129]]]},"properties":{"site":"timgad","name":null,"category":"other","historic":null,"building":"yes","osm_id":1472207009}},{"type":"Feature","geometry":{"type":"Polygon","coordinates":[[[6.4764674,35.4856058],[6.4765026,35.4857279],[6.4764477,35.4857384],[6.4764125,35.4856163],[6.4764674,35.4856058]]]},"properties":{"site":"timgad","name":null,"category":"other","historic":null,"building":"yes","osm_id":1472207012}},{"type":"Feature","geometry":{"type":"Polygon","coordinates":[[[6.475826,35.4861341],[6.4759614,35.4861449],[6.4759528,35.4862163],[6.4758174,35.4862054],[6.475826,35.4861341]]]},"properties":{"site":"timgad","name":null,"category":"other","historic":null,"building":"yes","osm_id":1472207021}},{"type":"Feature","geometry":{"type":"Polygon","coordinates":[[[6.4735932,35.4873952],[6.4735864,35.4874142],[6.4736359,35.4874259],[6.4736086,35.4875024],[6.4734676,35.4874691],[6.4735017,35.4873736],[6.4735932,35.4873952]]]},"properties":{"site":"timgad","name":null,"category":"other","historic":null,"building":"yes","osm_id":1472207033}},{"type":"Feature","geometry":{"type":"Polygon","coordinates":[[[6.4759703,35.4846608],[6.4759158,35.4846797],[6.4758729,35.4845974],[6.4759274,35.4845785],[6.4759703,35.4846608]]]},"properties":{"site":"timgad","name":null,"category":"other","historic":null,"building":"yes","osm_id":1472207037}},{"type":"Feature","geometry":{"type":"Polygon","coordinates":[[[6.4773304,35.4860182],[6.4773576,35.4860553],[6.4772705,35.4860975],[6.477218,35.4860259],[6.4772873,35.4859923],[6.4773126,35.4860269],[6.4773304,35.4860182]]]},"properties":{"site":"timgad","name":null,"category":"other","historic":null,"building":"yes","osm_id":1472207058}},{"type":"Feature","geometry":{"type":"Polygon","coordinates":[[[6.4747847,35.4869875],[6.4749643,35.4869837],[6.4749667,35.4870601],[6.4747871,35.4870638],[6.4747847,35.4869875]]]},"properties":{"site":"timgad","name":null,"category":"other","historic":null,"building":"yes","osm_id":1472207074}},{"type":"Feature","geometry":{"type":"Polygon","coordinates":[[[6.4739721,35.4851442],[6.4739717,35.4851434],[6.4740792,35.4851127],[6.4741988,35.4853909],[6.4741094,35.4854164],[6.4740981,35.48539],[6.4739643,35.4854282],[6.4739254,35.4853378],[6.4739217,35.4853389],[6.4738526,35.4851783],[6.4739721,35.4851442]]]},"properties":{"site":"timgad","name":null,"category":"other","historic":null,"building":"yes","osm_id":1472207075}},{"type":"Feature","geometry":{"type":"Polygon","coordinates":[[[6.4701541,35.4880173],[6.4700277,35.4880751],[6.469956,35.4879712],[6.4700824,35.4879134],[6.4701541,35.4880173]]]},"properties":{"site":"timgad","name":null,"category":"other","historic":null,"building":"yes","osm_id":1472207078}},{"type":"Feature","geometry":{"type":"Polygon","coordinates":[[[6.4743953,35.4871501],[6.4743149,35.4871525],[6.4743116,35.4870771],[6.4743919,35.4870748],[6.4743953,35.4871501]]]},"properties":{"site":"timgad","name":null,"category":"other","historic":null,"building":"yes","osm_id":1472207090}},{"type":"Feature","geometry":{"type":"Polygon","coordinates":[[[6.4765867,35.4853653],[6.4766185,35.4853589],[6.4766338,35.4854093],[6.476602,35.4854157],[6.4765867,35.4853653]]]},"properties":{"site":"timgad","name":null,"category":"other","historic":null,"building":"yes","osm_id":1472207102}},{"type":"Feature","geometry":{"type":"Polygon","coordinates":[[[6.4745885,35.4863793],[6.4747135,35.4863818],[6.4747089,35.4865358],[6.474584,35.4865333],[6.4745885,35.4863793]]]},"properties":{"site":"timgad","name":null,"category":"other","historic":null,"building":"yes","osm_id":1472207104}},{"type":"Feature","geometry":{"type":"Polygon","coordinates":[[[6.4759924,35.4845558],[6.4760599,35.4845294],[6.4760845,35.484571],[6.476017,35.4845975],[6.4759924,35.4845558]]]},"properties":{"site":"timgad","name":null,"category":"other","historic":null,"building":"yes","osm_id":1472207127}},{"type":"Feature","geometry":{"type":"Polygon","coordinates":[[[6.4763945,35.4872039],[6.476221,35.4872769],[6.47614,35.4871494],[6.4762289,35.487112],[6.4762245,35.4871051],[6.4763621,35.4870472],[6.4764212,35.4871402],[6.4763683,35.4871625],[6.4763945,35.4872039]]]},"properties":{"site":"timgad","name":null,"category":"other","historic":null,"building":"yes","osm_id":1472207135}},{"type":"Feature","geometry":{"type":"Polygon","coordinates":[[[6.4734495,35.4873045],[6.4733907,35.4874148],[6.4732598,35.4873686],[6.4733185,35.4872583],[6.4734495,35.4873045]]]},"properties":{"site":"timgad","name":null,"category":"other","historic":null,"building":"yes","osm_id":1472207147}},{"type":"Feature","geometry":{"type":"Polygon","coordinates":[[[6.4766774,35.4841739],[6.4766991,35.484135],[6.4767548,35.4841555],[6.4767331,35.4841945],[6.4766774,35.4841739]]]},"properties":{"site":"timgad","name":null,"category":"other","historic":null,"building":"yes","osm_id":1472207170}},{"type":"Feature","geometry":{"type":"Polygon","coordinates":[[[6.4751129,35.4857296],[6.4752312,35.4857805],[6.4751386,35.4859231],[6.4750161,35.4858704],[6.4750727,35.4857833],[6.4750768,35.4857851],[6.4751129,35.4857296]]]},"properties":{"site":"timgad","name":null,"category":"other","historic":null,"building":"yes","osm_id":1472207171}},{"type":"Feature","geometry":{"type":"Polygon","coordinates":[[[6.4739413,35.4859969],[6.4739714,35.4859123],[6.4741223,35.4859479],[6.4740922,35.4860325],[6.4739413,35.4859969]]]},"properties":{"site":"timgad","name":null,"category":"other","historic":null,"building":"yes","osm_id":1472207173}},{"type":"Feature","geometry":{"type":"Polygon","coordinates":[[[6.4750712,35.4851809],[6.4751529,35.4852182],[6.4751289,35.4852531],[6.4750472,35.4852159],[6.4750712,35.4851809]]]},"properties":{"site":"timgad","name":null,"category":"other","historic":null,"building":"yes","osm_id":1472207191}},{"type":"Feature","geometry":{"type":"Polygon","coordinates":[[[6.4744279,35.4867424],[6.4745149,35.4867488],[6.474508,35.4868103],[6.474421,35.4868039],[6.4744279,35.4867424]]]},"properties":{"site":"timgad","name":null,"category":"other","historic":null,"building":"yes","osm_id":1472207192}},{"type":"Feature","geometry":{"type":"Polygon","coordinates":[[[6.4749175,35.4869021],[6.474918,35.4868802],[6.474977,35.4868812],[6.4749749,35.4869663],[6.4747829,35.4869632],[6.4747845,35.4868999],[6.4749175,35.4869021]]]},"properties":{"site":"timgad","name":null,"category":"other","historic":null,"building":"yes","osm_id":1472207195}},{"type":"Feature","geometry":{"type":"Polygon","coordinates":[[[6.4768596,35.4860201],[6.4768708,35.4860501],[6.4768314,35.4860598],[6.4768203,35.4860298],[6.4768596,35.4860201]]]},"properties":{"site":"timgad","name":null,"category":"other","historic":null,"building":"yes","osm_id":1472207203}},{"type":"Feature","geometry":{"type":"Polygon","coordinates":[[[6.4761999,35.483928],[6.4760971,35.4839667],[6.476021,35.4838326],[6.4761238,35.4837939],[6.4761999,35.483928]]]},"properties":{"site":"timgad","name":null,"category":"other","historic":null,"building":"yes","osm_id":1472207204}},{"type":"Feature","geometry":{"type":"Polygon","coordinates":[[[6.4737509,35.4863265],[6.4737145,35.4864222],[6.4734526,35.4863563],[6.4734889,35.4862606],[6.4737509,35.4863265]]]},"properties":{"site":"timgad","name":null,"category":"other","historic":null,"building":"yes","osm_id":1472207206}},{"type":"Feature","geometry":{"type":"Polygon","coordinates":[[[6.4717511,35.4875265],[6.4718085,35.4875136],[6.4718411,35.4876097],[6.4717838,35.4876226],[6.4717511,35.4875265]]]},"properties":{"site":"timgad","name":null,"category":"other","historic":null,"building":"yes","osm_id":1472207224}},{"type":"Feature","geometry":{"type":"Polygon","coordinates":[[[6.4764933,35.4875112],[6.4763819,35.4875522],[6.4763296,35.4874579],[6.476441,35.4874169],[6.4764933,35.4875112]]]},"properties":{"site":"timgad","name":null,"category":"other","historic":null,"building":"yes","osm_id":1472207229}},{"type":"Feature","geometry":{"type":"Polygon","coordinates":[[[6.4754359,35.4834567],[6.4753307,35.4834795],[6.4753017,35.4833907],[6.4754069,35.4833679],[6.4754359,35.4834567]]]},"properties":{"site":"timgad","name":null,"category":"other","historic":null,"building":"yes","osm_id":1472207238}},{"type":"Feature","geometry":{"type":"Polygon","coordinates":[[[6.4766516,35.4857954],[6.4767232,35.4857731],[6.4767679,35.4858685],[6.4765698,35.48593],[6.4765337,35.4858528],[6.4765842,35.4858371],[6.4765922,35.4858543],[6.4766681,35.4858307],[6.4766516,35.4857954]]]},"properties":{"site":"timgad","name":null,"category":"other","historic":null,"building":"yes","osm_id":1472207251}},{"type":"Feature","geometry":{"type":"Polygon","coordinates":[[[6.4764562,35.4871767],[6.4767942,35.4871739],[6.4767945,35.4872034],[6.4766658,35.4872044],[6.4766659,35.4872121],[6.4764567,35.4872139],[6.4764562,35.4871767]]]},"properties":{"site":"timgad","name":null,"category":"other","historic":null,"building":"yes","osm_id":1472207252}},{"type":"Feature","geometry":{"type":"Polygon","coordinates":[[[6.4749647,35.4866645],[6.4748494,35.4866665],[6.4748438,35.486457],[6.4748213,35.4864574],[6.4748205,35.4864268],[6.4748511,35.4864263],[6.474852,35.4864634],[6.4748832,35.4864628],[6.4748841,35.4864988],[6.4749602,35.4864974],[6.4749647,35.4866645]]]},"properties":{"site":"timgad","name":null,"category":"other","historic":null,"building":"yes","osm_id":1472207255}},{"type":"Feature","geometry":{"type":"Polygon","coordinates":[[[6.4773935,35.4841171],[6.4774117,35.4841523],[6.4773912,35.4841594],[6.4774204,35.4842159],[6.477245,35.484276],[6.477255,35.4842956],[6.4771343,35.4843369],[6.4770767,35.4842256],[6.4773935,35.4841171]]]},"properties":{"site":"timgad","name":null,"category":"other","historic":null,"building":"yes","osm_id":1472207278}},{"type":"Feature","geometry":{"type":"Polygon","coordinates":[[[6.4751195,35.4865173],[6.4751972,35.4865152],[6.4752023,35.4866385],[6.4751246,35.4866407],[6.4751195,35.4865173]]]},"properties":{"site":"timgad","name":null,"category":"other","historic":null,"building":"yes","osm_id":1472207280}},{"type":"Feature","geometry":{"type":"Polygon","coordinates":[[[6.4731508,35.4871779],[6.4731375,35.487215],[6.4729917,35.4871803],[6.473005,35.4871432],[6.4731508,35.4871779]]]},"properties":{"site":"timgad","name":null,"category":"other","historic":null,"building":"yes","osm_id":1472207286}},{"type":"Feature","geometry":{"type":"Polygon","coordinates":[[[6.4753089,35.4841984],[6.4753609,35.4843239],[6.4753272,35.4843332],[6.4753483,35.4843842],[6.4752399,35.4844139],[6.4751668,35.4842374],[6.4753089,35.4841984]]]},"properties":{"site":"timgad","name":null,"category":"other","historic":null,"building":"yes","osm_id":1472207302}},{"type":"Feature","geometry":{"type":"Polygon","coordinates":[[[6.4752969,35.4848384],[6.4754249,35.4847329],[6.4756549,35.4849179],[6.4755269,35.4850234],[6.4752969,35.4848384]]]},"properties":{"site":"timgad","name":null,"category":"other","historic":null,"building":"yes","osm_id":1472207303}},{"type":"Feature","geometry":{"type":"Polygon","coordinates":[[[6.4759476,35.4845616],[6.4759861,35.484555],[6.4760034,35.4846219],[6.4759648,35.4846285],[6.4759476,35.4845616]]]},"properties":{"site":"timgad","name":null,"category":"other","historic":null,"building":"yes","osm_id":1472207311}},{"type":"Feature","geometry":{"type":"Polygon","coordinates":[[[6.4751235,35.4874209],[6.4748813,35.4874676],[6.4748464,35.4873477],[6.4750886,35.487301],[6.4751235,35.4874209]]]},"properties":{"site":"timgad","name":null,"category":"other","historic":null,"building":"yes","osm_id":1472207331}},{"type":"Feature","geometry":{"type":"Polygon","coordinates":[[[6.4752131,35.4852798],[6.47517,35.485358],[6.4750906,35.485329],[6.4751336,35.4852508],[6.4752131,35.4852798]]]},"properties":{"site":"timgad","name":null,"category":"other","historic":null,"building":"yes","osm_id":1472207346}},{"type":"Feature","geometry":{"type":"Polygon","coordinates":[[[6.4762594,35.4858823],[6.4760932,35.4858854],[6.4760912,35.4858156],[6.4761448,35.4858146],[6.4761441,35.4857917],[6.4762567,35.4857895],[6.4762594,35.4858823]]]},"properties":{"site":"timgad","name":null,"category":"other","historic":null,"building":"yes","osm_id":1472207353}},{"type":"Feature","geometry":{"type":"Polygon","coordinates":[[[6.4731045,35.4872813],[6.473085,35.4873233],[6.4729334,35.4872765],[6.4729708,35.4871963],[6.4731161,35.4872412],[6.4730984,35.4872794],[6.4731045,35.4872813]]]},"properties":{"site":"timgad","name":null,"category":"other","historic":null,"building":"yes","osm_id":1472207354}},{"type":"Feature","geometry":{"type":"Polygon","coordinates":[[[6.4745859,35.4863647],[6.4745904,35.4862753],[6.4747189,35.4862795],[6.4747145,35.4863689],[6.4745859,35.4863647]]]},"properties":{"site":"timgad","name":null,"category":"other","historic":null,"building":"yes","osm_id":1472207362}},{"type":"Feature","geometry":{"type":"Polygon","coordinates":[[[6.4770744,35.4856176],[6.4771247,35.4855939],[6.4771758,35.485666],[6.4771255,35.4856897],[6.4770744,35.4856176]]]},"properties":{"site":"timgad","name":null,"category":"other","historic":null,"building":"yes","osm_id":1472207378}},{"type":"Feature","geometry":{"type":"Polygon","coordinates":[[[6.4754967,35.4836531],[6.475507,35.4836835],[6.4754547,35.4836953],[6.4754444,35.4836648],[6.4754967,35.4836531]]]},"properties":{"site":"timgad","name":null,"category":"other","historic":null,"building":"yes","osm_id":1472207409}},{"type":"Feature","geometry":{"type":"Polygon","coordinates":[[[6.4751817,35.4856607],[6.475281,35.4857096],[6.4752364,35.4857696],[6.4751371,35.4857206],[6.4751817,35.4856607]]]},"properties":{"site":"timgad","name":null,"category":"other","historic":null,"building":"yes","osm_id":1472207442}},{"type":"Feature","geometry":{"type":"Polygon","coordinates":[[[6.4741361,35.4876125],[6.4740699,35.4876473],[6.4740234,35.4875888],[6.4741975,35.4874972],[6.4742672,35.487585],[6.474201,35.4876198],[6.474223,35.4876476],[6.4741814,35.4876695],[6.4741361,35.4876125]]]},"properties":{"site":"timgad","name":null,"category":"other","historic":null,"building":"yes","osm_id":1472207443}},{"type":"Feature","geometry":{"type":"Polygon","coordinates":[[[6.4763773,35.4841849],[6.4765811,35.4840927],[6.4766842,35.4842437],[6.47663,35.4842682],[6.4765833,35.4841998],[6.4764337,35.4842675],[6.4763773,35.4841849]]]},"properties":{"site":"timgad","name":null,"category":"other","historic":null,"building":"yes","osm_id":1472207446}},{"type":"Feature","geometry":{"type":"Polygon","coordinates":[[[6.4735679,35.4872721],[6.473607,35.4871816],[6.4737479,35.4872218],[6.4737373,35.4872463],[6.4737851,35.4872599],[6.4737252,35.4873988],[6.4736258,35.4873704],[6.4736463,35.4873229],[6.4736884,35.4873349],[6.4736993,35.4873096],[6.4735679,35.4872721]]]},"properties":{"site":"timgad","name":null,"category":"other","historic":null,"building":"yes","osm_id":1472207447}},{"type":"Feature","geometry":{"type":"Polygon","coordinates":[[[6.4773579,35.4840938],[6.4772705,35.4841278],[6.4772079,35.484021],[6.4772429,35.4840074],[6.4772648,35.4840448],[6.4773172,35.4840244],[6.4773579,35.4840938]]]},"properties":{"site":"timgad","name":null,"category":"other","historic":null,"building":"yes","osm_id":1472207469}},{"type":"Feature","geometry":{"type":"Polygon","coordinates":[[[6.4767161,35.4856674],[6.476589,35.4856917],[6.4765687,35.4856214],[6.4764939,35.4856357],[6.4764536,35.485496],[6.4765807,35.4854716],[6.4766043,35.4855534],[6.4766791,35.4855391],[6.4767161,35.4856674]]]},"properties":{"site":"timgad","name":null,"category":"other","historic":null,"building":"yes","osm_id":1472207479}},{"type":"Feature","geometry":{"type":"Polygon","coordinates":[[[6.4755144,35.4854392],[6.4755455,35.4855304],[6.4754857,35.485544],[6.4754546,35.4854527],[6.4755144,35.4854392]]]},"properties":{"site":"timgad","name":null,"category":"other","historic":null,"building":"yes","osm_id":1472207497}},{"type":"Feature","geometry":{"type":"Polygon","coordinates":[[[6.4728761,35.4874952],[6.4728964,35.4873596],[6.4730312,35.487373],[6.473018,35.4874612],[6.4730603,35.4874654],[6.4730532,35.4875128],[6.4728761,35.4874952]]]},"properties":{"site":"timgad","name":null,"category":"other","historic":null,"building":"yes","osm_id":1472207498}},{"type":"Feature","geometry":{"type":"Polygon","coordinates":[[[6.4755713,35.4844696],[6.4756732,35.4844394],[6.4757094,35.4845204],[6.4756739,35.4845309],[6.4756959,35.4845801],[6.4758617,35.484531],[6.475883,35.4845892],[6.4756664,35.4846642],[6.4756422,35.4846102],[6.4756351,35.4846123],[6.4755713,35.4844696]]]},"properties":{"site":"timgad","name":null,"category":"other","historic":null,"building":"yes","osm_id":1472207532}},{"type":"Feature","geometry":{"type":"Polygon","coordinates":[[[6.475507,35.4857195],[6.4755173,35.4856963],[6.4755624,35.4857095],[6.4755521,35.4857327],[6.475507,35.4857195]]]},"properties":{"site":"timgad","name":null,"category":"other","historic":null,"building":"yes","osm_id":1472207533}},{"type":"Feature","geometry":{"type":"Polygon","coordinates":[[[6.4753425,35.4855983],[6.4752868,35.4855756],[6.4753341,35.4854988],[6.4753898,35.4855216],[6.4753425,35.4855983]]]},"properties":{"site":"timgad","name":null,"category":"other","historic":null,"building":"yes","osm_id":1472207538}},{"type":"Feature","geometry":{"type":"Polygon","coordinates":[[[6.4752298,35.4862422],[6.4751483,35.4862405],[6.475147,35.4862808],[6.4750194,35.4862782],[6.475022,35.4861952],[6.4752311,35.4861996],[6.4752298,35.4862422]]]},"properties":{"site":"timgad","name":null,"category":"other","historic":null,"building":"yes","osm_id":1472207539}},{"type":"Feature","geometry":{"type":"Polygon","coordinates":[[[6.4767839,35.4857279],[6.4768646,35.4857055],[6.4769022,35.4857956],[6.4768214,35.485818],[6.4767839,35.4857279]]]},"properties":{"site":"timgad","name":null,"category":"other","historic":null,"building":"yes","osm_id":1472207543}},{"type":"Feature","geometry":{"type":"Polygon","coordinates":[[[6.4759946,35.4849286],[6.4760074,35.4849394],[6.4759164,35.4850103],[6.4758407,35.4849459],[6.4759793,35.4848379],[6.4760422,35.4848915],[6.4759946,35.4849286]]]},"properties":{"site":"timgad","name":null,"category":"other","historic":null,"building":"yes","osm_id":1472207544}},{"type":"Feature","geometry":{"type":"Polygon","coordinates":[[[6.4749684,35.4865562],[6.4750668,35.4865435],[6.4750877,35.4866511],[6.474983,35.4866645],[6.4749714,35.4866049],[6.4749777,35.4866041],[6.4749684,35.4865562]]]},"properties":{"site":"timgad","name":null,"category":"other","historic":null,"building":"yes","osm_id":1472207555}},{"type":"Feature","geometry":{"type":"Polygon","coordinates":[[[6.4735272,35.4871604],[6.4735009,35.4872337],[6.4733814,35.4872052],[6.4734077,35.4871319],[6.4735272,35.4871604]]]},"properties":{"site":"timgad","name":null,"category":"other","historic":null,"building":"yes","osm_id":1472207557}},{"type":"Feature","geometry":{"type":"Polygon","coordinates":[[[6.4759608,35.4845414],[6.4758737,35.4843672],[6.4760417,35.4843115],[6.4761475,35.4845232],[6.4760854,35.4845438],[6.4760666,35.4845063],[6.4759608,35.4845414]]]},"properties":{"site":"timgad","name":null,"category":"other","historic":null,"building":"yes","osm_id":1472207586}},{"type":"Feature","geometry":{"type":"Polygon","coordinates":[[[6.4778139,35.4858545],[6.4778059,35.4858373],[6.4779416,35.485795],[6.4779872,35.4858922],[6.4777851,35.4859552],[6.4777475,35.4858752],[6.4778139,35.4858545]]]},"properties":{"site":"timgad","name":null,"category":"other","historic":null,"building":"yes","osm_id":1472207587}},{"type":"Feature","geometry":{"type":"Polygon","coordinates":[[[6.471734,35.4874764],[6.4716789,35.4874919],[6.4716623,35.487453],[6.4717174,35.4874374],[6.471734,35.4874764]]]},"properties":{"site":"timgad","name":null,"category":"other","historic":null,"building":"yes","osm_id":1472207592}},{"type":"Feature","geometry":{"type":"Polygon","coordinates":[[[6.4758391,35.4872775],[6.4759865,35.4872087],[6.4760339,35.4872761],[6.4760521,35.4872676],[6.4760822,35.4873103],[6.476062,35.4873198],[6.4760921,35.4873625],[6.4759468,35.4874303],[6.4758391,35.4872775]]]},"properties":{"site":"timgad","name":null,"category":"other","historic":null,"building":"yes","osm_id":1472207595}},{"type":"Feature","geometry":{"type":"Polygon","coordinates":[[[6.4749823,35.4843093],[6.4750756,35.4842829],[6.4750939,35.4843258],[6.4751501,35.4843099],[6.475215,35.4844618],[6.4751756,35.484473],[6.4751698,35.4844594],[6.4750597,35.4844905],[6.4749823,35.4843093]]]},"properties":{"site":"timgad","name":null,"category":"other","historic":null,"building":"yes","osm_id":1472207596}},{"type":"Feature","geometry":{"type":"Polygon","coordinates":[[[6.4701891,35.487907],[6.4702366,35.4878952],[6.4702606,35.4879591],[6.4702891,35.487952],[6.4703082,35.4880027],[6.4702321,35.4880216],[6.4701891,35.487907]]]},"properties":{"site":"timgad","name":null,"category":"other","historic":null,"building":"yes","osm_id":1472207629}},{"type":"Feature","geometry":{"type":"Polygon","coordinates":[[[6.4758207,35.4858341],[6.4758972,35.4858525],[6.4758636,35.4859449],[6.4757871,35.4859265],[6.4758207,35.4858341]]]},"properties":{"site":"timgad","name":null,"category":"other","historic":null,"building":"yes","osm_id":1472207638}},{"type":"Feature","geometry":{"type":"Polygon","coordinates":[[[6.4763645,35.4866063],[6.4763688,35.4867395],[6.4763223,35.4867405],[6.4763179,35.4866073],[6.4763645,35.4866063]]]},"properties":{"site":"timgad","name":null,"category":"other","historic":null,"building":"yes","osm_id":1472207656}},{"type":"Feature","geometry":{"type":"Polygon","coordinates":[[[6.4742661,35.4876047],[6.4742978,35.487586],[6.4743289,35.487621],[6.4742973,35.4876397],[6.4742661,35.4876047]]]},"properties":{"site":"timgad","name":null,"category":"other","historic":null,"building":"yes","osm_id":1472207657}},{"type":"Feature","geometry":{"type":"Polygon","coordinates":[[[6.4749809,35.4870654],[6.4752276,35.4870702],[6.4752246,35.4871707],[6.4752139,35.4871704],[6.4752078,35.4872326],[6.4752496,35.48736],[6.4751292,35.4873937],[6.4750772,35.4872504],[6.4750894,35.4871757],[6.4749778,35.4871736],[6.4749809,35.4870654]]]},"properties":{"site":"timgad","name":null,"category":"other","historic":null,"building":"yes","osm_id":1472207688}},{"type":"Feature","geometry":{"type":"Polygon","coordinates":[[[6.4748153,35.4845927],[6.474702,35.4846392],[6.474616,35.4844968],[6.4746435,35.4844389],[6.4747065,35.4844168],[6.4748153,35.4845927]]]},"properties":{"site":"timgad","name":null,"category":"other","historic":null,"building":"yes","osm_id":1472207689}},{"type":"Feature","geometry":{"type":"Polygon","coordinates":[[[6.4774173,35.4855897],[6.4775407,35.4855618],[6.477574,35.4856591],[6.4774505,35.485687],[6.4774173,35.4855897]]]},"properties":{"site":"timgad","name":null,"category":"other","historic":null,"building":"yes","osm_id":1472207700}},{"type":"Feature","geometry":{"type":"Polygon","coordinates":[[[6.4762063,35.4839144],[6.4763096,35.48388],[6.4763773,35.4840147],[6.4762739,35.4840491],[6.4762063,35.4839144]]]},"properties":{"site":"timgad","name":null,"category":"other","historic":null,"building":"yes","osm_id":1472207711}},{"type":"Feature","geometry":{"type":"Polygon","coordinates":[[[6.4760176,35.4862277],[6.4760658,35.4862297],[6.4760674,35.4862036],[6.476145,35.4862068],[6.4761487,35.4861491],[6.4761968,35.4861511],[6.4761917,35.4862328],[6.4762131,35.4862337],[6.4762077,35.4863186],[6.4760124,35.4863105],[6.4760176,35.4862277]]]},"properties":{"site":"timgad","name":null,"category":"other","historic":null,"building":"yes","osm_id":1472207712}},{"type":"Feature","geometry":{"type":"Polygon","coordinates":[[[6.4743476,35.4850172],[6.4744046,35.4851631],[6.474413,35.4851609],[6.4744656,35.4852958],[6.4742089,35.4853623],[6.4741015,35.4850875],[6.4741673,35.4850705],[6.4741785,35.4850993],[6.4742478,35.4850814],[6.4742342,35.4850466],[6.4743476,35.4850172]]]},"properties":{"site":"timgad","name":null,"category":"other","historic":null,"building":"yes","osm_id":1472207714}},{"type":"Feature","geometry":{"type":"Polygon","coordinates":[[[6.4735458,35.487994],[6.4734043,35.4879653],[6.4734326,35.4878728],[6.473574,35.4879014],[6.4735458,35.487994]]]},"properties":{"site":"timgad","name":null,"category":"other","historic":null,"building":"yes","osm_id":1472207715}},{"type":"Feature","geometry":{"type":"Polygon","coordinates":[[[6.4753235,35.4856441],[6.4754318,35.4856914],[6.4754039,35.4857338],[6.4752956,35.4856865],[6.4753235,35.4856441]]]},"properties":{"site":"timgad","name":null,"category":"other","historic":null,"building":"yes","osm_id":1472207741}},{"type":"Feature","geometry":{"type":"Polygon","coordinates":[[[6.4774537,35.4837835],[6.4775927,35.4837371],[6.4776506,35.4838521],[6.4775115,35.4838985],[6.4774537,35.4837835]]]},"properties":{"site":"timgad","name":null,"category":"other","historic":null,"building":"yes","osm_id":1472207757}},{"type":"Feature","geometry":{"type":"Polygon","coordinates":[[[6.4748366,35.4873562],[6.4748721,35.4874897],[6.4747697,35.4875078],[6.4747341,35.4873743],[6.4748366,35.4873562]]]},"properties":{"site":"timgad","name":null,"category":"other","historic":null,"building":"yes","osm_id":1472207758}},{"type":"Feature","geometry":{"type":"Polygon","coordinates":[[[6.4734231,35.4877759],[6.4734733,35.4876335],[6.4736186,35.4876675],[6.4735684,35.4878099],[6.4734231,35.4877759]]]},"properties":{"site":"timgad","name":null,"category":"other","historic":null,"building":"yes","osm_id":1472207776}},{"type":"Feature","geometry":{"type":"Polygon","coordinates":[[[6.4737187,35.4854386],[6.473722,35.485371],[6.4737901,35.4853733],[6.4737912,35.4853514],[6.4738972,35.4853549],[6.4738928,35.4854443],[6.4737187,35.4854386]]]},"properties":{"site":"timgad","name":null,"category":"other","historic":null,"building":"yes","osm_id":1472207777}},{"type":"Feature","geometry":{"type":"Polygon","coordinates":[[[6.475819,35.4839034],[6.4758758,35.4840552],[6.4759851,35.4840281],[6.4760355,35.4841483],[6.4757619,35.4842463],[6.4756923,35.4841095],[6.4757414,35.4840973],[6.4757317,35.4840714],[6.4756703,35.4840866],[6.4756202,35.4839527],[6.475819,35.4839034]]]},"properties":{"site":"timgad","name":null,"category":"other","historic":null,"building":"yes","osm_id":1472207796}},{"type":"Feature","geometry":{"type":"Polygon","coordinates":[[[6.4753088,35.484172],[6.4751854,35.4841729],[6.4751843,35.4840812],[6.4753077,35.4840802],[6.4753088,35.484172]]]},"properties":{"site":"timgad","name":null,"category":"other","historic":null,"building":"yes","osm_id":1472207797}},{"type":"Feature","geometry":{"type":"Polygon","coordinates":[[[6.475888,35.4851737],[6.475858,35.4852133],[6.4757705,35.4851695],[6.4758004,35.4851298],[6.475888,35.4851737]]]},"properties":{"site":"timgad","name":null,"category":"other","historic":null,"building":"yes","osm_id":1472207802}},{"type":"Feature","geometry":{"type":"Polygon","coordinates":[[[6.4750896,35.4868885],[6.4751553,35.4868737],[6.475165,35.4869021],[6.4750993,35.4869169],[6.4750896,35.4868885]]]},"properties":{"site":"timgad","name":null,"category":"other","historic":null,"building":"yes","osm_id":1472207803}},{"type":"Feature","geometry":{"type":"Polygon","coordinates":[[[6.4703918,35.4878985],[6.4704252,35.4879582],[6.4703482,35.4879867],[6.4702795,35.4878636],[6.4703298,35.487845],[6.4703651,35.4879083],[6.4703918,35.4878985]]]},"properties":{"site":"timgad","name":null,"category":"other","historic":null,"building":"yes","osm_id":1472207811}},{"type":"Feature","geometry":{"type":"Polygon","coordinates":[[[6.4764263,35.4859174],[6.4765337,35.4858954],[6.4765524,35.4859559],[6.476445,35.485978],[6.4764263,35.4859174]]]},"properties":{"site":"timgad","name":null,"category":"other","historic":null,"building":"yes","osm_id":1472207818}},{"type":"Feature","geometry":{"type":"Polygon","coordinates":[[[6.4763175,35.4843778],[6.4763644,35.4843381],[6.4764605,35.4844134],[6.4764136,35.4844531],[6.4763175,35.4843778]]]},"properties":{"site":"timgad","name":null,"category":"other","historic":null,"building":"yes","osm_id":1472207826}},{"type":"Feature","geometry":{"type":"Polygon","coordinates":[[[6.4759362,35.4857442],[6.4759362,35.4856546],[6.4759603,35.4856546],[6.4759603,35.4857027],[6.4760301,35.4857027],[6.4760301,35.4856372],[6.4760891,35.4856372],[6.4760891,35.4856612],[6.4761481,35.4856612],[6.4761481,35.4857442],[6.4759362,35.4857442]]]},"properties":{"site":"timgad","name":null,"category":"other","historic":null,"building":"yes","osm_id":1472207827}},{"type":"Feature","geometry":{"type":"Polygon","coordinates":[[[6.4752427,35.4858036],[6.47536,35.4858541],[6.4753268,35.4859053],[6.4752094,35.4858547],[6.4752427,35.4858036]]]},"properties":{"site":"timgad","name":null,"category":"other","historic":null,"building":"yes","osm_id":1472207828}},{"type":"Feature","geometry":{"type":"Polygon","coordinates":[[[6.4758734,35.4871289],[6.4757439,35.4871581],[6.4757156,35.487075],[6.4758451,35.4870458],[6.4758734,35.4871289]]]},"properties":{"site":"timgad","name":null,"category":"other","historic":null,"building":"yes","osm_id":1472207838}},{"type":"Feature","geometry":{"type":"Polygon","coordinates":[[[6.4752609,35.486579],[6.4752036,35.4865811],[6.4752013,35.4865396],[6.4752586,35.4865376],[6.4752609,35.486579]]]},"properties":{"site":"timgad","name":null,"category":"other","historic":null,"building":"yes","osm_id":1472207839}},{"type":"Feature","geometry":{"type":"Polygon","coordinates":[[[6.4746866,35.4859291],[6.4748186,35.4859707],[6.474791,35.4860287],[6.474659,35.4859871],[6.4746866,35.4859291]]]},"properties":{"site":"timgad","name":null,"category":"other","historic":null,"building":"yes","osm_id":1472207841}},{"type":"Feature","geometry":{"type":"Polygon","coordinates":[[[6.4758328,35.486928],[6.4756732,35.4869487],[6.4756174,35.4866633],[6.475777,35.4866426],[6.4758328,35.486928]]]},"properties":{"site":"timgad","name":null,"category":"other","historic":null,"building":"yes","osm_id":1472207850}},{"type":"Feature","geometry":{"type":"Polygon","coordinates":[[[6.4748784,35.4858867],[6.4748302,35.4859682],[6.4746204,35.4858859],[6.4746686,35.4858043],[6.4748784,35.4858867]]]},"properties":{"site":"timgad","name":null,"category":"other","historic":null,"building":"yes","osm_id":1472207859}},{"type":"Feature","geometry":{"type":"Polygon","coordinates":[[[6.4744331,35.4866473],[6.4745243,35.4866487],[6.4745229,35.4867098],[6.4744317,35.4867084],[6.4744331,35.4866473]]]},"properties":{"site":"timgad","name":null,"category":"other","historic":null,"building":"yes","osm_id":1472207861}},{"type":"Feature","geometry":{"type":"Polygon","coordinates":[[[6.4740071,35.4880522],[6.4740002,35.4879586],[6.4742835,35.4879448],[6.4742809,35.48791],[6.4743468,35.4879068],[6.4743589,35.4880722],[6.4742476,35.4880776],[6.4742457,35.4880515],[6.4742938,35.4880491],[6.4742892,35.487986],[6.4742037,35.4879902],[6.4742075,35.4880424],[6.4740071,35.4880522]]]},"properties":{"site":"timgad","name":null,"category":"other","historic":null,"building":"yes","osm_id":1472207862}},{"type":"Feature","geometry":{"type":"Polygon","coordinates":[[[6.4752133,35.485572],[6.4753091,35.4855918],[6.4752847,35.4856698],[6.475189,35.48565],[6.4752133,35.485572]]]},"properties":{"site":"timgad","name":null,"category":"other","historic":null,"building":"yes","osm_id":1472207875}},{"type":"Feature","geometry":{"type":"Polygon","coordinates":[[[6.4746182,35.4860547],[6.4746253,35.4860175],[6.4746661,35.4860226],[6.474659,35.4860599],[6.4746182,35.4860547]]]},"properties":{"site":"timgad","name":null,"category":"other","historic":null,"building":"yes","osm_id":1472207888}},{"type":"Feature","geometry":{"type":"Polygon","coordinates":[[[6.4751562,35.4860616],[6.4751889,35.485976],[6.4752853,35.4860003],[6.4752526,35.486086],[6.4751562,35.4860616]]]},"properties":{"site":"timgad","name":null,"category":"other","historic":null,"building":"yes","osm_id":1472207900}},{"type":"Feature","geometry":{"type":"Polygon","coordinates":[[[6.4753946,35.4841568],[6.4755704,35.4841401],[6.4755782,35.4841939],[6.4754512,35.484206],[6.4754557,35.4842373],[6.4754069,35.484242],[6.4753946,35.4841568]]]},"properties":{"site":"timgad","name":null,"category":"other","historic":null,"building":"yes","osm_id":1472207921}},{"type":"Feature","geometry":{"type":"Polygon","coordinates":[[[6.4744479,35.4872761],[6.4744904,35.4872854],[6.4744773,35.4873252],[6.4744348,35.4873159],[6.4744479,35.4872761]]]},"properties":{"site":"timgad","name":null,"category":"other","historic":null,"building":"yes","osm_id":1472207922}},{"type":"Feature","geometry":{"type":"Polygon","coordinates":[[[6.4760119,35.4859991],[6.4760061,35.4860322],[6.4759482,35.4860255],[6.4759443,35.486048],[6.4759969,35.4860541],[6.4759896,35.4860959],[6.4758844,35.4860836],[6.4759015,35.4859863],[6.4760119,35.4859991]]]},"properties":{"site":"timgad","name":null,"category":"other","historic":null,"building":"yes","osm_id":1472207954}},{"type":"Feature","geometry":{"type":"Polygon","coordinates":[[[6.4759998,35.4853877],[6.476094,35.4853591],[6.4761142,35.4854032],[6.47602,35.4854318],[6.4759998,35.4853877]]]},"properties":{"site":"timgad","name":null,"category":"other","historic":null,"building":"yes","osm_id":1472207955}},{"type":"Feature","geometry":{"type":"Polygon","coordinates":[[[6.476195,35.4845355],[6.4762306,35.4845603],[6.4762571,35.4845351],[6.4763081,35.4845707],[6.4762047,35.484669],[6.4761126,35.4846047],[6.4761656,35.4845543],[6.4761711,35.4845582],[6.476195,35.4845355]]]},"properties":{"site":"timgad","name":null,"category":"other","historic":null,"building":"yes","osm_id":1472207969}},{"type":"Feature","geometry":{"type":"Polygon","coordinates":[[[6.474497,35.487636],[6.4743958,35.4876901],[6.4743059,35.4875787],[6.4743172,35.4875727],[6.4742889,35.4875376],[6.4742739,35.4875456],[6.4742591,35.4875273],[6.4743228,35.4874932],[6.4743573,35.487536],[6.4743985,35.4875139],[6.474497,35.487636]]]},"properties":{"site":"timgad","name":null,"category":"other","historic":null,"building":"yes","osm_id":1472207981}},{"type":"Feature","geometry":{"type":"Polygon","coordinates":[[[6.4752302,35.4878634],[6.4752299,35.4878896],[6.475178,35.4878893],[6.4751783,35.487863],[6.4752302,35.4878634]]]},"properties":{"site":"timgad","name":null,"category":"other","historic":null,"building":"yes","osm_id":1472208009}},{"type":"Feature","geometry":{"type":"Polygon","coordinates":[[[6.475914,35.4853416],[6.4759705,35.4854035],[6.4758459,35.4854788],[6.4759063,35.485545],[6.4758015,35.4856083],[6.4758445,35.4856555],[6.475777,35.4856962],[6.4756288,35.4855336],[6.4757889,35.4854368],[6.4757774,35.4854242],[6.475914,35.4853416]]]},"properties":{"site":"timgad","name":null,"category":"other","historic":null,"building":"yes","osm_id":1472208020}},{"type":"Feature","geometry":{"type":"Polygon","coordinates":[[[6.4752566,35.4875138],[6.4752582,35.4876186],[6.4751107,35.48762],[6.4751091,35.4875152],[6.4752566,35.4875138]]]},"properties":{"site":"timgad","name":null,"category":"other","historic":null,"building":"yes","osm_id":1472208021}},{"type":"Feature","geometry":{"type":"Polygon","coordinates":[[[6.4772873,35.4861051],[6.4773604,35.486083],[6.4773953,35.4861599],[6.4773222,35.4861819],[6.4772873,35.4861051]]]},"properties":{"site":"timgad","name":null,"category":"other","historic":null,"building":"yes","osm_id":1472208053}},{"type":"Feature","geometry":{"type":"Polygon","coordinates":[[[6.477036,35.485794],[6.4771364,35.4857573],[6.4772667,35.4859936],[6.477193,35.4860205],[6.4771469,35.4859369],[6.4771201,35.4859467],[6.477036,35.485794]]]},"properties":{"site":"timgad","name":null,"category":"other","historic":null,"building":"yes","osm_id":1472208054}},{"type":"Feature","geometry":{"type":"Polygon","coordinates":[[[6.4767913,35.485917],[6.4768328,35.4860144],[6.4768017,35.4860232],[6.4768116,35.4860466],[6.4766321,35.4860974],[6.4765806,35.4859765],[6.4767913,35.485917]]]},"properties":{"site":"timgad","name":null,"category":"other","historic":null,"building":"yes","osm_id":1472208055}},{"type":"Feature","geometry":{"type":"Polygon","coordinates":[[[6.4762023,35.4859087],[6.4762585,35.4859065],[6.4762649,35.4860132],[6.4762087,35.4860155],[6.4762023,35.4859087]]]},"properties":{"site":"timgad","name":null,"category":"other","historic":null,"building":"yes","osm_id":1472208056}},{"type":"Feature","geometry":{"type":"Polygon","coordinates":[[[6.4761404,35.4852268],[6.4761625,35.4852834],[6.4761879,35.4852768],[6.4762018,35.4853125],[6.4762276,35.4853058],[6.4762601,35.4853891],[6.4761554,35.4854162],[6.4761244,35.4853369],[6.4761658,35.4853262],[6.4761592,35.4853093],[6.4760082,35.4853484],[6.4760016,35.4853316],[6.4759798,35.4853294],[6.4759996,35.4853066],[6.4761404,35.4852268]]]},"properties":{"site":"timgad","name":null,"category":"other","historic":null,"building":"yes","osm_id":1472208057}},{"type":"Feature","geometry":{"type":"Polygon","coordinates":[[[6.4745139,35.486804],[6.4745438,35.4865927],[6.4746153,35.4865995],[6.4746127,35.4866177],[6.4747001,35.4866259],[6.4746727,35.4868189],[6.4745139,35.486804]]]},"properties":{"site":"timgad","name":null,"category":"other","historic":null,"building":"yes","osm_id":1472208063}},{"type":"Feature","geometry":{"type":"Polygon","coordinates":[[[6.4765021,35.4843827],[6.4764773,35.4844041],[6.4764061,35.4843496],[6.4764309,35.4843282],[6.4765021,35.4843827]]]},"properties":{"site":"timgad","name":null,"category":"other","historic":null,"building":"yes","osm_id":1472208081}},{"type":"Feature","geometry":{"type":"Polygon","coordinates":[[[6.4759814,35.4848351],[6.475938,35.4848638],[6.4758598,35.484834],[6.4759829,35.4847253],[6.4760581,35.4847476],[6.4760475,35.4847652],[6.4761122,35.4847912],[6.4760622,35.4848737],[6.4759814,35.4848351]]]},"properties":{"site":"timgad","name":null,"category":"other","historic":null,"building":"yes","osm_id":1472208082}},{"type":"Feature","geometry":{"type":"Polygon","coordinates":[[[6.4732736,35.4866632],[6.473308,35.486556],[6.4734802,35.4865927],[6.4734458,35.4866999],[6.4732736,35.4866632]]]},"properties":{"site":"timgad","name":null,"category":"other","historic":null,"building":"yes","osm_id":1472208084}},{"type":"Feature","geometry":{"type":"Polygon","coordinates":[[[6.4751553,35.4860171],[6.4751397,35.4860531],[6.4750815,35.4860364],[6.4750971,35.4860004],[6.4751553,35.4860171]]]},"properties":{"site":"timgad","name":null,"category":"other","historic":null,"building":"yes","osm_id":1472208088}},{"type":"Feature","geometry":{"type":"Polygon","coordinates":[[[6.4732984,35.4877536],[6.4733455,35.4876253],[6.4734489,35.4876505],[6.4734019,35.4877788],[6.4732984,35.4877536]]]},"properties":{"site":"timgad","name":null,"category":"other","historic":null,"building":"yes","osm_id":1472208089}},{"type":"Feature","geometry":{"type":"Polygon","coordinates":[[[6.4753597,35.4838038],[6.4755558,35.4837917],[6.4755822,35.484075],[6.4753861,35.4840871],[6.4753597,35.4838038]]]},"properties":{"site":"timgad","name":null,"category":"other","historic":null,"building":"yes","osm_id":1472208103}},{"type":"Feature","geometry":{"type":"Polygon","coordinates":[[[6.4745763,35.4879224],[6.4747842,35.4879163],[6.4747871,35.4879818],[6.4745791,35.4879878],[6.4745763,35.4879224]]]},"properties":{"site":"timgad","name":null,"category":"other","historic":null,"building":"yes","osm_id":1472208121}},{"type":"Feature","geometry":{"type":"Polygon","coordinates":[[[6.4753518,35.4866623],[6.4754151,35.4866558],[6.4754158,35.4866601],[6.4754686,35.4866547],[6.475466,35.4866375],[6.4755294,35.4866311],[6.4755451,35.4867332],[6.4754923,35.4867386],[6.4755042,35.486816],[6.4753774,35.486829],[6.4753518,35.4866623]]]},"properties":{"site":"timgad","name":null,"category":"other","historic":null,"building":"yes","osm_id":1472208129}},{"type":"Feature","geometry":{"type":"Polygon","coordinates":[[[6.4776057,35.486048],[6.477794,35.4859919],[6.4778369,35.4860873],[6.4776486,35.4861434],[6.4776057,35.486048]]]},"properties":{"site":"timgad","name":null,"category":"other","historic":null,"building":"yes","osm_id":1472208138}},{"type":"Feature","geometry":{"type":"Polygon","coordinates":[[[6.4755396,35.4843457],[6.4754223,35.4843675],[6.4753917,35.4842585],[6.4754657,35.4842447],[6.475477,35.4842852],[6.4755204,35.4842772],[6.4755396,35.4843457]]]},"properties":{"site":"timgad","name":null,"category":"other","historic":null,"building":"yes","osm_id":1472208140}},{"type":"Feature","geometry":{"type":"Polygon","coordinates":[[[6.4762277,35.4851034],[6.4762794,35.4851426],[6.4761657,35.485242],[6.476114,35.4852028],[6.4762277,35.4851034]]]},"properties":{"site":"timgad","name":null,"category":"other","historic":null,"building":"yes","osm_id":1472208146}},{"type":"Feature","geometry":{"type":"Polygon","coordinates":[[[6.4757537,35.4833855],[6.4756209,35.4834524],[6.4755614,35.4833743],[6.4756943,35.4833073],[6.4757537,35.4833855]]]},"properties":{"site":"timgad","name":null,"category":"other","historic":null,"building":"yes","osm_id":1472208147}},{"type":"Feature","geometry":{"type":"Polygon","coordinates":[[[6.4752439,35.4839377],[6.4753082,35.4839393],[6.4753047,35.4840331],[6.4751895,35.4840302],[6.4751914,35.4839789],[6.4752423,35.4839801],[6.4752439,35.4839377]]]},"properties":{"site":"timgad","name":null,"category":"other","historic":null,"building":"yes","osm_id":1472208148}},{"type":"Feature","geometry":{"type":"Polygon","coordinates":[[[6.4762994,35.4836234],[6.4763274,35.4836687],[6.4763552,35.4836573],[6.4763994,35.4837288],[6.4762496,35.4837902],[6.4761774,35.4836734],[6.4762994,35.4836234]]]},"properties":{"site":"timgad","name":null,"category":"other","historic":null,"building":"yes","osm_id":1472208154}},{"type":"Feature","geometry":{"type":"Polygon","coordinates":[[[6.4744974,35.4869191],[6.4745166,35.4868311],[6.4746951,35.4868569],[6.4746759,35.4869449],[6.4744974,35.4869191]]]},"properties":{"site":"timgad","name":null,"category":"other","historic":null,"building":"yes","osm_id":1472208155}},{"type":"Feature","geometry":{"type":"Polygon","coordinates":[[[6.4760356,35.4849854],[6.4760819,35.4849304],[6.4762079,35.4850007],[6.4761616,35.4850557],[6.4760356,35.4849854]]]},"properties":{"site":"timgad","name":null,"category":"other","historic":null,"building":"yes","osm_id":1472208166}},{"type":"Feature","geometry":{"type":"Polygon","coordinates":[[[6.4749469,35.4876158],[6.4749613,35.4876523],[6.4749403,35.4876578],[6.4749598,35.4877073],[6.4748786,35.4877285],[6.4748447,35.4876424],[6.4749469,35.4876158]]]},"properties":{"site":"timgad","name":null,"category":"other","historic":null,"building":"yes","osm_id":1472208169}},{"type":"Feature","geometry":{"type":"Polygon","coordinates":[[[6.4765361,35.4840457],[6.4764751,35.4840696],[6.4764521,35.4840306],[6.476513,35.4840067],[6.4765361,35.4840457]]]},"properties":{"site":"timgad","name":null,"category":"other","historic":null,"building":"yes","osm_id":1472208176}},{"type":"Feature","geometry":{"type":"Polygon","coordinates":[[[6.4716528,35.4879392],[6.4717101,35.4879585],[6.4716725,35.4880324],[6.4716153,35.4880131],[6.4716528,35.4879392]]]},"properties":{"site":"timgad","name":null,"category":"other","historic":null,"building":"yes","osm_id":1472208182}},{"type":"Feature","geometry":{"type":"Polygon","coordinates":[[[6.4764358,35.4870831],[6.4764813,35.4870818],[6.4764798,35.4870469],[6.4765736,35.4870443],[6.4765781,35.4871512],[6.4764816,35.4871539],[6.4764801,35.4871168],[6.4764372,35.487118],[6.4764358,35.4870831]]]},"properties":{"site":"timgad","name":null,"category":"other","historic":null,"building":"yes","osm_id":1472208186}},{"type":"Feature","geometry":{"type":"Polygon","coordinates":[[[6.4755707,35.4866682],[6.4756115,35.4866607],[6.4756249,35.4867084],[6.475584,35.486716],[6.4755707,35.4866682]]]},"properties":{"site":"timgad","name":null,"category":"other","historic":null,"building":"yes","osm_id":1472208187}},{"type":"Feature","geometry":{"type":"Polygon","coordinates":[[[6.4750812,35.4835238],[6.4751223,35.4836794],[6.4753364,35.4836419],[6.4753593,35.4837285],[6.475167,35.4837621],[6.4751766,35.4837987],[6.4751331,35.4838063],[6.475119,35.483753],[6.4750241,35.4837696],[6.4749528,35.4834993],[6.4750092,35.4834895],[6.4749965,35.4834415],[6.4752414,35.4833986],[6.4752658,35.4834915],[6.4750812,35.4835238]]]},"properties":{"site":"timgad","name":null,"category":"other","historic":null,"building":"yes","osm_id":1472208188}},{"type":"Feature","geometry":{"type":"Polygon","coordinates":[[[6.4764275,35.4859455],[6.4763847,35.4859468],[6.4763835,35.4859217],[6.4764264,35.4859204],[6.4764275,35.4859455]]]},"properties":{"site":"timgad","name":null,"category":"other","historic":null,"building":"yes","osm_id":1472208195}},{"type":"Feature","geometry":{"type":"Polygon","coordinates":[[[6.4759567,35.4863633],[6.4757904,35.486361],[6.4757933,35.4862181],[6.4759596,35.4862203],[6.4759567,35.4863633]]]},"properties":{"site":"timgad","name":null,"category":"other","historic":null,"building":"yes","osm_id":1472208202}},{"type":"Feature","geometry":{"type":"Polygon","coordinates":[[[6.4744549,35.4868901],[6.4744536,35.4869109],[6.4742968,35.4869045],[6.4743021,35.4868183],[6.4744991,35.4868264],[6.474495,35.4868918],[6.4744549,35.4868901]]]},"properties":{"site":"timgad","name":null,"category":"other","historic":null,"building":"yes","osm_id":1472208219}},{"type":"Feature","geometry":{"type":"Polygon","coordinates":[[[6.4731809,35.4871746],[6.4732426,35.4871927],[6.4732288,35.4872236],[6.4731672,35.4872055],[6.4731809,35.4871746]]]},"properties":{"site":"timgad","name":null,"category":"other","historic":null,"building":"yes","osm_id":1472208244}},{"type":"Feature","geometry":{"type":"Polygon","coordinates":[[[6.4763008,35.4857618],[6.4761894,35.4857593],[6.4761918,35.4856862],[6.4761516,35.4856853],[6.4761539,35.4856177],[6.4762439,35.4856197],[6.4762411,35.4857048],[6.4763027,35.4857062],[6.4763008,35.4857618]]]},"properties":{"site":"timgad","name":null,"category":"other","historic":null,"building":"yes","osm_id":1472208259}},{"type":"Feature","geometry":{"type":"Polygon","coordinates":[[[6.4757495,35.4837716],[6.4758208,35.4837439],[6.4759119,35.4838995],[6.4758405,35.4839272],[6.4757495,35.4837716]]]},"properties":{"site":"timgad","name":null,"category":"other","historic":null,"building":"yes","osm_id":1472208278}},{"type":"Feature","geometry":{"type":"Polygon","coordinates":[[[6.4750293,35.4859984],[6.4750091,35.4860699],[6.4749684,35.4860622],[6.4749531,35.4861161],[6.4748716,35.4861009],[6.4748865,35.4860481],[6.4748942,35.4860495],[6.4749237,35.485976],[6.4750293,35.4859984]]]},"properties":{"site":"timgad","name":null,"category":"other","historic":null,"building":"yes","osm_id":1472208286}},{"type":"Feature","geometry":{"type":"Polygon","coordinates":[[[6.4744619,35.4871329],[6.4744697,35.4869726],[6.4746642,35.4869788],[6.4746564,35.4871392],[6.4744619,35.4871329]]]},"properties":{"site":"timgad","name":null,"category":"other","historic":null,"building":"yes","osm_id":1472208287}},{"type":"Feature","geometry":{"type":"Polygon","coordinates":[[[6.4730505,35.4871211],[6.4730975,35.4871239],[6.4730956,35.4871457],[6.4730485,35.4871429],[6.4730505,35.4871211]]]},"properties":{"site":"timgad","name":null,"category":"other","historic":null,"building":"yes","osm_id":1472208288}},{"type":"Feature","geometry":{"type":"Polygon","coordinates":[[[6.4756187,35.4850586],[6.4756522,35.4850292],[6.4757835,35.4851283],[6.4756524,35.4852434],[6.475537,35.4851563],[6.4756346,35.4850705],[6.4756187,35.4850586]]]},"properties":{"site":"timgad","name":null,"category":"other","historic":null,"building":"yes","osm_id":1472208323}},{"type":"Feature","geometry":{"type":"Polygon","coordinates":[[[6.4769575,35.4870553],[6.477168,35.4870222],[6.4771829,35.4870854],[6.4769725,35.4871185],[6.4769575,35.4870553]]]},"properties":{"site":"timgad","name":null,"category":"other","historic":null,"building":"yes","osm_id":1472208335}},{"type":"Feature","geometry":{"type":"Polygon","coordinates":[[[6.4753678,35.4859447],[6.4754533,35.4859492],[6.4754545,35.4859328],[6.4755197,35.4859362],[6.4755132,35.4860189],[6.4753626,35.486011],[6.4753678,35.4859447]]]},"properties":{"site":"timgad","name":null,"category":"other","historic":null,"building":"yes","osm_id":1472208337}},{"type":"Feature","geometry":{"type":"Polygon","coordinates":[[[6.4750806,35.48697],[6.4749814,35.486968],[6.4749829,35.48692],[6.4750821,35.4869219],[6.4750806,35.48697]]]},"properties":{"site":"timgad","name":null,"category":"other","historic":null,"building":"yes","osm_id":1472208347}},{"type":"Feature","geometry":{"type":"Polygon","coordinates":[[[6.4757212,35.4858339],[6.4757085,35.4858773],[6.4756273,35.4858615],[6.47564,35.4858181],[6.4757212,35.4858339]]]},"properties":{"site":"timgad","name":null,"category":"other","historic":null,"building":"yes","osm_id":1472208372}},{"type":"Feature","geometry":{"type":"Polygon","coordinates":[[[6.4750493,35.4879364],[6.4752101,35.487933],[6.4752137,35.4880431],[6.4750529,35.4880466],[6.4750493,35.4879364]]]},"properties":{"site":"timgad","name":null,"category":"other","historic":null,"building":"yes","osm_id":1472208373}},{"type":"Feature","geometry":{"type":"Polygon","coordinates":[[[6.4763576,35.4843203],[6.4762953,35.4843688],[6.4761727,35.4842645],[6.476235,35.484216],[6.4763576,35.4843203]]]},"properties":{"site":"timgad","name":null,"category":"other","historic":null,"building":"yes","osm_id":1472208385}},{"type":"Feature","geometry":{"type":"Polygon","coordinates":[[[6.4756499,35.4847026],[6.4756856,35.4847789],[6.4756142,35.484801],[6.475583,35.4847342],[6.4755456,35.4847458],[6.475521,35.4846933],[6.4755234,35.4846926],[6.4755042,35.4846516],[6.4756026,35.4846211],[6.4756419,35.4847051],[6.4756499,35.4847026]]]},"properties":{"site":"timgad","name":null,"category":"other","historic":null,"building":"yes","osm_id":1472208386}},{"type":"Feature","geometry":{"type":"Polygon","coordinates":[[[6.4742628,35.4854256],[6.4743116,35.4855332],[6.4741866,35.4855709],[6.4741377,35.4854633],[6.4742628,35.4854256]]]},"properties":{"site":"timgad","name":null,"category":"other","historic":null,"building":"yes","osm_id":1472208389}},{"type":"Feature","geometry":{"type":"Polygon","coordinates":[[[6.4741153,35.4848714],[6.4740565,35.4848739],[6.4740502,35.4847781],[6.474109,35.4847755],[6.4741153,35.4848714]]]},"properties":{"site":"timgad","name":null,"category":"other","historic":null,"building":"yes","osm_id":1472208399}},{"type":"Feature","geometry":{"type":"Polygon","coordinates":[[[6.4771839,35.4858213],[6.4771314,35.4857271],[6.4772551,35.4856815],[6.4772854,35.4857358],[6.477264,35.4857437],[6.4772948,35.485799],[6.4773473,35.4857796],[6.4774305,35.485929],[6.4772903,35.4859808],[6.4771985,35.4858159],[6.4771839,35.4858213]]]},"properties":{"site":"timgad","name":null,"category":"other","historic":null,"building":"yes","osm_id":1472208412}},{"type":"Feature","geometry":{"type":"Polygon","coordinates":[[[6.4764343,35.4860176],[6.4764705,35.4861134],[6.4763578,35.4861416],[6.4763216,35.4860459],[6.4764343,35.4860176]]]},"properties":{"site":"timgad","name":null,"category":"other","historic":null,"building":"yes","osm_id":1472208425}},{"type":"Feature","geometry":{"type":"Polygon","coordinates":[[[6.4759782,35.4850516],[6.4760077,35.4850192],[6.4761252,35.4850903],[6.4760956,35.4851227],[6.4759782,35.4850516]]]},"properties":{"site":"timgad","name":null,"category":"other","historic":null,"building":"yes","osm_id":1472208430}},{"type":"Feature","geometry":{"type":"Polygon","coordinates":[[[6.475865,35.4835961],[6.4756724,35.4836421],[6.4756166,35.4834873],[6.4758092,35.4834412],[6.475865,35.4835961]]]},"properties":{"site":"timgad","name":null,"category":"other","historic":null,"building":"yes","osm_id":1472208460}},{"type":"Feature","geometry":{"type":"Polygon","coordinates":[[[6.4748054,35.4863034],[6.4748073,35.4862007],[6.4748797,35.4862016],[6.474879,35.4862397],[6.4749594,35.4862407],[6.4749563,35.4864132],[6.474856,35.486412],[6.474858,35.486304],[6.4748054,35.4863034]]]},"properties":{"site":"timgad","name":null,"category":"other","historic":null,"building":"yes","osm_id":1472208480}},{"type":"Feature","geometry":{"type":"Polygon","coordinates":[[[6.4770691,35.4839174],[6.4772734,35.4838546],[6.4772703,35.4838479],[6.4773384,35.483827],[6.4773552,35.4838633],[6.4773881,35.4838532],[6.4773797,35.4838351],[6.4774478,35.4838142],[6.4774916,35.4839088],[6.477326,35.4839597],[6.4773331,35.4839749],[6.4774189,35.4839486],[6.4774676,35.4840537],[6.4773701,35.4840837],[6.4773369,35.4840121],[6.4772888,35.4840268],[6.4772644,35.4839742],[6.4771165,35.4840196],[6.4770691,35.4839174]]]},"properties":{"site":"timgad","name":null,"category":"other","historic":null,"building":"yes","osm_id":1472208482}},{"type":"Feature","geometry":{"type":"Polygon","coordinates":[[[6.4766706,35.4862036],[6.4765656,35.4862336],[6.4764821,35.4860402],[6.4765871,35.4860101],[6.4766706,35.4862036]]]},"properties":{"site":"timgad","name":null,"category":"other","historic":null,"building":"yes","osm_id":1472208503}},{"type":"Feature","geometry":{"type":"Polygon","coordinates":[[[6.4757625,35.485381],[6.4757611,35.4853797],[6.4757135,35.4854111],[6.4756761,35.4853735],[6.4756282,35.4854051],[6.4755501,35.4853267],[6.4755705,35.4853132],[6.4755128,35.4852552],[6.4755565,35.4852264],[6.4755224,35.4851921],[6.4755483,35.485175],[6.4756382,35.4852653],[6.4756567,35.4852531],[6.4756967,35.4852933],[6.475789,35.4852324],[6.4758179,35.4852615],[6.4758966,35.4852096],[6.4759464,35.4852597],[6.4757625,35.485381]]]},"properties":{"site":"timgad","name":null,"category":"other","historic":null,"building":"yes","osm_id":1472208504}},{"type":"Feature","geometry":{"type":"Polygon","coordinates":[[[6.4764766,35.4870367],[6.4764787,35.4870693],[6.476386,35.4870733],[6.4763839,35.4870406],[6.4764766,35.4870367]]]},"properties":{"site":"timgad","name":null,"category":"other","historic":null,"building":"yes","osm_id":1472208515}},{"type":"Feature","geometry":{"type":"Polygon","coordinates":[[[6.4727957,35.4876002],[6.4728106,35.4875661],[6.4729667,35.4876116],[6.4729517,35.4876456],[6.4727957,35.4876002]]]},"properties":{"site":"timgad","name":null,"category":"other","historic":null,"building":"yes","osm_id":1472208519}},{"type":"Feature","geometry":{"type":"Polygon","coordinates":[[[6.474829,35.4847686],[6.4748984,35.4847424],[6.474925,35.4847891],[6.4749692,35.4847724],[6.4750142,35.4848515],[6.4749007,35.4848944],[6.474829,35.4847686]]]},"properties":{"site":"timgad","name":null,"category":"other","historic":null,"building":"yes","osm_id":1472208525}},{"type":"Feature","geometry":{"type":"Polygon","coordinates":[[[6.4714865,35.4880111],[6.4715244,35.4879392],[6.4715765,35.4879574],[6.4715386,35.4880293],[6.4714865,35.4880111]]]},"properties":{"site":"timgad","name":null,"category":"other","historic":null,"building":"yes","osm_id":1472208528}},{"type":"Feature","geometry":{"type":"Polygon","coordinates":[[[6.4735405,35.4876102],[6.4735303,35.4876407],[6.4734679,35.4876269],[6.473478,35.4875964],[6.4735405,35.4876102]]]},"properties":{"site":"timgad","name":null,"category":"other","historic":null,"building":"yes","osm_id":1472208550}},{"type":"Feature","geometry":{"type":"Polygon","coordinates":[[[6.4750782,35.4879342],[6.4748584,35.4879291],[6.47486,35.4878833],[6.4750797,35.4878883],[6.4750782,35.4879342]]]},"properties":{"site":"timgad","name":null,"category":"other","historic":null,"building":"yes","osm_id":1472208551}},{"type":"Feature","geometry":{"type":"Polygon","coordinates":[[[6.4751734,35.4842071],[6.475053,35.4842117],[6.4750467,35.4841027],[6.4751672,35.4840981],[6.4751734,35.4842071]]]},"properties":{"site":"timgad","name":null,"category":"other","historic":null,"building":"yes","osm_id":1472208553}},{"type":"Feature","geometry":{"type":"Polygon","coordinates":[[[6.4740939,35.4854717],[6.4741116,35.4855085],[6.4741432,35.4854984],[6.4742213,35.4856614],[6.4741804,35.4856744],[6.4741631,35.4856384],[6.4741213,35.4856517],[6.4741067,35.4856214],[6.4740625,35.4856355],[6.4739985,35.485502],[6.4740939,35.4854717]]]},"properties":{"site":"timgad","name":null,"category":"other","historic":null,"building":"yes","osm_id":1472208557}},{"type":"Feature","geometry":{"type":"Polygon","coordinates":[[[6.4747235,35.4877279],[6.4746864,35.4877314],[6.4746941,35.4877852],[6.4745873,35.4877953],[6.4745745,35.4877058],[6.4747184,35.4876922],[6.4747235,35.4877279]]]},"properties":{"site":"timgad","name":null,"category":"other","historic":null,"building":"yes","osm_id":1472208578}},{"type":"Feature","geometry":{"type":"Polygon","coordinates":[[[6.470524,35.4881254],[6.4705078,35.4880311],[6.4706499,35.488015],[6.4706472,35.4879992],[6.4707761,35.4879845],[6.4708034,35.4881438],[6.4705782,35.4881695],[6.4705697,35.4881202],[6.470524,35.4881254]]]},"properties":{"site":"timgad","name":null,"category":"other","historic":null,"building":"yes","osm_id":1472208583}},{"type":"Feature","geometry":{"type":"Polygon","coordinates":[[[6.4766932,35.4870479],[6.4767602,35.4870464],[6.4767612,35.487077],[6.4766942,35.4870785],[6.4766932,35.4870479]]]},"properties":{"site":"timgad","name":null,"category":"other","historic":null,"building":"yes","osm_id":1472208594}},{"type":"Feature","geometry":{"type":"Polygon","coordinates":[[[6.4743555,35.487899],[6.4743073,35.4879003],[6.474305,35.4878458],[6.474506,35.4878403],[6.4745097,35.4879297],[6.474357,35.4879339],[6.4743555,35.487899]]]},"properties":{"site":"timgad","name":null,"category":"other","historic":null,"building":"yes","osm_id":1472208601}},{"type":"Feature","geometry":{"type":"Polygon","coordinates":[[[6.4748481,35.4849489],[6.4749042,35.4849313],[6.4749379,35.4850028],[6.4749473,35.4849999],[6.4748988,35.4848971],[6.4749573,35.4848788],[6.4749653,35.4848959],[6.4750378,35.4848733],[6.4750943,35.4849932],[6.4750206,35.4850163],[6.4750344,35.4850457],[6.4749118,35.485084],[6.4748481,35.4849489]]]},"properties":{"site":"timgad","name":null,"category":"other","historic":null,"building":"yes","osm_id":1472208611}},{"type":"Feature","geometry":{"type":"Polygon","coordinates":[[[6.4762843,35.4873712],[6.4762229,35.4873948],[6.4763244,35.4875698],[6.4762586,35.4875951],[6.4761074,35.4873343],[6.4762346,35.4872854],[6.4762843,35.4873712]]]},"properties":{"site":"timgad","name":null,"category":"other","historic":null,"building":"yes","osm_id":1472208613}},{"type":"Feature","geometry":{"type":"Polygon","coordinates":[[[6.4763023,35.485693],[6.4762629,35.4856977],[6.4762532,35.4856443],[6.4762926,35.4856395],[6.4763023,35.485693]]]},"properties":{"site":"timgad","name":null,"category":"other","historic":null,"building":"yes","osm_id":1472208614}},{"type":"Feature","geometry":{"type":"Polygon","coordinates":[[[6.4737048,35.4855474],[6.47371,35.4854615],[6.4738556,35.4854673],[6.4738565,35.4854521],[6.4739047,35.485454],[6.4738969,35.4855826],[6.4738235,35.4855796],[6.4738252,35.4855522],[6.4737048,35.4855474]]]},"properties":{"site":"timgad","name":null,"category":"other","historic":null,"building":"yes","osm_id":1472208623}},{"type":"Feature","geometry":{"type":"Polygon","coordinates":[[[6.4750569,35.4844976],[6.4749469,35.4845331],[6.4749479,35.484535],[6.4748181,35.484577],[6.4747657,35.4844694],[6.4748954,35.4844275],[6.4749157,35.484469],[6.4749353,35.4844627],[6.4748764,35.4843419],[6.4749425,35.4843205],[6.4749784,35.4843941],[6.4750026,35.4843863],[6.4750569,35.4844976]]]},"properties":{"site":"timgad","name":null,"category":"other","historic":null,"building":"yes","osm_id":1472208642}},{"type":"Feature","geometry":{"type":"Polygon","coordinates":[[[6.4770003,35.4855529],[6.4770013,35.4855547],[6.4768902,35.4855948],[6.4768395,35.4855017],[6.4769977,35.4854446],[6.4770474,35.4855359],[6.4770003,35.4855529]]]},"properties":{"site":"timgad","name":null,"category":"other","historic":null,"building":"yes","osm_id":1472208643}},{"type":"Feature","geometry":{"type":"Polygon","coordinates":[[[6.4754157,35.4854695],[6.4754236,35.4854548],[6.4753514,35.4854292],[6.4753882,35.4853603],[6.4754784,35.4853923],[6.4754338,35.4854758],[6.4754157,35.4854695]]]},"properties":{"site":"timgad","name":null,"category":"other","historic":null,"building":"yes","osm_id":1472208648}},{"type":"Feature","geometry":{"type":"Polygon","coordinates":[[[6.4636072,35.4830172],[6.463636,35.4829513],[6.4636836,35.4829651],[6.4636548,35.483031],[6.4636072,35.4830172]]]},"properties":{"site":"timgad","name":null,"category":"other","historic":null,"building":"yes","osm_id":1472208655}},{"type":"Feature","geometry":{"type":"Polygon","coordinates":[[[6.4747871,35.4876462],[6.4747937,35.4877661],[6.4747374,35.4877681],[6.4747309,35.4876482],[6.4747871,35.4876462]]]},"properties":{"site":"timgad","name":null,"category":"other","historic":null,"building":"yes","osm_id":1472208660}},{"type":"Feature","geometry":{"type":"Polygon","coordinates":[[[6.4752303,35.4866916],[6.475297,35.4866782],[6.4753313,35.4867914],[6.4752646,35.4868048],[6.4752303,35.4866916]]]},"properties":{"site":"timgad","name":null,"category":"other","historic":null,"building":"yes","osm_id":1472208661}},{"type":"Feature","geometry":{"type":"Polygon","coordinates":[[[6.477474,35.4860168],[6.4773919,35.4860488],[6.4774029,35.4860674],[6.4774697,35.4860414],[6.4775052,35.4861019],[6.4774091,35.4861392],[6.4773888,35.4861046],[6.4773809,35.4861077],[6.4773559,35.486065],[6.4773768,35.4860569],[6.477333,35.4859822],[6.4774312,35.4859439],[6.477474,35.4860168]]]},"properties":{"site":"timgad","name":null,"category":"other","historic":null,"building":"yes","osm_id":1472208663}},{"type":"Feature","geometry":{"type":"Polygon","coordinates":[[[6.4729444,35.4876574],[6.4729314,35.4876922],[6.4729952,35.4877081],[6.4729805,35.4877472],[6.4729183,35.4877317],[6.4728965,35.4877897],[6.4727183,35.4877454],[6.4727408,35.4876855],[6.4727472,35.4876871],[6.4727742,35.4876152],[6.4729444,35.4876574]]]},"properties":{"site":"timgad","name":null,"category":"other","historic":null,"building":"yes","osm_id":1472208668}},{"type":"Feature","geometry":{"type":"Polygon","coordinates":[[[6.477422,35.4861547],[6.4775408,35.4861095],[6.4775861,35.4861883],[6.4774672,35.4862336],[6.477422,35.4861547]]]},"properties":{"site":"timgad","name":null,"category":"other","historic":null,"building":"yes","osm_id":1472208689}},{"type":"Feature","geometry":{"type":"Polygon","coordinates":[[[6.4751279,35.4860855],[6.4752187,35.4861042],[6.4751987,35.4861688],[6.4749883,35.4861256],[6.4750004,35.4860866],[6.4751199,35.4861111],[6.4751279,35.4860855]]]},"properties":{"site":"timgad","name":null,"category":"other","historic":null,"building":"yes","osm_id":1472208695}},{"type":"Feature","geometry":{"type":"Polygon","coordinates":[[[6.4762858,35.4849364],[6.4762217,35.4849934],[6.4761211,35.4849183],[6.4761852,35.4848614],[6.4762858,35.4849364]]]},"properties":{"site":"timgad","name":null,"category":"other","historic":null,"building":"yes","osm_id":1472208697}},{"type":"Feature","geometry":{"type":"Polygon","coordinates":[[[6.475035,35.4841108],[6.4750397,35.4842243],[6.4749326,35.4842272],[6.4749279,35.4841138],[6.475035,35.4841108]]]},"properties":{"site":"timgad","name":null,"category":"other","historic":null,"building":"yes","osm_id":1472208709}},{"type":"Feature","geometry":{"type":"Polygon","coordinates":[[[6.4731392,35.4877145],[6.4731529,35.4876541],[6.4732549,35.4876695],[6.4732413,35.4877299],[6.4731392,35.4877145]]]},"properties":{"site":"timgad","name":null,"category":"other","historic":null,"building":"yes","osm_id":1472208717}},{"type":"Feature","geometry":{"type":"Polygon","coordinates":[[[6.4749209,35.484242],[6.4747588,35.4842482],[6.4747568,35.4842133],[6.4747743,35.4842126],[6.4747708,35.4841516],[6.4749153,35.4841461],[6.4749209,35.484242]]]},"properties":{"site":"timgad","name":null,"category":"other","historic":null,"building":"yes","osm_id":1472208723}},{"type":"Feature","geometry":{"type":"Polygon","coordinates":[[[6.4738743,35.4877905],[6.4739482,35.4878008],[6.4739281,35.4878972],[6.4738542,35.487887],[6.4738743,35.4877905]]]},"properties":{"site":"timgad","name":null,"category":"other","historic":null,"building":"yes","osm_id":1472208735}},{"type":"Feature","geometry":{"type":"Polygon","coordinates":[[[6.4729674,35.4880543],[6.4730394,35.4878733],[6.4731058,35.4878908],[6.4731176,35.4878612],[6.473222,35.4878887],[6.4731956,35.4879551],[6.4731098,35.4879324],[6.4730524,35.4880767],[6.4729674,35.4880543]]]},"properties":{"site":"timgad","name":null,"category":"other","historic":null,"building":"yes","osm_id":1472208741}},{"type":"Feature","geometry":{"type":"Polygon","coordinates":[[[6.4760059,35.4847009],[6.4760417,35.4846637],[6.476169,35.4847448],[6.4761332,35.4847821],[6.4760059,35.4847009]]]},"properties":{"site":"timgad","name":null,"category":"other","historic":null,"building":"yes","osm_id":1472208765}},{"type":"Feature","geometry":{"type":"Polygon","coordinates":[[[6.4762639,35.4858951],[6.4763258,35.485885],[6.4763407,35.485946],[6.4763717,35.485941],[6.4763827,35.4859861],[6.4762898,35.4860012],[6.4762639,35.4858951]]]},"properties":{"site":"timgad","name":null,"category":"other","historic":null,"building":"yes","osm_id":1472208774}},{"type":"Feature","geometry":{"type":"Polygon","coordinates":[[[6.4755787,35.4859351],[6.475407,35.4859131],[6.4754235,35.4858278],[6.4755952,35.4858498],[6.4755787,35.4859351]]]},"properties":{"site":"timgad","name":null,"category":"other","historic":null,"building":"yes","osm_id":1472208799}},{"type":"Feature","geometry":{"type":"Polygon","coordinates":[[[6.4765633,35.4856312],[6.4765845,35.4857081],[6.4765104,35.4857216],[6.4764892,35.4856447],[6.4765633,35.4856312]]]},"properties":{"site":"timgad","name":null,"category":"other","historic":null,"building":"yes","osm_id":1472208800}},{"type":"Feature","geometry":{"type":"Polygon","coordinates":[[[6.4770232,35.4843728],[6.4769139,35.4844088],[6.4768677,35.4843159],[6.477059,35.4842528],[6.4771149,35.4843654],[6.477033,35.4843924],[6.4770232,35.4843728]]]},"properties":{"site":"timgad","name":null,"category":"other","historic":null,"building":"yes","osm_id":1472208802}},{"type":"Feature","geometry":{"type":"Polygon","coordinates":[[[6.4752991,35.4853112],[6.4752787,35.4853399],[6.4752215,35.4853131],[6.4752419,35.4852844],[6.4752991,35.4853112]]]},"properties":{"site":"timgad","name":null,"category":"other","historic":null,"building":"yes","osm_id":1472208818}},{"type":"Feature","geometry":{"type":"Polygon","coordinates":[[[6.47497,35.4870766],[6.474968,35.4871705],[6.4747723,35.4871678],[6.4747743,35.4870739],[6.47497,35.4870766]]]},"properties":{"site":"timgad","name":null,"category":"other","historic":null,"building":"yes","osm_id":1472208822}},{"type":"Feature","geometry":{"type":"Polygon","coordinates":[[[6.4755754,35.486575],[6.4754711,35.4865917],[6.475446,35.4864877],[6.4755503,35.486471],[6.4755754,35.486575]]]},"properties":{"site":"timgad","name":null,"category":"other","historic":null,"building":"yes","osm_id":1472208831}},{"type":"Feature","geometry":{"type":"Polygon","coordinates":[[[6.476265,35.4858078],[6.4763229,35.4858066],[6.4763247,35.4858666],[6.4762668,35.4858678],[6.476265,35.4858078]]]},"properties":{"site":"timgad","name":null,"category":"other","historic":null,"building":"yes","osm_id":1472208832}},{"type":"Feature","geometry":{"type":"Polygon","coordinates":[[[6.4753036,35.487819],[6.4753518,35.4878201],[6.4753492,35.4878986],[6.475301,35.4878976],[6.4753036,35.487819]]]},"properties":{"site":"timgad","name":null,"category":"other","historic":null,"building":"yes","osm_id":1472208839}},{"type":"Feature","geometry":{"type":"Polygon","coordinates":[[[6.4732606,35.487789],[6.4732403,35.4878345],[6.4730973,35.4877922],[6.4731176,35.4877467],[6.4732606,35.487789]]]},"properties":{"site":"timgad","name":null,"category":"other","historic":null,"building":"yes","osm_id":1472208844}},{"type":"Feature","geometry":{"type":"Polygon","coordinates":[[[6.4751116,35.486713],[6.4752189,35.4866917],[6.475243,35.4867721],[6.4751838,35.4867839],[6.4751945,35.4868199],[6.4751464,35.4868294],[6.4751116,35.486713]]]},"properties":{"site":"timgad","name":null,"category":"other","historic":null,"building":"yes","osm_id":1472208859}}]}