{"type":"FeatureCollection","features":[{"type":"Feature","geometry":{"type":"Polygon","coordinates":[[[-2.3657902,54.9915166],[-2.3662708,54.9914674],[-2.3660892,54.9910373],[-2.3647772,54.9911033],[-2.3647522,54.991054],[-2.3644048,54.9903694],[-2.3629591,54.9905403],[-2.3624856,54.9902679],[-2.3616904,54.9898309],[-2.3602482,54.9893912],[-2.359127,54.9896928],[-2.3582035,54.9901386],[-2.3585168,54.9905048],[-2.3586743,54.9907834],[-2.358874,54.9911173],[-2.3590135,54.9912605],[-2.3595743,54.9921962],[-2.3596768,54.9923721],[-2.3599094,54.9923729],[-2.3603895,54.9922652],[-2.3608696,54.9921391],[-2.3611754,54.9920175],[-2.3613605,54.991979],[-2.3617199,54.9919667],[-2.3618527,54.9919621],[-2.3624924,54.9918452],[-2.3625729,54.9918236],[-2.36258,54.9917979],[-2.362621,54.9917879],[-2.362662,54.9917779],[-2.3627603,54.9917964],[-2.362974,54.9917513],[-2.363827,54.9916738],[-2.364505,54.9916295],[-2.3647617,54.991607],[-2.3653887,54.9915689],[-2.3655823,54.9915528],[-2.3657902,54.9915166]]]},"properties":{"site":"vindolanda","name":"Vindolanda Fort","category":"archaeological","historic":"archaeological_site","building":null,"osm_id":122660652}},{"type":"Feature","geometry":{"type":"Polygon","coordinates":[[[-2.3618703,54.9915059],[-2.3618775,54.9915032],[-2.3618901,54.9915018],[-2.3619026,54.9915034],[-2.3619134,54.9915077],[-2.3619203,54.9915142],[-2.3619221,54.9915217],[-2.3619184,54.991529],[-2.36191,54.9915349],[-2.3618994,54.9915381],[-2.3618909,54.9915387],[-2.3618935,54.9915427],[-2.3619427,54.9916209],[-2.36186,54.9916381],[-2.3618058,54.9916493],[-2.3617864,54.9916184],[-2.3617606,54.9915775],[-2.3617294,54.9915839],[-2.3616484,54.9916007],[-2.3615692,54.9914748],[-2.361734,54.9914407],[-2.3617513,54.9914682],[-2.3618356,54.9914508],[-2.3618655,54.9914983],[-2.3618703,54.9915059]]]},"properties":{"site":"vindolanda","name":"Bath House","category":"bath","historic":"ruins","building":null,"osm_id":491534112}},{"type":"Feature","geometry":{"type":"Polygon","coordinates":[[[-2.3614682,54.9914861],[-2.36149,54.9914835],[-2.3614853,54.9914698],[-2.3615364,54.9914642],[-2.3615681,54.9914607],[-2.36165,54.9914518],[-2.3616464,54.9914307],[-2.3618518,54.9913934],[-2.3619646,54.991399],[-2.3619895,54.991262],[-2.361891,54.9912522],[-2.3618259,54.9912458],[-2.3617078,54.9912396],[-2.3615805,54.9912505],[-2.3615018,54.9912501],[-2.3614939,54.99125],[-2.3614922,54.9912317],[-2.361377,54.9912327],[-2.3613242,54.9912247],[-2.3612084,54.9912239],[-2.3612082,54.9912684],[-2.3612326,54.9913474],[-2.3611731,54.9913551],[-2.3611866,54.9913846],[-2.3612023,54.9914188],[-2.3612155,54.9914476],[-2.3612389,54.9914984],[-2.3612899,54.9914927],[-2.3612947,54.9915053],[-2.3613674,54.9914972],[-2.3613969,54.991494],[-2.3614682,54.9914861]]]},"properties":{"site":"vindolanda","name":null,"category":"archaeological","historic":"ruins","building":null,"osm_id":491534113}},{"type":"Feature","geometry":{"type":"Polygon","coordinates":[[[-2.3615905,54.9911782],[-2.3615357,54.9908789],[-2.361337,54.9909114],[-2.3613469,54.9909597],[-2.3613579,54.9910141],[-2.3613702,54.9910747],[-2.3613897,54.9911703],[-2.3615016,54.9911763],[-2.3615905,54.9911782]]]},"properties":{"site":"vindolanda","name":null,"category":"archaeological","historic":"ruins","building":null,"osm_id":491534114}},{"type":"Feature","geometry":{"type":"Polygon","coordinates":[[[-2.3616515,54.9911812],[-2.3617317,54.9911862],[-2.36178,54.9911892],[-2.3618018,54.9911905],[-2.3618702,54.9911948],[-2.3619799,54.9912016],[-2.3620471,54.9912058],[-2.3620423,54.9911708],[-2.3620374,54.9911348],[-2.3620331,54.9911032],[-2.3620284,54.9910688],[-2.3620605,54.991065],[-2.3620518,54.9910261],[-2.3620483,54.9910108],[-2.3620299,54.9910114],[-2.3620149,54.9909756],[-2.3620036,54.9909772],[-2.3619786,54.9909169],[-2.3618967,54.9909316],[-2.3618364,54.9909425],[-2.3618225,54.990945],[-2.3618118,54.9909255],[-2.3617608,54.9909346],[-2.3617713,54.9909647],[-2.3617523,54.9909669],[-2.3617616,54.9909936],[-2.3617806,54.9909915],[-2.3617886,54.9910145],[-2.3617907,54.991026],[-2.3617688,54.9910259],[-2.3617011,54.9910257],[-2.3616716,54.9908442],[-2.3615885,54.9908565],[-2.3616364,54.9911033],[-2.3616515,54.9911812]]]},"properties":{"site":"vindolanda","name":null,"category":"archaeological","historic":"ruins","building":null,"osm_id":491534115}},{"type":"Feature","geometry":{"type":"Polygon","coordinates":[[[-2.3627178,54.991423],[-2.3625521,54.9914425],[-2.3624308,54.9914568],[-2.3624022,54.9913771],[-2.3625661,54.9913577],[-2.3626892,54.9913432],[-2.3627178,54.991423]]]},"properties":{"site":"vindolanda","name":null,"category":"archaeological","historic":"ruins","building":null,"osm_id":491534116}},{"type":"Feature","geometry":{"type":"Polygon","coordinates":[[[-2.3568276,54.9920021],[-2.3567171,54.9920076],[-2.3567065,54.9919368],[-2.3567018,54.991937],[-2.3566855,54.9918276],[-2.3566964,54.991827],[-2.3566723,54.9916656],[-2.3567766,54.9916605],[-2.3568014,54.9918269],[-2.3568196,54.991826],[-2.3568353,54.9919315],[-2.3568172,54.9919324],[-2.3568276,54.9920021]]]},"properties":{"site":"vindolanda","name":null,"category":"other","historic":null,"building":"yes","osm_id":491534159}},{"type":"Feature","geometry":{"type":"Polygon","coordinates":[[[-2.356883,54.9913009],[-2.3570289,54.9912814],[-2.3570615,54.9913614],[-2.357089,54.9913577],[-2.3574178,54.9913136],[-2.3574579,54.991412],[-2.3573615,54.9914249],[-2.3573694,54.9914445],[-2.357692,54.9914013],[-2.3577234,54.9914785],[-2.3575649,54.9914998],[-2.3575835,54.9915456],[-2.357512,54.9915552],[-2.3575423,54.9915738],[-2.3575179,54.9916199],[-2.3574361,54.9916308],[-2.3574287,54.9916263],[-2.3574045,54.9916393],[-2.3574138,54.991645],[-2.3572995,54.9917066],[-2.3572298,54.991664],[-2.3573441,54.9916024],[-2.3573652,54.9916153],[-2.3573895,54.9916022],[-2.3573787,54.9915956],[-2.3573916,54.9915713],[-2.3573313,54.9915794],[-2.3573126,54.9915336],[-2.3571485,54.9915556],[-2.3571171,54.9914783],[-2.3573355,54.9914491],[-2.3573274,54.9914295],[-2.3570969,54.9914604],[-2.3570797,54.9914181],[-2.3569341,54.9914376],[-2.356883,54.9913009]]]},"properties":{"site":"vindolanda","name":"Vindolanda Museum","category":"other","historic":null,"building":"yes","osm_id":491534163}},{"type":"Feature","geometry":{"type":"Polygon","coordinates":[[[-2.3607409,54.9912127],[-2.360588,54.9912408],[-2.3605737,54.9912434],[-2.3604974,54.9912574],[-2.3603748,54.9910373],[-2.3606183,54.9909926],[-2.3607409,54.9912127]]]},"properties":{"site":"vindolanda","name":"Granary & Stores","category":"archaeological","historic":"ruins","building":null,"osm_id":491534165}},{"type":"Feature","geometry":{"type":"Polygon","coordinates":[[[-2.3610746,54.9916869],[-2.361043,54.9916922],[-2.3609628,54.9917057],[-2.3609271,54.9917117],[-2.3608155,54.9914934],[-2.3608101,54.9914829],[-2.360782,54.991428],[-2.360753,54.9913712],[-2.360785,54.9913658],[-2.3608642,54.9913522],[-2.3609004,54.9913464],[-2.3609295,54.9914032],[-2.3609356,54.9914152],[-2.3609573,54.9914575],[-2.3609622,54.9914671],[-2.3609777,54.9914974],[-2.3610227,54.9915855],[-2.3610533,54.9916453],[-2.3610746,54.9916869]]]},"properties":{"site":"vindolanda","name":null,"category":"archaeological","historic":"ruins","building":null,"osm_id":491534166}},{"type":"Feature","geometry":{"type":"Polygon","coordinates":[[[-2.3609131,54.9917139],[-2.3607775,54.9917368],[-2.3607336,54.9916513],[-2.3607568,54.9916474],[-2.3607362,54.9916073],[-2.3607152,54.9915662],[-2.3606969,54.9915307],[-2.360677,54.9914918],[-2.3606553,54.9914494],[-2.3606364,54.9914126],[-2.3606172,54.9913751],[-2.3606118,54.9913646],[-2.3605633,54.9913728],[-2.360545,54.9913372],[-2.360706,54.99131],[-2.3607289,54.9913546],[-2.3607486,54.9913931],[-2.3607674,54.9914296],[-2.3607892,54.9914723],[-2.360809,54.9915108],[-2.3608277,54.9915472],[-2.3608487,54.9915883],[-2.3608696,54.9916291],[-2.3609131,54.9917139]]]},"properties":{"site":"vindolanda","name":null,"category":"archaeological","historic":"ruins","building":null,"osm_id":491534167}},{"type":"Feature","geometry":{"type":"Polygon","coordinates":[[[-2.3607087,54.9917428],[-2.3605765,54.9917671],[-2.3605327,54.9916885],[-2.3605066,54.9916417],[-2.3604654,54.9915678],[-2.3604223,54.9914903],[-2.3604023,54.9914545],[-2.3603809,54.9914161],[-2.3603569,54.991373],[-2.3605114,54.9913446],[-2.3605306,54.9913789],[-2.3604867,54.991387],[-2.360513,54.9914343],[-2.3605326,54.9914694],[-2.3605547,54.991509],[-2.3605763,54.9915479],[-2.3605981,54.9915869],[-2.360618,54.9916227],[-2.3606433,54.991668],[-2.3606648,54.9916641],[-2.3607087,54.9917428]]]},"properties":{"site":"vindolanda","name":null,"category":"archaeological","historic":"ruins","building":null,"osm_id":491534168}},{"type":"Feature","geometry":{"type":"Polygon","coordinates":[[[-2.3603233,54.991162],[-2.3603192,54.9911542],[-2.3603278,54.9911527],[-2.360315,54.9911285],[-2.3603263,54.9911265],[-2.3603181,54.991111],[-2.3602884,54.9911162],[-2.360053,54.9911572],[-2.3599888,54.9911684],[-2.3599598,54.9911136],[-2.3599758,54.9911108],[-2.3599696,54.9910992],[-2.3600434,54.9910863],[-2.3600496,54.991098],[-2.3600962,54.9910898],[-2.3600847,54.9910682],[-2.3601805,54.9910516],[-2.3601962,54.9910812],[-2.3602625,54.9910696],[-2.3602924,54.9910644],[-2.3602796,54.9910403],[-2.3603206,54.9910331],[-2.3603833,54.9911515],[-2.3603233,54.991162]]]},"properties":{"site":"vindolanda","name":null,"category":"archaeological","historic":"ruins","building":null,"osm_id":491534169}},{"type":"Feature","geometry":{"type":"Polygon","coordinates":[[[-2.3600338,54.9913453],[-2.3600068,54.9913502],[-2.3600215,54.9913765],[-2.3597374,54.9914286],[-2.3597236,54.9914038],[-2.3597073,54.9914068],[-2.3596631,54.9913274],[-2.3596298,54.9913335],[-2.3596228,54.991321],[-2.3596561,54.9913149],[-2.3596361,54.9912789],[-2.3596024,54.9912851],[-2.3595957,54.991273],[-2.3596293,54.9912668],[-2.3596186,54.9912476],[-2.3596135,54.9912384],[-2.3595804,54.9912445],[-2.359573,54.9912312],[-2.3596061,54.9912252],[-2.3595812,54.9911804],[-2.3596826,54.9911618],[-2.3596731,54.9911448],[-2.3597213,54.991136],[-2.3597311,54.9911529],[-2.3598,54.9911403],[-2.3599085,54.9911204],[-2.3600338,54.9913453]]]},"properties":{"site":"vindolanda","name":null,"category":"archaeological","historic":"ruins","building":null,"osm_id":491534170}},{"type":"Feature","geometry":{"type":"Polygon","coordinates":[[[-2.3575952,54.9908514],[-2.3574559,54.9908691],[-2.3574391,54.9908255],[-2.3575784,54.9908078],[-2.3575952,54.9908514]]]},"properties":{"site":"vindolanda","name":"Locus","category":"other","historic":null,"building":"yes","osm_id":511300310}},{"type":"Feature","geometry":{"type":"Polygon","coordinates":[[[-2.3573261,54.9908268],[-2.3572949,54.9907889],[-2.357365,54.9907698],[-2.3573963,54.9908077],[-2.3573261,54.9908268]]]},"properties":{"site":"vindolanda","name":"Nymphis Sacrum Vicani Vindolandensis","category":"fountain","historic":null,"building":"temple","osm_id":511300311}},{"type":"Feature","geometry":{"type":"Polygon","coordinates":[[[-2.3600712,54.9901305],[-2.3600651,54.9901455],[-2.3601196,54.9901529],[-2.3600865,54.9902333],[-2.3600444,54.9902276],[-2.3600478,54.9902193],[-2.360023,54.990216],[-2.3600179,54.9902302],[-2.359934,54.9902188],[-2.3599174,54.9902592],[-2.3598845,54.9902547],[-2.3598383,54.9902484],[-2.3598086,54.9902444],[-2.3598167,54.9902246],[-2.3597982,54.9902221],[-2.3598062,54.9902026],[-2.3597536,54.9901954],[-2.3597508,54.9902023],[-2.3596496,54.9901886],[-2.3596552,54.990175],[-2.3595889,54.990166],[-2.3595979,54.9901442],[-2.3596099,54.9901151],[-2.3596761,54.9901241],[-2.3596818,54.9901102],[-2.3599082,54.9901409],[-2.3599053,54.990148],[-2.3599433,54.9901531],[-2.3599589,54.9901153],[-2.3600502,54.9901277],[-2.3600712,54.9901305]]]},"properties":{"site":"vindolanda","name":"Bath House","category":"bath","historic":"ruins","building":null,"osm_id":511300316}},{"type":"Feature","geometry":{"type":"Polygon","coordinates":[[[-2.3615918,54.9901847],[-2.3615998,54.9902042],[-2.3612839,54.9902451],[-2.3613049,54.9903113],[-2.3613429,54.9903074],[-2.3613516,54.9903413],[-2.3613012,54.9903456],[-2.3612807,54.9903473],[-2.3612474,54.9902304],[-2.3615918,54.9901847]]]},"properties":{"site":"vindolanda","name":"Replica Turf Rampart","category":"other","historic":null,"building":"yes","osm_id":511300318}},{"type":"Feature","geometry":{"type":"Polygon","coordinates":[[[-2.3615918,54.9901847],[-2.361587,54.9901731],[-2.3616342,54.9901667],[-2.3617149,54.9903633],[-2.3616695,54.9903694],[-2.3616643,54.9903567],[-2.3616157,54.9903633],[-2.3616092,54.9903474],[-2.3615934,54.9903089],[-2.3616402,54.9903026],[-2.3615918,54.9901847]]]},"properties":{"site":"vindolanda","name":"Replica Stone Rampart","category":"other","historic":null,"building":"yes","osm_id":511300319}},{"type":"Feature","geometry":{"type":"Polygon","coordinates":[[[-2.3601557,54.9912288],[-2.3601513,54.9912248],[-2.3601446,54.9912221],[-2.3601366,54.991221],[-2.3601285,54.9912217],[-2.3601215,54.9912242],[-2.3601162,54.9912284],[-2.3601145,54.9912334],[-2.3601165,54.9912384],[-2.360122,54.9912425],[-2.3601299,54.991245],[-2.3601389,54.9912453],[-2.3601461,54.9912439],[-2.360152,54.9912412],[-2.3601559,54.9912374],[-2.3601571,54.9912331],[-2.3601557,54.9912288]]]},"properties":{"site":"vindolanda","name":"Well","category":"archaeological","historic":null,"building":"ruins","osm_id":511300321}},{"type":"Feature","geometry":{"type":"Polygon","coordinates":[[[-2.3630971,54.9915829],[-2.3630164,54.9915906],[-2.3630082,54.9915622],[-2.3630037,54.9915469],[-2.3630844,54.9915392],[-2.3630971,54.9915829]]]},"properties":{"site":"vindolanda","name":"Spring","category":"archaeological","historic":"ruins","building":null,"osm_id":511300322}},{"type":"Feature","geometry":{"type":"Polygon","coordinates":[[[-2.3634793,54.991565],[-2.3633184,54.9915881],[-2.3632816,54.9915038],[-2.3634426,54.9914807],[-2.3634793,54.991565]]]},"properties":{"site":"vindolanda","name":"Temple","category":"temple","historic":"ruins","building":null,"osm_id":511300326}},{"type":"Feature","geometry":{"type":"Polygon","coordinates":[[[-2.3634875,54.9907942],[-2.363352,54.9908011],[-2.3633437,54.9907478],[-2.3634792,54.9907408],[-2.3634875,54.9907942]]]},"properties":{"site":"vindolanda","name":"Temple","category":"temple","historic":"ruins","building":null,"osm_id":511300537}},{"type":"Feature","geometry":{"type":"Polygon","coordinates":[[[-2.3636511,54.9907895],[-2.3635679,54.9907957],[-2.363557,54.9907472],[-2.3636402,54.990741],[-2.3636511,54.9907895]]]},"properties":{"site":"vindolanda","name":"Temple","category":"temple","historic":"ruins","building":null,"osm_id":511300538}},{"type":"Feature","geometry":{"type":"Polygon","coordinates":[[[-2.3631875,54.9908997],[-2.3632992,54.9909286],[-2.3632803,54.9909526],[-2.3631953,54.9910609],[-2.3630837,54.991032],[-2.3631875,54.9908997]]]},"properties":{"site":"vindolanda","name":"Workshops","category":"taberna","historic":"ruins","building":null,"osm_id":511300539}},{"type":"Feature","geometry":{"type":"Polygon","coordinates":[[[-2.3632587,54.9910772],[-2.3631953,54.9910609],[-2.3632803,54.9909526],[-2.3633437,54.990969],[-2.3633196,54.9909997],[-2.3632587,54.9910772]]]},"properties":{"site":"vindolanda","name":"Workshops","category":"taberna","historic":"ruins","building":null,"osm_id":511300540}},{"type":"Feature","geometry":{"type":"Polygon","coordinates":[[[-2.3632475,54.9912502],[-2.3632984,54.9912041],[-2.3633523,54.9912236],[-2.3633014,54.9912698],[-2.3632475,54.9912502]]]},"properties":{"site":"vindolanda","name":"Water tank","category":"archaeological","historic":"ruins","building":null,"osm_id":511300541}},{"type":"Feature","geometry":{"type":"Polygon","coordinates":[[[-2.360456,54.9912911],[-2.3602957,54.9913189],[-2.3602878,54.991304],[-2.3602725,54.991275],[-2.360259,54.9912493],[-2.3602295,54.9911933],[-2.3603899,54.9911655],[-2.3604387,54.9912582],[-2.360456,54.9912911]]]},"properties":{"site":"vindolanda","name":null,"category":"archaeological","historic":"ruins","building":null,"osm_id":834733913}},{"type":"Feature","geometry":{"type":"Polygon","coordinates":[[[-2.3602559,54.9913241],[-2.3600927,54.9913548],[-2.3600553,54.9912892],[-2.360018,54.9912238],[-2.3600512,54.9912176],[-2.3600863,54.991211],[-2.3601812,54.9911932],[-2.3602098,54.9912432],[-2.3602191,54.9912597],[-2.3602559,54.9913241]]]},"properties":{"site":"vindolanda","name":null,"category":"archaeological","historic":"ruins","building":null,"osm_id":834733914}},{"type":"Feature","geometry":{"type":"Polygon","coordinates":[[[-2.3600993,54.9910197],[-2.3600737,54.9909678],[-2.3601995,54.9909474],[-2.3602251,54.9909992],[-2.3600993,54.9910197]]]},"properties":{"site":"vindolanda","name":null,"category":"archaeological","historic":"ruins","building":null,"osm_id":834733919}},{"type":"Feature","geometry":{"type":"Polygon","coordinates":[[[-2.3600192,54.991046],[-2.3598828,54.9910725],[-2.3598601,54.9910769],[-2.359753,54.9910976],[-2.359566,54.9911339],[-2.3595331,54.9911403],[-2.3595033,54.9910831],[-2.3595335,54.9910774],[-2.3595234,54.9910595],[-2.3595162,54.9910466],[-2.3595099,54.9910353],[-2.3594752,54.991038],[-2.3594451,54.9909796],[-2.3594776,54.9909744],[-2.3595193,54.9909672],[-2.3595127,54.9909531],[-2.3597781,54.9909075],[-2.3597848,54.9909259],[-2.3598294,54.9909185],[-2.3598803,54.9909132],[-2.3599151,54.9909251],[-2.3599359,54.990945],[-2.3599452,54.9909636],[-2.3599706,54.990957],[-2.3600104,54.99103],[-2.3600192,54.991046]]]},"properties":{"site":"vindolanda","name":null,"category":"archaeological","historic":"ruins","building":null,"osm_id":834733920}},{"type":"Feature","geometry":{"type":"Polygon","coordinates":[[[-2.3563802,54.9914692],[-2.3562564,54.9914561],[-2.3562785,54.9913875],[-2.3564023,54.9914006],[-2.3563802,54.9914692]]]},"properties":{"site":"vindolanda","name":null,"category":"other","historic":null,"building":"yes","osm_id":1097391513}},{"type":"Feature","geometry":{"type":"Polygon","coordinates":[[[-2.3590478,54.992017],[-2.3590036,54.9919872],[-2.3590364,54.9919712],[-2.3590806,54.992001],[-2.3590478,54.992017]]]},"properties":{"site":"vindolanda","name":null,"category":"other","historic":null,"building":"yes","osm_id":1102426746}},{"type":"Feature","geometry":{"type":"Polygon","coordinates":[[[-2.3612947,54.9915053],[-2.3612754,54.9915074],[-2.3612871,54.9915421],[-2.3613183,54.9916351],[-2.3613342,54.9916334],[-2.3613521,54.9916867],[-2.3613729,54.9917487],[-2.3614735,54.9917375],[-2.3615498,54.9917291],[-2.3614682,54.9914861],[-2.3613969,54.991494],[-2.3613674,54.9914972],[-2.3612947,54.9915053]]]},"properties":{"site":"vindolanda","name":null,"category":"archaeological","historic":"ruins","building":null,"osm_id":1102426790}},{"type":"Feature","geometry":{"type":"Polygon","coordinates":[[[-2.3632491,54.991285],[-2.3632157,54.9912906],[-2.3632064,54.9912724],[-2.3632397,54.9912668],[-2.3632491,54.991285]]]},"properties":{"site":"vindolanda","name":null,"category":"archaeological","historic":"ruins","building":null,"osm_id":1102438773}},{"type":"Feature","geometry":{"type":"Polygon","coordinates":[[[-2.3632835,54.9913237],[-2.3632502,54.9913293],[-2.3632408,54.9913111],[-2.3632742,54.9913055],[-2.3632835,54.9913237]]]},"properties":{"site":"vindolanda","name":null,"category":"archaeological","historic":"ruins","building":null,"osm_id":1102438774}},{"type":"Feature","geometry":{"type":"Polygon","coordinates":[[[-2.3629965,54.9907436],[-2.3629617,54.9907436],[-2.3629617,54.9907247],[-2.3629965,54.9907247],[-2.3629965,54.9907436]]]},"properties":{"site":"vindolanda","name":null,"category":"archaeological","historic":"ruins","building":null,"osm_id":1102438775}},{"type":"Feature","geometry":{"type":"Polygon","coordinates":[[[-2.3631507,54.9908441],[-2.3631159,54.9908439],[-2.3631161,54.990825],[-2.3631509,54.9908251],[-2.3631507,54.9908441]]]},"properties":{"site":"vindolanda","name":null,"category":"archaeological","historic":"ruins","building":null,"osm_id":1102438776}},{"type":"Feature","geometry":{"type":"Polygon","coordinates":[[[-2.3629126,54.9908865],[-2.3628778,54.9908865],[-2.3628778,54.9908675],[-2.3629126,54.9908675],[-2.3629126,54.9908865]]]},"properties":{"site":"vindolanda","name":null,"category":"archaeological","historic":"ruins","building":null,"osm_id":1102438777}},{"type":"Feature","geometry":{"type":"Polygon","coordinates":[[[-2.3587722,54.9920417],[-2.3587936,54.9921175],[-2.3587554,54.9921211],[-2.358734,54.9920453],[-2.3587722,54.9920417]]]},"properties":{"site":"vindolanda","name":null,"category":"other","historic":null,"building":"yes","osm_id":1102581493}},{"type":"Feature","geometry":{"type":"Polygon","coordinates":[[[-2.3588282,54.9922346],[-2.358831,54.9922197],[-2.3588828,54.9922229],[-2.35888,54.9922378],[-2.3588282,54.9922346]]]},"properties":{"site":"vindolanda","name":null,"category":"other","historic":null,"building":"yes","osm_id":1102581494}},{"type":"Feature","geometry":{"type":"Polygon","coordinates":[[[-2.3587327,54.992235],[-2.3587412,54.9921899],[-2.3588031,54.9921937],[-2.3588008,54.9922059],[-2.3588332,54.9922079],[-2.358831,54.9922197],[-2.3588282,54.9922346],[-2.358827,54.9922409],[-2.3587327,54.992235]]]},"properties":{"site":"vindolanda","name":null,"category":"other","historic":null,"building":"yes","osm_id":1102581495}},{"type":"Feature","geometry":{"type":"Polygon","coordinates":[[[-2.3566143,54.9939467],[-2.3565734,54.9939371],[-2.3565955,54.9939059],[-2.3566365,54.9939155],[-2.3566143,54.9939467]]]},"properties":{"site":"vindolanda","name":null,"category":"other","historic":null,"building":"yes","osm_id":1102609226}},{"type":"Feature","geometry":{"type":"Polygon","coordinates":[[[-2.3568879,54.9913925],[-2.3567914,54.9914052],[-2.3567287,54.9912481],[-2.3568252,54.9912354],[-2.3568879,54.9913925]]]},"properties":{"site":"vindolanda","name":null,"category":"other","historic":null,"building":"yes","osm_id":1318890450}}]}