{"type":"FeatureCollection","features":[{"type":"Feature","geometry":{"type":"LineString","coordinates":[[-2.3558082,54.9809763],[-2.3558603,54.9809962],[-2.3559129,54.9811939],[-2.3558848,54.9815387],[-2.355811,54.9816157],[-2.355575,54.9820651],[-2.3554277,54.9823043],[-2.3554526,54.9827193],[-2.3556699,54.9830208],[-2.3559398,54.9832256],[-2.3561007,54.9833118],[-2.3561903,54.9834148],[-2.3563298,54.9835287],[-2.3564156,54.9836118],[-2.3566908,54.9837489],[-2.3568785,54.9839644],[-2.3569359,54.984092],[-2.3569215,54.9841952],[-2.357018,54.9842599],[-2.3571736,54.9843183],[-2.3573115,54.9844767],[-2.3576043,54.9846891],[-2.3578542,54.9850187],[-2.3580146,54.9853786],[-2.3580835,54.9856819],[-2.358041,54.9858895],[-2.3579176,54.9860865],[-2.3577058,54.9862929],[-2.3574724,54.9864128],[-2.3571303,54.9866714],[-2.3568356,54.9870455],[-2.3564102,54.9875208],[-2.3559968,54.9879475],[-2.3559344,54.9880119],[-2.3557504,54.9882072],[-2.3555787,54.9882657],[-2.3554339,54.9884072],[-2.3552531,54.9885351],[-2.3551159,54.9886858],[-2.3551214,54.98906],[-2.3551982,54.9891536],[-2.3552891,54.9892645],[-2.3559114,54.9898832],[-2.3561908,54.9902317],[-2.3562537,54.9903101],[-2.3563406,54.9908554],[-2.3563268,54.991097],[-2.3563953,54.9912943],[-2.3566087,54.9915065],[-2.3566157,54.9915697]]},"properties":{"site":"vindolanda","name":"","highway":"footway"}},{"type":"Feature","geometry":{"type":"LineString","coordinates":[[-2.3673925,54.9876007],[-2.3672533,54.9875933],[-2.3663119,54.9878272],[-2.3654643,54.9879657],[-2.3640937,54.9882874],[-2.3625755,54.988629],[-2.3620257,54.9887444],[-2.3619412,54.9887521],[-2.3618554,54.988726],[-2.3617843,54.9886929],[-2.3616931,54.9886906]]},"properties":{"site":"vindolanda","name":"","highway":"service"}},{"type":"Feature","geometry":{"type":"LineString","coordinates":[[-2.3589144,54.9908038],[-2.358813,54.9907811],[-2.3587266,54.990778],[-2.3586528,54.9907803],[-2.3584041,54.9907984],[-2.3583068,54.9908061],[-2.3581962,54.9908134],[-2.3581277,54.9908311],[-2.3579487,54.9909111],[-2.3578401,54.9909704],[-2.3577261,54.9910327],[-2.357602,54.9911673]]},"properties":{"site":"vindolanda","name":"","highway":"footway"}},{"type":"Feature","geometry":{"type":"LineString","coordinates":[[-2.3564011,54.9917728],[-2.3564473,54.9920228],[-2.35647,54.9921456],[-2.3564979,54.9921848],[-2.3565505,54.9922078],[-2.3566458,54.9922469],[-2.356732,54.992272],[-2.3568663,54.9922975],[-2.3570059,54.9922975],[-2.35714,54.992236],[-2.3572728,54.992236]]},"properties":{"site":"vindolanda","name":"","highway":"service"}},{"type":"Feature","geometry":{"type":"LineString","coordinates":[[-2.3617394,54.9904044],[-2.3617025,54.990396],[-2.3616469,54.990394],[-2.3615025,54.9904225],[-2.3613891,54.990441],[-2.3612794,54.9904514],[-2.3611418,54.9904533],[-2.3610045,54.9904452],[-2.3608791,54.9904386],[-2.3607945,54.990427],[-2.3607349,54.9904067],[-2.3606014,54.9903509],[-2.3605429,54.9903305],[-2.3604764,54.9903194],[-2.360393,54.9903155],[-2.3603237,54.9903186],[-2.360128,54.9903402],[-2.3599689,54.9903649],[-2.359857,54.9903817],[-2.3596562,54.9904461],[-2.3593899,54.9905394],[-2.3591187,54.9906615],[-2.3590343,54.9907114],[-2.3589751,54.9907553],[-2.3589144,54.9908038],[-2.3589807,54.9908465],[-2.3590578,54.9909223],[-2.3592898,54.9911458],[-2.3593299,54.9911731],[-2.3593761,54.9911916],[-2.3594321,54.9911971]]},"properties":{"site":"vindolanda","name":"","highway":"footway"}},{"type":"Feature","geometry":{"type":"LineString","coordinates":[[-2.3638808,54.99163],[-2.363861,54.9916245],[-2.3638597,54.9916143],[-2.3638429,54.9914845],[-2.3634606,54.9914785],[-2.3633544,54.9914559],[-2.3632729,54.9914235],[-2.363124,54.9913612],[-2.3629618,54.9913281],[-2.3626815,54.991312],[-2.3624508,54.9913266],[-2.3623489,54.991325],[-2.3622014,54.991297]]},"properties":{"site":"vindolanda","name":"","highway":"footway"}},{"type":"Feature","geometry":{"type":"LineString","coordinates":[[-2.3656815,54.9914382],[-2.3657124,54.9915515]]},"properties":{"site":"vindolanda","name":"","highway":"service"}},{"type":"Feature","geometry":{"type":"LineString","coordinates":[[-2.3574573,54.991125],[-2.3574552,54.9911065],[-2.357421,54.9909146],[-2.3573942,54.9908241]]},"properties":{"site":"vindolanda","name":"","highway":"footway"}},{"type":"Feature","geometry":{"type":"LineString","coordinates":[[-2.357602,54.9911673],[-2.3575444,54.9912035]]},"properties":{"site":"vindolanda","name":"","highway":"footway"}},{"type":"Feature","geometry":{"type":"LineString","coordinates":[[-2.357097,54.9911896],[-2.3569833,54.9912005],[-2.3569652,54.9912105],[-2.3569637,54.9912265],[-2.3569713,54.9912425],[-2.3569909,54.9912537],[-2.3570256,54.9912693],[-2.3570475,54.9912875],[-2.3570618,54.9913208],[-2.3570739,54.9913407],[-2.357089,54.9913577]]},"properties":{"site":"vindolanda","name":"","highway":"footway"}},{"type":"Feature","geometry":{"type":"LineString","coordinates":[[-2.3609965,54.9912029],[-2.3610453,54.9911346],[-2.3608493,54.9906297],[-2.3608373,54.9905509],[-2.3607945,54.990427]]},"properties":{"site":"vindolanda","name":"","highway":"footway"}},{"type":"Feature","geometry":{"type":"LineString","coordinates":[[-2.3602729,54.9913358],[-2.3601951,54.9913727],[-2.3599859,54.9914251],[-2.359888,54.9914374],[-2.359774,54.9914289],[-2.3597196,54.9914412],[-2.3596868,54.9914474],[-2.3595322,54.9911824],[-2.3594901,54.9911886],[-2.3594321,54.9911971]]},"properties":{"site":"vindolanda","name":"","highway":"footway"}},{"type":"Feature","geometry":{"type":"LineString","coordinates":[[-2.3623306,54.991623],[-2.3623178,54.991605]]},"properties":{"site":"vindolanda","name":"","highway":"footway"}},{"type":"Feature","geometry":{"type":"LineString","coordinates":[[-2.3627432,54.9918517],[-2.362701,54.9918305],[-2.362621,54.9917879],[-2.362552,54.991728],[-2.3624247,54.9916912],[-2.3623825,54.9916589],[-2.3623306,54.991623]]},"properties":{"site":"vindolanda","name":"","highway":"footway"}},{"type":"Feature","geometry":{"type":"LineString","coordinates":[[-2.3641228,54.991475],[-2.3644927,54.9914559],[-2.3645402,54.9914789],[-2.364602,54.9914934]]},"properties":{"site":"vindolanda","name":"","highway":"footway"}},{"type":"Feature","geometry":{"type":"LineString","coordinates":[[-2.3574642,54.9911853],[-2.3574573,54.991125]]},"properties":{"site":"vindolanda","name":"","highway":"footway"}},{"type":"Feature","geometry":{"type":"LineString","coordinates":[[-2.3574688,54.9912258],[-2.3574642,54.9911853]]},"properties":{"site":"vindolanda","name":"","highway":"footway"}},{"type":"Feature","geometry":{"type":"LineString","coordinates":[[-2.3595185,54.9924141],[-2.3595607,54.9924468],[-2.3595232,54.992476],[-2.3593944,54.9925176],[-2.3592806,54.9946566],[-2.3585254,54.9952895],[-2.3590003,54.9955761],[-2.3601915,54.9975514],[-2.3602531,54.9976187],[-2.3604517,54.9978825],[-2.3614664,54.9989036],[-2.36159,54.9991371],[-2.3615161,54.9992816],[-2.3601964,55.0008198],[-2.3602212,55.0008878]]},"properties":{"site":"vindolanda","name":"","highway":"footway"}},{"type":"Feature","geometry":{"type":"LineString","coordinates":[[-2.3585492,54.9893132],[-2.35854,54.9892831],[-2.3584943,54.9890845],[-2.3584335,54.9887353],[-2.358497,54.9886329],[-2.3586427,54.9884036],[-2.3587834,54.9880544],[-2.3588139,54.9879191],[-2.3586959,54.9877445],[-2.3586123,54.987487],[-2.358578,54.9872338],[-2.3586123,54.9870003],[-2.3586465,54.9868628],[-2.3586693,54.9867973],[-2.3589013,54.9865529],[-2.3590725,54.986339],[-2.3593301,54.9860574]]},"properties":{"site":"vindolanda","name":"","highway":"footway"}},{"type":"Feature","geometry":{"type":"LineString","coordinates":[[-2.3567793,54.9916267],[-2.3567591,54.9915723],[-2.3567172,54.9914716],[-2.35668,54.9914173],[-2.3566001,54.991234],[-2.3566457,54.9910071],[-2.3570185,54.9907845],[-2.3571084,54.9907661]]},"properties":{"site":"vindolanda","name":"","highway":"footway"}},{"type":"Feature","geometry":{"type":"LineString","coordinates":[[-2.3571084,54.9907661],[-2.3572962,54.9907278]]},"properties":{"site":"vindolanda","name":"","highway":"footway"}},{"type":"Feature","geometry":{"type":"LineString","coordinates":[[-2.3572962,54.9907278],[-2.3576046,54.9905443],[-2.3577958,54.990461],[-2.3579581,54.9904303],[-2.3580694,54.9903756],[-2.3582577,54.9902549],[-2.3584285,54.9900962],[-2.3586271,54.9899467],[-2.3586823,54.9898701],[-2.358715,54.9897086],[-2.3586237,54.9894948],[-2.358578,54.9894075],[-2.3585761,54.989401]]},"properties":{"site":"vindolanda","name":"","highway":"footway"}},{"type":"Feature","geometry":{"type":"LineString","coordinates":[[-2.3585761,54.989401],[-2.3585492,54.9893132]]},"properties":{"site":"vindolanda","name":"","highway":"footway"}},{"type":"Feature","geometry":{"type":"LineString","coordinates":[[-2.3554242,54.9921436],[-2.3557197,54.9922969],[-2.3557551,54.9923375],[-2.355741,54.9923862],[-2.3556917,54.9924136],[-2.3556175,54.9924549]]},"properties":{"site":"vindolanda","name":"","highway":"service"}},{"type":"Feature","geometry":{"type":"LineString","coordinates":[[-2.3550955,54.9921798],[-2.3550877,54.9922053],[-2.3549995,54.9922918],[-2.354934,54.9924339]]},"properties":{"site":"vindolanda","name":"","highway":"service"}},{"type":"Feature","geometry":{"type":"LineString","coordinates":[[-2.3571001,54.9911986],[-2.357097,54.9911896],[-2.3570813,54.9911332],[-2.3570942,54.9911054],[-2.3570797,54.9910069],[-2.3570759,54.9909588],[-2.3570944,54.9909126],[-2.3571386,54.9908707]]},"properties":{"site":"vindolanda","name":"","highway":"footway"}},{"type":"Feature","geometry":{"type":"LineString","coordinates":[[-2.3570239,54.991511],[-2.3569961,54.9915305],[-2.3569719,54.9915881],[-2.3569632,54.9916069],[-2.3569308,54.9916774],[-2.3569181,54.9917321],[-2.3569148,54.9917637],[-2.3569112,54.9917987],[-2.3569054,54.9918548],[-2.3568861,54.9920539],[-2.3568752,54.9921941],[-2.3568663,54.9922975],[-2.3568716,54.9924183]]},"properties":{"site":"vindolanda","name":"","highway":"service"}},{"type":"Feature","geometry":{"type":"LineString","coordinates":[[-2.3569148,54.9917637],[-2.3568329,54.9916651],[-2.3567793,54.9916267],[-2.3567149,54.9915959],[-2.3566157,54.9915697],[-2.356503,54.9915389],[-2.3564507,54.9914051]]},"properties":{"site":"vindolanda","name":"","highway":"service"}},{"type":"Feature","geometry":{"type":"LineString","coordinates":[[-2.3604071,54.9911534],[-2.3602609,54.991179],[-2.360221,54.9911651],[-2.3601852,54.9911713],[-2.3600401,54.9911999]]},"properties":{"site":"vindolanda","name":"","highway":"footway"}},{"type":"Feature","geometry":{"type":"LineString","coordinates":[[-2.3603267,54.9910071],[-2.3603501,54.9910484],[-2.3604071,54.9911534],[-2.3604852,54.9912973]]},"properties":{"site":"vindolanda","name":"","highway":"footway"}},{"type":"Feature","geometry":{"type":"LineString","coordinates":[[-2.3605276,54.9913355],[-2.3606298,54.9915168],[-2.3606142,54.9915243],[-2.3606263,54.9915461],[-2.3606436,54.9915491],[-2.3607507,54.9917553]]},"properties":{"site":"vindolanda","name":"","highway":"footway"}},{"type":"Feature","geometry":{"type":"LineString","coordinates":[[-2.3602841,54.991356],[-2.3603856,54.9913593],[-2.3605276,54.9913355],[-2.3607259,54.9913022],[-2.3607527,54.9913509]]},"properties":{"site":"vindolanda","name":"","highway":"footway"}},{"type":"Feature","geometry":{"type":"LineString","coordinates":[[-2.3608321,54.9912332],[-2.3608904,54.9913305],[-2.3609151,54.9913459],[-2.3609536,54.9913901],[-2.36099,54.9914532],[-2.3610991,54.9916763],[-2.3610878,54.9916991],[-2.3610757,54.9917095],[-2.3610549,54.991715],[-2.3609328,54.9917235],[-2.3608661,54.9917344],[-2.3607507,54.9917553],[-2.3607042,54.9917637],[-2.360686,54.9917597],[-2.3605579,54.9917796],[-2.3605051,54.9917553],[-2.3602841,54.991356],[-2.3602729,54.9913358]]},"properties":{"site":"vindolanda","name":"","highway":"footway"}},{"type":"Feature","geometry":{"type":"LineString","coordinates":[[-2.3606488,54.9909266],[-2.3606696,54.9909684],[-2.3606679,54.9909947],[-2.3607397,54.9911204],[-2.3608074,54.9912389]]},"properties":{"site":"vindolanda","name":"","highway":"footway"}},{"type":"Feature","geometry":{"type":"LineString","coordinates":[[-2.3595322,54.9911824],[-2.3595595,54.9911661],[-2.3596288,54.9911383],[-2.3600583,54.9910498],[-2.3603267,54.9910071],[-2.3605033,54.9909748],[-2.3605423,54.9909858],[-2.3606046,54.9909788],[-2.3606679,54.9909947]]},"properties":{"site":"vindolanda","name":"","highway":"footway"}},{"type":"Feature","geometry":{"type":"LineString","coordinates":[[-2.357555,54.9916559],[-2.3574233,54.9916539],[-2.3573644,54.9916837]]},"properties":{"site":"vindolanda","name":"","highway":"footway"}},{"type":"Feature","geometry":{"type":"LineString","coordinates":[[-2.3576926,54.9915933],[-2.357555,54.9916559],[-2.357374,54.9917384],[-2.3572978,54.9917543],[-2.3572164,54.9917592],[-2.3570227,54.9917596],[-2.3569636,54.9917689],[-2.3569112,54.9917987]]},"properties":{"site":"vindolanda","name":"","highway":"footway"}},{"type":"Feature","geometry":{"type":"LineString","coordinates":[[-2.3658719,54.9922003],[-2.3658182,54.9922094],[-2.3657507,54.9922202],[-2.3656433,54.9922003],[-2.3654563,54.9921954],[-2.3652831,54.9922033],[-2.365245,54.9921994],[-2.3651723,54.9922003],[-2.3650978,54.9921904],[-2.3650214,54.9921904],[-2.364748,54.9921805],[-2.3646597,54.9921666],[-2.3645592,54.9921676],[-2.3644449,54.9921546],[-2.3640899,54.9921189],[-2.3637764,54.9921994],[-2.3634214,54.9923027],[-2.3633487,54.9923414],[-2.3630647,54.9924189],[-2.3630023,54.9924487],[-2.3628707,54.9924815],[-2.3627114,54.9925729],[-2.3626542,54.9926464],[-2.3626716,54.9926872],[-2.3627114,54.99272],[-2.3627529,54.9927577],[-2.3627772,54.9927994],[-2.3627876,54.9928422],[-2.3627737,54.99287],[-2.3627287,54.9929177],[-2.3626594,54.9929604],[-2.3625624,54.9930031],[-2.3625469,54.993026],[-2.3625382,54.9930508],[-2.3625192,54.9930558],[-2.362514,54.9931015],[-2.3624845,54.9931293],[-2.3624793,54.9931809],[-2.3624862,54.9932256],[-2.3624551,54.9932614],[-2.3624516,54.9932912],[-2.3625365,54.9933498],[-2.3626801,54.99337],[-2.3627874,54.99343],[-2.362811,54.9934884],[-2.3628223,54.9935593],[-2.3628464,54.9936039],[-2.3630261,54.9936378]]},"properties":{"site":"vindolanda","name":"","highway":"path"}},{"type":"Feature","geometry":{"type":"LineString","coordinates":[[-2.3652929,54.9915876],[-2.3652862,54.9916258],[-2.3652814,54.9916663],[-2.3652658,54.9916897],[-2.3652,54.9917652],[-2.3651757,54.9918496],[-2.3651307,54.9919261],[-2.3650424,54.9920175],[-2.3650233,54.9920702],[-2.3650216,54.9921159],[-2.3650233,54.9921686],[-2.3650214,54.9921904],[-2.3650199,54.9922073],[-2.3650614,54.992253],[-2.3651065,54.9923206],[-2.3651342,54.9923921],[-2.365103,54.9924954],[-2.3653939,54.9927299],[-2.365358,54.9928031],[-2.3653901,54.9928613],[-2.3654301,54.9929271],[-2.3653901,54.9929899],[-2.3653234,54.9930159],[-2.3652326,54.9930358],[-2.3651366,54.9930526]]},"properties":{"site":"vindolanda","name":"","highway":"footway"}},{"type":"Feature","geometry":{"type":"LineString","coordinates":[[-2.3578897,54.9923402],[-2.3579801,54.9924519],[-2.3579773,54.9925223],[-2.3579519,54.9925682],[-2.3579186,54.9925973],[-2.3578506,54.992657],[-2.3578412,54.9927052],[-2.3578532,54.9927894],[-2.3579493,54.9928904],[-2.358088,54.993071],[-2.3582374,54.9934108],[-2.3583335,54.9936648],[-2.3584508,54.9939005],[-2.3586056,54.9941056],[-2.3589311,54.9944239],[-2.3591072,54.9945984],[-2.3592806,54.9946566],[-2.3594433,54.9946168],[-2.3596968,54.9945479],[-2.3598648,54.994554],[-2.3600009,54.9945846]]},"properties":{"site":"vindolanda","name":"","highway":"path"}},{"type":"Feature","geometry":{"type":"LineString","coordinates":[[-2.3648698,54.9925782],[-2.3647898,54.9926746],[-2.3646644,54.9927082],[-2.3646057,54.9927526],[-2.3645737,54.9928552],[-2.3644883,54.9929072],[-2.3643602,54.9929593],[-2.3643416,54.9930067],[-2.3643149,54.9930603],[-2.3642429,54.9931016],[-2.3641148,54.9931184],[-2.3640454,54.9931383]]},"properties":{"site":"vindolanda","name":"","highway":"path"}},{"type":"Feature","geometry":{"type":"LineString","coordinates":[[-2.3657507,54.9922202],[-2.3656648,54.9922843],[-2.36519,54.9924588],[-2.365103,54.9924954],[-2.3649845,54.9925307],[-2.3648698,54.9925782],[-2.3647364,54.9925919],[-2.3645337,54.9926486],[-2.364443,54.9926577],[-2.3641975,54.9927021],[-2.3639707,54.9927373],[-2.3636693,54.992823],[-2.3635385,54.9928751],[-2.3634452,54.9929225]]},"properties":{"site":"vindolanda","name":"","highway":"path"}},{"type":"Feature","geometry":{"type":"LineString","coordinates":[[-2.3596562,54.9904461],[-2.3596981,54.9905303],[-2.3597301,54.9905433],[-2.3598263,54.9905266],[-2.3600449,54.9904866]]},"properties":{"site":"vindolanda","name":"","highway":"footway"}},{"type":"Feature","geometry":{"type":"LineString","coordinates":[[-2.3600583,54.9910498],[-2.3599702,54.9908563],[-2.3598426,54.990564],[-2.3598263,54.9905266]]},"properties":{"site":"vindolanda","name":"","highway":"path"}},{"type":"Feature","geometry":{"type":"LineString","coordinates":[[-2.3594901,54.9911886],[-2.3595073,54.9911609],[-2.3593968,54.9909465],[-2.3593219,54.9908012],[-2.3593353,54.9907774],[-2.359598,54.9907315]]},"properties":{"site":"vindolanda","name":"","highway":"path"}},{"type":"Feature","geometry":{"type":"LineString","coordinates":[[-2.3614766,54.9903916],[-2.361591,54.9903718],[-2.3615389,54.9902693]]},"properties":{"site":"vindolanda","name":"","highway":"footway"}},{"type":"Feature","geometry":{"type":"LineString","coordinates":[[-2.3614955,54.9902752],[-2.3614656,54.9902092]]},"properties":{"site":"vindolanda","name":"","highway":"footway"}},{"type":"Feature","geometry":{"type":"LineString","coordinates":[[-2.3615025,54.9904225],[-2.3614766,54.9903916],[-2.3614562,54.990368],[-2.3614478,54.9903487],[-2.3614202,54.9902854],[-2.3614955,54.9902752],[-2.3615389,54.9902693]]},"properties":{"site":"vindolanda","name":"","highway":"footway"}},{"type":"Feature","geometry":{"type":"LineString","coordinates":[[-2.3603237,54.9903186],[-2.3601796,54.9902172],[-2.3600649,54.9902127]]},"properties":{"site":"vindolanda","name":"","highway":"footway"}},{"type":"Feature","geometry":{"type":"LineString","coordinates":[[-2.3569632,54.9916069],[-2.357109,54.9915739],[-2.3571931,54.9915723],[-2.3572124,54.9916102],[-2.3572372,54.9916229],[-2.3573157,54.9915889],[-2.3573598,54.9915881]]},"properties":{"site":"vindolanda","name":"","highway":"footway"}},{"type":"Feature","geometry":{"type":"LineString","coordinates":[[-2.365428,54.9914574],[-2.3653865,54.9912758],[-2.3657513,54.9912258],[-2.3658411,54.9912443],[-2.3658746,54.9912858],[-2.3658773,54.9913274],[-2.3658398,54.9913597],[-2.3656815,54.9914382]]},"properties":{"site":"vindolanda","name":"","highway":"service"}},{"type":"Feature","geometry":{"type":"LineString","coordinates":[[-2.3641339,54.991285],[-2.3642023,54.9912773],[-2.3643391,54.9913266],[-2.3644544,54.9913435],[-2.364559,54.9913335],[-2.3646717,54.991252],[-2.3647615,54.9912273],[-2.3648407,54.9912293],[-2.3648876,54.9912477],[-2.3649124,54.9913254],[-2.3649728,54.9914381],[-2.3650144,54.9914842],[-2.3650794,54.9914986],[-2.3651766,54.9914931],[-2.3652188,54.9914766],[-2.365428,54.9914574],[-2.3656815,54.9914382]]},"properties":{"site":"vindolanda","name":"","highway":"service"}},{"type":"Feature","geometry":{"type":"LineString","coordinates":[[-2.3583564,54.9921207],[-2.3583323,54.9920406]]},"properties":{"site":"vindolanda","name":"","highway":"service"}},{"type":"Feature","geometry":{"type":"LineString","coordinates":[[-2.3587138,54.9921341],[-2.3586997,54.9920652]]},"properties":{"site":"vindolanda","name":"","highway":"service"}},{"type":"Feature","geometry":{"type":"LineString","coordinates":[[-2.3589378,54.9922606],[-2.3589887,54.9922748],[-2.359031,54.992281]]},"properties":{"site":"vindolanda","name":"","highway":"service"}},{"type":"Feature","geometry":{"type":"LineString","coordinates":[[-2.3587727,54.9923439],[-2.3587938,54.9923282],[-2.3588976,54.9922741],[-2.3589378,54.9922606],[-2.3589452,54.9922464],[-2.3589378,54.9922306],[-2.3587834,54.9921516],[-2.3587628,54.992141],[-2.3587138,54.9921341],[-2.3584811,54.9921214],[-2.3583564,54.9921207],[-2.3582384,54.9921237],[-2.3581646,54.9921352],[-2.3580547,54.9921752],[-2.357993,54.9922214],[-2.3579822,54.9922408],[-2.3579749,54.9923126]]},"properties":{"site":"vindolanda","name":"","highway":"service"}},{"type":"Feature","geometry":{"type":"LineString","coordinates":[[-2.3654272,54.9909073],[-2.3654884,54.9908926],[-2.3655353,54.990898],[-2.3658344,54.9908642],[-2.3665063,54.9908196],[-2.3665707,54.9908019],[-2.36669,54.9907911],[-2.366733,54.9907803],[-2.3669046,54.9907711],[-2.3669904,54.9907757],[-2.3670253,54.9907526],[-2.3670347,54.9907203],[-2.3670535,54.9907026],[-2.3672818,54.9906849]]},"properties":{"site":"vindolanda","name":"","highway":"path"}},{"type":"Feature","geometry":{"type":"LineString","coordinates":[[-2.3649201,54.9909822],[-2.3648916,54.9909203],[-2.3648715,54.9908034],[-2.3649091,54.9906834],[-2.364901,54.9905587],[-2.3648581,54.9904818],[-2.3648098,54.9903702],[-2.3647991,54.9902771]]},"properties":{"site":"vindolanda","name":"","highway":"path"}},{"type":"Feature","geometry":{"type":"LineString","coordinates":[[-2.3660034,54.9901355],[-2.3658961,54.9902679],[-2.3656547,54.9904002],[-2.3654991,54.9905264],[-2.3653007,54.9906526],[-2.3651196,54.9907649],[-2.3650083,54.9908419],[-2.364956,54.9908965],[-2.3649439,54.9909503]]},"properties":{"site":"vindolanda","name":"","highway":"path"}},{"type":"Feature","geometry":{"type":"LineString","coordinates":[[-2.3648956,54.991015],[-2.3649201,54.9909822],[-2.3649439,54.9909503],[-2.3650499,54.9908803],[-2.3651733,54.9908372],[-2.365365,54.9907672],[-2.3655058,54.9907326],[-2.365825,54.9906303],[-2.3658492,54.9906072],[-2.3659243,54.990588],[-2.3661415,54.9904826],[-2.3663038,54.9904318],[-2.366403,54.9903771],[-2.3665747,54.9903179],[-2.366682,54.9902579],[-2.3668362,54.9901463],[-2.3670092,54.990094],[-2.3670709,54.990084],[-2.3671608,54.9900863],[-2.3672699,54.9900925]]},"properties":{"site":"vindolanda","name":"","highway":"path"}},{"type":"Feature","geometry":{"type":"LineString","coordinates":[[-2.3672671,54.9903979],[-2.3671916,54.990431],[-2.3670991,54.9904379],[-2.367032,54.990441],[-2.3668148,54.9905041],[-2.3665439,54.9905664],[-2.3664044,54.9906149],[-2.3662542,54.9906495],[-2.3661818,54.9906818],[-2.3660785,54.9906995],[-2.3658358,54.9907818],[-2.3655608,54.9908534],[-2.3654272,54.9909073],[-2.3653758,54.990928],[-2.3652028,54.9909542],[-2.3650981,54.9909811],[-2.3650391,54.9910027],[-2.3649976,54.9910119],[-2.3649184,54.9910196]]},"properties":{"site":"vindolanda","name":"","highway":"path"}},{"type":"Feature","geometry":{"type":"LineString","coordinates":[[-2.3551231,54.9925527],[-2.3550224,54.9925176],[-2.3548856,54.9924868],[-2.3546979,54.9924699],[-2.3543599,54.9924314],[-2.35425,54.9923899],[-2.3541105,54.9923299],[-2.3539388,54.9922745],[-2.3536438,54.9922329]]},"properties":{"site":"vindolanda","name":"","highway":"path"}},{"type":"Feature","geometry":{"type":"LineString","coordinates":[[-2.3548991,54.9926607],[-2.3548937,54.9927407],[-2.3549581,54.9928146],[-2.3550385,54.9928807],[-2.3551083,54.99293],[-2.3551512,54.99297],[-2.35517,54.9930046]]},"properties":{"site":"vindolanda","name":"","highway":"path"}},{"type":"Feature","geometry":{"type":"LineString","coordinates":[[-2.3555505,54.9924224],[-2.3553631,54.9924376],[-2.3551995,54.9924807],[-2.3551754,54.9925012],[-2.3551506,54.9925224],[-2.3551231,54.9925527],[-2.3550949,54.9925838],[-2.3549822,54.9926376],[-2.3548991,54.9926607],[-2.3547488,54.9926653],[-2.3540837,54.9927776]]},"properties":{"site":"vindolanda","name":"","highway":"path"}},{"type":"Feature","geometry":{"type":"LineString","coordinates":[[-2.3507101,54.9933289],[-2.3509321,54.9933208],[-2.3510179,54.9933393],[-2.3511574,54.9933193],[-2.3513076,54.9933131],[-2.3514712,54.9933439],[-2.351616,54.9933454],[-2.3517327,54.9933223],[-2.3518507,54.9932754],[-2.3520599,54.9932362],[-2.3522799,54.9931962],[-2.3525119,54.9931185],[-2.3526983,54.9930731],[-2.3528405,54.9930731],[-2.3529638,54.9930938],[-2.3530228,54.9931138],[-2.3530886,54.9931362],[-2.3531838,54.9931415],[-2.3532884,54.9931423],[-2.3534346,54.9931377],[-2.3536062,54.9931554],[-2.3537993,54.9931777],[-2.3540448,54.9931846],[-2.3541132,54.99317],[-2.354144,54.9931554],[-2.3542245,54.9931546],[-2.3545048,54.9930977],[-2.3548789,54.9930138],[-2.3549728,54.9929861],[-2.3550586,54.9929784],[-2.3551284,54.9929861],[-2.35517,54.9930046],[-2.3551981,54.9930284],[-2.3552035,54.9930508],[-2.3551995,54.9931538],[-2.3551834,54.9931915],[-2.3551847,54.9932131],[-2.3552007,54.9932403]]},"properties":{"site":"vindolanda","name":"","highway":"path"}},{"type":"Feature","geometry":{"type":"LineString","coordinates":[[-2.35368,54.9934593],[-2.3538423,54.9935062],[-2.3539107,54.9935154],[-2.3540314,54.9935154],[-2.3541869,54.9934754],[-2.354309,54.993417],[-2.3544699,54.993367],[-2.354541,54.9933293],[-2.3545678,54.993307],[-2.3546107,54.9933],[-2.3546429,54.9933046],[-2.3546898,54.9933039],[-2.3547488,54.9932793],[-2.3548119,54.9932454],[-2.3548628,54.9932469],[-2.3549071,54.99326],[-2.3550197,54.9932439],[-2.3550855,54.9932323],[-2.3551686,54.9932362],[-2.3552007,54.9932403],[-2.3552343,54.9932446]]},"properties":{"site":"vindolanda","name":"","highway":"path"}},{"type":"Feature","geometry":{"type":"LineString","coordinates":[[-2.35563,54.9949849],[-2.355756,54.9949526],[-2.3557949,54.9949064],[-2.3558982,54.9948549],[-2.355976,54.9948125],[-2.3559917,54.994788],[-2.3560041,54.9947687],[-2.3560014,54.9947041],[-2.3560484,54.9946302],[-2.3561865,54.9945448],[-2.3561919,54.9945164],[-2.3561811,54.9944163],[-2.3561651,54.9943586],[-2.3561516,54.9943248],[-2.3561557,54.9942709],[-2.3561503,54.9942009],[-2.3561195,54.9941148],[-2.3560846,54.9939824],[-2.3560645,54.9939278],[-2.3560363,54.9939093],[-2.3559947,54.9938301],[-2.3559988,54.9937924],[-2.35598,54.993757],[-2.3559491,54.993707],[-2.3559049,54.9936585],[-2.3559062,54.9936316],[-2.355748,54.9935208],[-2.3556635,54.9934962],[-2.3555951,54.9934585],[-2.355516,54.9933947],[-2.3553832,54.9933523],[-2.3553014,54.9933077],[-2.3552665,54.9932693],[-2.3552611,54.9932492],[-2.3552343,54.9932446]]},"properties":{"site":"vindolanda","name":"","highway":"path"}},{"type":"Feature","geometry":{"type":"LineString","coordinates":[[-2.3570942,54.9911054],[-2.3571481,54.9910708],[-2.3572427,54.9911008]]},"properties":{"site":"vindolanda","name":"","highway":"footway"}},{"type":"Feature","geometry":{"type":"LineString","coordinates":[[-2.3570797,54.9910069],[-2.3569644,54.9909919]]},"properties":{"site":"vindolanda","name":"","highway":"footway"}},{"type":"Feature","geometry":{"type":"LineString","coordinates":[[-2.3581277,54.9908311],[-2.3580969,54.9907911],[-2.3580694,54.9903756]]},"properties":{"site":"vindolanda","name":"","highway":"path"}},{"type":"Feature","geometry":{"type":"LineString","coordinates":[[-2.3589368,54.9920956],[-2.3589639,54.9921021],[-2.3590022,54.9921052],[-2.359033,54.9921017],[-2.3590612,54.9920829],[-2.3590565,54.992051],[-2.3590156,54.9920171],[-2.3589794,54.9919909]]},"properties":{"site":"vindolanda","name":"","highway":"path"}},{"type":"Feature","geometry":{"type":"LineString","coordinates":[[-2.3589368,54.9920956],[-2.3588081,54.9921309]]},"properties":{"site":"vindolanda","name":"","highway":"footway"}},{"type":"Feature","geometry":{"type":"LineString","coordinates":[[-2.3587834,54.9921516],[-2.3587916,54.9921383],[-2.3588081,54.9921309]]},"properties":{"site":"vindolanda","name":"","highway":"footway"}},{"type":"Feature","geometry":{"type":"LineString","coordinates":[[-2.3567122,54.9932562],[-2.3566371,54.9932854],[-2.3565942,54.993367],[-2.3565808,54.9934347],[-2.3566023,54.9934885],[-2.3565969,54.9935301],[-2.3565969,54.9935731],[-2.3565727,54.9936285],[-2.3566023,54.9936809],[-2.3565486,54.9938201]]},"properties":{"site":"vindolanda","name":"","highway":"path"}},{"type":"Feature","geometry":{"type":"LineString","coordinates":[[-2.3565231,54.9941248],[-2.3565359,54.9940882],[-2.356564,54.9940474],[-2.3565694,54.9939832],[-2.3565394,54.9939209]]},"properties":{"site":"vindolanda","name":"","highway":"path"}},{"type":"Feature","geometry":{"type":"LineString","coordinates":[[-2.3572606,54.9926253],[-2.3572674,54.9926692],[-2.3572621,54.9926915],[-2.3573425,54.9927584],[-2.3572996,54.9928015],[-2.3572715,54.992833],[-2.3572527,54.9928761],[-2.3572031,54.9929115],[-2.3571467,54.992963],[-2.3571186,54.9930731],[-2.3571266,54.9931085],[-2.3571213,54.9931892],[-2.3570837,54.99325],[-2.3570462,54.9932777],[-2.3569389,54.9933246],[-2.3568946,54.993367],[-2.3568276,54.9934285],[-2.3567538,54.9934685],[-2.3567109,54.9935201],[-2.3567109,54.9935693],[-2.3566586,54.9936947],[-2.356621,54.9937355],[-2.3565821,54.9937716],[-2.3565486,54.9938201],[-2.3565486,54.9938709],[-2.3565394,54.9939209],[-2.3565379,54.9939294],[-2.3565017,54.9939694],[-2.3564816,54.9939963],[-2.3565017,54.9940332],[-2.3565137,54.9940809],[-2.3565231,54.9941248],[-2.3565204,54.9941455],[-2.3565432,54.9942355],[-2.3565258,54.9942794],[-2.3565111,54.9943502],[-2.3564366,54.9944012]]},"properties":{"site":"vindolanda","name":"","highway":"path"}},{"type":"Feature","geometry":{"type":"LineString","coordinates":[[-2.3557654,54.9928915],[-2.3557895,54.992953],[-2.3558284,54.9929954],[-2.3558714,54.9930631],[-2.3558834,54.9931131],[-2.3558673,54.9931823],[-2.3558298,54.9932439]]},"properties":{"site":"vindolanda","name":"","highway":"path"}},{"type":"Feature","geometry":{"type":"LineString","coordinates":[[-2.3551754,54.9925012],[-2.3552987,54.9925314],[-2.3553738,54.9926007],[-2.3554194,54.9926545],[-2.3555535,54.9927022],[-2.3556286,54.9927838],[-2.3556608,54.9928376],[-2.3557654,54.9928915],[-2.3559558,54.9929238],[-2.3561275,54.9929146],[-2.3562589,54.9928884],[-2.3564735,54.992833],[-2.3567659,54.9927161],[-2.3569831,54.9926484],[-2.3571762,54.9926114],[-2.3572606,54.9926253],[-2.3572889,54.9926299]]},"properties":{"site":"vindolanda","name":"","highway":"path"}},{"type":"Feature","geometry":{"type":"LineString","coordinates":[[-2.3559114,54.9898832],[-2.3555669,54.9899232],[-2.3554328,54.9899555],[-2.3552397,54.9900217],[-2.3550788,54.9901525],[-2.3549983,54.9903233],[-2.3548991,54.9904218],[-2.3548667,54.9905183],[-2.3548883,54.9905803],[-2.3548776,54.9906649],[-2.3548239,54.9907634],[-2.3548079,54.9909973],[-2.3547703,54.9915328],[-2.3546469,54.9916959],[-2.3545435,54.9918042],[-2.3544722,54.9918475]]},"properties":{"site":"vindolanda","name":"","highway":"path"}},{"type":"Feature","geometry":{"type":"LineString","coordinates":[[-2.3561908,54.9902317],[-2.356216,54.9901632],[-2.356216,54.9900509],[-2.3562241,54.9897078],[-2.3563099,54.9893015],[-2.356399,54.989218],[-2.3564386,54.9890768],[-2.3564869,54.988806],[-2.3565191,54.9885951],[-2.3566264,54.988449],[-2.3567578,54.9884428],[-2.3569214,54.9884659],[-2.3572151,54.9884482]]},"properties":{"site":"vindolanda","name":"","highway":"path"}},{"type":"Feature","geometry":{"type":"LineString","coordinates":[[-2.3573265,54.9889214],[-2.3573479,54.9888737],[-2.3573747,54.9888183],[-2.3573479,54.9887429],[-2.3572889,54.9886644],[-2.3572527,54.9885421],[-2.3572138,54.988482],[-2.3572151,54.9884482],[-2.3572674,54.9883766],[-2.3572849,54.9883205],[-2.3572902,54.9882551],[-2.3572621,54.9881973],[-2.3571521,54.9881366],[-2.3569174,54.9880842],[-2.356672,54.9880881],[-2.3565593,54.9881073],[-2.3564628,54.9881058],[-2.3562898,54.9880973],[-2.3561959,54.9880581],[-2.3561516,54.9880211],[-2.35609,54.9879742],[-2.3559968,54.9879475],[-2.3560122,54.9878926],[-2.3560229,54.9878411],[-2.3560242,54.987818],[-2.3560631,54.9877765],[-2.3560926,54.9876002],[-2.3560631,54.9875064],[-2.3560376,54.9874302],[-2.3560497,54.9872632],[-2.3560953,54.9870608],[-2.3560551,54.9869916],[-2.3561597,54.9868315]]},"properties":{"site":"vindolanda","name":"","highway":"path"}},{"type":"Feature","geometry":{"type":"LineString","coordinates":[[-2.3597196,54.9914412],[-2.3597391,54.9914797],[-2.3597284,54.9914916],[-2.3596479,54.9915051],[-2.3596224,54.9915097]]},"properties":{"site":"vindolanda","name":"","highway":"path"}},{"type":"Feature","geometry":{"type":"LineString","coordinates":[[-2.3605051,54.9917553],[-2.3605008,54.9917921],[-2.3605531,54.9918375],[-2.3605709,54.991873],[-2.3606028,54.9919306]]},"properties":{"site":"vindolanda","name":"","highway":"path"}},{"type":"Feature","geometry":{"type":"LineString","coordinates":[[-2.3650144,54.9914842],[-2.364602,54.9914934],[-2.3644959,54.9915061]]},"properties":{"site":"vindolanda","name":"","highway":"footway"}},{"type":"Feature","geometry":{"type":"LineString","coordinates":[[-2.3622014,54.991297],[-2.3620022,54.9912385],[-2.3612116,54.9911935],[-2.3609965,54.9912029]]},"properties":{"site":"vindolanda","name":"","highway":"footway"}},{"type":"Feature","geometry":{"type":"LineString","coordinates":[[-2.3609965,54.9912029],[-2.3609135,54.9912192],[-2.3608321,54.9912332],[-2.3608074,54.9912389],[-2.3604852,54.9912973],[-2.3602729,54.9913358]]},"properties":{"site":"vindolanda","name":"","highway":"footway"}},{"type":"Feature","geometry":{"type":"LineString","coordinates":[[-2.3602729,54.9913358],[-2.3601852,54.9911713],[-2.360179,54.9911596]]},"properties":{"site":"vindolanda","name":"","highway":"footway"}},{"type":"Feature","geometry":{"type":"LineString","coordinates":[[-2.3623178,54.991605],[-2.3622922,54.9915706],[-2.3622,54.9914039],[-2.3621833,54.9913704],[-2.3621779,54.991337],[-2.3622014,54.991297],[-2.3622436,54.9912096],[-2.362255,54.9911758],[-2.362257,54.9911381],[-2.362247,54.9911073],[-2.3622027,54.9910181],[-2.3621652,54.9909619],[-2.3621102,54.9909215],[-2.36209,54.9908996],[-2.3618339,54.9904795],[-2.3617977,54.9904325],[-2.3617394,54.9904044]]},"properties":{"site":"vindolanda","name":"","highway":"footway"}},{"type":"Feature","geometry":{"type":"LineString","coordinates":[[-2.3624247,54.9916912],[-2.3630633,54.99165],[-2.3638597,54.9916143]]},"properties":{"site":"vindolanda","name":"","highway":"footway"}},{"type":"Feature","geometry":{"type":"LineString","coordinates":[[-2.3575444,54.9912035],[-2.3574688,54.9912258],[-2.3573283,54.9912439],[-2.3572979,54.9912399],[-2.3572798,54.9912139],[-2.3572557,54.9911975],[-2.3572217,54.9911862],[-2.3571531,54.9911845],[-2.357097,54.9911896]]},"properties":{"site":"vindolanda","name":"","highway":"footway"}},{"type":"Feature","geometry":{"type":"LineString","coordinates":[[-2.3571001,54.9911986],[-2.3571078,54.9912215]]},"properties":{"site":"vindolanda","name":"","highway":"steps"}},{"type":"Feature","geometry":{"type":"LineString","coordinates":[[-2.3571234,54.9912682],[-2.3571078,54.9912215]]},"properties":{"site":"vindolanda","name":"","highway":"footway"}},{"type":"Feature","geometry":{"type":"LineString","coordinates":[[-2.3571234,54.9912682],[-2.3571448,54.9913256],[-2.357101,54.9913312],[-2.357089,54.9913577]]},"properties":{"site":"vindolanda","name":"","highway":"footway"}},{"type":"Feature","geometry":{"type":"LineString","coordinates":[[-2.3638429,54.9914845],[-2.3639475,54.9914828],[-2.3641228,54.991475]]},"properties":{"site":"vindolanda","name":"","highway":"footway"}},{"type":"Feature","geometry":{"type":"LineString","coordinates":[[-2.3580969,54.9907911],[-2.3580547,54.9907565],[-2.3579997,54.9907495],[-2.3579367,54.9907534],[-2.3578468,54.9907788],[-2.357769,54.9907942],[-2.3576818,54.9907949],[-2.3575585,54.9907857],[-2.3574793,54.9907826],[-2.3574418,54.9907919],[-2.3573942,54.9908241]]},"properties":{"site":"vindolanda","name":"","highway":"footway"}},{"type":"Feature","geometry":{"type":"LineString","coordinates":[[-2.3613055,54.9903629],[-2.3613012,54.9903456]]},"properties":{"site":"vindolanda","name":"","highway":"footway"}},{"type":"Feature","geometry":{"type":"LineString","coordinates":[[-2.3613591,54.9903576],[-2.3613055,54.9903629]]},"properties":{"site":"vindolanda","name":"","highway":"steps"}},{"type":"Feature","geometry":{"type":"LineString","coordinates":[[-2.3614478,54.9903487],[-2.3613591,54.9903576]]},"properties":{"site":"vindolanda","name":"","highway":"footway"}}]}