{"type":"FeatureCollection","features":[{"type":"Feature","geometry":{"type":"LineString","coordinates":[[-5.5558245,34.0749658],[-5.5557094,34.0746737],[-5.5555004,34.0742706],[-5.5554737,34.074239],[-5.5554392,34.0742244],[-5.5553863,34.0742019],[-5.5553495,34.074175],[-5.5553057,34.074126],[-5.5551896,34.0739898],[-5.5551384,34.0739296],[-5.5550387,34.0737578],[-5.554973,34.0736366],[-5.5549136,34.0734739],[-5.554887,34.0733775],[-5.5548617,34.0732689],[-5.5547729,34.0729501],[-5.554746,34.0728537],[-5.5547083,34.0727188],[-5.5546975,34.0726799],[-5.5546616,34.0725511]]},"properties":{"site":"volubilis","name":"Cardo","highway":"pedestrian"}},{"type":"Feature","geometry":{"type":"LineString","coordinates":[[-5.5549979,34.0710784],[-5.555019,34.0710872],[-5.5550561,34.0714605],[-5.5550841,34.0716996],[-5.5551144,34.0718025],[-5.5551305,34.0719692],[-5.5552092,34.0725501],[-5.5551405,34.0725788],[-5.5550701,34.0726688],[-5.5550428,34.0727932],[-5.5550035,34.0728611],[-5.5549628,34.0729497]]},"properties":{"site":"volubilis","name":"","highway":"footway"}},{"type":"Feature","geometry":{"type":"LineString","coordinates":[[-5.554104,34.0742995],[-5.5540141,34.074205],[-5.5539715,34.0741063],[-5.5538795,34.0740188],[-5.5538072,34.0739399],[-5.5537978,34.0739158],[-5.5537126,34.0738058],[-5.5536774,34.0736858],[-5.5536649,34.0735619],[-5.5537081,34.0734482],[-5.5536683,34.0732755],[-5.55369,34.0731026],[-5.5537061,34.07301],[-5.5537096,34.0727695],[-5.5536828,34.0721336],[-5.5537025,34.0717785],[-5.5538973,34.0716091],[-5.5539901,34.0715201],[-5.5540346,34.0714616],[-5.5542199,34.0713392],[-5.5542567,34.0712995],[-5.5542956,34.071181],[-5.5543222,34.0711029],[-5.5546343,34.0711473],[-5.5545914,34.0712308],[-5.5545276,34.0714705],[-5.5543964,34.0717097],[-5.5543581,34.0718096],[-5.5543212,34.0719178],[-5.5542728,34.0720105],[-5.5542252,34.0720738],[-5.5541818,34.0722653],[-5.554197,34.0723335],[-5.5542151,34.0724275],[-5.5542031,34.0725587],[-5.5541946,34.0726519],[-5.5542116,34.0727464],[-5.554217,34.0728866]]},"properties":{"site":"volubilis","name":"","highway":"footway"}},{"type":"Feature","geometry":{"type":"LineString","coordinates":[[-5.553082,34.075053],[-5.5528867,34.0748646],[-5.5527928,34.0747388]]},"properties":{"site":"volubilis","name":"","highway":"footway"}},{"type":"Feature","geometry":{"type":"LineString","coordinates":[[-5.5538072,34.0739399],[-5.553103,34.0744794],[-5.5529556,34.0746026],[-5.5527928,34.0747388]]},"properties":{"site":"volubilis","name":"","highway":"footway"}},{"type":"Feature","geometry":{"type":"LineString","coordinates":[[-5.5516327,34.0767488],[-5.5516453,34.0767398],[-5.5517562,34.0766548],[-5.5527155,34.0759543],[-5.5528754,34.0758376],[-5.5529483,34.0757843],[-5.5532486,34.075565],[-5.5534131,34.0754449],[-5.5537228,34.0752188],[-5.5539131,34.0750798],[-5.554017,34.0750039],[-5.5541687,34.0748932],[-5.5542742,34.0748161],[-5.5545776,34.0745946],[-5.5546373,34.074551],[-5.5546834,34.0745173],[-5.5548542,34.0744233],[-5.5549856,34.074351],[-5.5551905,34.0742465],[-5.5553057,34.074126],[-5.5553598,34.0740922]]},"properties":{"site":"volubilis","name":"Decumanus maximus","highway":"pedestrian"}},{"type":"Feature","geometry":{"type":"LineString","coordinates":[[-5.5528754,34.0758376],[-5.5527283,34.0757125],[-5.552638,34.075577],[-5.552558,34.0755093],[-5.5525461,34.0754557],[-5.5526023,34.0753428],[-5.5527509,34.0752512],[-5.552825,34.0752054],[-5.5528597,34.0751848],[-5.553082,34.075053],[-5.5533837,34.0748302],[-5.5534377,34.0747904],[-5.5538039,34.0745206],[-5.554104,34.0742995]]},"properties":{"site":"volubilis","name":"","highway":"footway"}},{"type":"Feature","geometry":{"type":"LineString","coordinates":[[-5.5548617,34.0732689],[-5.5547729,34.0729501],[-5.5549628,34.0729497],[-5.5550022,34.0729695],[-5.5550685,34.0732371],[-5.5548617,34.0732689]]},"properties":{"site":"volubilis","name":"","highway":"pedestrian"}},{"type":"Feature","geometry":{"type":"LineString","coordinates":[[-5.5543964,34.0717097],[-5.5545744,34.0717235],[-5.5547976,34.0717249],[-5.5550841,34.0716996]]},"properties":{"site":"volubilis","name":"","highway":"footway"}},{"type":"Feature","geometry":{"type":"LineString","coordinates":[[-5.5458752,34.0773262],[-5.5473301,34.076817],[-5.5474666,34.0768033],[-5.5475832,34.0768223],[-5.5508691,34.0771359],[-5.5510031,34.0771281],[-5.5511319,34.0771011],[-5.5512253,34.0770575],[-5.5513504,34.0769724],[-5.5516327,34.0767488]]},"properties":{"site":"volubilis","name":"","highway":"service"}},{"type":"Feature","geometry":{"type":"LineString","coordinates":[[-5.5541688,34.0729691],[-5.5541632,34.0731325],[-5.5541768,34.0732299],[-5.5541802,34.0732948],[-5.5541865,34.0733949],[-5.5542177,34.0734542],[-5.5542406,34.0736379]]},"properties":{"site":"volubilis","name":"","highway":"footway"}},{"type":"Feature","geometry":{"type":"LineString","coordinates":[[-5.554197,34.0723335],[-5.5547876,34.072242]]},"properties":{"site":"volubilis","name":"","highway":"footway"}},{"type":"Feature","geometry":{"type":"LineString","coordinates":[[-5.5533251,34.0736473],[-5.5533419,34.0736668],[-5.5534961,34.0737266],[-5.5536262,34.0736877],[-5.5536774,34.0736858],[-5.5538829,34.0736971],[-5.5540024,34.0736913],[-5.5542406,34.0736379],[-5.5546698,34.0735661],[-5.5549136,34.0734739],[-5.5550666,34.073502],[-5.5550854,34.0735927],[-5.5551358,34.0736811],[-5.5550387,34.0737578]]},"properties":{"site":"volubilis","name":"","highway":"footway"}},{"type":"Feature","geometry":{"type":"LineString","coordinates":[[-5.5542728,34.0720105],[-5.5545455,34.0720297],[-5.55473,34.0720214],[-5.5551305,34.0719692]]},"properties":{"site":"volubilis","name":"","highway":"footway"}},{"type":"Feature","geometry":{"type":"LineString","coordinates":[[-5.5546343,34.0711473],[-5.5549979,34.0710784]]},"properties":{"site":"volubilis","name":"","highway":"footway"}},{"type":"Feature","geometry":{"type":"LineString","coordinates":[[-5.55473,34.0720214],[-5.5547876,34.072242],[-5.5548498,34.0724789],[-5.5549156,34.0725324],[-5.5549672,34.0726406],[-5.5550428,34.0727932]]},"properties":{"site":"volubilis","name":"","highway":"footway"}},{"type":"Feature","geometry":{"type":"LineString","coordinates":[[-5.5523907,34.0720215],[-5.5525476,34.0717122],[-5.5527393,34.0713762],[-5.552786,34.0713976]]},"properties":{"site":"volubilis","name":"","highway":"footway"}},{"type":"Feature","geometry":{"type":"LineString","coordinates":[[-5.5527822,34.0708016],[-5.5528044,34.070804],[-5.5529205,34.0708196]]},"properties":{"site":"volubilis","name":"","highway":"footway"}},{"type":"Feature","geometry":{"type":"LineString","coordinates":[[-5.5523342,34.0719983],[-5.5523907,34.0720215],[-5.5525918,34.0721312],[-5.5527638,34.0722579],[-5.5528584,34.072405],[-5.552932,34.0726743],[-5.5529883,34.0729198],[-5.5530015,34.0729851],[-5.5530542,34.073175],[-5.553062,34.0734825],[-5.5530943,34.0735633],[-5.553142,34.0736084],[-5.5531985,34.0736413],[-5.5532885,34.0736592],[-5.5533251,34.0736473],[-5.5533839,34.0736282],[-5.5534936,34.0735623],[-5.5537081,34.0734482]]},"properties":{"site":"volubilis","name":"","highway":"footway"}},{"type":"Feature","geometry":{"type":"LineString","coordinates":[[-5.5527155,34.0759543],[-5.552878,34.07608],[-5.5529546,34.0762197],[-5.5530671,34.0763396],[-5.5532101,34.0764257],[-5.5532936,34.0763608],[-5.5532408,34.0762832],[-5.55336,34.0761999],[-5.5532408,34.0760349],[-5.5529483,34.0757843]]},"properties":{"site":"volubilis","name":"","highway":"footway"}},{"type":"Feature","geometry":{"type":"LineString","coordinates":[[-5.554887,34.0733775],[-5.5549428,34.0733751],[-5.5551707,34.0733451],[-5.5552883,34.0733141],[-5.5554518,34.0732943],[-5.5555437,34.0732986],[-5.555525,34.0731405],[-5.5554961,34.0730376],[-5.5555182,34.0729557],[-5.5554484,34.0727903]]},"properties":{"site":"volubilis","name":"","highway":"footway"}},{"type":"Feature","geometry":{"type":"LineString","coordinates":[[-5.5546373,34.074551],[-5.5547645,34.0747492],[-5.5548146,34.0748272],[-5.554692,34.0748794],[-5.5547414,34.0749542],[-5.5546324,34.0750205],[-5.5545319,34.0749217],[-5.5546596,34.0748498],[-5.5546443,34.0748117],[-5.5547645,34.0747492]]},"properties":{"site":"volubilis","name":"","highway":"footway"}},{"type":"Feature","geometry":{"type":"LineString","coordinates":[[-5.5548505,34.0748835],[-5.5549629,34.0748505],[-5.5550004,34.0748477],[-5.5550651,34.0748378],[-5.5551537,34.0748688],[-5.5552201,34.074866],[-5.5552457,34.0748565],[-5.5553002,34.0748364],[-5.5552866,34.0747743],[-5.5554177,34.0747306],[-5.55537,34.0746572]]},"properties":{"site":"volubilis","name":"","highway":"footway"}},{"type":"Feature","geometry":{"type":"LineString","coordinates":[[-5.5546324,34.0750205],[-5.5547039,34.0751065],[-5.5547124,34.0751432],[-5.5547311,34.0751799],[-5.5546852,34.0752081],[-5.5546596,34.0751934],[-5.5546068,34.075163],[-5.5545727,34.0751573],[-5.5543718,34.0749655],[-5.554399,34.0749401],[-5.5542742,34.0748161]]},"properties":{"site":"volubilis","name":"","highway":"footway"}},{"type":"Feature","geometry":{"type":"LineString","coordinates":[[-5.5550387,34.0737578],[-5.554847,34.0738692],[-5.5546051,34.0740343],[-5.5545302,34.0740258],[-5.5544859,34.0739736],[-5.5544416,34.073944],[-5.5543888,34.0739426],[-5.5543224,34.0739398],[-5.5542576,34.073913],[-5.5542287,34.0738819],[-5.5541571,34.0737282],[-5.5542065,34.0736774],[-5.5542406,34.0736379]]},"properties":{"site":"volubilis","name":"","highway":"footway"}},{"type":"Feature","geometry":{"type":"LineString","coordinates":[[-5.5552644,34.0746967],[-5.5551775,34.0747517],[-5.5551324,34.0747613],[-5.5550243,34.0747842],[-5.5549527,34.0747771],[-5.5548146,34.0748272],[-5.5548505,34.0748835],[-5.554905,34.074969],[-5.5550651,34.0751679],[-5.5550447,34.0752371],[-5.5549425,34.075302],[-5.5547722,34.0752878],[-5.5547211,34.0752258],[-5.5546852,34.0752081]]},"properties":{"site":"volubilis","name":"","highway":"footway"}},{"type":"Feature","geometry":{"type":"LineString","coordinates":[[-5.5544547,34.072888],[-5.5544229,34.0728959],[-5.5543615,34.072879],[-5.554217,34.0728866],[-5.5541688,34.0729691],[-5.5541026,34.072982],[-5.554072,34.0730159],[-5.5540277,34.0730159],[-5.553934,34.0730525],[-5.5538693,34.073061],[-5.5538012,34.0730779],[-5.5537654,34.0730455],[-5.553733,34.0730102],[-5.5537061,34.07301],[-5.5536445,34.0729919],[-5.5534435,34.073037],[-5.5533651,34.0730483],[-5.5531948,34.0730088],[-5.5530015,34.0729851]]},"properties":{"site":"volubilis","name":"","highway":"footway"}},{"type":"Feature","geometry":{"type":"LineString","coordinates":[[-5.552696,34.075189],[-5.5527509,34.0752512]]},"properties":{"site":"volubilis","name":"","highway":"footway"}},{"type":"Feature","geometry":{"type":"LineString","coordinates":[[-5.5545914,34.0712308],[-5.5542956,34.071181]]},"properties":{"site":"volubilis","name":"","highway":"footway"}},{"type":"Feature","geometry":{"type":"LineString","coordinates":[[-5.554692,34.0748794],[-5.5546596,34.0748498]]},"properties":{"site":"volubilis","name":"","highway":"footway"}},{"type":"Feature","geometry":{"type":"LineString","coordinates":[[-5.5551775,34.0747517],[-5.5552457,34.0748565]]},"properties":{"site":"volubilis","name":"","highway":"footway"}},{"type":"Feature","geometry":{"type":"LineString","coordinates":[[-5.5541687,34.0748932],[-5.5538039,34.0745206]]},"properties":{"site":"volubilis","name":"","highway":"footway"}},{"type":"Feature","geometry":{"type":"LineString","coordinates":[[-5.5538634,34.0733357],[-5.5538873,34.0732567],[-5.5538693,34.073061]]},"properties":{"site":"volubilis","name":"","highway":"footway"}},{"type":"Feature","geometry":{"type":"LineString","coordinates":[[-5.5550666,34.073502],[-5.5550106,34.07341],[-5.5549428,34.0733751]]},"properties":{"site":"volubilis","name":"","highway":"footway"}},{"type":"Feature","geometry":{"type":"LineString","coordinates":[[-5.5542116,34.0727464],[-5.5543547,34.072728],[-5.5544269,34.0727624]]},"properties":{"site":"volubilis","name":"","highway":"footway"}},{"type":"Feature","geometry":{"type":"LineString","coordinates":[[-5.5543888,34.0739426],[-5.5543138,34.073992],[-5.5542443,34.0740158]]},"properties":{"site":"volubilis","name":"","highway":"footway"}},{"type":"Feature","geometry":{"type":"LineString","coordinates":[[-5.5548498,34.0724789],[-5.5547857,34.0724883],[-5.5542031,34.0725587]]},"properties":{"site":"volubilis","name":"","highway":"footway"}},{"type":"Feature","geometry":{"type":"LineString","coordinates":[[-5.5556613,34.0733014],[-5.5557243,34.0732929],[-5.5557788,34.0732576]]},"properties":{"site":"volubilis","name":"","highway":"footway"}},{"type":"Feature","geometry":{"type":"LineString","coordinates":[[-5.5548542,34.0744233],[-5.5549732,34.074708],[-5.5550243,34.0747842],[-5.5550651,34.0748378]]},"properties":{"site":"volubilis","name":"","highway":"footway"}},{"type":"Feature","geometry":{"type":"LineString","coordinates":[[-5.5542576,34.073913],[-5.5542443,34.0740158],[-5.5542372,34.074071],[-5.554104,34.0742995]]},"properties":{"site":"volubilis","name":"","highway":"footway"}},{"type":"Feature","geometry":{"type":"LineString","coordinates":[[-5.553963,34.0754028],[-5.5539233,34.0754313],[-5.5539982,34.0755004],[-5.5540374,34.0754595],[-5.553963,34.0754028]]},"properties":{"site":"volubilis","name":"","highway":"footway"}},{"type":"Feature","geometry":{"type":"LineString","coordinates":[[-5.5543104,34.0751954],[-5.5542559,34.0752293],[-5.5541691,34.0751559],[-5.5541708,34.0751305]]},"properties":{"site":"volubilis","name":"","highway":"footway"}},{"type":"Feature","geometry":{"type":"LineString","coordinates":[[-5.553103,34.0744794],[-5.5532325,34.0746134],[-5.5533176,34.074667],[-5.5534377,34.0747904]]},"properties":{"site":"volubilis","name":"","highway":"footway"}},{"type":"Feature","geometry":{"type":"LineString","coordinates":[[-5.5557192,34.0736442],[-5.5557413,34.0735158],[-5.5556834,34.0734396],[-5.5556613,34.0733014],[-5.5555437,34.0732986]]},"properties":{"site":"volubilis","name":"","highway":"footway"}},{"type":"Feature","geometry":{"type":"LineString","coordinates":[[-5.5532486,34.075565],[-5.5529327,34.0752554],[-5.5528867,34.0752638],[-5.5528527,34.0752455],[-5.552825,34.0752054]]},"properties":{"site":"volubilis","name":"","highway":"footway"}},{"type":"Feature","geometry":{"type":"LineString","coordinates":[[-5.5528118,34.0751312],[-5.5528561,34.0750959],[-5.5527249,34.0749351],[-5.5526346,34.0749929],[-5.5527695,34.0751523]]},"properties":{"site":"volubilis","name":"","highway":"footway"}},{"type":"Feature","geometry":{"type":"LineString","coordinates":[[-5.5545776,34.0745946],[-5.5544331,34.0745606],[-5.5542185,34.0744011],[-5.5541401,34.0743221],[-5.554104,34.0742995]]},"properties":{"site":"volubilis","name":"","highway":"footway"}},{"type":"Feature","geometry":{"type":"LineString","coordinates":[[-5.5557158,34.0737246],[-5.5556374,34.07375],[-5.5555897,34.0737303],[-5.5555812,34.0736823],[-5.5556221,34.0736216]]},"properties":{"site":"volubilis","name":"","highway":"footway"}},{"type":"Feature","geometry":{"type":"LineString","coordinates":[[-5.5545276,34.0714705],[-5.5546829,34.0714652],[-5.5547672,34.0714772],[-5.5550561,34.0714605],[-5.5550996,34.0714273],[-5.5552851,34.0714014]]},"properties":{"site":"volubilis","name":"","highway":"footway"}},{"type":"Feature","geometry":{"type":"LineString","coordinates":[[-5.5527928,34.0747388],[-5.5524916,34.074928],[-5.552696,34.075189],[-5.5527695,34.0751523],[-5.5528118,34.0751312],[-5.5528597,34.0751848]]},"properties":{"site":"volubilis","name":"","highway":"footway"}},{"type":"Feature","geometry":{"type":"LineString","coordinates":[[-5.5542559,34.0752293],[-5.5542304,34.0752829],[-5.5541708,34.0753351],[-5.554118,34.0753041],[-5.5541112,34.0752603],[-5.5539131,34.0750798]]},"properties":{"site":"volubilis","name":"","highway":"footway"}},{"type":"Feature","geometry":{"type":"LineString","coordinates":[[-5.5551324,34.0747613],[-5.5550566,34.0746205],[-5.5550617,34.0745937],[-5.555089,34.0745796],[-5.5550839,34.0745189],[-5.5549856,34.074351]]},"properties":{"site":"volubilis","name":"","highway":"footway"}},{"type":"Feature","geometry":{"type":"LineString","coordinates":[[-5.5541802,34.0732948],[-5.5539588,34.0733103],[-5.5538634,34.0733357],[-5.5538719,34.0734147],[-5.5539316,34.0735741],[-5.5540024,34.0736913],[-5.5539682,34.0737386],[-5.5538839,34.0737735],[-5.5538647,34.0738553],[-5.5538321,34.0738952],[-5.5537978,34.0739158]]},"properties":{"site":"volubilis","name":"","highway":"footway"}},{"type":"Feature","geometry":{"type":"LineString","coordinates":[[-5.554746,34.0728537],[-5.5544547,34.072888],[-5.5544269,34.0727624],[-5.5547083,34.0727188],[-5.554746,34.0728537]]},"properties":{"site":"volubilis","name":"","highway":"pedestrian"}},{"type":"Feature","geometry":{"type":"LineString","coordinates":[[-5.5548617,34.0732689],[-5.5547799,34.0732926],[-5.5543948,34.0733315],[-5.5543131,34.0732637],[-5.5542228,34.0732327],[-5.5541768,34.0732299]]},"properties":{"site":"volubilis","name":"","highway":"footway"}},{"type":"Feature","geometry":{"type":"LineString","coordinates":[[-5.555019,34.0710872],[-5.5550582,34.0710562],[-5.5550854,34.0709856],[-5.5551399,34.0709489],[-5.5551944,34.0709588],[-5.5552523,34.0709122]]},"properties":{"site":"volubilis","name":"","highway":"footway"}},{"type":"Feature","geometry":{"type":"LineString","coordinates":[[-5.5552652,34.0743275],[-5.5553399,34.0744859],[-5.5553019,34.0745415],[-5.55537,34.0746572],[-5.5552644,34.0746967],[-5.5551963,34.0745853],[-5.5553019,34.0745415]]},"properties":{"site":"volubilis","name":"","highway":"footway"}},{"type":"Feature","geometry":{"type":"LineString","coordinates":[[-5.5529556,34.0746026],[-5.5528592,34.0744946],[-5.5527996,34.07452],[-5.5527315,34.0744438],[-5.5528609,34.074369],[-5.552924,34.0744424],[-5.5528592,34.0744946]]},"properties":{"site":"volubilis","name":"","highway":"footway"}},{"type":"Feature","geometry":{"type":"LineString","coordinates":[[-5.5553996,34.0739431],[-5.5553956,34.0739123],[-5.5553784,34.0738576],[-5.5553257,34.0736894],[-5.5553734,34.0736823],[-5.5554228,34.0738502],[-5.5553784,34.0738576]]},"properties":{"site":"volubilis","name":"","highway":"footway"}},{"type":"Feature","geometry":{"type":"LineString","coordinates":[[-5.5552883,34.0733141],[-5.5553598,34.0733465],[-5.5553888,34.0734989],[-5.5554347,34.0735441],[-5.5554211,34.0736104],[-5.5552678,34.0736569],[-5.5552116,34.0736626],[-5.5551358,34.0736811]]},"properties":{"site":"volubilis","name":"","highway":"footway"}},{"type":"Feature","geometry":{"type":"LineString","coordinates":[[-5.5546596,34.0751934],[-5.5545949,34.0752349],[-5.5544382,34.0752533],[-5.5543598,34.0751827],[-5.5543104,34.0751954],[-5.5542321,34.075115],[-5.5541708,34.0751305],[-5.554017,34.0750039]]},"properties":{"site":"volubilis","name":"","highway":"footway"}},{"type":"Feature","geometry":{"type":"LineString","coordinates":[[-5.5534131,34.0754449],[-5.5535423,34.0755749],[-5.5536019,34.0755566],[-5.5536496,34.0755919],[-5.5536819,34.075637],[-5.5536002,34.0756949],[-5.5535116,34.0756159],[-5.5535423,34.0755749]]},"properties":{"site":"volubilis","name":"","highway":"footway"}},{"type":"Feature","geometry":{"type":"LineString","coordinates":[[-5.5555627,34.0741237],[-5.5556187,34.0742467],[-5.5555829,34.0742678],[-5.5556817,34.0744611],[-5.5558009,34.0744188],[-5.5557141,34.0742354],[-5.5556749,34.0742311],[-5.5556187,34.0742467]]},"properties":{"site":"volubilis","name":"","highway":"footway"}},{"type":"Feature","geometry":{"type":"LineString","coordinates":[[-5.5530943,34.0735633],[-5.5530015,34.0736605],[-5.5529292,34.0738959],[-5.5529485,34.0740795],[-5.5529557,34.0741892],[-5.5530641,34.0743528],[-5.5530762,34.0744326],[-5.553103,34.0744794]]},"properties":{"site":"volubilis","name":"","highway":"footway"}},{"type":"Feature","geometry":{"type":"LineString","coordinates":[[-5.5552092,34.0725501],[-5.5553768,34.0726721],[-5.5554824,34.0727455],[-5.5554923,34.0727723],[-5.5554484,34.0727903],[-5.5551111,34.0728584],[-5.5550498,34.0728753],[-5.5550035,34.0728611]]},"properties":{"site":"volubilis","name":"","highway":"footway"}},{"type":"Feature","geometry":{"type":"LineString","coordinates":[[-5.554118,34.0753041],[-5.553963,34.0754028],[-5.5539017,34.075345],[-5.553842,34.0753323],[-5.5537228,34.0752188],[-5.5535902,34.0751397],[-5.5533875,34.0749407],[-5.5534028,34.0748617],[-5.5533837,34.0748302]]},"properties":{"site":"volubilis","name":"","highway":"footway"}},{"type":"Feature","geometry":{"type":"LineString","coordinates":[[-5.5558458,34.0739227],[-5.5558009,34.0738756],[-5.5557703,34.0737543],[-5.5557158,34.0737246],[-5.5557192,34.0736442],[-5.5556681,34.0736118],[-5.5556221,34.0736216],[-5.5555369,34.0735215],[-5.5554347,34.0735441]]},"properties":{"site":"volubilis","name":"","highway":"footway"}},{"type":"Feature","geometry":{"type":"LineString","coordinates":[[-5.5546545,34.0726857],[-5.5546975,34.0726799],[-5.5549672,34.0726406],[-5.5550411,34.0726081],[-5.5551405,34.0725788],[-5.5550122,34.0725333],[-5.554956,34.0725221],[-5.5549156,34.0725324]]},"properties":{"site":"volubilis","name":"","highway":"footway"}},{"type":"Feature","geometry":{"type":"LineString","coordinates":[[-5.5534961,34.0737266],[-5.5535864,34.0737665],[-5.5536226,34.0737695],[-5.5536756,34.0738015],[-5.5537126,34.0738058]]},"properties":{"site":"volubilis","name":"","highway":"footway"}},{"type":"Feature","geometry":{"type":"LineString","coordinates":[[-5.5529205,34.0708196],[-5.5531178,34.0708554]]},"properties":{"site":"volubilis","name":"","highway":"steps"}},{"type":"Feature","geometry":{"type":"LineString","coordinates":[[-5.5531178,34.0708554],[-5.5532118,34.0708856],[-5.5533126,34.0710867],[-5.5533957,34.0712411],[-5.5535674,34.0716277],[-5.5536143,34.0716855],[-5.5537025,34.0717785],[-5.5543212,34.0719178]]},"properties":{"site":"volubilis","name":"","highway":"footway"}},{"type":"Feature","geometry":{"type":"LineString","coordinates":[[-5.5527822,34.0708016],[-5.5522873,34.0710217]]},"properties":{"site":"volubilis","name":"","highway":"path"}},{"type":"Feature","geometry":{"type":"LineString","coordinates":[[-5.5609093,34.0778604],[-5.5610129,34.0778704],[-5.5610488,34.0778796],[-5.5610806,34.0778901],[-5.5611467,34.0779246],[-5.5611916,34.0779598],[-5.5612174,34.0779934],[-5.5612657,34.0780629],[-5.5613193,34.0781309],[-5.5613498,34.0781692],[-5.5613864,34.0782095],[-5.5614236,34.0782556],[-5.5614695,34.0783028],[-5.5615423,34.0783594],[-5.5616063,34.0784017],[-5.5616419,34.0784211],[-5.5616834,34.0784308],[-5.5617327,34.0784369],[-5.5618058,34.0784422],[-5.5618957,34.0784366],[-5.5620673,34.0784178],[-5.5621347,34.0784183],[-5.562191,34.0784233],[-5.5622618,34.0784355],[-5.5623423,34.0784625],[-5.5624267,34.0785011],[-5.5625213,34.0785311],[-5.5626903,34.0785849],[-5.56275,34.0786077],[-5.562813,34.0786571],[-5.5628686,34.0787077],[-5.5629572,34.0787827],[-5.5630544,34.0788843],[-5.5631208,34.0789615],[-5.5631389,34.079012],[-5.563153,34.0790865],[-5.5631771,34.079137],[-5.5632106,34.0791886],[-5.5632623,34.079237],[-5.5633421,34.0792942]]},"properties":{"site":"volubilis","name":"","highway":"track"}},{"type":"Feature","geometry":{"type":"LineString","coordinates":[[-5.5482263,34.0885857],[-5.5485973,34.0885238],[-5.5489178,34.0884427],[-5.5490506,34.0883949],[-5.5491485,34.0883494],[-5.5492263,34.0882905],[-5.5493563,34.0881872],[-5.5494314,34.0881272],[-5.5495079,34.0880817],[-5.5495696,34.0880617],[-5.5501235,34.0879751],[-5.5503742,34.0879929],[-5.550731,34.0880584],[-5.5508664,34.0880806],[-5.5509523,34.0880784],[-5.5510508,34.0880662],[-5.5511742,34.0880306],[-5.5513593,34.087999],[-5.552001,34.087974],[-5.5522344,34.0879307],[-5.5525616,34.0878451],[-5.5527185,34.0878074],[-5.5528258,34.0877874],[-5.5529599,34.0877663],[-5.553216,34.0877496],[-5.5534132,34.0877452],[-5.5536157,34.0877285],[-5.5538598,34.0877019],[-5.5545679,34.0875719],[-5.5550051,34.0874986],[-5.5553377,34.0874997],[-5.5557588,34.0875208],[-5.5564307,34.0876052],[-5.5566841,34.0876441],[-5.5568598,34.0876663],[-5.5570315,34.0876819],[-5.5572554,34.0876669],[-5.5574559,34.0876291],[-5.5577255,34.0875591],[-5.5578972,34.0874958],[-5.5585992,34.0872576],[-5.558965,34.0871376],[-5.5590378,34.0871049],[-5.55908,34.0870754],[-5.5591752,34.0869999],[-5.5592497,34.0869144],[-5.5593006,34.0868555],[-5.5593412,34.0868064],[-5.5593731,34.0867761],[-5.5594106,34.0867528],[-5.5594904,34.0867056],[-5.5596869,34.0866064],[-5.5598632,34.0865126],[-5.5599648,34.0864598],[-5.5600724,34.0864137],[-5.5603259,34.0863018],[-5.5606639,34.0861552],[-5.5608362,34.0860769],[-5.5609944,34.0860175],[-5.5612573,34.0859098],[-5.5616677,34.0857198],[-5.5617823,34.0856737],[-5.561893,34.0856482],[-5.5619949,34.085636],[-5.5620459,34.0856271],[-5.5620901,34.0856121],[-5.5621243,34.085591],[-5.5626588,34.0852267],[-5.5628244,34.0851517],[-5.5628935,34.0851156],[-5.5629357,34.085079],[-5.5629639,34.0850412],[-5.5629974,34.0849773],[-5.5630215,34.0849135],[-5.5630249,34.0848674],[-5.5630242,34.0848163],[-5.5630021,34.084728],[-5.5629686,34.084668],[-5.5629384,34.0845963],[-5.5629317,34.0845369],[-5.5629149,34.0844381],[-5.5628894,34.0840621],[-5.5628499,34.0837422],[-5.5627888,34.0834517],[-5.5627486,34.0832701],[-5.5626976,34.0830647],[-5.5625555,34.0822827],[-5.5625139,34.0819661],[-5.5624656,34.0817917],[-5.5624241,34.0817051],[-5.5623664,34.081634],[-5.5622873,34.0815818],[-5.562243,34.0815529],[-5.5622135,34.0814974],[-5.5622122,34.081453],[-5.5621089,34.0809565],[-5.5620137,34.0807354],[-5.5618635,34.0804299],[-5.5616851,34.0799879],[-5.5615711,34.0796802],[-5.5615074,34.0794852],[-5.5614001,34.0791237],[-5.5613083,34.0788532],[-5.5611742,34.0785461],[-5.5610038,34.0780884],[-5.5609093,34.0778604],[-5.5608949,34.0778107],[-5.5608939,34.0777846],[-5.5609012,34.0777563],[-5.5609187,34.0777235],[-5.5611037,34.0774397],[-5.5612258,34.0771964],[-5.5612553,34.0771337],[-5.5612788,34.0770565],[-5.5613022,34.0769654],[-5.5613217,34.076821],[-5.5613217,34.0765205],[-5.5613056,34.0764633],[-5.5612633,34.0763933],[-5.5611366,34.07628],[-5.5610065,34.0762228],[-5.5609442,34.076205],[-5.5608905,34.076185],[-5.5608509,34.07616],[-5.5608362,34.0761234],[-5.5608221,34.0760645],[-5.5607846,34.0758301],[-5.5607893,34.0757907],[-5.5608013,34.0757612],[-5.5608248,34.0757268],[-5.5608583,34.0756768],[-5.5608784,34.0756396],[-5.5608872,34.0756052],[-5.5608831,34.075488],[-5.5608744,34.0753963],[-5.5608744,34.0753241],[-5.5608845,34.0752558],[-5.5609133,34.0751581],[-5.5609535,34.0749942],[-5.5609676,34.0747426],[-5.5609784,34.0746304],[-5.5609918,34.0745526],[-5.5610246,34.074481],[-5.5610481,34.0744416],[-5.5610776,34.0744121],[-5.5611259,34.0743621],[-5.5612385,34.0742688],[-5.5613123,34.0742055],[-5.5613405,34.0741622],[-5.5613854,34.0740583],[-5.5614256,34.07394],[-5.5614404,34.0738861],[-5.561441,34.073835],[-5.5614176,34.0737545],[-5.5613197,34.0735151],[-5.5612519,34.0733862],[-5.5612244,34.0733357],[-5.561213,34.0732935],[-5.5612151,34.0732579],[-5.5612285,34.0732263],[-5.5612734,34.0731846],[-5.5613525,34.0730924],[-5.5614209,34.0730013],[-5.5614806,34.0729313],[-5.5615436,34.0728891],[-5.5615859,34.0728675]]},"properties":{"site":"volubilis","name":"","highway":"track"}},{"type":"Feature","geometry":{"type":"LineString","coordinates":[[-5.5442756,34.0784466],[-5.5443312,34.0785572],[-5.5443862,34.0786605],[-5.5445445,34.0788904],[-5.5446987,34.0791248],[-5.5448368,34.0793069],[-5.5449589,34.0794858],[-5.5450943,34.0796857],[-5.5451708,34.0797924],[-5.5452472,34.0798668],[-5.545321,34.0799357],[-5.5456267,34.0803233],[-5.5459902,34.0807543],[-5.5462155,34.0810253],[-5.5462879,34.0810864],[-5.5463858,34.0811608],[-5.5465132,34.0812464]]},"properties":{"site":"volubilis","name":"","highway":"track"}},{"type":"Feature","geometry":{"type":"LineString","coordinates":[[-5.5558095,34.0739613],[-5.5559934,34.0742926]]},"properties":{"site":"volubilis","name":"","highway":"footway"}},{"type":"Feature","geometry":{"type":"LineString","coordinates":[[-5.5551358,34.0736811],[-5.5552581,34.0739727]]},"properties":{"site":"volubilis","name":"","highway":"footway"}},{"type":"Feature","geometry":{"type":"LineString","coordinates":[[-5.5555375,34.07393],[-5.5556476,34.0739334],[-5.5558458,34.0739227],[-5.5559562,34.0739211]]},"properties":{"site":"volubilis","name":"","highway":"footway"}},{"type":"Feature","geometry":{"type":"LineString","coordinates":[[-5.5553915,34.0740759],[-5.5555773,34.074025],[-5.5558095,34.0739613],[-5.5559562,34.0739211],[-5.556155,34.0738588]]},"properties":{"site":"volubilis","name":"Decumanus maximus","highway":"pedestrian"}},{"type":"Feature","geometry":{"type":"LineString","coordinates":[[-5.5553598,34.0740922],[-5.5553915,34.0740759]]},"properties":{"site":"volubilis","name":"Decumanus maximus","highway":"pedestrian"}}]}