{"type":"FeatureCollection","features":[{"type":"Feature","geometry":{"type":"Polygon","coordinates":[[[-5.5533938,34.0773618],[-5.5527957,34.077306],[-5.5523994,34.0772489],[-5.5521957,34.0772017],[-5.5520957,34.0771434],[-5.5517068,34.076806],[-5.5516453,34.0767398],[-5.5511999,34.0762599],[-5.5512836,34.0758411],[-5.5514414,34.0751019],[-5.5514183,34.073532],[-5.5521804,34.0722933],[-5.5526895,34.0713962],[-5.5527453,34.0711127],[-5.5528044,34.070804],[-5.5528108,34.0707721],[-5.5527599,34.070712],[-5.5527112,34.0706544],[-5.5528045,34.0699256],[-5.5530892,34.0697321],[-5.5531041,34.0696678],[-5.5531251,34.0696071],[-5.5531434,34.0695659],[-5.5531984,34.0695464],[-5.5536546,34.0695786],[-5.5560941,34.0699971],[-5.5563052,34.0700063],[-5.5565496,34.0699879],[-5.5567422,34.0699603],[-5.5569015,34.069902],[-5.5570089,34.0698744],[-5.5571015,34.0698744],[-5.5572756,34.0699725],[-5.5576645,34.0701014],[-5.5581793,34.0703376],[-5.5582491,34.0704117],[-5.5584756,34.0706751],[-5.558509,34.0707549],[-5.5584793,34.0708899],[-5.5582581,34.0714936],[-5.5581901,34.0717069],[-5.5582163,34.071789],[-5.5582752,34.0718488],[-5.55837,34.071931],[-5.5584725,34.0719649],[-5.5586291,34.0719674],[-5.5588932,34.0724873],[-5.5591036,34.0729127],[-5.5592679,34.0734138],[-5.5592874,34.0735354],[-5.5586715,34.0740425],[-5.5577572,34.074744],[-5.5571289,34.0752639],[-5.5567171,34.0754958],[-5.5558099,34.0757555],[-5.5552143,34.0761709],[-5.554818,34.0764164],[-5.5540587,34.0769624],[-5.5533938,34.0773618]]]},"properties":{"site":"volubilis","name":"Volubilis وليلي ⵡⴰⵍⵉⵍⵉ","category":"archaeological","historic":"archaeological_site","building":null,"osm_id":175612028}},{"type":"Feature","geometry":{"type":"Polygon","coordinates":[[[-5.5520183,34.0734286],[-5.5521775,34.0734315],[-5.5521755,34.073507],[-5.5522488,34.0735083],[-5.5522508,34.073434],[-5.5523866,34.0734365],[-5.5523846,34.0735113],[-5.5524462,34.0735124],[-5.5524482,34.0734401],[-5.5525965,34.0734429],[-5.5526003,34.0733041],[-5.5526532,34.0733051],[-5.5526594,34.0730728],[-5.5526198,34.0730721],[-5.5526234,34.0729382],[-5.552459,34.0729352],[-5.55246,34.0728981],[-5.5521799,34.072893],[-5.5521786,34.0729386],[-5.5520315,34.0729359],[-5.5520183,34.0734286]]]},"properties":{"site":"volubilis","name":"Temple B","category":"temple","historic":"archaeological_site","building":"yes","osm_id":266423645}},{"type":"Feature","geometry":{"type":"Polygon","coordinates":[[[-5.5535357,34.0716545],[-5.5533508,34.0717001],[-5.5532375,34.071389],[-5.5534239,34.0713431],[-5.5535357,34.0716545]]]},"properties":{"site":"volubilis","name":null,"category":"other","historic":null,"building":"roof","osm_id":376546215}},{"type":"Feature","geometry":{"type":"Polygon","coordinates":[[[-5.5532989,34.0707111],[-5.5531793,34.0706941],[-5.5532315,34.0704412],[-5.5533511,34.0704581],[-5.5532989,34.0707111]]]},"properties":{"site":"volubilis","name":null,"category":"other","historic":null,"building":"yes","osm_id":376546216}},{"type":"Feature","geometry":{"type":"Polygon","coordinates":[[[-5.5523854,34.0708705],[-5.5522802,34.0709014],[-5.5522541,34.0708405],[-5.5523592,34.0708095],[-5.5523854,34.0708705]]]},"properties":{"site":"volubilis","name":null,"category":"other","historic":null,"building":"yes","osm_id":376546217}},{"type":"Feature","geometry":{"type":"Polygon","coordinates":[[[-5.5532676,34.0708569],[-5.5531483,34.0708386],[-5.5531728,34.0707287],[-5.5532921,34.0707469],[-5.5532676,34.0708569]]]},"properties":{"site":"volubilis","name":null,"category":"other","historic":null,"building":"yes","osm_id":376546218}},{"type":"Feature","geometry":{"type":"Polygon","coordinates":[[[-5.5533605,34.070381],[-5.5532383,34.070364],[-5.5532754,34.0701802],[-5.5533977,34.0701971],[-5.5533605,34.070381]]]},"properties":{"site":"volubilis","name":null,"category":"other","historic":null,"building":"yes","osm_id":376546219}},{"type":"Feature","geometry":{"type":"Polygon","coordinates":[[[-5.5530616,34.07025],[-5.5529639,34.0702383],[-5.5529575,34.0702751],[-5.5529167,34.0702702],[-5.5529525,34.0700658],[-5.5530909,34.0700824],[-5.5530616,34.07025]]]},"properties":{"site":"volubilis","name":null,"category":"other","historic":null,"building":"yes","osm_id":376546220}},{"type":"Feature","geometry":{"type":"Polygon","coordinates":[[[-5.5547826,34.0723442],[-5.5547253,34.0723552],[-5.5547057,34.0722798],[-5.5547631,34.0722695],[-5.5547826,34.0723442]]]},"properties":{"site":"volubilis","name":null,"category":"other","historic":null,"building":"yes","osm_id":394402722}},{"type":"Feature","geometry":{"type":"Polygon","coordinates":[[[-5.5554261,34.0741413],[-5.5553924,34.0741536],[-5.5553598,34.0740922],[-5.5553199,34.0740169],[-5.5553537,34.0740047],[-5.5553915,34.0740759],[-5.5554261,34.0741413]]]},"properties":{"site":"volubilis","name":"Arc de triomphe de Caracalla","category":"other","historic":"monument","building":"yes","osm_id":750934912}},{"type":"Feature","geometry":{"type":"Polygon","coordinates":[[[-5.5544941,34.0741751],[-5.5545777,34.0742775],[-5.55452,34.0743123],[-5.5545785,34.0743689],[-5.5546119,34.074345],[-5.5547117,34.0744322],[-5.5548083,34.0743513],[-5.5548236,34.074379],[-5.5548831,34.0743472],[-5.5549089,34.0743107],[-5.5550245,34.0742452],[-5.5551439,34.0741875],[-5.5551601,34.0741722],[-5.5551429,34.0741122],[-5.5551169,34.0740097],[-5.5550393,34.073857],[-5.554917,34.0739124],[-5.5546972,34.0740204],[-5.554626,34.0740622],[-5.5544941,34.0741751]]]},"properties":{"site":"volubilis","name":"Thermes du nord","category":"bath","historic":"archaeological_site","building":null,"osm_id":963680792}}]}