{"type":"FeatureCollection","features":[{"type":"Feature","geometry":{"type":"LineString","coordinates":[[6.4377291,51.6541847],[6.4377739,51.6541425],[6.4379185,51.6540146]]},"properties":{"site":"xanten","name":"","highway":"service"}},{"type":"Feature","geometry":{"type":"LineString","coordinates":[[6.4504324,51.6605052],[6.4498004,51.6601499],[6.4485164,51.6594216],[6.4480576,51.6591519],[6.4472311,51.658666]]},"properties":{"site":"xanten","name":"","highway":"path"}},{"type":"Feature","geometry":{"type":"LineString","coordinates":[[6.4416362,51.6558454],[6.4416847,51.6558077],[6.4418781,51.6556238]]},"properties":{"site":"xanten","name":"","highway":"service"}},{"type":"Feature","geometry":{"type":"LineString","coordinates":[[6.4457517,51.6595561],[6.4457922,51.6594985],[6.4458507,51.6594515],[6.4458601,51.6594439],[6.446026,51.6593189],[6.4461187,51.6592609],[6.4463581,51.6592207]]},"properties":{"site":"xanten","name":"","highway":"service"}},{"type":"Feature","geometry":{"type":"LineString","coordinates":[[6.4456381,51.6594983],[6.4456737,51.6595171],[6.4456955,51.6595278],[6.4457517,51.6595561]]},"properties":{"site":"xanten","name":"","highway":"footway"}},{"type":"Feature","geometry":{"type":"LineString","coordinates":[[6.4423198,51.655124],[6.4424275,51.6551536]]},"properties":{"site":"xanten","name":"","highway":"footway"}},{"type":"Feature","geometry":{"type":"LineString","coordinates":[[6.4421765,51.6552614],[6.4422691,51.6552924]]},"properties":{"site":"xanten","name":"","highway":"footway"}},{"type":"Feature","geometry":{"type":"LineString","coordinates":[[6.4415524,51.6563816],[6.441705,51.6564741]]},"properties":{"site":"xanten","name":"","highway":"service"}},{"type":"Feature","geometry":{"type":"LineString","coordinates":[[6.4437451,51.6661733],[6.4438744,51.6661008],[6.4448322,51.6654668],[6.4451055,51.6652828],[6.44721,51.6639444],[6.4473314,51.6638454],[6.4474356,51.6637885]]},"properties":{"site":"xanten","name":"","highway":"path"}},{"type":"Feature","geometry":{"type":"LineString","coordinates":[[6.4497805,51.6628191],[6.4497675,51.6628262],[6.4497614,51.6628287]]},"properties":{"site":"xanten","name":"Klever Straße","highway":"pedestrian"}},{"type":"Feature","geometry":{"type":"LineString","coordinates":[[6.450301,51.6655366],[6.4508723,51.6659306],[6.4509902,51.6658681],[6.4511022,51.6659505],[6.4512172,51.6660355],[6.451113,51.6660904],[6.4515637,51.6664226],[6.4521244,51.6668159],[6.4528484,51.6673223],[6.4528859,51.6673974],[6.4528599,51.6674758],[6.4527846,51.6675275],[6.4515738,51.6679643],[6.4515135,51.6680254],[6.4515267,51.6681146]]},"properties":{"site":"xanten","name":"Am Amphitheater","highway":"path"}},{"type":"Feature","geometry":{"type":"LineString","coordinates":[[6.437031,51.6535953],[6.4370391,51.6535897]]},"properties":{"site":"xanten","name":"","highway":"footway"}},{"type":"Feature","geometry":{"type":"LineString","coordinates":[[6.4427524,51.6544755],[6.4427367,51.6544914]]},"properties":{"site":"xanten","name":"","highway":"path"}},{"type":"Feature","geometry":{"type":"LineString","coordinates":[[6.4458291,51.6577401],[6.4457809,51.6577693],[6.4455671,51.6579481]]},"properties":{"site":"xanten","name":"","highway":"service"}},{"type":"Feature","geometry":{"type":"LineString","coordinates":[[6.4449122,51.6574961],[6.4450383,51.6575594],[6.4451414,51.6575438],[6.4454388,51.6576974],[6.4456137,51.6577926]]},"properties":{"site":"xanten","name":"","highway":"service"}},{"type":"Feature","geometry":{"type":"LineString","coordinates":[[6.4455736,51.6575869],[6.4455244,51.6576319],[6.4454388,51.6576974]]},"properties":{"site":"xanten","name":"","highway":"service"}},{"type":"Feature","geometry":{"type":"LineString","coordinates":[[6.4452079,51.6598148],[6.4452806,51.6598533],[6.445421,51.65993],[6.4455053,51.6599766]]},"properties":{"site":"xanten","name":"","highway":"footway"}},{"type":"Feature","geometry":{"type":"LineString","coordinates":[[6.4422754,51.655512],[6.4420642,51.6556983],[6.4418781,51.6556238]]},"properties":{"site":"xanten","name":"","highway":"service"}},{"type":"Feature","geometry":{"type":"LineString","coordinates":[[6.4411657,51.6555844],[6.4413175,51.6554137]]},"properties":{"site":"xanten","name":"","highway":"service"}},{"type":"Feature","geometry":{"type":"LineString","coordinates":[[6.4420013,51.6550714],[6.4417698,51.6552939],[6.4415333,51.6555064],[6.4413175,51.6554137],[6.4410968,51.6553218],[6.4414271,51.6550208],[6.4415714,51.6548917],[6.4416484,51.6548227]]},"properties":{"site":"xanten","name":"","highway":"service"}},{"type":"Feature","geometry":{"type":"LineString","coordinates":[[6.4417698,51.6552939],[6.4420187,51.6554127]]},"properties":{"site":"xanten","name":"","highway":"service"}},{"type":"Feature","geometry":{"type":"LineString","coordinates":[[6.4416484,51.6548227],[6.4414437,51.6547331]]},"properties":{"site":"xanten","name":"","highway":"service"}},{"type":"Feature","geometry":{"type":"LineString","coordinates":[[6.4404479,51.6553415],[6.4404888,51.6553033],[6.4406861,51.6551204]]},"properties":{"site":"xanten","name":"","highway":"service"}},{"type":"Feature","geometry":{"type":"LineString","coordinates":[[6.4491999,51.6630565],[6.4492672,51.6631042],[6.4494234,51.6631224],[6.4501116,51.6636369],[6.4505128,51.6639181],[6.4506748,51.6640247],[6.4509113,51.6641987],[6.4513638,51.6645174],[6.4514877,51.6645967],[6.4515673,51.6646297],[6.4522421,51.6648931],[6.4524714,51.6649758],[6.4525723,51.6650111],[6.4528925,51.6650964],[6.4530059,51.6651374]]},"properties":{"site":"xanten","name":"","highway":"path"}},{"type":"Feature","geometry":{"type":"LineString","coordinates":[[6.4501116,51.6636369],[6.4502696,51.6636118],[6.4503931,51.6635533],[6.4505234,51.6634916]]},"properties":{"site":"xanten","name":"","highway":"path"}},{"type":"Feature","geometry":{"type":"LineString","coordinates":[[6.4403587,51.657068],[6.4405011,51.6571514]]},"properties":{"site":"xanten","name":"","highway":"service"}},{"type":"Feature","geometry":{"type":"LineString","coordinates":[[6.4405011,51.6571514],[6.4406039,51.6572136],[6.4407318,51.6573011]]},"properties":{"site":"xanten","name":"","highway":"service"}},{"type":"Feature","geometry":{"type":"LineString","coordinates":[[6.4499912,51.6611621],[6.4500971,51.6612038],[6.4502131,51.6612686],[6.4498085,51.6615278],[6.4497891,51.6615683],[6.4498103,51.6616011],[6.4498993,51.6616432],[6.4499751,51.6616394],[6.4500324,51.6616186],[6.4503427,51.6613911],[6.4503533,51.6613638],[6.4503506,51.6613299],[6.4502131,51.6612686]]},"properties":{"site":"xanten","name":"","highway":"service"}},{"type":"Feature","geometry":{"type":"LineString","coordinates":[[6.4405011,51.6571514],[6.441705,51.6564741]]},"properties":{"site":"xanten","name":"","highway":"service"}},{"type":"Feature","geometry":{"type":"LineString","coordinates":[[6.441705,51.6564741],[6.441922,51.6563514],[6.4421349,51.6562306],[6.4423794,51.6563581],[6.4424128,51.6563773],[6.4421768,51.6565024],[6.4419533,51.6566242],[6.441705,51.6564741]]},"properties":{"site":"xanten","name":"","highway":"service"}},{"type":"Feature","geometry":{"type":"LineString","coordinates":[[6.4488638,51.6559718],[6.4490492,51.656049],[6.4489212,51.6561795],[6.4489016,51.6561754],[6.4482909,51.6558788],[6.4483607,51.6558185],[6.4488054,51.6560316],[6.4488638,51.6559718]]},"properties":{"site":"xanten","name":"","highway":"service"}},{"type":"Feature","geometry":{"type":"LineString","coordinates":[[6.4493888,51.6553051],[6.4494584,51.6553051],[6.4495013,51.6553086],[6.4495386,51.6553153],[6.4495723,51.6553269],[6.4495981,51.6553356],[6.4497439,51.6554298]]},"properties":{"site":"xanten","name":"","highway":"path"}},{"type":"Feature","geometry":{"type":"LineString","coordinates":[[6.4412184,51.6549288],[6.4414271,51.6550208]]},"properties":{"site":"xanten","name":"","highway":"service"}},{"type":"Feature","geometry":{"type":"LineString","coordinates":[[6.4414437,51.6547331],[6.4412399,51.6546446],[6.4410031,51.6545449]]},"properties":{"site":"xanten","name":"","highway":"service"}},{"type":"Feature","geometry":{"type":"LineString","coordinates":[[6.4406861,51.6551204],[6.4412399,51.6546446]]},"properties":{"site":"xanten","name":"","highway":"service"}},{"type":"Feature","geometry":{"type":"LineString","coordinates":[[6.446903,51.6583298],[6.4469442,51.6583028],[6.4473675,51.6579871],[6.4476602,51.6576803],[6.447936,51.6573826],[6.4479876,51.6573404],[6.4481268,51.6572687],[6.4482086,51.6572195],[6.4482888,51.6571572],[6.4486354,51.6567325],[6.4487646,51.6565385]]},"properties":{"site":"xanten","name":"","highway":"path"}},{"type":"Feature","geometry":{"type":"LineString","coordinates":[[6.441376,51.6564793],[6.4413324,51.6564526],[6.4412092,51.6563597],[6.4405127,51.6567506],[6.4406721,51.6568767]]},"properties":{"site":"xanten","name":"","highway":"service"}},{"type":"Feature","geometry":{"type":"LineString","coordinates":[[6.4412092,51.6563597],[6.441038,51.6562344],[6.4411784,51.6561466],[6.4408798,51.6559314]]},"properties":{"site":"xanten","name":"","highway":"service"}},{"type":"Feature","geometry":{"type":"LineString","coordinates":[[6.4411784,51.6561466],[6.4413917,51.6560245]]},"properties":{"site":"xanten","name":"","highway":"service"}},{"type":"Feature","geometry":{"type":"LineString","coordinates":[[6.4500572,51.6658229],[6.4495955,51.6664802],[6.4494436,51.6667117],[6.4491276,51.6669082],[6.4490349,51.6669703],[6.4481574,51.6675443],[6.4468311,51.6684027],[6.4462374,51.6688133],[6.4454206,51.6693433],[6.4441227,51.6701358]]},"properties":{"site":"xanten","name":"","highway":"footway"}},{"type":"Feature","geometry":{"type":"LineString","coordinates":[[6.4497525,51.6685387],[6.4496407,51.6684809],[6.4494425,51.668364],[6.4490224,51.6680895],[6.4487836,51.6679335],[6.4481574,51.6675443],[6.4463671,51.6664214],[6.4453586,51.665807]]},"properties":{"site":"xanten","name":"","highway":"footway"}},{"type":"Feature","geometry":{"type":"LineString","coordinates":[[6.4434272,51.6664312],[6.4431818,51.6665733],[6.4420878,51.6672579],[6.44077,51.6680603],[6.4397007,51.668738],[6.4384118,51.6695456]]},"properties":{"site":"xanten","name":"","highway":"footway"}},{"type":"Feature","geometry":{"type":"LineString","coordinates":[[6.439542,51.6702721],[6.4408311,51.6695788],[6.4422216,51.6689582],[6.4425434,51.6687635],[6.4435442,51.6681603],[6.4444027,51.667644],[6.4450286,51.6672449],[6.4453264,51.6670702],[6.4463671,51.6664214],[6.447676,51.6656162],[6.4481313,51.6653398]]},"properties":{"site":"xanten","name":"","highway":"footway"}},{"type":"Feature","geometry":{"type":"LineString","coordinates":[[6.4512809,51.6679081],[6.4508873,51.6676167],[6.4505019,51.667369],[6.4504182,51.6673165],[6.4494436,51.6667117]]},"properties":{"site":"xanten","name":"","highway":"footway"}},{"type":"Feature","geometry":{"type":"LineString","coordinates":[[6.4495955,51.6664802],[6.4502727,51.6664368],[6.4508446,51.6668126],[6.4509339,51.6668648]]},"properties":{"site":"xanten","name":"","highway":"footway"}},{"type":"Feature","geometry":{"type":"LineString","coordinates":[[6.4505019,51.667369],[6.4506313,51.6672567],[6.450658,51.6671382],[6.4507319,51.666991],[6.4508446,51.6668126],[6.4512541,51.6667381],[6.4514825,51.666663],[6.4515639,51.6666071]]},"properties":{"site":"xanten","name":"","highway":"footway"}},{"type":"Feature","geometry":{"type":"LineString","coordinates":[[6.4490349,51.6669703],[6.4488135,51.6668376],[6.4488599,51.6668054]]},"properties":{"site":"xanten","name":"","highway":"footway"}},{"type":"Feature","geometry":{"type":"LineString","coordinates":[[6.4491276,51.6669082],[6.449053,51.6668626]]},"properties":{"site":"xanten","name":"","highway":"footway"}},{"type":"Feature","geometry":{"type":"LineString","coordinates":[[6.4413175,51.6554137],[6.4417887,51.6549786]]},"properties":{"site":"xanten","name":"","highway":"service"}},{"type":"Feature","geometry":{"type":"LineString","coordinates":[[6.4420013,51.6550714],[6.4420525,51.6550164]]},"properties":{"site":"xanten","name":"","highway":"service"}},{"type":"Feature","geometry":{"type":"LineString","coordinates":[[6.4418781,51.6556238],[6.4418762,51.6555494],[6.4420187,51.6554127],[6.4421765,51.6552614],[6.4423198,51.655124],[6.4422432,51.6550932],[6.4420525,51.6550164]]},"properties":{"site":"xanten","name":"","highway":"service"}},{"type":"Feature","geometry":{"type":"LineString","coordinates":[[6.4417887,51.6549786],[6.4420013,51.6550714]]},"properties":{"site":"xanten","name":"","highway":"service"}},{"type":"Feature","geometry":{"type":"LineString","coordinates":[[6.4379185,51.6540146],[6.4376694,51.6538884],[6.4373595,51.6537534],[6.437031,51.6535953]]},"properties":{"site":"xanten","name":"","highway":"service"}},{"type":"Feature","geometry":{"type":"LineString","coordinates":[[6.4354886,51.6531422],[6.4354421,51.6531716],[6.4354228,51.6531836],[6.4353668,51.653217],[6.4353564,51.6532233],[6.4348999,51.6534952],[6.4336199,51.6540393]]},"properties":{"site":"xanten","name":"","highway":"service"}},{"type":"Feature","geometry":{"type":"LineString","coordinates":[[6.4440186,51.6611477],[6.4439899,51.6611335],[6.4437309,51.6609979]]},"properties":{"site":"xanten","name":"","highway":"service"}},{"type":"Feature","geometry":{"type":"LineString","coordinates":[[6.444161,51.6610447],[6.4441359,51.6610269],[6.4438791,51.6608823]]},"properties":{"site":"xanten","name":"","highway":"service"}},{"type":"Feature","geometry":{"type":"LineString","coordinates":[[6.4444861,51.6608356],[6.4444572,51.6608187],[6.4441818,51.6606671]]},"properties":{"site":"xanten","name":"","highway":"service"}},{"type":"Feature","geometry":{"type":"LineString","coordinates":[[6.4443632,51.6609352],[6.4443125,51.6609316],[6.4440374,51.6607777]]},"properties":{"site":"xanten","name":"","highway":"service"}},{"type":"Feature","geometry":{"type":"LineString","coordinates":[[6.444632,51.6607225],[6.4445946,51.6607025],[6.4443369,51.6605599]]},"properties":{"site":"xanten","name":"","highway":"service"}},{"type":"Feature","geometry":{"type":"LineString","coordinates":[[6.4447851,51.6605978],[6.4447469,51.6605827],[6.4445007,51.660445]]},"properties":{"site":"xanten","name":"","highway":"service"}},{"type":"Feature","geometry":{"type":"LineString","coordinates":[[6.4495372,51.658142],[6.449568,51.6581119],[6.4502712,51.6577888]]},"properties":{"site":"xanten","name":"","highway":"path"}},{"type":"Feature","geometry":{"type":"LineString","coordinates":[[6.4488542,51.6586161],[6.4485619,51.6584458]]},"properties":{"site":"xanten","name":"","highway":"service"}},{"type":"Feature","geometry":{"type":"LineString","coordinates":[[6.4499655,51.6587401],[6.4500718,51.6587974],[6.4500779,51.6588309],[6.450081,51.6588739],[6.4500533,51.6589159],[6.4499342,51.6590087],[6.4494063,51.6593765],[6.4492694,51.6595421]]},"properties":{"site":"xanten","name":"","highway":"service"}},{"type":"Feature","geometry":{"type":"LineString","coordinates":[[6.4495857,51.6597185],[6.4496336,51.6599105],[6.4496117,51.6599629]]},"properties":{"site":"xanten","name":"","highway":"service"}},{"type":"Feature","geometry":{"type":"LineString","coordinates":[[6.4421768,51.6565024],[6.441922,51.6563514]]},"properties":{"site":"xanten","name":"","highway":"service"}},{"type":"Feature","geometry":{"type":"LineString","coordinates":[[6.4498553,51.6601177],[6.4498004,51.6601499],[6.4493473,51.6604368],[6.4490411,51.6602929]]},"properties":{"site":"xanten","name":"","highway":"service"}},{"type":"Feature","geometry":{"type":"LineString","coordinates":[[6.4509156,51.6602718],[6.4507215,51.6601939],[6.450193,51.6599858],[6.4500873,51.6599909],[6.4499612,51.6601119],[6.4499124,51.660151]]},"properties":{"site":"xanten","name":"","highway":"service"}},{"type":"Feature","geometry":{"type":"LineString","coordinates":[[6.4353564,51.6532233],[6.4347598,51.6529547],[6.4347688,51.6529475],[6.4348143,51.6529111],[6.4348208,51.6529048],[6.4348693,51.6528748]]},"properties":{"site":"xanten","name":"","highway":"service"}},{"type":"Feature","geometry":{"type":"LineString","coordinates":[[6.4509823,51.6648108],[6.4510852,51.6648669]]},"properties":{"site":"xanten","name":"","highway":"service"}},{"type":"Feature","geometry":{"type":"LineString","coordinates":[[6.4509823,51.6648108],[6.4513068,51.6645589]]},"properties":{"site":"xanten","name":"","highway":"service"}},{"type":"Feature","geometry":{"type":"LineString","coordinates":[[6.4497494,51.663809],[6.4496679,51.6637415]]},"properties":{"site":"xanten","name":"","highway":"service"}},{"type":"Feature","geometry":{"type":"LineString","coordinates":[[6.4497494,51.663809],[6.4497826,51.6637849]]},"properties":{"site":"xanten","name":"","highway":"service"}},{"type":"Feature","geometry":{"type":"LineString","coordinates":[[6.4503223,51.6643165],[6.4503719,51.6643511]]},"properties":{"site":"xanten","name":"","highway":"service"}},{"type":"Feature","geometry":{"type":"LineString","coordinates":[[6.4503223,51.6643165],[6.4503843,51.6642937]]},"properties":{"site":"xanten","name":"","highway":"service"}},{"type":"Feature","geometry":{"type":"LineString","coordinates":[[6.4520625,51.6616256],[6.451759,51.6617473],[6.4512092,51.6620717],[6.4509264,51.6622423]]},"properties":{"site":"xanten","name":"Klever Straße","highway":"pedestrian"}},{"type":"Feature","geometry":{"type":"LineString","coordinates":[[6.4498033,51.6617969],[6.4493853,51.662128]]},"properties":{"site":"xanten","name":"","highway":"service"}},{"type":"Feature","geometry":{"type":"LineString","coordinates":[[6.4495579,51.6659978],[6.4499763,51.6656793],[6.4502232,51.6654619]]},"properties":{"site":"xanten","name":"","highway":"path"}},{"type":"Feature","geometry":{"type":"LineString","coordinates":[[6.4497826,51.6637849],[6.4500251,51.6636758],[6.4501116,51.6636369]]},"properties":{"site":"xanten","name":"","highway":"path"}},{"type":"Feature","geometry":{"type":"LineString","coordinates":[[6.4503843,51.6642937],[6.4506748,51.6640247]]},"properties":{"site":"xanten","name":"","highway":"path"}},{"type":"Feature","geometry":{"type":"LineString","coordinates":[[6.4476602,51.6576803],[6.4475574,51.6576371]]},"properties":{"site":"xanten","name":"","highway":"footway"}},{"type":"Feature","geometry":{"type":"LineString","coordinates":[[6.4488638,51.6559718],[6.4488598,51.6560254],[6.4489176,51.6560628],[6.4489016,51.6561754],[6.4489191,51.656245],[6.4488997,51.6563567],[6.4487646,51.6565385],[6.448631,51.6565799],[6.4483603,51.6566364],[6.4482447,51.6567353]]},"properties":{"site":"xanten","name":"","highway":"service"}},{"type":"Feature","geometry":{"type":"LineString","coordinates":[[6.4482909,51.6558788],[6.4482619,51.6558789],[6.4482107,51.6558846],[6.4480873,51.6559197],[6.4480105,51.6559668],[6.4478084,51.6561227],[6.4467768,51.6556627],[6.4465515,51.6558523],[6.4462822,51.6557448],[6.4461627,51.6557046]]},"properties":{"site":"xanten","name":"","highway":"footway"}},{"type":"Feature","geometry":{"type":"LineString","coordinates":[[6.4465515,51.6558523],[6.4463496,51.6559428],[6.4461928,51.6559845]]},"properties":{"site":"xanten","name":"","highway":"footway"}},{"type":"Feature","geometry":{"type":"LineString","coordinates":[[6.4458735,51.6554461],[6.445943,51.6554586],[6.4461027,51.6556108],[6.4461627,51.6557046],[6.4461928,51.6559845],[6.4461876,51.656074],[6.4461759,51.6561299],[6.4461359,51.656256],[6.4460966,51.6563588],[6.4460548,51.6564437],[6.4459972,51.6565214],[6.4459852,51.6565339],[6.4459754,51.6565434],[6.4459468,51.6565634],[6.4459216,51.6565837],[6.4459005,51.6566043],[6.4458311,51.6566954],[6.4458032,51.6567321],[6.4457724,51.6567593],[6.4457516,51.656769],[6.4457448,51.6567722],[6.445701,51.6567835],[6.4456402,51.656793],[6.4456085,51.6568043],[6.4455824,51.6568275],[6.4454258,51.6570122]]},"properties":{"site":"xanten","name":"","highway":"path"}},{"type":"Feature","geometry":{"type":"LineString","coordinates":[[6.4469024,51.6569067],[6.4469559,51.6569003],[6.4470033,51.6569056],[6.4470294,51.6569136],[6.4470569,51.6569216],[6.4473531,51.657056],[6.4476026,51.6571881],[6.447936,51.6573826]]},"properties":{"site":"xanten","name":"","highway":"service"}},{"type":"Feature","geometry":{"type":"LineString","coordinates":[[6.4476026,51.6571881],[6.4475204,51.6572494]]},"properties":{"site":"xanten","name":"","highway":"footway"}},{"type":"Feature","geometry":{"type":"LineString","coordinates":[[6.4470294,51.6569136],[6.4470148,51.656934],[6.4470062,51.656974],[6.4470313,51.6570341]]},"properties":{"site":"xanten","name":"","highway":"footway"}},{"type":"Feature","geometry":{"type":"LineString","coordinates":[[6.4438147,51.6662144],[6.4448983,51.6655091],[6.4461508,51.6646897],[6.4472436,51.6639676],[6.4474356,51.6637885]]},"properties":{"site":"xanten","name":"Siegfriedstraße","highway":"service"}},{"type":"Feature","geometry":{"type":"LineString","coordinates":[[6.4358332,51.6589877],[6.4360733,51.6591093]]},"properties":{"site":"xanten","name":"","highway":"service"}},{"type":"Feature","geometry":{"type":"LineString","coordinates":[[6.4394994,51.6617002],[6.4396988,51.6615717],[6.4403055,51.6612074],[6.4404497,51.6612756]]},"properties":{"site":"xanten","name":"","highway":"service"}},{"type":"Feature","geometry":{"type":"LineString","coordinates":[[6.4437451,51.6661733],[6.4438147,51.6662144]]},"properties":{"site":"xanten","name":"Trajanstraße","highway":"service"}},{"type":"Feature","geometry":{"type":"LineString","coordinates":[[6.4504704,51.6606273],[6.4504582,51.6606117],[6.4504283,51.6605654],[6.4504324,51.6605052],[6.4504793,51.6604623],[6.4505445,51.6604302],[6.4506388,51.6604274],[6.4507057,51.6604189],[6.4507497,51.6604388],[6.4508059,51.6604611],[6.4508569,51.6605402],[6.4508421,51.6605996],[6.4508022,51.6606382],[6.4507094,51.6606741],[6.450632,51.6606757],[6.4505902,51.6606798],[6.4505366,51.6606579],[6.4504704,51.6606273]]},"properties":{"site":"xanten","name":"","highway":"path"}},{"type":"Feature","geometry":{"type":"LineString","coordinates":[[6.4454328,51.657508],[6.4455246,51.6575115],[6.4456366,51.6575315],[6.446903,51.6583298]]},"properties":{"site":"xanten","name":"","highway":"path"}},{"type":"Feature","geometry":{"type":"LineString","coordinates":[[6.4467995,51.6584092],[6.4462937,51.6580893],[6.4457809,51.6577693],[6.4455244,51.6576319],[6.4454676,51.6575951],[6.4454328,51.657508]]},"properties":{"site":"xanten","name":"","highway":"path"}},{"type":"Feature","geometry":{"type":"LineString","coordinates":[[6.4472782,51.6585509],[6.4481748,51.6590755],[6.4486589,51.6593438],[6.4490094,51.6595381],[6.4496336,51.6599105],[6.4499612,51.6601119],[6.4505445,51.6604302]]},"properties":{"site":"xanten","name":"","highway":"path"}},{"type":"Feature","geometry":{"type":"LineString","coordinates":[[6.4345387,51.6549999],[6.4347879,51.6552493],[6.4349072,51.6553706]]},"properties":{"site":"xanten","name":"","highway":"service"}},{"type":"Feature","geometry":{"type":"LineString","coordinates":[[6.4499518,51.6574883],[6.4502712,51.6577888]]},"properties":{"site":"xanten","name":"","highway":"footway"}},{"type":"Feature","geometry":{"type":"LineString","coordinates":[[6.4502712,51.6577888],[6.45029,51.6578023],[6.4502978,51.6578106]]},"properties":{"site":"xanten","name":"","highway":"path"}},{"type":"Feature","geometry":{"type":"LineString","coordinates":[[6.4435102,51.6538046],[6.4433532,51.6537279],[6.4431942,51.6536706],[6.4430805,51.653636],[6.4429643,51.6536152],[6.4427143,51.6535912]]},"properties":{"site":"xanten","name":"Emil-Barth-Straße","highway":"service"}},{"type":"Feature","geometry":{"type":"LineString","coordinates":[[6.4436681,51.6535052],[6.4431158,51.6532771]]},"properties":{"site":"xanten","name":"Emil-Barth-Straße","highway":"service"}},{"type":"Feature","geometry":{"type":"LineString","coordinates":[[6.449208,51.6567816],[6.44911,51.6567302],[6.4492111,51.6566583],[6.4493087,51.6567086]]},"properties":{"site":"xanten","name":"Philipp-Houben-Straße","highway":"service"}},{"type":"Feature","geometry":{"type":"LineString","coordinates":[[6.4498941,51.6555468],[6.4498188,51.6554938],[6.4497439,51.6554298]]},"properties":{"site":"xanten","name":"Johannes-Janssen-Straße","highway":"service"}},{"type":"Feature","geometry":{"type":"LineString","coordinates":[[6.4314261,51.6640745],[6.4318804,51.6641588],[6.4319764,51.6641948],[6.432011,51.6642526],[6.432424,51.6656474]]},"properties":{"site":"xanten","name":"","highway":"service"}},{"type":"Feature","geometry":{"type":"LineString","coordinates":[[6.4321075,51.6633949],[6.4321357,51.6634493],[6.4321706,51.6634863],[6.4322363,51.6635117],[6.432356,51.6635286],[6.4325883,51.6635293],[6.4330328,51.6634638],[6.4333006,51.6633855],[6.4335437,51.6632981],[6.4337509,51.6632053],[6.433943,51.663105],[6.4346793,51.6626946]]},"properties":{"site":"xanten","name":"","highway":"path"}},{"type":"Feature","geometry":{"type":"LineString","coordinates":[[6.4356296,51.6633058],[6.4355341,51.6634622],[6.4354684,51.6635532],[6.4353078,51.6636804],[6.4341892,51.6645596],[6.4335707,51.6650635],[6.4332341,51.6653247],[6.4330021,51.6654877],[6.4329308,51.6655361],[6.4328465,51.6655842],[6.4327461,51.665618],[6.4326588,51.6656376]]},"properties":{"site":"xanten","name":"","highway":"service"}},{"type":"Feature","geometry":{"type":"LineString","coordinates":[[6.4324762,51.6656627],[6.4325996,51.6656511],[6.4326588,51.6656376]]},"properties":{"site":"xanten","name":"","highway":"path"}},{"type":"Feature","geometry":{"type":"LineString","coordinates":[[6.4469198,51.6545582],[6.4471858,51.654687],[6.4474364,51.6548145],[6.4472357,51.6549883]]},"properties":{"site":"xanten","name":"","highway":"service"}},{"type":"Feature","geometry":{"type":"LineString","coordinates":[[6.4467037,51.6546814],[6.4467853,51.6547598],[6.4472357,51.6549883]]},"properties":{"site":"xanten","name":"","highway":"path"}},{"type":"Feature","geometry":{"type":"LineString","coordinates":[[6.4400158,51.654972],[6.4410618,51.6539842]]},"properties":{"site":"xanten","name":"","highway":"service"}},{"type":"Feature","geometry":{"type":"LineString","coordinates":[[6.4422432,51.6550932],[6.4427053,51.6546414]]},"properties":{"site":"xanten","name":"","highway":"service"}},{"type":"Feature","geometry":{"type":"LineString","coordinates":[[6.4427524,51.6544755],[6.4429112,51.654546],[6.445465,51.6553429],[6.4457424,51.6554374]]},"properties":{"site":"xanten","name":"","highway":"path"}},{"type":"Feature","geometry":{"type":"LineString","coordinates":[[6.4401355,51.6550243],[6.4401612,51.6550005],[6.4405118,51.654676],[6.4406257,51.6545465],[6.4413414,51.6538709]]},"properties":{"site":"xanten","name":"","highway":"path"}},{"type":"Feature","geometry":{"type":"LineString","coordinates":[[6.4413414,51.6538709],[6.4411932,51.6537114],[6.4410374,51.653637],[6.4399487,51.6531318],[6.4388425,51.6526269]]},"properties":{"site":"xanten","name":"","highway":"path"}},{"type":"Feature","geometry":{"type":"LineString","coordinates":[[6.4410374,51.653637],[6.4417708,51.6530877]]},"properties":{"site":"xanten","name":"","highway":"path"}},{"type":"Feature","geometry":{"type":"LineString","coordinates":[[6.4426703,51.6535773],[6.4427143,51.6535912]]},"properties":{"site":"xanten","name":"","highway":"steps"}},{"type":"Feature","geometry":{"type":"LineString","coordinates":[[6.4399487,51.6531318],[6.4403129,51.6528031]]},"properties":{"site":"xanten","name":"","highway":"path"}},{"type":"Feature","geometry":{"type":"LineString","coordinates":[[6.4417708,51.6530877],[6.441638,51.653021]]},"properties":{"site":"xanten","name":"","highway":"path"}},{"type":"Feature","geometry":{"type":"LineString","coordinates":[[6.4412729,51.6528272],[6.441638,51.653021]]},"properties":{"site":"xanten","name":"","highway":"service"}},{"type":"Feature","geometry":{"type":"LineString","coordinates":[[6.4417708,51.6530877],[6.44221,51.6533142],[6.442276,51.6533357]]},"properties":{"site":"xanten","name":"","highway":"path"}},{"type":"Feature","geometry":{"type":"LineString","coordinates":[[6.4422312,51.6533827],[6.4425456,51.653538],[6.4426703,51.6535773]]},"properties":{"site":"xanten","name":"","highway":"path"}},{"type":"Feature","geometry":{"type":"LineString","coordinates":[[6.4427367,51.6544914],[6.442711,51.6545157]]},"properties":{"site":"xanten","name":"","highway":"path"}},{"type":"Feature","geometry":{"type":"LineString","coordinates":[[6.442711,51.6545157],[6.4426877,51.654538],[6.4426668,51.6545751],[6.4426649,51.6545962],[6.4426786,51.6546194],[6.4427053,51.6546414]]},"properties":{"site":"xanten","name":"","highway":"path"}},{"type":"Feature","geometry":{"type":"LineString","coordinates":[[6.4413414,51.6538709],[6.4422012,51.6542544],[6.4427524,51.6544755]]},"properties":{"site":"xanten","name":"","highway":"path"}},{"type":"Feature","geometry":{"type":"LineString","coordinates":[[6.440043,51.6551099],[6.4401355,51.6550243],[6.4400158,51.654972],[6.4399218,51.6550586],[6.440043,51.6551099]]},"properties":{"site":"xanten","name":"","highway":"service"}},{"type":"Feature","geometry":{"type":"LineString","coordinates":[[6.445465,51.6553429],[6.445324,51.6553834]]},"properties":{"site":"xanten","name":"","highway":"path"}},{"type":"Feature","geometry":{"type":"LineString","coordinates":[[6.4457424,51.6554374],[6.4457994,51.6554465],[6.4458735,51.6554461]]},"properties":{"site":"xanten","name":"","highway":"path"}},{"type":"Feature","geometry":{"type":"LineString","coordinates":[[6.4410031,51.6545449],[6.4404618,51.6550246],[6.4406861,51.6551204],[6.4408947,51.6552074],[6.4412184,51.6549288],[6.4414437,51.6547331]]},"properties":{"site":"xanten","name":"","highway":"service"}},{"type":"Feature","geometry":{"type":"LineString","coordinates":[[6.4512181,51.6608819],[6.4507387,51.6611955],[6.4507121,51.6613142],[6.450581,51.6614071],[6.4499333,51.6618351]]},"properties":{"site":"xanten","name":"","highway":"path"}},{"type":"Feature","geometry":{"type":"LineString","coordinates":[[6.450581,51.6614071],[6.4508294,51.6615841]]},"properties":{"site":"xanten","name":"","highway":"path"}},{"type":"Feature","geometry":{"type":"LineString","coordinates":[[6.4449122,51.6574961],[6.4447444,51.6574225],[6.4446764,51.6572917],[6.4441542,51.6570505],[6.4439317,51.6569939],[6.4436155,51.6568515]]},"properties":{"site":"xanten","name":"","highway":"service"}},{"type":"Feature","geometry":{"type":"LineString","coordinates":[[6.4429111,51.6564354],[6.4425859,51.6562935],[6.4424562,51.6563093],[6.4423794,51.6563581]]},"properties":{"site":"xanten","name":"","highway":"path"}},{"type":"Feature","geometry":{"type":"LineString","coordinates":[[6.4436155,51.6568515],[6.4437178,51.6567415],[6.4437684,51.6566976]]},"properties":{"site":"xanten","name":"","highway":"service"}},{"type":"Feature","geometry":{"type":"LineString","coordinates":[[6.4384412,51.6555772],[6.4384457,51.6554239],[6.4389855,51.6551714],[6.4392782,51.6551771]]},"properties":{"site":"xanten","name":"","highway":"service"}},{"type":"Feature","geometry":{"type":"LineString","coordinates":[[6.4415839,51.656157],[6.4412092,51.6563597]]},"properties":{"site":"xanten","name":"","highway":"service"}},{"type":"Feature","geometry":{"type":"LineString","coordinates":[[6.4353668,51.653217],[6.4347688,51.6529475]]},"properties":{"site":"xanten","name":"","highway":"service"}},{"type":"Feature","geometry":{"type":"LineString","coordinates":[[6.4499342,51.6590087],[6.4500403,51.6590653],[6.4502289,51.6591567],[6.4504851,51.6591911],[6.4506756,51.6590681],[6.4507065,51.6590067],[6.4508328,51.6589267],[6.4512626,51.6587171],[6.4515203,51.6585823],[6.4517567,51.6584701]]},"properties":{"site":"xanten","name":"","highway":"path"}},{"type":"Feature","geometry":{"type":"LineString","coordinates":[[6.4411053,51.655815],[6.4413917,51.6560245],[6.4415839,51.656157]]},"properties":{"site":"xanten","name":"","highway":"service"}},{"type":"Feature","geometry":{"type":"LineString","coordinates":[[6.4336199,51.6540393],[6.4329259,51.6534381]]},"properties":{"site":"xanten","name":"","highway":"service"}},{"type":"Feature","geometry":{"type":"LineString","coordinates":[[6.4336199,51.6540393],[6.4335081,51.6541447],[6.4333302,51.6542227]]},"properties":{"site":"xanten","name":"","highway":"service"}},{"type":"Feature","geometry":{"type":"LineString","coordinates":[[6.4408798,51.6559314],[6.4411053,51.655815]]},"properties":{"site":"xanten","name":"","highway":"service"}},{"type":"Feature","geometry":{"type":"LineString","coordinates":[[6.4409661,51.6615539],[6.4404497,51.6612756]]},"properties":{"site":"xanten","name":"","highway":"service"}},{"type":"Feature","geometry":{"type":"LineString","coordinates":[[6.4509339,51.6668648],[6.4510504,51.6669416]]},"properties":{"site":"xanten","name":"","highway":"footway"}},{"type":"Feature","geometry":{"type":"LineString","coordinates":[[6.4371963,51.6658675],[6.4381966,51.6664686],[6.4388173,51.66685],[6.4395064,51.6672734],[6.44077,51.6680603],[6.4410858,51.668257],[6.4412332,51.6683488],[6.4419453,51.6687983],[6.4422216,51.6689582],[6.4428255,51.669338]]},"properties":{"site":"xanten","name":"","highway":"footway"}},{"type":"Feature","geometry":{"type":"LineString","coordinates":[[6.4408022,51.6664687],[6.4405966,51.6665964],[6.4401648,51.6668646],[6.4395064,51.6672734],[6.4384177,51.667956],[6.4371349,51.6687511]]},"properties":{"site":"xanten","name":"","highway":"footway"}},{"type":"Feature","geometry":{"type":"LineString","coordinates":[[6.4444091,51.6625184],[6.4435722,51.6630424],[6.4430036,51.6633985],[6.4426763,51.6636075],[6.4422687,51.6638677],[6.4409571,51.6646904],[6.4395019,51.6656538],[6.4381966,51.6664686],[6.4371077,51.6671506],[6.4358248,51.667943]]},"properties":{"site":"xanten","name":"","highway":"footway"}},{"type":"Feature","geometry":{"type":"LineString","coordinates":[[6.4515672,51.664352],[6.4515673,51.6646297],[6.451568,51.6646667],[6.4515576,51.664977],[6.4515274,51.6651553],[6.4514203,51.6652239],[6.4509902,51.6658681]]},"properties":{"site":"xanten","name":"","highway":"footway"}},{"type":"Feature","geometry":{"type":"LineString","coordinates":[[6.4391921,51.6548108],[6.4392418,51.6547711],[6.4401267,51.6539872]]},"properties":{"site":"xanten","name":"","highway":"service"}},{"type":"Feature","geometry":{"type":"LineString","coordinates":[[6.4354424,51.6668198],[6.4345118,51.6673807],[6.4335365,51.6679504],[6.4333551,51.6680542],[6.4332551,51.668112]]},"properties":{"site":"xanten","name":"Alleenradweg","highway":"path"}},{"type":"Feature","geometry":{"type":"LineString","coordinates":[[6.4393643,51.6640478],[6.4392361,51.6641437],[6.4391139,51.6642351],[6.4383957,51.6647524],[6.4381932,51.6648983],[6.4368115,51.6658935],[6.4354424,51.6668198]]},"properties":{"site":"xanten","name":"Alleenradweg","highway":"path"}},{"type":"Feature","geometry":{"type":"LineString","coordinates":[[6.4424307,51.6654365],[6.4427012,51.6656002],[6.4427787,51.6656324],[6.4437451,51.6661733]]},"properties":{"site":"xanten","name":"Trajanstraße","highway":"service"}},{"type":"Feature","geometry":{"type":"LineString","coordinates":[[6.4382354,51.6649251],[6.4383842,51.6650091],[6.4385254,51.6650905],[6.4395019,51.6656538],[6.4408022,51.6664687],[6.4409336,51.6665373],[6.4410472,51.6666082],[6.4420878,51.6672579],[6.4421947,51.6673247],[6.4427791,51.6676745],[6.4432199,51.6679606],[6.4435442,51.6681603],[6.4437097,51.6682603],[6.4443788,51.6686793],[6.4454206,51.6693433],[6.445843,51.6695996],[6.4461056,51.669771],[6.4461751,51.6698313]]},"properties":{"site":"xanten","name":"","highway":"footway"}},{"type":"Feature","geometry":{"type":"LineString","coordinates":[[6.4502978,51.6578106],[6.4517242,51.6571762]]},"properties":{"site":"xanten","name":"","highway":"service"}},{"type":"Feature","geometry":{"type":"LineString","coordinates":[[6.4398456,51.6639859],[6.4409571,51.6646904],[6.4422885,51.6655259],[6.4428593,51.6658848]]},"properties":{"site":"xanten","name":"","highway":"footway"}},{"type":"Feature","geometry":{"type":"LineString","coordinates":[[6.4384177,51.667956],[6.4371077,51.6671506],[6.4361779,51.6665672]]},"properties":{"site":"xanten","name":"","highway":"footway"}},{"type":"Feature","geometry":{"type":"LineString","coordinates":[[6.4494436,51.6667117],[6.4485983,51.6661878],[6.4483447,51.6660306],[6.447676,51.6656162],[6.4462639,51.6647625],[6.4461508,51.6646897]]},"properties":{"site":"xanten","name":"","highway":"footway"}},{"type":"Feature","geometry":{"type":"LineString","coordinates":[[6.4478974,51.6691292],[6.447871,51.6690801],[6.4477953,51.6690308],[6.4468311,51.6684027],[6.4458601,51.6677756],[6.4450286,51.6672449],[6.4437458,51.6664356],[6.4437061,51.6664222],[6.4436645,51.6664168],[6.4436283,51.6664256],[6.4435579,51.6664697],[6.4435291,51.6664788],[6.4434969,51.6664751],[6.4434272,51.6664312]]},"properties":{"site":"xanten","name":"","highway":"footway"}},{"type":"Feature","geometry":{"type":"LineString","coordinates":[[6.4408022,51.6664687],[6.440867,51.6664266],[6.4422885,51.6655259],[6.4424307,51.6654365],[6.44253,51.6653689]]},"properties":{"site":"xanten","name":"","highway":"footway"}},{"type":"Feature","geometry":{"type":"LineString","coordinates":[[6.4459234,51.6645316],[6.4449026,51.6638793]]},"properties":{"site":"xanten","name":"","highway":"footway"}},{"type":"Feature","geometry":{"type":"LineString","coordinates":[[6.44473,51.665408],[6.4436017,51.6646995],[6.4422687,51.6638677],[6.4415955,51.6634607],[6.4408873,51.6630325]]},"properties":{"site":"xanten","name":"","highway":"footway"}},{"type":"Feature","geometry":{"type":"LineString","coordinates":[[6.4431403,51.6649836],[6.4432294,51.6649321],[6.4436017,51.6646995],[6.4449026,51.6638793],[6.4457958,51.6633336]]},"properties":{"site":"xanten","name":"","highway":"footway"}},{"type":"Feature","geometry":{"type":"LineString","coordinates":[[6.4396847,51.6662854],[6.4393468,51.6665033],[6.4388173,51.66685]]},"properties":{"site":"xanten","name":"","highway":"footway"}},{"type":"Feature","geometry":{"type":"LineString","coordinates":[[6.4410472,51.6666082],[6.4407443,51.666683],[6.4405966,51.6665964],[6.4404791,51.66654]]},"properties":{"site":"xanten","name":"","highway":"footway"}},{"type":"Feature","geometry":{"type":"LineString","coordinates":[[6.4490147,51.6549522],[6.4486715,51.6552329]]},"properties":{"site":"xanten","name":"","highway":"footway"}},{"type":"Feature","geometry":{"type":"LineString","coordinates":[[6.4492507,51.6551264],[6.4489505,51.6553694]]},"properties":{"site":"xanten","name":"","highway":"footway"}},{"type":"Feature","geometry":{"type":"LineString","coordinates":[[6.4493722,51.6552513],[6.4494791,51.6552198],[6.4495264,51.6552017],[6.4495593,51.6551787],[6.4495812,51.6551496],[6.4496526,51.6549367],[6.4497332,51.6546636]]},"properties":{"site":"xanten","name":"","highway":"service"}},{"type":"Feature","geometry":{"type":"LineString","coordinates":[[6.4429436,51.656409],[6.4429111,51.6564354],[6.4427792,51.6565425],[6.4427002,51.6565928],[6.442299,51.6567966],[6.4420994,51.6568804]]},"properties":{"site":"xanten","name":"","highway":"service"}},{"type":"Feature","geometry":{"type":"LineString","coordinates":[[6.4466715,51.6632338],[6.4471261,51.662954],[6.4476205,51.6626489],[6.447997,51.6623814]]},"properties":{"site":"xanten","name":"","highway":"path"}},{"type":"Feature","geometry":{"type":"LineString","coordinates":[[6.4502727,51.6664368],[6.4506963,51.6661804]]},"properties":{"site":"xanten","name":"","highway":"footway"}},{"type":"Feature","geometry":{"type":"LineString","coordinates":[[6.4488958,51.659548],[6.4490094,51.6595381],[6.4492694,51.6595421],[6.4494057,51.6595988]]},"properties":{"site":"xanten","name":"","highway":"service"}},{"type":"Feature","geometry":{"type":"LineString","coordinates":[[6.4446437,51.6602956],[6.4447057,51.660336]]},"properties":{"site":"xanten","name":"","highway":"footway"}},{"type":"Feature","geometry":{"type":"LineString","coordinates":[[6.4470655,51.6585692],[6.4467821,51.6587794],[6.4466109,51.6589063],[6.4464447,51.6590296],[6.4462777,51.6591534],[6.4462537,51.6591712],[6.4461249,51.659208],[6.4459879,51.6593011]]},"properties":{"site":"xanten","name":"","highway":"footway"}},{"type":"Feature","geometry":{"type":"LineString","coordinates":[[6.443435,51.6612198],[6.4434145,51.6611927],[6.4435518,51.6610948],[6.4437011,51.6609827],[6.4438564,51.660869],[6.4440065,51.660759],[6.4441517,51.6606527],[6.4443019,51.6605451],[6.444463,51.6604275],[6.4446437,51.6602956],[6.4448122,51.6601785],[6.4449233,51.6601609],[6.4448916,51.6601069],[6.4448682,51.6600648]]},"properties":{"site":"xanten","name":"","highway":"footway"}},{"type":"Feature","geometry":{"type":"LineString","coordinates":[[6.4449233,51.6601609],[6.4450275,51.6602106],[6.445421,51.65993],[6.4457357,51.6597012],[6.4455981,51.6596033],[6.4456955,51.6595278],[6.4458138,51.6594352],[6.4458352,51.6594184]]},"properties":{"site":"xanten","name":"","highway":"footway"}},{"type":"Feature","geometry":{"type":"LineString","coordinates":[[6.4494057,51.6595988],[6.4495857,51.6597185]]},"properties":{"site":"xanten","name":"","highway":"service"}},{"type":"Feature","geometry":{"type":"LineString","coordinates":[[6.4467821,51.6587794],[6.4468079,51.6588015]]},"properties":{"site":"xanten","name":"","highway":"footway"}},{"type":"Feature","geometry":{"type":"LineString","coordinates":[[6.4466109,51.6589063],[6.4466419,51.6589238]]},"properties":{"site":"xanten","name":"","highway":"footway"}},{"type":"Feature","geometry":{"type":"LineString","coordinates":[[6.4464447,51.6590296],[6.4464751,51.6590479]]},"properties":{"site":"xanten","name":"","highway":"footway"}},{"type":"Feature","geometry":{"type":"LineString","coordinates":[[6.4458704,51.6594602],[6.4458507,51.6594515],[6.4458138,51.6594352]]},"properties":{"site":"xanten","name":"","highway":"footway"}},{"type":"Feature","geometry":{"type":"LineString","coordinates":[[6.4462777,51.6591534],[6.446309,51.6591717]]},"properties":{"site":"xanten","name":"","highway":"footway"}},{"type":"Feature","geometry":{"type":"LineString","coordinates":[[6.4506963,51.6661804],[6.4509523,51.666038]]},"properties":{"site":"xanten","name":"","highway":"footway"}},{"type":"Feature","geometry":{"type":"LineString","coordinates":[[6.4509523,51.666038],[6.4511022,51.6659505]]},"properties":{"site":"xanten","name":"","highway":"footway"}},{"type":"Feature","geometry":{"type":"LineString","coordinates":[[6.4503931,51.6635533],[6.4505512,51.6636436],[6.4506558,51.6636802]]},"properties":{"site":"xanten","name":"","highway":"path"}},{"type":"Feature","geometry":{"type":"LineString","coordinates":[[6.4505234,51.6634916],[6.4505365,51.6634861]]},"properties":{"site":"xanten","name":"","highway":"path"}},{"type":"Feature","geometry":{"type":"LineString","coordinates":[[6.4505365,51.6634861],[6.4505706,51.6634693]]},"properties":{"site":"xanten","name":"","highway":"path"}},{"type":"Feature","geometry":{"type":"LineString","coordinates":[[6.4474356,51.6637885],[6.4475798,51.6637798]]},"properties":{"site":"xanten","name":"","highway":"path"}},{"type":"Feature","geometry":{"type":"LineString","coordinates":[[6.4443632,51.6609352],[6.4444204,51.6609484]]},"properties":{"site":"xanten","name":"","highway":"path"}},{"type":"Feature","geometry":{"type":"LineString","coordinates":[[6.4393643,51.6640478],[6.4408466,51.6629719],[6.4413503,51.6625858]]},"properties":{"site":"xanten","name":"Alleenradweg","highway":"path"}},{"type":"Feature","geometry":{"type":"LineString","coordinates":[[6.4331911,51.6679065],[6.4330734,51.6674037],[6.4325978,51.6657748],[6.4325434,51.6657077],[6.4324762,51.6656627],[6.432424,51.6656474]]},"properties":{"site":"xanten","name":"","highway":"path"}},{"type":"Feature","geometry":{"type":"LineString","coordinates":[[6.432424,51.6656474],[6.4324214,51.6657289],[6.4324026,51.6657855],[6.432361,51.6658354],[6.4322993,51.6658828],[6.4320955,51.6659743],[6.4314839,51.6661839],[6.4307364,51.6664058],[6.4291831,51.6668526],[6.428952,51.6669182],[6.4270463,51.6674527],[6.4264548,51.6676213],[6.4262161,51.6677011],[6.4259293,51.6678574],[6.425595,51.668041],[6.4253917,51.6680955],[6.4253245,51.6681031],[6.4252405,51.6681055],[6.4251647,51.6680925],[6.4244076,51.6677697],[6.4241213,51.6676512],[6.4238954,51.6675974],[6.4220721,51.6674548],[6.4206997,51.6673538],[6.4205576,51.6673628],[6.4204322,51.6673979],[6.4203284,51.6674871],[6.419908,51.6680826],[6.4183981,51.6695384],[6.4182698,51.6695619],[6.418146,51.6695476],[6.4181071,51.6695425]]},"properties":{"site":"xanten","name":"","highway":"service"}},{"type":"Feature","geometry":{"type":"LineString","coordinates":[[6.4449454,51.6604522],[6.444904,51.6604343],[6.4447057,51.660336],[6.4448456,51.6602318],[6.445036,51.6602784],[6.4450689,51.6602869]]},"properties":{"site":"xanten","name":"","highway":"service"}},{"type":"Feature","geometry":{"type":"LineString","coordinates":[[6.4436508,51.6613415],[6.4436218,51.6613191],[6.443435,51.6612198],[6.4435914,51.6611087],[6.4438542,51.661249],[6.4438825,51.6612631]]},"properties":{"site":"xanten","name":"","highway":"service"}},{"type":"Feature","geometry":{"type":"LineString","coordinates":[[6.4346793,51.6626946],[6.4353409,51.6622916],[6.4355649,51.6621952],[6.4357527,51.6621453],[6.4359136,51.6620929],[6.4361448,51.6619849],[6.437007,51.6614566],[6.4371568,51.6613833],[6.4373364,51.6613182],[6.4378603,51.6611808]]},"properties":{"site":"xanten","name":"","highway":"path"}},{"type":"Feature","geometry":{"type":"LineString","coordinates":[[6.4427532,51.6625079],[6.4426112,51.6624966],[6.4421472,51.6621883]]},"properties":{"site":"xanten","name":"","highway":"footway"}},{"type":"Feature","geometry":{"type":"LineString","coordinates":[[6.4418473,51.6623402],[6.4419035,51.6623671],[6.4419237,51.6623767],[6.4422901,51.6626312],[6.4424091,51.6626237],[6.4426012,51.6625334],[6.4427532,51.6625079]]},"properties":{"site":"xanten","name":"","highway":"service"}},{"type":"Feature","geometry":{"type":"LineString","coordinates":[[6.4422901,51.6626312],[6.4421716,51.662709],[6.4419503,51.6628433],[6.4422531,51.6630299]]},"properties":{"site":"xanten","name":"","highway":"service"}},{"type":"Feature","geometry":{"type":"LineString","coordinates":[[6.4421716,51.662709],[6.4424831,51.6628895],[6.4428453,51.6630985],[6.4430276,51.6629854],[6.4424091,51.6626237]]},"properties":{"site":"xanten","name":"","highway":"service"}},{"type":"Feature","geometry":{"type":"LineString","coordinates":[[6.4415955,51.6634607],[6.441993,51.6632],[6.4422531,51.6630299],[6.4422951,51.6630085]]},"properties":{"site":"xanten","name":"","highway":"service"}},{"type":"Feature","geometry":{"type":"LineString","coordinates":[[6.4422951,51.6630085],[6.4424186,51.6629301]]},"properties":{"site":"xanten","name":"","highway":"service"}},{"type":"Feature","geometry":{"type":"LineString","coordinates":[[6.4424186,51.6629301],[6.4424831,51.6628895]]},"properties":{"site":"xanten","name":"","highway":"service"}},{"type":"Feature","geometry":{"type":"LineString","coordinates":[[6.4486004,51.6593788],[6.4486589,51.6593438]]},"properties":{"site":"xanten","name":"","highway":"service"}},{"type":"Feature","geometry":{"type":"LineString","coordinates":[[6.4481299,51.659104],[6.4480576,51.6591519]]},"properties":{"site":"xanten","name":"","highway":"footway"}},{"type":"Feature","geometry":{"type":"LineString","coordinates":[[6.4443019,51.6605451],[6.4443369,51.6605599]]},"properties":{"site":"xanten","name":"","highway":"footway"}},{"type":"Feature","geometry":{"type":"LineString","coordinates":[[6.4438564,51.660869],[6.4438791,51.6608823]]},"properties":{"site":"xanten","name":"","highway":"footway"}},{"type":"Feature","geometry":{"type":"LineString","coordinates":[[6.4435518,51.6610948],[6.4435914,51.6611087]]},"properties":{"site":"xanten","name":"","highway":"footway"}},{"type":"Feature","geometry":{"type":"LineString","coordinates":[[6.4440065,51.660759],[6.4440374,51.6607777]]},"properties":{"site":"xanten","name":"","highway":"footway"}},{"type":"Feature","geometry":{"type":"LineString","coordinates":[[6.4441517,51.6606527],[6.4441818,51.6606671]]},"properties":{"site":"xanten","name":"","highway":"footway"}},{"type":"Feature","geometry":{"type":"LineString","coordinates":[[6.444463,51.6604275],[6.4445007,51.660445]]},"properties":{"site":"xanten","name":"","highway":"footway"}},{"type":"Feature","geometry":{"type":"LineString","coordinates":[[6.4437011,51.6609827],[6.4437309,51.6609979]]},"properties":{"site":"xanten","name":"","highway":"footway"}},{"type":"Feature","geometry":{"type":"LineString","coordinates":[[6.4499333,51.6618351],[6.4495127,51.6622145],[6.4491789,51.6621641],[6.4490006,51.6623013],[6.448854,51.6624398],[6.4488292,51.6624776],[6.4489172,51.6626581],[6.4491924,51.6628806],[6.4491947,51.6629198],[6.4491294,51.662989]]},"properties":{"site":"xanten","name":"","highway":"footway"}},{"type":"Feature","geometry":{"type":"LineString","coordinates":[[6.4498828,51.661268],[6.4489595,51.6607924]]},"properties":{"site":"xanten","name":"","highway":"service"}},{"type":"Feature","geometry":{"type":"LineString","coordinates":[[6.440867,51.6664266],[6.4411894,51.6664201],[6.4414773,51.6664565],[6.4417668,51.6665196],[6.4419569,51.6665305],[6.4421344,51.6665143],[6.442239,51.6664927],[6.4424254,51.6664619],[6.4425622,51.6664552],[6.4428626,51.6664769],[6.4429002,51.6665629],[6.4430054,51.6665868],[6.4431384,51.6665589],[6.4431818,51.6665733]]},"properties":{"site":"xanten","name":"","highway":"footway"}},{"type":"Feature","geometry":{"type":"LineString","coordinates":[[6.4329259,51.6534381],[6.4324843,51.6530721],[6.4334235,51.6523198]]},"properties":{"site":"xanten","name":"","highway":"service"}},{"type":"Feature","geometry":{"type":"LineString","coordinates":[[6.449673,51.6628645],[6.4492982,51.6630163]]},"properties":{"site":"xanten","name":"Klever Straße","highway":"pedestrian"}},{"type":"Feature","geometry":{"type":"LineString","coordinates":[[6.4497614,51.6628287],[6.449673,51.6628645]]},"properties":{"site":"xanten","name":"Klever Straße","highway":"pedestrian"}},{"type":"Feature","geometry":{"type":"LineString","coordinates":[[6.4492735,51.6630266],[6.4492435,51.6630391],[6.4491999,51.6630565]]},"properties":{"site":"xanten","name":"Klever Straße","highway":"pedestrian"}},{"type":"Feature","geometry":{"type":"LineString","coordinates":[[6.4492982,51.6630163],[6.4492735,51.6630266]]},"properties":{"site":"xanten","name":"Klever Straße","highway":"pedestrian"}},{"type":"Feature","geometry":{"type":"LineString","coordinates":[[6.4341892,51.6645596],[6.4344878,51.664732],[6.4345222,51.6647532]]},"properties":{"site":"xanten","name":"","highway":"service"}},{"type":"Feature","geometry":{"type":"LineString","coordinates":[[6.4486342,51.6661666],[6.4487922,51.6661781],[6.4490256,51.6661789],[6.4492562,51.6661557],[6.4494011,51.6661174],[6.4495057,51.6660475],[6.4495579,51.6659978]]},"properties":{"site":"xanten","name":"","highway":"footway"}},{"type":"Feature","geometry":{"type":"LineString","coordinates":[[6.4483447,51.6660306],[6.4487198,51.6657897],[6.4490095,51.6659435],[6.4486342,51.6661666],[6.4485983,51.6661878]]},"properties":{"site":"xanten","name":"","highway":"footway"}},{"type":"Feature","geometry":{"type":"LineString","coordinates":[[6.4505735,51.6596039],[6.4507359,51.659497],[6.4508057,51.659477],[6.4508154,51.6594747],[6.4510017,51.6594295],[6.4510142,51.6594247],[6.4510413,51.6594142],[6.4510497,51.659411],[6.4510683,51.6593979],[6.4511013,51.659338],[6.4511209,51.6593197],[6.4511508,51.6593111],[6.4512031,51.65931],[6.4512718,51.6593036],[6.4513389,51.6592703],[6.4513659,51.6592493],[6.4514171,51.6592094],[6.4514511,51.6591735],[6.4514562,51.6591466],[6.4514476,51.6591336],[6.4515601,51.6590495]]},"properties":{"site":"xanten","name":"","highway":"footway"}},{"type":"Feature","geometry":{"type":"LineString","coordinates":[[6.4513005,51.659916],[6.4505735,51.6596039],[6.4504525,51.6595548]]},"properties":{"site":"xanten","name":"","highway":"service"}},{"type":"Feature","geometry":{"type":"LineString","coordinates":[[6.4471703,51.6586302],[6.4470655,51.6585692],[6.4469564,51.6585013]]},"properties":{"site":"xanten","name":"","highway":"path"}},{"type":"Feature","geometry":{"type":"LineString","coordinates":[[6.4470649,51.6584206],[6.4471666,51.6584832],[6.4472782,51.6585509]]},"properties":{"site":"xanten","name":"","highway":"path"}},{"type":"Feature","geometry":{"type":"LineString","coordinates":[[6.4390073,51.6638756],[6.438711,51.6634128],[6.4387233,51.6633339],[6.4389681,51.6631914]]},"properties":{"site":"xanten","name":"","highway":"service"}},{"type":"Feature","geometry":{"type":"LineString","coordinates":[[6.4404567,51.6630577],[6.4404238,51.6630414],[6.4401771,51.6629195],[6.4399851,51.6629065]]},"properties":{"site":"xanten","name":"","highway":"service"}},{"type":"Feature","geometry":{"type":"LineString","coordinates":[[6.448918,51.6535142],[6.4491745,51.6532473]]},"properties":{"site":"xanten","name":"","highway":"service"}},{"type":"Feature","geometry":{"type":"LineString","coordinates":[[6.4436155,51.6568515],[6.4434088,51.6569019],[6.4431414,51.6570062],[6.4425856,51.6573324],[6.4418135,51.6577219],[6.4415852,51.6575896]]},"properties":{"site":"xanten","name":"","highway":"service"}},{"type":"Feature","geometry":{"type":"LineString","coordinates":[[6.4329961,51.6616336],[6.4330335,51.6615805],[6.4330677,51.6615146],[6.433284,51.6613653],[6.4338562,51.6609702],[6.4335854,51.6607724],[6.4343636,51.6603577],[6.4351212,51.660883],[6.4344047,51.6612807],[6.4338562,51.6609702]]},"properties":{"site":"xanten","name":"","highway":"service"}},{"type":"Feature","geometry":{"type":"LineString","coordinates":[[6.433284,51.6613653],[6.4337756,51.6616432],[6.4344047,51.6612807]]},"properties":{"site":"xanten","name":"","highway":"service"}},{"type":"Feature","geometry":{"type":"LineString","coordinates":[[6.4463273,51.6567225],[6.4463896,51.6566504],[6.4464845,51.6565375],[6.4468505,51.6562146]]},"properties":{"site":"xanten","name":"","highway":"service"}},{"type":"Feature","geometry":{"type":"LineString","coordinates":[[6.4437546,51.6581951],[6.4436205,51.658087],[6.4433673,51.6582207]]},"properties":{"site":"xanten","name":"","highway":"service"}},{"type":"Feature","geometry":{"type":"LineString","coordinates":[[6.4373292,51.6560858],[6.4365809,51.6556661],[6.4368972,51.6554296]]},"properties":{"site":"xanten","name":"","highway":"service"}},{"type":"Feature","geometry":{"type":"LineString","coordinates":[[6.4498188,51.6554938],[6.449934,51.6554389],[6.449954,51.6553997],[6.4498325,51.6553047]]},"properties":{"site":"xanten","name":"","highway":"service"}},{"type":"Feature","geometry":{"type":"LineString","coordinates":[[6.4308474,51.6576137],[6.4312975,51.657561],[6.4313262,51.657558],[6.4313621,51.657558],[6.4314051,51.6575655],[6.4314454,51.65758],[6.4323068,51.6580103]]},"properties":{"site":"xanten","name":"","highway":"service"}},{"type":"Feature","geometry":{"type":"LineString","coordinates":[[6.4313621,51.657558],[6.4309851,51.6570126],[6.4309187,51.6568807],[6.4309087,51.656823],[6.4309187,51.6567612],[6.4309386,51.6567098],[6.4309824,51.6566501],[6.4310214,51.6566119],[6.4310831,51.656569],[6.4328463,51.6558728],[6.4328734,51.6558569],[6.4328832,51.6558433],[6.4328855,51.6558266],[6.4328771,51.6558048],[6.4327693,51.6556804]]},"properties":{"site":"xanten","name":"","highway":"service"}},{"type":"Feature","geometry":{"type":"LineString","coordinates":[[6.4366316,51.6602973],[6.4367341,51.6602371],[6.4370058,51.6600097],[6.437161,51.6599214],[6.4372559,51.659892],[6.4373422,51.6599],[6.4374629,51.6599562],[6.4374974,51.6600097],[6.4374543,51.6601087],[6.4374284,51.6601809],[6.4374155,51.6602424],[6.4374284,51.6603227],[6.4374888,51.6603441],[6.4375578,51.6603735],[6.4377389,51.6603414],[6.4379373,51.66032],[6.4380494,51.6602799],[6.4387566,51.6605955],[6.4391236,51.6607262]]},"properties":{"site":"xanten","name":"","highway":"service"}},{"type":"Feature","geometry":{"type":"LineString","coordinates":[[6.4401825,51.6551699],[6.4401338,51.6552115],[6.4400898,51.6552568],[6.4399186,51.6554258],[6.4398338,51.6555081]]},"properties":{"site":"xanten","name":"","highway":"service"}},{"type":"Feature","geometry":{"type":"LineString","coordinates":[[6.4399186,51.6554258],[6.4403054,51.6555945]]},"properties":{"site":"xanten","name":"","highway":"service"}},{"type":"Feature","geometry":{"type":"LineString","coordinates":[[6.4384758,51.6647915],[6.4383957,51.6647524]]},"properties":{"site":"xanten","name":"","highway":"footway"}},{"type":"Feature","geometry":{"type":"LineString","coordinates":[[6.4389002,51.6649137],[6.4387288,51.664936],[6.4385887,51.6650403],[6.4385254,51.6650905]]},"properties":{"site":"xanten","name":"","highway":"footway"}},{"type":"Feature","geometry":{"type":"LineString","coordinates":[[6.4392361,51.6641437],[6.4393059,51.6641809],[6.4384758,51.6647915],[6.4385935,51.6648587],[6.4387288,51.664936]]},"properties":{"site":"xanten","name":"","highway":"footway"}},{"type":"Feature","geometry":{"type":"LineString","coordinates":[[6.4396174,51.6641052],[6.4398416,51.6642263],[6.4389002,51.6649137],[6.4386803,51.6647956],[6.4396174,51.6641052],[6.4394347,51.6640669],[6.4393643,51.6640478]]},"properties":{"site":"xanten","name":"","highway":"service"}},{"type":"Feature","geometry":{"type":"LineString","coordinates":[[6.4426763,51.6636075],[6.441993,51.6632]]},"properties":{"site":"xanten","name":"","highway":"footway"}},{"type":"Feature","geometry":{"type":"LineString","coordinates":[[6.4427532,51.6625079],[6.4428381,51.6626067],[6.4435722,51.6630424]]},"properties":{"site":"xanten","name":"","highway":"path"}},{"type":"Feature","geometry":{"type":"LineString","coordinates":[[6.4382343,51.6543397],[6.4389818,51.653718]]},"properties":{"site":"xanten","name":"","highway":"service"}},{"type":"Feature","geometry":{"type":"LineString","coordinates":[[6.4429481,51.6586197],[6.4434116,51.6589488]]},"properties":{"site":"xanten","name":"","highway":"service"}},{"type":"Feature","geometry":{"type":"LineString","coordinates":[[6.4399831,51.655149],[6.4399218,51.6550586],[6.4400158,51.654972]]},"properties":{"site":"xanten","name":"","highway":"service"}},{"type":"Feature","geometry":{"type":"LineString","coordinates":[[6.4427628,51.6604928],[6.4427751,51.6606013],[6.4427656,51.6606679],[6.4427203,51.6607137],[6.4420312,51.6612003],[6.4420265,51.661221],[6.4420241,51.6612491],[6.4420527,51.6612817],[6.4423626,51.6614517]]},"properties":{"site":"xanten","name":"","highway":"service"}},{"type":"Feature","geometry":{"type":"LineString","coordinates":[[6.4402473,51.6560794],[6.441076,51.6556676],[6.4411174,51.6556276],[6.4411657,51.6555844]]},"properties":{"site":"xanten","name":"","highway":"service"}},{"type":"Feature","geometry":{"type":"LineString","coordinates":[[6.4485619,51.6584458],[6.4481799,51.658245]]},"properties":{"site":"xanten","name":"","highway":"service"}},{"type":"Feature","geometry":{"type":"LineString","coordinates":[[6.4464027,51.6541338],[6.4461587,51.6543346],[6.4459657,51.6544791],[6.4457711,51.6546176],[6.4456861,51.654711]]},"properties":{"site":"xanten","name":"","highway":"service"}},{"type":"Feature","geometry":{"type":"LineString","coordinates":[[6.4468174,51.6542129],[6.4465718,51.6541011],[6.4468248,51.6538911]]},"properties":{"site":"xanten","name":"","highway":"service"}},{"type":"Feature","geometry":{"type":"LineString","coordinates":[[6.4325139,51.6642707],[6.4341892,51.6645596]]},"properties":{"site":"xanten","name":"","highway":"track"}},{"type":"Feature","geometry":{"type":"LineString","coordinates":[[6.4435118,51.6664149],[6.4435354,51.6663992],[6.4438147,51.6662144]]},"properties":{"site":"xanten","name":"","highway":"service"}},{"type":"Feature","geometry":{"type":"LineString","coordinates":[[6.4408524,51.6624255],[6.4415362,51.6619413]]},"properties":{"site":"xanten","name":"","highway":"service"}},{"type":"Feature","geometry":{"type":"LineString","coordinates":[[6.4398209,51.6634468],[6.4397566,51.663407]]},"properties":{"site":"xanten","name":"","highway":"service"}},{"type":"Feature","geometry":{"type":"LineString","coordinates":[[6.4399307,51.6635149],[6.4398209,51.6634468]]},"properties":{"site":"xanten","name":"","highway":"service"}},{"type":"Feature","geometry":{"type":"LineString","coordinates":[[6.439005,51.6628632],[6.4389879,51.6628503]]},"properties":{"site":"xanten","name":"","highway":"service"}},{"type":"Feature","geometry":{"type":"LineString","coordinates":[[6.4391011,51.6629345],[6.439005,51.6628632]]},"properties":{"site":"xanten","name":"","highway":"service"}},{"type":"Feature","geometry":{"type":"LineString","coordinates":[[6.4397566,51.663407],[6.4396144,51.6633188],[6.4391011,51.6629345]]},"properties":{"site":"xanten","name":"","highway":"service"}},{"type":"Feature","geometry":{"type":"LineString","coordinates":[[6.4444595,51.6578282],[6.4443396,51.6577616],[6.4442315,51.657699],[6.4441326,51.6576294]]},"properties":{"site":"xanten","name":"","highway":"service"}},{"type":"Feature","geometry":{"type":"LineString","coordinates":[[6.4404729,51.6569983],[6.4401888,51.6567942],[6.4400569,51.6566959],[6.439991,51.6566718],[6.4398416,51.6566401]]},"properties":{"site":"xanten","name":"","highway":"service"}},{"type":"Feature","geometry":{"type":"LineString","coordinates":[[6.4358734,51.6533274],[6.4359451,51.6532461],[6.4359928,51.6532139],[6.4360375,51.6531982],[6.4360874,51.6531928],[6.4361581,51.6532054],[6.4362238,51.6532363],[6.4366171,51.6534148],[6.4366446,51.6534403],[6.4366576,51.6534771],[6.4366467,51.6535138],[6.4365252,51.6536269]]},"properties":{"site":"xanten","name":"","highway":"service"}},{"type":"Feature","geometry":{"type":"LineString","coordinates":[[6.4382354,51.6649251],[6.4381932,51.6648983]]},"properties":{"site":"xanten","name":"","highway":"footway"}},{"type":"Feature","geometry":{"type":"LineString","coordinates":[[6.4411053,51.655815],[6.4412673,51.6557227],[6.4412951,51.6557027]]},"properties":{"site":"xanten","name":"","highway":"service"}},{"type":"Feature","geometry":{"type":"LineString","coordinates":[[6.4405127,51.6567506],[6.4403567,51.6566338],[6.441038,51.6562344]]},"properties":{"site":"xanten","name":"","highway":"service"}},{"type":"Feature","geometry":{"type":"LineString","coordinates":[[6.4501735,51.6631521],[6.4506356,51.6628889],[6.4506774,51.6628676],[6.4507117,51.6628612],[6.4507714,51.6628621],[6.4508147,51.6628769],[6.4508863,51.6629213],[6.451031,51.6630268]]},"properties":{"site":"xanten","name":"","highway":"service"}},{"type":"Feature","geometry":{"type":"LineString","coordinates":[[6.4368487,51.6540585],[6.4373947,51.6546032],[6.4374082,51.6546656],[6.4373889,51.6547293],[6.4372708,51.6547845],[6.4357899,51.6553501]]},"properties":{"site":"xanten","name":"","highway":"service"}},{"type":"Feature","geometry":{"type":"LineString","coordinates":[[6.4385104,51.6545211],[6.4385588,51.6544786],[6.4387049,51.6543551],[6.4393113,51.6546256],[6.439181,51.6547451],[6.4391334,51.6547859]]},"properties":{"site":"xanten","name":"","highway":"service"}},{"type":"Feature","geometry":{"type":"LineString","coordinates":[[6.4417887,51.6549786],[6.4415714,51.6548917]]},"properties":{"site":"xanten","name":"","highway":"service"}},{"type":"Feature","geometry":{"type":"LineString","coordinates":[[6.4321169,51.661042],[6.4317692,51.6607704],[6.4316229,51.6607467],[6.4315399,51.6607414]]},"properties":{"site":"xanten","name":"","highway":"path"}},{"type":"Feature","geometry":{"type":"LineString","coordinates":[[6.4396174,51.6641052],[6.4398208,51.6639722],[6.4398456,51.6639859]]},"properties":{"site":"xanten","name":"","highway":"service"}},{"type":"Feature","geometry":{"type":"LineString","coordinates":[[6.4386803,51.6647956],[6.4385935,51.6648587],[6.4384474,51.6649648],[6.4383842,51.6650091]]},"properties":{"site":"xanten","name":"","highway":"service"}},{"type":"Feature","geometry":{"type":"LineString","coordinates":[[6.4516523,51.6674502],[6.4516013,51.6674579],[6.451545,51.6674632],[6.4514763,51.6674616],[6.4514054,51.6674531],[6.45128,51.6674273],[6.4512038,51.6673953],[6.4511062,51.6673218],[6.4510493,51.6672796],[6.4509994,51.6671957],[6.450993,51.6671425],[6.4509935,51.6671029],[6.4510043,51.6670566],[6.4510493,51.6670021],[6.4509844,51.6669651],[6.4510847,51.6669069],[6.4511389,51.6669442],[6.4512623,51.6669112],[6.4514517,51.6669096],[6.4516501,51.6669708],[6.4517789,51.667054],[6.4518454,51.6671362],[6.4518733,51.6672213],[6.4518658,51.6673032],[6.4518572,51.6673225]]},"properties":{"site":"xanten","name":"","highway":"footway"}},{"type":"Feature","geometry":{"type":"LineString","coordinates":[[6.4432479,51.6662516],[6.4434421,51.6663516],[6.4435354,51.6663992]]},"properties":{"site":"xanten","name":"","highway":"service"}},{"type":"Feature","geometry":{"type":"LineString","coordinates":[[6.4318749,51.6634071],[6.4319928,51.6633927],[6.432068,51.6633856],[6.4321075,51.6633949]]},"properties":{"site":"xanten","name":"","highway":"path"}},{"type":"Feature","geometry":{"type":"LineString","coordinates":[[6.4354372,51.6531174],[6.435302,51.653111],[6.4348208,51.6529048],[6.433435,51.6523108],[6.4332666,51.6522386],[6.4332339,51.6522226],[6.4325716,51.6519431],[6.4303308,51.6509902],[6.4298999,51.6508021],[6.4298531,51.6507832]]},"properties":{"site":"xanten","name":"","highway":"path"}},{"type":"Feature","geometry":{"type":"LineString","coordinates":[[6.4393468,51.6665033],[6.4389236,51.6662437]]},"properties":{"site":"xanten","name":"","highway":"footway"}},{"type":"Feature","geometry":{"type":"LineString","coordinates":[[6.4401648,51.6668646],[6.4400788,51.6668094],[6.43952,51.6671628]]},"properties":{"site":"xanten","name":"","highway":"footway"}},{"type":"Feature","geometry":{"type":"LineString","coordinates":[[6.442468,51.6561413],[6.44258,51.6560343],[6.4426096,51.6560193],[6.4426594,51.6559991],[6.4427196,51.6559765],[6.4427694,51.655942],[6.4428192,51.6559007],[6.442847,51.6558759]]},"properties":{"site":"xanten","name":"","highway":"service"}},{"type":"Feature","geometry":{"type":"LineString","coordinates":[[6.4413503,51.6625858],[6.4414217,51.662531]]},"properties":{"site":"xanten","name":"Alleenradweg","highway":"path"}},{"type":"Feature","geometry":{"type":"LineString","coordinates":[[6.4383159,51.6612925],[6.4383605,51.6612928],[6.4384043,51.6613006],[6.4385978,51.6613698]]},"properties":{"site":"xanten","name":"","highway":"path"}},{"type":"Feature","geometry":{"type":"LineString","coordinates":[[6.4383806,51.6612354],[6.4383538,51.6612609],[6.4383159,51.6612925],[6.4382893,51.6613023],[6.4382243,51.6613194],[6.4381643,51.6613247],[6.4380899,51.6613216],[6.4380344,51.6613116],[6.4379775,51.6612934],[6.437936,51.6612671],[6.4379053,51.661243],[6.4378888,51.6612262],[6.4378697,51.6611996],[6.4378603,51.6611808],[6.4378638,51.6611501],[6.4378742,51.6611131],[6.4378896,51.6610815],[6.4379112,51.6610524],[6.4379392,51.6610345],[6.4379991,51.6610072],[6.4380515,51.6609875],[6.4381007,51.6609777],[6.4381702,51.6609818],[6.438264,51.6609981],[6.4383082,51.6610146],[6.438338,51.6610289],[6.4383655,51.6610527],[6.4383896,51.6610816],[6.4384057,51.6611117],[6.4384142,51.6611456],[6.4384115,51.6611789],[6.4384034,51.6612077],[6.4383806,51.6612354]]},"properties":{"site":"xanten","name":"","highway":"path"}},{"type":"Feature","geometry":{"type":"LineString","coordinates":[[6.4444204,51.6609484],[6.4445535,51.6608402],[6.4446999,51.6607229],[6.4448935,51.6605636],[6.445082,51.6604114],[6.4451062,51.6603884],[6.4451216,51.6603614],[6.4451407,51.6603087],[6.4451554,51.6602889],[6.4451874,51.6602655],[6.4457966,51.6598348]]},"properties":{"site":"xanten","name":"","highway":"path"}},{"type":"Feature","geometry":{"type":"LineString","coordinates":[[6.4413503,51.6625858],[6.4414242,51.6625823],[6.4415136,51.6625655],[6.4416146,51.6625398],[6.4416913,51.6625073],[6.441768,51.6624609],[6.4419035,51.6623671],[6.4421472,51.6621883],[6.4429112,51.6616243],[6.4429662,51.6615873],[6.4430305,51.6615484],[6.4431087,51.6615111],[6.4431938,51.6614744],[6.4432772,51.661445],[6.443352,51.6614266],[6.443429,51.6614108],[6.443502,51.6614015],[6.4436028,51.6613965],[6.4437128,51.6613921],[6.4437725,51.6613857],[6.4438252,51.6613702],[6.443875,51.6613494],[6.4439028,51.6613271]]},"properties":{"site":"xanten","name":"","highway":"path"}},{"type":"Feature","geometry":{"type":"LineString","coordinates":[[6.4457516,51.656769],[6.4461978,51.6568951],[6.4465503,51.656993],[6.4465696,51.6570031],[6.4465886,51.6570213],[6.4466134,51.6570373],[6.4466532,51.6570551],[6.4467001,51.6570684],[6.4467581,51.6570812],[6.4467954,51.6570855],[6.446832,51.6570817],[6.4468641,51.6570703],[6.4468876,51.6570547],[6.4469028,51.6570354],[6.4469371,51.6569911],[6.4470033,51.6569056],[6.447017,51.656887],[6.4470212,51.6568711],[6.4470074,51.6568549],[6.4469625,51.6568287],[6.446901,51.6568],[6.4467982,51.6567666],[6.4463896,51.6566504],[6.4459852,51.6565339]]},"properties":{"site":"xanten","name":"","highway":"path"}},{"type":"Feature","geometry":{"type":"LineString","coordinates":[[6.4461374,51.6566741],[6.4461847,51.6566816],[6.4463273,51.6567225],[6.4468596,51.6568763],[6.4468869,51.6568881],[6.4469024,51.6569067],[6.4469072,51.6569292],[6.4468983,51.6569514],[6.4468824,51.6569677],[6.44687,51.6569722],[6.4468548,51.6569778],[6.4468213,51.6569838],[6.4467871,51.6569812],[6.4462482,51.6568258],[6.446058,51.6567709],[6.4459644,51.6567439],[6.4459271,51.6567332],[6.4458774,51.656715],[6.4458311,51.6566954],[6.4457887,51.6566889],[6.4457441,51.6566874],[6.445702,51.6566897],[6.4456547,51.6566998],[6.4456029,51.656715],[6.4455535,51.6567289],[6.4454772,51.6567643]]},"properties":{"site":"xanten","name":"","highway":"service"}},{"type":"Feature","geometry":{"type":"LineString","coordinates":[[6.4455767,51.656615],[6.4456924,51.6566435],[6.4457588,51.6566623],[6.4458311,51.6566954],[6.4458992,51.6567036],[6.4459392,51.6567034],[6.4459717,51.6566991],[6.4460162,51.6566878],[6.4460642,51.6566771],[6.4461008,51.6566739],[6.4461374,51.6566741]]},"properties":{"site":"xanten","name":"","highway":"service"}},{"type":"Feature","geometry":{"type":"LineString","coordinates":[[6.446058,51.6567709],[6.4460507,51.6567598],[6.4460483,51.6567476],[6.4460476,51.6567313],[6.4460573,51.6567118],[6.4460769,51.6566938],[6.4461018,51.6566824],[6.4461374,51.6566741]]},"properties":{"site":"xanten","name":"","highway":"service"}},{"type":"Feature","geometry":{"type":"LineString","coordinates":[[6.4461978,51.6568951],[6.4462482,51.6568258],[6.446266,51.6568013],[6.4463273,51.6567225]]},"properties":{"site":"xanten","name":"","highway":"path"}},{"type":"Feature","geometry":{"type":"LineString","coordinates":[[6.4469371,51.6569911],[6.44687,51.6569722],[6.446266,51.6568013],[6.446136,51.6567645]]},"properties":{"site":"xanten","name":"","highway":"path"}},{"type":"Feature","geometry":{"type":"LineString","coordinates":[[6.4452743,51.6568891],[6.4451995,51.6570255],[6.4451615,51.6570962],[6.4451437,51.6571249]]},"properties":{"site":"xanten","name":"","highway":"footway"}},{"type":"Feature","geometry":{"type":"LineString","coordinates":[[6.4452743,51.6568891],[6.4453966,51.6566733],[6.4454809,51.6565396],[6.4455702,51.6564181],[6.4457014,51.6562445],[6.4458175,51.6560935],[6.4458532,51.6560316],[6.4458711,51.6559824],[6.4458839,51.6559325],[6.4458878,51.6558994],[6.4458839,51.6558303],[6.4458767,51.6557399]]},"properties":{"site":"xanten","name":"","highway":"path"}},{"type":"Feature","geometry":{"type":"LineString","coordinates":[[6.4454258,51.6570122],[6.4453943,51.65706],[6.4453541,51.6571259],[6.4453346,51.6571588]]},"properties":{"site":"xanten","name":"","highway":"footway"}},{"type":"Feature","geometry":{"type":"LineString","coordinates":[[6.4453346,51.6571588],[6.4453257,51.6571793],[6.4453257,51.657199],[6.4453469,51.6572226],[6.4453748,51.6572551],[6.4453893,51.6572839],[6.4453921,51.6573154],[6.4453843,51.6573445],[6.4453809,51.6573673],[6.4453932,51.6573857],[6.4454105,51.657403],[6.4453483,51.6574461],[6.4452682,51.6574972],[6.4452408,51.6574813],[6.4452096,51.6574709],[6.4451716,51.6574664],[6.4451331,51.6574639],[6.4450862,51.6574653],[6.4450482,51.6574698],[6.4450228,51.6574757],[6.4449635,51.657449],[6.4449064,51.6574236],[6.4449181,51.657402],[6.4449237,51.6573815],[6.4449226,51.6573607],[6.4449187,51.6573417],[6.4449059,51.6573227],[6.4448763,51.6572988],[6.4448422,51.6572814],[6.4448825,51.6572417],[6.4449339,51.6571954],[6.4449639,51.6571682],[6.4450091,51.6571734],[6.4450454,51.657171],[6.4450778,51.6571637],[6.4451107,51.6571523],[6.4451336,51.6571353],[6.4451437,51.6571249],[6.4452456,51.657143],[6.4453346,51.6571588]]},"properties":{"site":"xanten","name":"","highway":"footway"}},{"type":"Feature","geometry":{"type":"LineString","coordinates":[[6.4385978,51.6613698],[6.4389502,51.6614999],[6.4390927,51.6615553],[6.4391938,51.6616006],[6.4392876,51.6616482],[6.4408576,51.6624995],[6.4409219,51.6625278],[6.4409993,51.6625521],[6.4410778,51.66257],[6.441168,51.6625829],[6.4412591,51.6625879],[6.4413503,51.6625858]]},"properties":{"site":"xanten","name":"","highway":"path"}},{"type":"Feature","geometry":{"type":"LineString","coordinates":[[6.4444204,51.6609484],[6.4445709,51.6609831]]},"properties":{"site":"xanten","name":"","highway":"path"}},{"type":"Feature","geometry":{"type":"LineString","coordinates":[[6.4439028,51.6613271],[6.4439382,51.6612926],[6.4439984,51.6612362],[6.4440789,51.661164],[6.4441287,51.6611234],[6.4441728,51.6610943],[6.4442098,51.6610745],[6.444251,51.6610594],[6.4442886,51.6610465],[6.4443135,51.6610318],[6.4443616,51.6609947],[6.4444204,51.6609484]]},"properties":{"site":"xanten","name":"","highway":"path"}},{"type":"Feature","geometry":{"type":"LineString","coordinates":[[6.4457966,51.6598348],[6.4459944,51.6596987],[6.4460308,51.6596686],[6.4460538,51.6596416],[6.4460577,51.6596175],[6.446057,51.6595624],[6.4460615,51.6595334],[6.4460762,51.6595156],[6.4461139,51.6594878],[6.4472311,51.658666]]},"properties":{"site":"xanten","name":"","highway":"path"}},{"type":"Feature","geometry":{"type":"LineString","coordinates":[[6.4472311,51.658666],[6.4471703,51.6586302]]},"properties":{"site":"xanten","name":"","highway":"path"}},{"type":"Feature","geometry":{"type":"LineString","coordinates":[[6.4469564,51.6585013],[6.4467995,51.6584092]]},"properties":{"site":"xanten","name":"","highway":"path"}},{"type":"Feature","geometry":{"type":"LineString","coordinates":[[6.446903,51.6583298],[6.4470649,51.6584206]]},"properties":{"site":"xanten","name":"","highway":"path"}},{"type":"Feature","geometry":{"type":"LineString","coordinates":[[6.4467995,51.6584092],[6.44686,51.6583677],[6.446903,51.6583298]]},"properties":{"site":"xanten","name":"","highway":"path"}},{"type":"Feature","geometry":{"type":"LineString","coordinates":[[6.4486589,51.6593438],[6.448844,51.6592224],[6.4489863,51.6591249],[6.4488009,51.6590191],[6.4486344,51.6589236],[6.4488281,51.6587871]]},"properties":{"site":"xanten","name":"","highway":"service"}},{"type":"Feature","geometry":{"type":"LineString","coordinates":[[6.4488009,51.6590191],[6.4487366,51.6590618],[6.4486531,51.6591173],[6.4485912,51.6591584],[6.4484674,51.6591771]]},"properties":{"site":"xanten","name":"","highway":"service"}},{"type":"Feature","geometry":{"type":"LineString","coordinates":[[6.4486531,51.6591173],[6.448844,51.6592224]]},"properties":{"site":"xanten","name":"","highway":"service"}},{"type":"Feature","geometry":{"type":"LineString","coordinates":[[6.4510142,51.6594247],[6.4509446,51.6593743]]},"properties":{"site":"xanten","name":"","highway":"footway"}},{"type":"Feature","geometry":{"type":"LineString","coordinates":[[6.4507497,51.6594336],[6.4508154,51.6594747]]},"properties":{"site":"xanten","name":"","highway":"footway"}},{"type":"Feature","geometry":{"type":"LineString","coordinates":[[6.4458767,51.6557399],[6.4458679,51.6557252],[6.4457994,51.6554465]]},"properties":{"site":"xanten","name":"","highway":"footway"}}]}